{"type":"FeatureCollection","features":[{"type":"Feature","geometry":{"type":"Point","coordinates":[3.3278333,51.4096667]},"properties":{"dolphinKind":"buoy-lateral","rawObjectClass":"BOYLAT","sourceProperties":{"RCID":17611,"PRIM":1,"GRUP":2,"OBJL":17,"RVER":1,"AGEN":7979,"FIDN":1106834684,"FIDS":417,"LNAM":"1F2B41F8F4FC01A1","LNAM_REFS":["1F2B41F8F4FC01A2"],"FFPT_RIND":[2],"BOYSHP":2,"CATLAM":1,"COLOUR":["3"],"CONRAD":3,"OBJNAM":"S 14","SCAMIN":200000,"SORDAT":"20040109","sourceCellId":"1R7587XI","sourceChecksum":"a6c84e2f53d9ee12e44e2007675b2202dce91d39f9c8f9b749c71d3dd48bddc6","rawObjectClass":"BOYLAT","sourceStableId":"1F2B41F8F4FC01A1"},"sourceKind":"official","official":true,"sourceCellId":"1R7587XI","sourceStableId":"1F2B41F8F4FC01A1","pipelineFeatureId":"1R7587XI/BOYLAT/17611","provenance":{"cellId":"1R7587XI","checksum":"a6c84e2f53d9ee12e44e2007675b2202dce91d39f9c8f9b749c71d3dd48bddc6","readerVersion":"GDAL 3.2.2","processedAt":"2026-08-11T18:29:20.995Z"}}},{"type":"Feature","geometry":{"type":"Point","coordinates":[3.3278333,51.4096667]},"properties":{"dolphinKind":"light","rawObjectClass":"LIGHTS","sourceProperties":{"RCID":17612,"PRIM":1,"GRUP":2,"OBJL":75,"RVER":1,"AGEN":7979,"FIDN":1106834684,"FIDS":418,"LNAM":"1F2B41F8F4FC01A2","COLOUR":["3"],"LITCHR":2,"SIGGRP":"(1)","SIGPER":5,"SCAMIN":200000,"SORDAT":"20040109","sourceCellId":"1R7587XI","sourceChecksum":"a6c84e2f53d9ee12e44e2007675b2202dce91d39f9c8f9b749c71d3dd48bddc6","rawObjectClass":"LIGHTS","sourceStableId":"1F2B41F8F4FC01A2"},"sourceKind":"official","official":true,"sourceCellId":"1R7587XI","sourceStableId":"1F2B41F8F4FC01A2","pipelineFeatureId":"1R7587XI/LIGHTS/17612","provenance":{"cellId":"1R7587XI","checksum":"a6c84e2f53d9ee12e44e2007675b2202dce91d39f9c8f9b749c71d3dd48bddc6","readerVersion":"GDAL 3.2.2","processedAt":"2026-08-11T18:29:20.995Z"}}}]}