{"type":"FeatureCollection","features":[{"type":"Feature","geometry":{"type":"Point","coordinates":[4.2277017,51.5649883]},"properties":{"dolphinKind":"light","rawObjectClass":"LIGHTS","sourceProperties":{"RCID":19617,"PRIM":1,"GRUP":2,"OBJL":75,"RVER":1,"AGEN":7979,"FIDN":1106834753,"FIDS":318,"LNAM":"1F2B41F8F541013E","COLOUR":["4"],"LITCHR":7,"SIGGRP":"(1)","SIGPER":4,"SCAMIN":200000,"SORDAT":"20180507","SORIND":"NL,1R,Reprt,MD 204-18","sourceCellId":"1R76W8FI","sourceChecksum":"883d6673e852f725a897969627d9287a4846e5eb2837fc1567d066387048b89e","rawObjectClass":"LIGHTS","sourceStableId":"1F2B41F8F541013E"},"sourceKind":"official","official":true,"sourceCellId":"1R76W8FI","sourceStableId":"1F2B41F8F541013E","pipelineFeatureId":"1R76W8FI/LIGHTS/19617","provenance":{"cellId":"1R76W8FI","checksum":"883d6673e852f725a897969627d9287a4846e5eb2837fc1567d066387048b89e","readerVersion":"GDAL 3.2.2","processedAt":"2026-08-11T18:29:20.995Z"}}},{"type":"Feature","geometry":{"type":"Point","coordinates":[4.2294565,51.5607739]},"properties":{"dolphinKind":"light","rawObjectClass":"LIGHTS","sourceProperties":{"RCID":19619,"PRIM":1,"GRUP":2,"OBJL":75,"RVER":1,"AGEN":7979,"FIDN":1106834753,"FIDS":320,"LNAM":"1F2B41F8F5410140","COLOUR":["3"],"LITCHR":7,"SIGGRP":"(1)","SIGPER":4,"SCAMIN":200000,"SORDAT":"20180507","SORIND":"NL,1R,Reprt,MD 205-18","sourceCellId":"1R76W8FI","sourceChecksum":"883d6673e852f725a897969627d9287a4846e5eb2837fc1567d066387048b89e","rawObjectClass":"LIGHTS","sourceStableId":"1F2B41F8F5410140"},"sourceKind":"official","official":true,"sourceCellId":"1R76W8FI","sourceStableId":"1F2B41F8F5410140","pipelineFeatureId":"1R76W8FI/LIGHTS/19619","provenance":{"cellId":"1R76W8FI","checksum":"883d6673e852f725a897969627d9287a4846e5eb2837fc1567d066387048b89e","readerVersion":"GDAL 3.2.2","processedAt":"2026-08-11T18:29:20.995Z"}}},{"type":"Feature","geometry":{"type":"Point","coordinates":[4.2184524,51.5721241]},"properties":{"dolphinKind":"light","rawObjectClass":"LIGHTS","sourceProperties":{"RCID":19626,"PRIM":1,"GRUP":2,"OBJL":75,"RVER":1,"AGEN":7979,"FIDN":1106834753,"FIDS":327,"LNAM":"1F2B41F8F5410147","COLOUR":["4"],"LITCHR":7,"SIGGRP":"(1)","SIGPER":4,"SCAMIN":200000,"SORDAT":"20180507","SORIND":"NL,1R,Reprt,MD 204-18","sourceCellId":"1R76W8FI","sourceChecksum":"883d6673e852f725a897969627d9287a4846e5eb2837fc1567d066387048b89e","rawObjectClass":"LIGHTS","sourceStableId":"1F2B41F8F5410147"},"sourceKind":"official","official":true,"sourceCellId":"1R76W8FI","sourceStableId":"1F2B41F8F5410147","pipelineFeatureId":"1R76W8FI/LIGHTS/19626","provenance":{"cellId":"1R76W8FI","checksum":"883d6673e852f725a897969627d9287a4846e5eb2837fc1567d066387048b89e","readerVersion":"GDAL 3.2.2","processedAt":"2026-08-11T18:29:20.995Z"}}},{"type":"Feature","geometry":{"type":"Point","coordinates":[4.236705,51.5434]},"properties":{"dolphinKind":"light","rawObjectClass":"LIGHTS","sourceProperties":{"RCID":19632,"PRIM":1,"GRUP":2,"OBJL":75,"RVER":1,"AGEN":7979,"FIDN":1106834753,"FIDS":333,"LNAM":"1F2B41F8F541014D","COLOUR":["4"],"LITCHR":7,"SIGGRP":"(1)","SIGPER":4,"SCAMIN":200000,"sourceCellId":"1R76W8FI","sourceChecksum":"883d6673e852f725a897969627d9287a4846e5eb2837fc1567d066387048b89e","rawObjectClass":"LIGHTS","sourceStableId":"1F2B41F8F541014D"},"sourceKind":"official","official":true,"sourceCellId":"1R76W8FI","sourceStableId":"1F2B41F8F541014D","pipelineFeatureId":"1R76W8FI/LIGHTS/19632","provenance":{"cellId":"1R76W8FI","checksum":"883d6673e852f725a897969627d9287a4846e5eb2837fc1567d066387048b89e","readerVersion":"GDAL 3.2.2","processedAt":"2026-08-11T18:29:20.995Z"}}},{"type":"Feature","geometry":{"type":"Point","coordinates":[4.2352906,51.5389565]},"properties":{"dolphinKind":"light","rawObjectClass":"LIGHTS","sourceProperties":{"RCID":20168,"PRIM":1,"GRUP":2,"OBJL":75,"RVER":1,"AGEN":7979,"FIDN":1106834755,"FIDS":359,"LNAM":"1F2B41F8F5430167","COLOUR":["4"],"LITCHR":7,"SIGGRP":"(1)","SIGPER":4,"SCAMIN":200000,"SORDAT":"20180507","SORIND":"NL,1R,Reprt,MD 204-18","sourceCellId":"1R76W8FI","sourceChecksum":"883d6673e852f725a897969627d9287a4846e5eb2837fc1567d066387048b89e","rawObjectClass":"LIGHTS","sourceStableId":"1F2B41F8F5430167"},"sourceKind":"official","official":true,"sourceCellId":"1R76W8FI","sourceStableId":"1F2B41F8F5430167","pipelineFeatureId":"1R76W8FI/LIGHTS/20168","provenance":{"cellId":"1R76W8FI","checksum":"883d6673e852f725a897969627d9287a4846e5eb2837fc1567d066387048b89e","readerVersion":"GDAL 3.2.2","processedAt":"2026-08-11T18:29:20.995Z"}}},{"type":"Feature","geometry":{"type":"Point","coordinates":[4.2241943,51.5307149]},"properties":{"dolphinKind":"light","rawObjectClass":"LIGHTS","sourceProperties":{"RCID":28816,"PRIM":1,"GRUP":2,"OBJL":75,"RVER":1,"AGEN":7979,"FIDN":1132227057,"FIDS":257,"LNAM":"1F2B437C69F10101","COLOUR":["3"],"LITCHR":1,"SCAMIN":200000,"sourceCellId":"1R76W8FI","sourceChecksum":"883d6673e852f725a897969627d9287a4846e5eb2837fc1567d066387048b89e","rawObjectClass":"LIGHTS","sourceStableId":"1F2B437C69F10101"},"sourceKind":"official","official":true,"sourceCellId":"1R76W8FI","sourceStableId":"1F2B437C69F10101","pipelineFeatureId":"1R76W8FI/LIGHTS/28816","provenance":{"cellId":"1R76W8FI","checksum":"883d6673e852f725a897969627d9287a4846e5eb2837fc1567d066387048b89e","readerVersion":"GDAL 3.2.2","processedAt":"2026-08-11T18:29:20.995Z"}}},{"type":"Feature","geometry":{"type":"Point","coordinates":[4.2243779,51.5309645]},"properties":{"dolphinKind":"light","rawObjectClass":"LIGHTS","sourceProperties":{"RCID":28817,"PRIM":1,"GRUP":2,"OBJL":75,"RVER":1,"AGEN":7979,"FIDN":1132227073,"FIDS":257,"LNAM":"1F2B437C6A010101","COLOUR":["4"],"LITCHR":1,"SCAMIN":200000,"sourceCellId":"1R76W8FI","sourceChecksum":"883d6673e852f725a897969627d9287a4846e5eb2837fc1567d066387048b89e","rawObjectClass":"LIGHTS","sourceStableId":"1F2B437C6A010101"},"sourceKind":"official","official":true,"sourceCellId":"1R76W8FI","sourceStableId":"1F2B437C6A010101","pipelineFeatureId":"1R76W8FI/LIGHTS/28817","provenance":{"cellId":"1R76W8FI","checksum":"883d6673e852f725a897969627d9287a4846e5eb2837fc1567d066387048b89e","readerVersion":"GDAL 3.2.2","processedAt":"2026-08-11T18:29:20.995Z"}}},{"type":"Feature","geometry":{"type":"Point","coordinates":[4.23725,51.5480533]},"properties":{"dolphinKind":"light","rawObjectClass":"LIGHTS","sourceProperties":{"RCID":12064028,"PRIM":1,"GRUP":2,"OBJL":75,"RVER":1,"AGEN":7979,"FIDN":12064028,"FIDS":1,"LNAM":"1F2B00B8151C0001","COLOUR":["4"],"LITCHR":7,"SIGGRP":"(1)","SIGPER":4,"SCAMIN":200000,"sourceCellId":"1R76W8FI","sourceChecksum":"883d6673e852f725a897969627d9287a4846e5eb2837fc1567d066387048b89e","rawObjectClass":"LIGHTS","sourceStableId":"1F2B00B8151C0001"},"sourceKind":"official","official":true,"sourceCellId":"1R76W8FI","sourceStableId":"1F2B00B8151C0001","pipelineFeatureId":"1R76W8FI/LIGHTS/12064028","provenance":{"cellId":"1R76W8FI","checksum":"883d6673e852f725a897969627d9287a4846e5eb2837fc1567d066387048b89e","readerVersion":"GDAL 3.2.2","processedAt":"2026-08-11T18:29:20.995Z"}}},{"type":"Feature","geometry":{"type":"Point","coordinates":[4.2347167,51.5572833]},"properties":{"dolphinKind":"light","rawObjectClass":"LIGHTS","sourceProperties":{"RCID":76112996,"PRIM":1,"GRUP":2,"OBJL":75,"RVER":1,"AGEN":7979,"FIDN":76112996,"FIDS":1,"LNAM":"1F2B048964640001","COLOUR":["4"],"LITCHR":7,"SIGGRP":"(1)","SIGPER":4,"SCAMIN":200000,"SORDAT":"20110927","SORIND":"NL,1R,Reprt,Bass 2011/69","sourceCellId":"1R76W8FI","sourceChecksum":"883d6673e852f725a897969627d9287a4846e5eb2837fc1567d066387048b89e","rawObjectClass":"LIGHTS","sourceStableId":"1F2B048964640001"},"sourceKind":"official","official":true,"sourceCellId":"1R76W8FI","sourceStableId":"1F2B048964640001","pipelineFeatureId":"1R76W8FI/LIGHTS/76112996","provenance":{"cellId":"1R76W8FI","checksum":"883d6673e852f725a897969627d9287a4846e5eb2837fc1567d066387048b89e","readerVersion":"GDAL 3.2.2","processedAt":"2026-08-11T18:29:20.995Z"}}},{"type":"Feature","geometry":{"type":"Point","coordinates":[4.22595,51.5265767]},"properties":{"dolphinKind":"light","rawObjectClass":"LIGHTS","sourceProperties":{"RCID":1178869615,"PRIM":1,"GRUP":2,"OBJL":75,"RVER":1,"AGEN":7979,"FIDN":1178869615,"FIDS":1,"LNAM":"1F2B46441F6F0001","COLOUR":["3"],"LITCHR":7,"SIGGRP":"(1)","SIGPER":4,"SCAMIN":200000,"SORDAT":"20240212","SORIND":"NL,1R,reprt,MD 072-24","sourceCellId":"1R76W8FI","sourceChecksum":"883d6673e852f725a897969627d9287a4846e5eb2837fc1567d066387048b89e","rawObjectClass":"LIGHTS","sourceStableId":"1F2B46441F6F0001"},"sourceKind":"official","official":true,"sourceCellId":"1R76W8FI","sourceStableId":"1F2B46441F6F0001","pipelineFeatureId":"1R76W8FI/LIGHTS/1178869615","provenance":{"cellId":"1R76W8FI","checksum":"883d6673e852f725a897969627d9287a4846e5eb2837fc1567d066387048b89e","readerVersion":"GDAL 3.2.2","processedAt":"2026-08-11T18:29:20.995Z"}}},{"type":"Feature","geometry":{"type":"Point","coordinates":[4.2307183,51.53505]},"properties":{"dolphinKind":"light","rawObjectClass":"LIGHTS","sourceProperties":{"RCID":1178869616,"PRIM":1,"GRUP":2,"OBJL":75,"RVER":1,"AGEN":7979,"FIDN":1178869616,"FIDS":1,"LNAM":"1F2B46441F700001","COLOUR":["3"],"LITCHR":7,"SIGGRP":"(1)","SIGPER":4,"SCAMIN":200000,"SORDAT":"20240212","SORIND":"NL,1R,reprt,MD 072-24","sourceCellId":"1R76W8FI","sourceChecksum":"883d6673e852f725a897969627d9287a4846e5eb2837fc1567d066387048b89e","rawObjectClass":"LIGHTS","sourceStableId":"1F2B46441F700001"},"sourceKind":"official","official":true,"sourceCellId":"1R76W8FI","sourceStableId":"1F2B46441F700001","pipelineFeatureId":"1R76W8FI/LIGHTS/1178869616","provenance":{"cellId":"1R76W8FI","checksum":"883d6673e852f725a897969627d9287a4846e5eb2837fc1567d066387048b89e","readerVersion":"GDAL 3.2.2","processedAt":"2026-08-11T18:29:20.995Z"}}},{"type":"Feature","geometry":{"type":"Point","coordinates":[4.233005,51.5393067]},"properties":{"dolphinKind":"light","rawObjectClass":"LIGHTS","sourceProperties":{"RCID":1178869617,"PRIM":1,"GRUP":2,"OBJL":75,"RVER":1,"AGEN":7979,"FIDN":1178869617,"FIDS":1,"LNAM":"1F2B46441F710001","COLOUR":["3"],"LITCHR":7,"SIGGRP":"(1)","SIGPER":4,"SCAMIN":200000,"SORDAT":"20240212","SORIND":"NL,1R,reprt,MD 072-24","sourceCellId":"1R76W8FI","sourceChecksum":"883d6673e852f725a897969627d9287a4846e5eb2837fc1567d066387048b89e","rawObjectClass":"LIGHTS","sourceStableId":"1F2B46441F710001"},"sourceKind":"official","official":true,"sourceCellId":"1R76W8FI","sourceStableId":"1F2B46441F710001","pipelineFeatureId":"1R76W8FI/LIGHTS/1178869617","provenance":{"cellId":"1R76W8FI","checksum":"883d6673e852f725a897969627d9287a4846e5eb2837fc1567d066387048b89e","readerVersion":"GDAL 3.2.2","processedAt":"2026-08-11T18:29:20.995Z"}}},{"type":"Feature","geometry":{"type":"Point","coordinates":[4.23477,51.5436283]},"properties":{"dolphinKind":"light","rawObjectClass":"LIGHTS","sourceProperties":{"RCID":1178869618,"PRIM":1,"GRUP":2,"OBJL":75,"RVER":1,"AGEN":7979,"FIDN":1178869618,"FIDS":1,"LNAM":"1F2B46441F720001","COLOUR":["3"],"LITCHR":7,"SIGGRP":"(1)","SIGPER":4,"SCAMIN":200000,"SORDAT":"20240212","SORIND":"NL,1R,reprt,MD 072-24","sourceCellId":"1R76W8FI","sourceChecksum":"883d6673e852f725a897969627d9287a4846e5eb2837fc1567d066387048b89e","rawObjectClass":"LIGHTS","sourceStableId":"1F2B46441F720001"},"sourceKind":"official","official":true,"sourceCellId":"1R76W8FI","sourceStableId":"1F2B46441F720001","pipelineFeatureId":"1R76W8FI/LIGHTS/1178869618","provenance":{"cellId":"1R76W8FI","checksum":"883d6673e852f725a897969627d9287a4846e5eb2837fc1567d066387048b89e","readerVersion":"GDAL 3.2.2","processedAt":"2026-08-11T18:29:20.995Z"}}},{"type":"Feature","geometry":{"type":"Point","coordinates":[4.23534,51.5481283]},"properties":{"dolphinKind":"light","rawObjectClass":"LIGHTS","sourceProperties":{"RCID":1178869619,"PRIM":1,"GRUP":2,"OBJL":75,"RVER":1,"AGEN":7979,"FIDN":1178869619,"FIDS":1,"LNAM":"1F2B46441F730001","COLOUR":["3"],"LITCHR":7,"SIGGRP":"(1)","SIGPER":4,"SCAMIN":200000,"SORDAT":"20240212","SORIND":"NL,1R,reprt,MD 072-24","sourceCellId":"1R76W8FI","sourceChecksum":"883d6673e852f725a897969627d9287a4846e5eb2837fc1567d066387048b89e","rawObjectClass":"LIGHTS","sourceStableId":"1F2B46441F730001"},"sourceKind":"official","official":true,"sourceCellId":"1R76W8FI","sourceStableId":"1F2B46441F730001","pipelineFeatureId":"1R76W8FI/LIGHTS/1178869619","provenance":{"cellId":"1R76W8FI","checksum":"883d6673e852f725a897969627d9287a4846e5eb2837fc1567d066387048b89e","readerVersion":"GDAL 3.2.2","processedAt":"2026-08-11T18:29:20.995Z"}}},{"type":"Feature","geometry":{"type":"Point","coordinates":[4.2346183,51.5525683]},"properties":{"dolphinKind":"light","rawObjectClass":"LIGHTS","sourceProperties":{"RCID":1178869620,"PRIM":1,"GRUP":2,"OBJL":75,"RVER":1,"AGEN":7979,"FIDN":1178869620,"FIDS":1,"LNAM":"1F2B46441F740001","COLOUR":["3"],"LITCHR":7,"SIGGRP":"(1)","SIGPER":4,"SCAMIN":200000,"SORDAT":"20240212","SORIND":"NL,1R,reprt,MD 072-24","sourceCellId":"1R76W8FI","sourceChecksum":"883d6673e852f725a897969627d9287a4846e5eb2837fc1567d066387048b89e","rawObjectClass":"LIGHTS","sourceStableId":"1F2B46441F740001"},"sourceKind":"official","official":true,"sourceCellId":"1R76W8FI","sourceStableId":"1F2B46441F740001","pipelineFeatureId":"1R76W8FI/LIGHTS/1178869620","provenance":{"cellId":"1R76W8FI","checksum":"883d6673e852f725a897969627d9287a4846e5eb2837fc1567d066387048b89e","readerVersion":"GDAL 3.2.2","processedAt":"2026-08-11T18:29:20.995Z"}}},{"type":"Feature","geometry":{"type":"Point","coordinates":[4.2328,51.5568917]},"properties":{"dolphinKind":"light","rawObjectClass":"LIGHTS","sourceProperties":{"RCID":1178869621,"PRIM":1,"GRUP":2,"OBJL":75,"RVER":1,"AGEN":7979,"FIDN":1178869621,"FIDS":1,"LNAM":"1F2B46441F750001","COLOUR":["3"],"LITCHR":7,"SIGGRP":"(1)","SIGPER":4,"SCAMIN":200000,"SORDAT":"20240212","SORIND":"NL,1R,reprt,MD 072-24","sourceCellId":"1R76W8FI","sourceChecksum":"883d6673e852f725a897969627d9287a4846e5eb2837fc1567d066387048b89e","rawObjectClass":"LIGHTS","sourceStableId":"1F2B46441F750001"},"sourceKind":"official","official":true,"sourceCellId":"1R76W8FI","sourceStableId":"1F2B46441F750001","pipelineFeatureId":"1R76W8FI/LIGHTS/1178869621","provenance":{"cellId":"1R76W8FI","checksum":"883d6673e852f725a897969627d9287a4846e5eb2837fc1567d066387048b89e","readerVersion":"GDAL 3.2.2","processedAt":"2026-08-11T18:29:20.995Z"}}},{"type":"Feature","geometry":{"type":"Point","coordinates":[4.226105,51.5643467]},"properties":{"dolphinKind":"light","rawObjectClass":"LIGHTS","sourceProperties":{"RCID":1178869622,"PRIM":1,"GRUP":2,"OBJL":75,"RVER":1,"AGEN":7979,"FIDN":1178869622,"FIDS":1,"LNAM":"1F2B46441F760001","COLOUR":["3"],"LITCHR":7,"SIGGRP":"(1)","SIGPER":4,"SCAMIN":200000,"SORDAT":"20240212","SORIND":"NL,1R,reprt,MD 072-24","sourceCellId":"1R76W8FI","sourceChecksum":"883d6673e852f725a897969627d9287a4846e5eb2837fc1567d066387048b89e","rawObjectClass":"LIGHTS","sourceStableId":"1F2B46441F760001"},"sourceKind":"official","official":true,"sourceCellId":"1R76W8FI","sourceStableId":"1F2B46441F760001","pipelineFeatureId":"1R76W8FI/LIGHTS/1178869622","provenance":{"cellId":"1R76W8FI","checksum":"883d6673e852f725a897969627d9287a4846e5eb2837fc1567d066387048b89e","readerVersion":"GDAL 3.2.2","processedAt":"2026-08-11T18:29:20.995Z"}}},{"type":"Feature","geometry":{"type":"Point","coordinates":[4.2169167,51.5714183]},"properties":{"dolphinKind":"light","rawObjectClass":"LIGHTS","sourceProperties":{"RCID":1178869623,"PRIM":1,"GRUP":2,"OBJL":75,"RVER":1,"AGEN":7979,"FIDN":1178869623,"FIDS":1,"LNAM":"1F2B46441F770001","COLOUR":["3"],"LITCHR":7,"SIGGRP":"(1)","SIGPER":4,"SCAMIN":200000,"SORDAT":"20240212","SORIND":"NL,1R,reprt,MD 072-24","sourceCellId":"1R76W8FI","sourceChecksum":"883d6673e852f725a897969627d9287a4846e5eb2837fc1567d066387048b89e","rawObjectClass":"LIGHTS","sourceStableId":"1F2B46441F770001"},"sourceKind":"official","official":true,"sourceCellId":"1R76W8FI","sourceStableId":"1F2B46441F770001","pipelineFeatureId":"1R76W8FI/LIGHTS/1178869623","provenance":{"cellId":"1R76W8FI","checksum":"883d6673e852f725a897969627d9287a4846e5eb2837fc1567d066387048b89e","readerVersion":"GDAL 3.2.2","processedAt":"2026-08-11T18:29:20.995Z"}}},{"type":"Feature","geometry":{"type":"Point","coordinates":[4.232405,51.5346817]},"properties":{"dolphinKind":"light","rawObjectClass":"LIGHTS","sourceProperties":{"RCID":1178929351,"PRIM":1,"GRUP":2,"OBJL":75,"RVER":1,"AGEN":7979,"FIDN":1178929351,"FIDS":1,"LNAM":"1F2B464508C70001","COLOUR":["4"],"LITCHR":7,"SIGGRP":"(1)","SIGPER":4,"SCAMIN":200000,"sourceCellId":"1R76W8FI","sourceChecksum":"883d6673e852f725a897969627d9287a4846e5eb2837fc1567d066387048b89e","rawObjectClass":"LIGHTS","sourceStableId":"1F2B464508C70001"},"sourceKind":"official","official":true,"sourceCellId":"1R76W8FI","sourceStableId":"1F2B464508C70001","pipelineFeatureId":"1R76W8FI/LIGHTS/1178929351","provenance":{"cellId":"1R76W8FI","checksum":"883d6673e852f725a897969627d9287a4846e5eb2837fc1567d066387048b89e","readerVersion":"GDAL 3.2.2","processedAt":"2026-08-11T18:29:20.995Z"}}},{"type":"Feature","geometry":{"type":"Point","coordinates":[4.2275983,51.52617]},"properties":{"dolphinKind":"light","rawObjectClass":"LIGHTS","sourceProperties":{"RCID":1178929352,"PRIM":1,"GRUP":2,"OBJL":75,"RVER":1,"AGEN":7979,"FIDN":1178929352,"FIDS":1,"LNAM":"1F2B464508C80001","COLOUR":["4"],"LITCHR":7,"SIGGRP":"(1)","SIGPER":4,"SCAMIN":200000,"sourceCellId":"1R76W8FI","sourceChecksum":"883d6673e852f725a897969627d9287a4846e5eb2837fc1567d066387048b89e","rawObjectClass":"LIGHTS","sourceStableId":"1F2B464508C80001"},"sourceKind":"official","official":true,"sourceCellId":"1R76W8FI","sourceStableId":"1F2B464508C80001","pipelineFeatureId":"1R76W8FI/LIGHTS/1178929352","provenance":{"cellId":"1R76W8FI","checksum":"883d6673e852f725a897969627d9287a4846e5eb2837fc1567d066387048b89e","readerVersion":"GDAL 3.2.2","processedAt":"2026-08-11T18:29:20.995Z"}}},{"type":"Feature","geometry":{"type":"Point","coordinates":[4.2225233,51.52805]},"properties":{"dolphinKind":"topmark","rawObjectClass":"TOPMAR","sourceProperties":{"RCID":18986,"PRIM":1,"GRUP":2,"OBJL":144,"RVER":1,"AGEN":7979,"FIDN":1106834730,"FIDS":469,"LNAM":"1F2B41F8F52A01D5","COLOUR":["4"],"TOPSHP":1,"SCAMIN":200000,"sourceCellId":"1R76W8FI","sourceChecksum":"883d6673e852f725a897969627d9287a4846e5eb2837fc1567d066387048b89e","rawObjectClass":"TOPMAR","sourceStableId":"1F2B41F8F52A01D5"},"sourceKind":"official","official":true,"sourceCellId":"1R76W8FI","sourceStableId":"1F2B41F8F52A01D5","pipelineFeatureId":"1R76W8FI/TOPMAR/18986","provenance":{"cellId":"1R76W8FI","checksum":"883d6673e852f725a897969627d9287a4846e5eb2837fc1567d066387048b89e","readerVersion":"GDAL 3.2.2","processedAt":"2026-08-11T18:29:20.995Z"},"associationRefsVerifiedInGdalOutput":false}}]}