{"type":"FeatureCollection","features":[{"type":"Feature","geometry":{"type":"Point","coordinates":[4.2063833,51.4743167]},"properties":{"dolphinKind":"buoy-special","rawObjectClass":"BOYSPP","sourceProperties":{"RCID":219438665,"PRIM":1,"GRUP":2,"OBJL":19,"RVER":1,"AGEN":7979,"FIDN":219438665,"FIDS":1,"LNAM":"1F2B0D145E490001","BOYSHP":5,"CATSPM":["12"],"COLOUR":["6"],"OBJNAM":"OE A","INFORM":"Kitesurfing area","NINFOM":"Kitesurfgebied","SCAMIN":200000,"SORDAT":"20170517","SORIND":"NL,1R,reprt,MD 195-17","sourceCellId":"1R76W83I","sourceChecksum":"ed4dec07eb369cbc02e48b360840babacfec4706d9d0d984501ce13efbb796f7","rawObjectClass":"BOYSPP","sourceStableId":"1F2B0D145E490001"},"sourceKind":"official","official":true,"sourceCellId":"1R76W83I","sourceStableId":"1F2B0D145E490001","pipelineFeatureId":"1R76W83I/BOYSPP/219438665","provenance":{"cellId":"1R76W83I","checksum":"ed4dec07eb369cbc02e48b360840babacfec4706d9d0d984501ce13efbb796f7","readerVersion":"GDAL 3.2.2","processedAt":"2026-08-11T13:43:44.753Z"}}},{"type":"Feature","geometry":{"type":"Point","coordinates":[4.2084667,51.4631667]},"properties":{"dolphinKind":"buoy-special","rawObjectClass":"BOYSPP","sourceProperties":{"RCID":219438666,"PRIM":1,"GRUP":2,"OBJL":19,"RVER":1,"AGEN":7979,"FIDN":219438666,"FIDS":1,"LNAM":"1F2B0D145E4A0001","BOYSHP":5,"CATSPM":["12"],"COLOUR":["6"],"OBJNAM":"OE B","INFORM":"Kitesurfing area","NINFOM":"Kitesurfgebied","SCAMIN":200000,"SORDAT":"20170517","SORIND":"NL,1R,reprt,MD 195-17","sourceCellId":"1R76W83I","sourceChecksum":"ed4dec07eb369cbc02e48b360840babacfec4706d9d0d984501ce13efbb796f7","rawObjectClass":"BOYSPP","sourceStableId":"1F2B0D145E4A0001"},"sourceKind":"official","official":true,"sourceCellId":"1R76W83I","sourceStableId":"1F2B0D145E4A0001","pipelineFeatureId":"1R76W83I/BOYSPP/219438666","provenance":{"cellId":"1R76W83I","checksum":"ed4dec07eb369cbc02e48b360840babacfec4706d9d0d984501ce13efbb796f7","readerVersion":"GDAL 3.2.2","processedAt":"2026-08-11T13:43:44.753Z"}}},{"type":"Feature","geometry":{"type":"Point","coordinates":[4.2327039,51.430471]},"properties":{"dolphinKind":"light","rawObjectClass":"LIGHTS","sourceProperties":{"RCID":14300,"PRIM":1,"GRUP":2,"OBJL":75,"RVER":1,"AGEN":7979,"FIDN":1106210693,"FIDS":302,"LNAM":"1F2B41EF6F85012E","COLOUR":["3"],"LITCHR":7,"SIGGRP":"(1)","SIGPER":4,"SCAMIN":200000,"sourceCellId":"1R76W83I","sourceChecksum":"ed4dec07eb369cbc02e48b360840babacfec4706d9d0d984501ce13efbb796f7","rawObjectClass":"LIGHTS","sourceStableId":"1F2B41EF6F85012E"},"sourceKind":"official","official":true,"sourceCellId":"1R76W83I","sourceStableId":"1F2B41EF6F85012E","pipelineFeatureId":"1R76W83I/LIGHTS/14300","provenance":{"cellId":"1R76W83I","checksum":"ed4dec07eb369cbc02e48b360840babacfec4706d9d0d984501ce13efbb796f7","readerVersion":"GDAL 3.2.2","processedAt":"2026-08-11T13:43:44.753Z"}}},{"type":"Feature","geometry":{"type":"Point","coordinates":[4.233489,51.4261296]},"properties":{"dolphinKind":"light","rawObjectClass":"LIGHTS","sourceProperties":{"RCID":14302,"PRIM":1,"GRUP":2,"OBJL":75,"RVER":1,"AGEN":7979,"FIDN":1106210693,"FIDS":304,"LNAM":"1F2B41EF6F850130","COLOUR":["3"],"LITCHR":7,"SIGGRP":"(1)","SIGPER":4,"SCAMIN":200000,"sourceCellId":"1R76W83I","sourceChecksum":"ed4dec07eb369cbc02e48b360840babacfec4706d9d0d984501ce13efbb796f7","rawObjectClass":"LIGHTS","sourceStableId":"1F2B41EF6F850130"},"sourceKind":"official","official":true,"sourceCellId":"1R76W83I","sourceStableId":"1F2B41EF6F850130","pipelineFeatureId":"1R76W83I/LIGHTS/14302","provenance":{"cellId":"1R76W83I","checksum":"ed4dec07eb369cbc02e48b360840babacfec4706d9d0d984501ce13efbb796f7","readerVersion":"GDAL 3.2.2","processedAt":"2026-08-11T13:43:44.753Z"}}},{"type":"Feature","geometry":{"type":"Point","coordinates":[4.2351226,51.430416]},"properties":{"dolphinKind":"light","rawObjectClass":"LIGHTS","sourceProperties":{"RCID":14356,"PRIM":1,"GRUP":2,"OBJL":75,"RVER":1,"AGEN":7979,"FIDN":1106210693,"FIDS":358,"LNAM":"1F2B41EF6F850166","COLOUR":["4"],"LITCHR":7,"SIGGRP":"(1)","SIGPER":4,"SCAMIN":200000,"sourceCellId":"1R76W83I","sourceChecksum":"ed4dec07eb369cbc02e48b360840babacfec4706d9d0d984501ce13efbb796f7","rawObjectClass":"LIGHTS","sourceStableId":"1F2B41EF6F850166"},"sourceKind":"official","official":true,"sourceCellId":"1R76W83I","sourceStableId":"1F2B41EF6F850166","pipelineFeatureId":"1R76W83I/LIGHTS/14356","provenance":{"cellId":"1R76W83I","checksum":"ed4dec07eb369cbc02e48b360840babacfec4706d9d0d984501ce13efbb796f7","readerVersion":"GDAL 3.2.2","processedAt":"2026-08-11T13:43:44.753Z"}}},{"type":"Feature","geometry":{"type":"Point","coordinates":[4.2360637,51.4263272]},"properties":{"dolphinKind":"light","rawObjectClass":"LIGHTS","sourceProperties":{"RCID":14358,"PRIM":1,"GRUP":2,"OBJL":75,"RVER":1,"AGEN":7979,"FIDN":1106210693,"FIDS":360,"LNAM":"1F2B41EF6F850168","COLOUR":["4"],"LITCHR":7,"SIGGRP":"(1)","SIGPER":4,"SCAMIN":200000,"sourceCellId":"1R76W83I","sourceChecksum":"ed4dec07eb369cbc02e48b360840babacfec4706d9d0d984501ce13efbb796f7","rawObjectClass":"LIGHTS","sourceStableId":"1F2B41EF6F850168"},"sourceKind":"official","official":true,"sourceCellId":"1R76W83I","sourceStableId":"1F2B41EF6F850168","pipelineFeatureId":"1R76W83I/LIGHTS/14358","provenance":{"cellId":"1R76W83I","checksum":"ed4dec07eb369cbc02e48b360840babacfec4706d9d0d984501ce13efbb796f7","readerVersion":"GDAL 3.2.2","processedAt":"2026-08-11T13:43:44.753Z"}}},{"type":"Feature","geometry":{"type":"Point","coordinates":[4.2258361,51.4630519]},"properties":{"dolphinKind":"light","rawObjectClass":"LIGHTS","sourceProperties":{"RCID":16868,"PRIM":1,"GRUP":2,"OBJL":75,"RVER":1,"AGEN":7979,"FIDN":1106834597,"FIDS":499,"LNAM":"1F2B41F8F4A501F3","COLOUR":["6"],"LITCHR":1,"SCAMIN":200000,"sourceCellId":"1R76W83I","sourceChecksum":"ed4dec07eb369cbc02e48b360840babacfec4706d9d0d984501ce13efbb796f7","rawObjectClass":"LIGHTS","sourceStableId":"1F2B41F8F4A501F3"},"sourceKind":"official","official":true,"sourceCellId":"1R76W83I","sourceStableId":"1F2B41F8F4A501F3","pipelineFeatureId":"1R76W83I/LIGHTS/16868","provenance":{"cellId":"1R76W83I","checksum":"ed4dec07eb369cbc02e48b360840babacfec4706d9d0d984501ce13efbb796f7","readerVersion":"GDAL 3.2.2","processedAt":"2026-08-11T13:43:44.753Z"}}},{"type":"Feature","geometry":{"type":"Point","coordinates":[4.2251733,51.4676383]},"properties":{"dolphinKind":"light","rawObjectClass":"LIGHTS","sourceProperties":{"RCID":19643,"PRIM":1,"GRUP":2,"OBJL":75,"RVER":1,"AGEN":7979,"FIDN":1106834753,"FIDS":344,"LNAM":"1F2B41F8F5410158","COLOUR":["3"],"LITCHR":7,"SIGGRP":"(1)","SIGPER":4,"SCAMIN":200000,"SORDAT":"20100312","SORIND":"1R,NL,Reprt,NavBer 2010/26","sourceCellId":"1R76W83I","sourceChecksum":"ed4dec07eb369cbc02e48b360840babacfec4706d9d0d984501ce13efbb796f7","rawObjectClass":"LIGHTS","sourceStableId":"1F2B41F8F5410158"},"sourceKind":"official","official":true,"sourceCellId":"1R76W83I","sourceStableId":"1F2B41F8F5410158","pipelineFeatureId":"1R76W83I/LIGHTS/19643","provenance":{"cellId":"1R76W83I","checksum":"ed4dec07eb369cbc02e48b360840babacfec4706d9d0d984501ce13efbb796f7","readerVersion":"GDAL 3.2.2","processedAt":"2026-08-11T13:43:44.753Z"}}},{"type":"Feature","geometry":{"type":"Point","coordinates":[4.2262631,51.4618541]},"properties":{"dolphinKind":"light","rawObjectClass":"LIGHTS","sourceProperties":{"RCID":19644,"PRIM":1,"GRUP":2,"OBJL":75,"RVER":1,"AGEN":7979,"FIDN":1106834753,"FIDS":345,"LNAM":"1F2B41F8F5410159","COLOUR":["4"],"LITCHR":1,"INFORM":"Foglight","SCAMIN":200000,"sourceCellId":"1R76W83I","sourceChecksum":"ed4dec07eb369cbc02e48b360840babacfec4706d9d0d984501ce13efbb796f7","rawObjectClass":"LIGHTS","sourceStableId":"1F2B41F8F5410159"},"sourceKind":"official","official":true,"sourceCellId":"1R76W83I","sourceStableId":"1F2B41F8F5410159","pipelineFeatureId":"1R76W83I/LIGHTS/19644","provenance":{"cellId":"1R76W83I","checksum":"ed4dec07eb369cbc02e48b360840babacfec4706d9d0d984501ce13efbb796f7","readerVersion":"GDAL 3.2.2","processedAt":"2026-08-11T13:43:44.753Z"}}},{"type":"Feature","geometry":{"type":"Point","coordinates":[4.2296769,51.458944]},"properties":{"dolphinKind":"light","rawObjectClass":"LIGHTS","sourceProperties":{"RCID":19645,"PRIM":1,"GRUP":2,"OBJL":75,"RVER":1,"AGEN":7979,"FIDN":1106834753,"FIDS":346,"LNAM":"1F2B41F8F541015A","COLOUR":["3"],"LITCHR":1,"INFORM":"Foglight","SCAMIN":200000,"sourceCellId":"1R76W83I","sourceChecksum":"ed4dec07eb369cbc02e48b360840babacfec4706d9d0d984501ce13efbb796f7","rawObjectClass":"LIGHTS","sourceStableId":"1F2B41F8F541015A"},"sourceKind":"official","official":true,"sourceCellId":"1R76W83I","sourceStableId":"1F2B41F8F541015A","pipelineFeatureId":"1R76W83I/LIGHTS/19645","provenance":{"cellId":"1R76W83I","checksum":"ed4dec07eb369cbc02e48b360840babacfec4706d9d0d984501ce13efbb796f7","readerVersion":"GDAL 3.2.2","processedAt":"2026-08-11T13:43:44.753Z"}}},{"type":"Feature","geometry":{"type":"Point","coordinates":[4.22795,51.4678833]},"properties":{"dolphinKind":"light","rawObjectClass":"LIGHTS","sourceProperties":{"RCID":25259,"PRIM":1,"GRUP":2,"OBJL":75,"RVER":1,"AGEN":7979,"FIDN":1111061244,"FIDS":257,"LNAM":"1F2B423972FC0101","COLOUR":["4"],"LITCHR":1,"SCAMIN":200000,"SORDAT":"20050302","sourceCellId":"1R76W83I","sourceChecksum":"ed4dec07eb369cbc02e48b360840babacfec4706d9d0d984501ce13efbb796f7","rawObjectClass":"LIGHTS","sourceStableId":"1F2B423972FC0101"},"sourceKind":"official","official":true,"sourceCellId":"1R76W83I","sourceStableId":"1F2B423972FC0101","pipelineFeatureId":"1R76W83I/LIGHTS/25259","provenance":{"cellId":"1R76W83I","checksum":"ed4dec07eb369cbc02e48b360840babacfec4706d9d0d984501ce13efbb796f7","readerVersion":"GDAL 3.2.2","processedAt":"2026-08-11T13:43:44.753Z"}}},{"type":"Feature","geometry":{"type":"Point","coordinates":[4.201029,51.4735428]},"properties":{"dolphinKind":"topmark","rawObjectClass":"TOPMAR","sourceProperties":{"RCID":18289,"PRIM":1,"GRUP":2,"OBJL":144,"RVER":1,"AGEN":7979,"FIDN":1106834728,"FIDS":282,"LNAM":"1F2B41F8F528011A","COLOUR":["4"],"TOPSHP":1,"SCAMIN":200000,"sourceCellId":"1R76W83I","sourceChecksum":"ed4dec07eb369cbc02e48b360840babacfec4706d9d0d984501ce13efbb796f7","rawObjectClass":"TOPMAR","sourceStableId":"1F2B41F8F528011A"},"sourceKind":"official","official":true,"sourceCellId":"1R76W83I","sourceStableId":"1F2B41F8F528011A","pipelineFeatureId":"1R76W83I/TOPMAR/18289","provenance":{"cellId":"1R76W83I","checksum":"ed4dec07eb369cbc02e48b360840babacfec4706d9d0d984501ce13efbb796f7","readerVersion":"GDAL 3.2.2","processedAt":"2026-08-11T13:43:44.753Z"},"associationRefsVerifiedInGdalOutput":false}},{"type":"Feature","geometry":{"type":"Point","coordinates":[4.1706883,51.464005]},"properties":{"dolphinKind":"topmark","rawObjectClass":"TOPMAR","sourceProperties":{"RCID":18306,"PRIM":1,"GRUP":2,"OBJL":144,"RVER":1,"AGEN":7979,"FIDN":1106834728,"FIDS":299,"LNAM":"1F2B41F8F528012B","COLOUR":["3"],"TOPSHP":5,"SCAMIN":200000,"SORIND":"NL,1R,Reprt,MZ123","sourceCellId":"1R76W83I","sourceChecksum":"ed4dec07eb369cbc02e48b360840babacfec4706d9d0d984501ce13efbb796f7","rawObjectClass":"TOPMAR","sourceStableId":"1F2B41F8F528012B"},"sourceKind":"official","official":true,"sourceCellId":"1R76W83I","sourceStableId":"1F2B41F8F528012B","pipelineFeatureId":"1R76W83I/TOPMAR/18306","provenance":{"cellId":"1R76W83I","checksum":"ed4dec07eb369cbc02e48b360840babacfec4706d9d0d984501ce13efbb796f7","readerVersion":"GDAL 3.2.2","processedAt":"2026-08-11T13:43:44.753Z"},"associationRefsVerifiedInGdalOutput":false}},{"type":"Feature","geometry":{"type":"Point","coordinates":[4.2326667,51.4557167]},"properties":{"dolphinKind":"topmark","rawObjectClass":"TOPMAR","sourceProperties":{"RCID":438570452,"PRIM":1,"GRUP":2,"OBJL":144,"RVER":1,"AGEN":7979,"FIDN":438570452,"FIDS":1,"LNAM":"1F2B1A240DD40001","COLOUR":["4"],"TOPSHP":1,"SCAMIN":200000,"sourceCellId":"1R76W83I","sourceChecksum":"ed4dec07eb369cbc02e48b360840babacfec4706d9d0d984501ce13efbb796f7","rawObjectClass":"TOPMAR","sourceStableId":"1F2B1A240DD40001"},"sourceKind":"official","official":true,"sourceCellId":"1R76W83I","sourceStableId":"1F2B1A240DD40001","pipelineFeatureId":"1R76W83I/TOPMAR/438570452","provenance":{"cellId":"1R76W83I","checksum":"ed4dec07eb369cbc02e48b360840babacfec4706d9d0d984501ce13efbb796f7","readerVersion":"GDAL 3.2.2","processedAt":"2026-08-11T13:43:44.753Z"},"associationRefsVerifiedInGdalOutput":false}},{"type":"Feature","geometry":{"type":"Point","coordinates":[4.232,51.45655]},"properties":{"dolphinKind":"topmark","rawObjectClass":"TOPMAR","sourceProperties":{"RCID":438570453,"PRIM":1,"GRUP":2,"OBJL":144,"RVER":1,"AGEN":7979,"FIDN":438570453,"FIDS":1,"LNAM":"1F2B1A240DD50001","COLOUR":["3"],"TOPSHP":5,"SCAMIN":200000,"sourceCellId":"1R76W83I","sourceChecksum":"ed4dec07eb369cbc02e48b360840babacfec4706d9d0d984501ce13efbb796f7","rawObjectClass":"TOPMAR","sourceStableId":"1F2B1A240DD50001"},"sourceKind":"official","official":true,"sourceCellId":"1R76W83I","sourceStableId":"1F2B1A240DD50001","pipelineFeatureId":"1R76W83I/TOPMAR/438570453","provenance":{"cellId":"1R76W83I","checksum":"ed4dec07eb369cbc02e48b360840babacfec4706d9d0d984501ce13efbb796f7","readerVersion":"GDAL 3.2.2","processedAt":"2026-08-11T13:43:44.753Z"},"associationRefsVerifiedInGdalOutput":false}},{"type":"Feature","geometry":{"type":"Point","coordinates":[4.2334333,51.4550333]},"properties":{"dolphinKind":"topmark","rawObjectClass":"TOPMAR","sourceProperties":{"RCID":438570455,"PRIM":1,"GRUP":2,"OBJL":144,"RVER":1,"AGEN":7979,"FIDN":438570455,"FIDS":1,"LNAM":"1F2B1A240DD70001","COLOUR":["4"],"TOPSHP":1,"SCAMIN":200000,"SORDAT":"20231025","SORIND":"NL,1R,Reprt,ENCverbetering","sourceCellId":"1R76W83I","sourceChecksum":"ed4dec07eb369cbc02e48b360840babacfec4706d9d0d984501ce13efbb796f7","rawObjectClass":"TOPMAR","sourceStableId":"1F2B1A240DD70001"},"sourceKind":"official","official":true,"sourceCellId":"1R76W83I","sourceStableId":"1F2B1A240DD70001","pipelineFeatureId":"1R76W83I/TOPMAR/438570455","provenance":{"cellId":"1R76W83I","checksum":"ed4dec07eb369cbc02e48b360840babacfec4706d9d0d984501ce13efbb796f7","readerVersion":"GDAL 3.2.2","processedAt":"2026-08-11T13:43:44.753Z"},"associationRefsVerifiedInGdalOutput":false}}]}