{"type":"FeatureCollection","features":[{"type":"Feature","geometry":{"type":"Point","coordinates":[3.839445,51.8183333]},"properties":{"dolphinKind":"beacon-special","rawObjectClass":"BCNSPP","sourceProperties":{"RCID":406940455,"PRIM":1,"GRUP":2,"OBJL":9,"RVER":1,"AGEN":7979,"FIDN":406940455,"FIDS":1,"LNAM":"1F2B18416B270001","BCNSHP":1,"CATSPM":["52"],"COLOUR":["2"],"CONRAD":2,"SCAMIN":119999,"sourceCellId":"1R76899I","sourceChecksum":"0189a4fcfd84f474c839c1f4751088a0c9b1926484e978494a4f9442a4176ba7","rawObjectClass":"BCNSPP","sourceStableId":"1F2B18416B270001"},"sourceKind":"official","official":true,"sourceCellId":"1R76899I","sourceStableId":"1F2B18416B270001","pipelineFeatureId":"1R76899I/BCNSPP/406940455","provenance":{"cellId":"1R76899I","checksum":"0189a4fcfd84f474c839c1f4751088a0c9b1926484e978494a4f9442a4176ba7","readerVersion":"GDAL 3.2.2","processedAt":"2026-08-11T18:29:20.995Z"}}},{"type":"Feature","geometry":{"type":"Point","coordinates":[3.8215717,51.77841]},"properties":{"dolphinKind":"buoy-special","rawObjectClass":"BOYSPP","sourceProperties":{"RCID":30052302,"PRIM":1,"GRUP":2,"OBJL":19,"RVER":1,"AGEN":7979,"FIDN":30052302,"FIDS":1,"LNAM":"1F2B01CA8FCE0001","BOYSHP":5,"CATSPM":["18"],"COLOUR":["6"],"CONRAD":3,"OBJNAM":"BO-OW T","PEREND":"--0401","PERSTA":"--1101","INFORM":"Resting area during winter","SCAMIN":200000,"SORDAT":"20251205","SORIND":"NL,1R,Reprt,MD 586-25","sourceCellId":"1R76899I","sourceChecksum":"0189a4fcfd84f474c839c1f4751088a0c9b1926484e978494a4f9442a4176ba7","rawObjectClass":"BOYSPP","sourceStableId":"1F2B01CA8FCE0001"},"sourceKind":"official","official":true,"sourceCellId":"1R76899I","sourceStableId":"1F2B01CA8FCE0001","pipelineFeatureId":"1R76899I/BOYSPP/30052302","provenance":{"cellId":"1R76899I","checksum":"0189a4fcfd84f474c839c1f4751088a0c9b1926484e978494a4f9442a4176ba7","readerVersion":"GDAL 3.2.2","processedAt":"2026-08-11T18:29:20.995Z"}}},{"type":"Feature","geometry":{"type":"Point","coordinates":[3.8239283,51.8214683]},"properties":{"dolphinKind":"buoy-special","rawObjectClass":"BOYSPP","sourceProperties":{"RCID":260829724,"PRIM":1,"GRUP":2,"OBJL":19,"RVER":1,"AGEN":7979,"FIDN":260829724,"FIDS":1,"LNAM":"1F2B0F8BF21C0001","BOYSHP":5,"CATSPM":["18"],"COLOUR":["6"],"CONRAD":3,"OBJNAM":"BO-OW 21","PEREND":"--0401","PERSTA":"--1101","INFORM":"Resting area during winter","SCAMIN":200000,"SORDAT":"20250312","SORIND":"NL,1R,reprt,MD 591-24","sourceCellId":"1R76899I","sourceChecksum":"0189a4fcfd84f474c839c1f4751088a0c9b1926484e978494a4f9442a4176ba7","rawObjectClass":"BOYSPP","sourceStableId":"1F2B0F8BF21C0001"},"sourceKind":"official","official":true,"sourceCellId":"1R76899I","sourceStableId":"1F2B0F8BF21C0001","pipelineFeatureId":"1R76899I/BOYSPP/260829724","provenance":{"cellId":"1R76899I","checksum":"0189a4fcfd84f474c839c1f4751088a0c9b1926484e978494a4f9442a4176ba7","readerVersion":"GDAL 3.2.2","processedAt":"2026-08-11T18:29:20.995Z"}}},{"type":"Feature","geometry":{"type":"Point","coordinates":[3.7697383,51.7764933]},"properties":{"dolphinKind":"buoy-special","rawObjectClass":"BOYSPP","sourceProperties":{"RCID":332323804,"PRIM":1,"GRUP":2,"OBJL":19,"RVER":1,"AGEN":7979,"FIDN":332323804,"FIDS":1,"LNAM":"1F2B13CEDBDC0001","BOYSHP":5,"CATSPM":["18"],"COLOUR":["6"],"CONRAD":3,"OBJNAM":"BO-OW D","PEREND":"--0401","PERSTA":"--1101","INFORM":"Resting area during winter","SCAMIN":200000,"SORDAT":"20260409","SORIND":"NL,1R,Reprt,MD 189-2026","sourceCellId":"1R76899I","sourceChecksum":"0189a4fcfd84f474c839c1f4751088a0c9b1926484e978494a4f9442a4176ba7","rawObjectClass":"BOYSPP","sourceStableId":"1F2B13CEDBDC0001"},"sourceKind":"official","official":true,"sourceCellId":"1R76899I","sourceStableId":"1F2B13CEDBDC0001","pipelineFeatureId":"1R76899I/BOYSPP/332323804","provenance":{"cellId":"1R76899I","checksum":"0189a4fcfd84f474c839c1f4751088a0c9b1926484e978494a4f9442a4176ba7","readerVersion":"GDAL 3.2.2","processedAt":"2026-08-11T18:29:20.995Z"}}},{"type":"Feature","geometry":{"type":"Point","coordinates":[3.7891683,51.7813383]},"properties":{"dolphinKind":"buoy-special","rawObjectClass":"BOYSPP","sourceProperties":{"RCID":332323806,"PRIM":1,"GRUP":2,"OBJL":19,"RVER":1,"AGEN":7979,"FIDN":332323806,"FIDS":1,"LNAM":"1F2B13CEDBDE0001","BOYSHP":5,"CATSPM":["18"],"COLOUR":["6"],"CONRAD":3,"OBJNAM":"BO-OW F","PEREND":"--0401","PERSTA":"--1101","INFORM":"Resting area during winter","SCAMIN":200000,"SORDAT":"20251205","SORIND":"NL,1R,Reprt,MD 586-25","sourceCellId":"1R76899I","sourceChecksum":"0189a4fcfd84f474c839c1f4751088a0c9b1926484e978494a4f9442a4176ba7","rawObjectClass":"BOYSPP","sourceStableId":"1F2B13CEDBDE0001"},"sourceKind":"official","official":true,"sourceCellId":"1R76899I","sourceStableId":"1F2B13CEDBDE0001","pipelineFeatureId":"1R76899I/BOYSPP/332323806","provenance":{"cellId":"1R76899I","checksum":"0189a4fcfd84f474c839c1f4751088a0c9b1926484e978494a4f9442a4176ba7","readerVersion":"GDAL 3.2.2","processedAt":"2026-08-11T18:29:20.995Z"}}},{"type":"Feature","geometry":{"type":"Point","coordinates":[3.7895867,51.780355]},"properties":{"dolphinKind":"buoy-special","rawObjectClass":"BOYSPP","sourceProperties":{"RCID":332323807,"PRIM":1,"GRUP":2,"OBJL":19,"RVER":1,"AGEN":7979,"FIDN":332323807,"FIDS":1,"LNAM":"1F2B13CEDBDF0001","BOYSHP":5,"CATSPM":["18"],"COLOUR":["6"],"CONRAD":3,"OBJNAM":"BO-OW P","PEREND":"--0401","PERSTA":"--1101","INFORM":"Resting area during winter","SCAMIN":200000,"SORDAT":"20251205","SORIND":"NL,1R,Reprt,MD 586-25","sourceCellId":"1R76899I","sourceChecksum":"0189a4fcfd84f474c839c1f4751088a0c9b1926484e978494a4f9442a4176ba7","rawObjectClass":"BOYSPP","sourceStableId":"1F2B13CEDBDF0001"},"sourceKind":"official","official":true,"sourceCellId":"1R76899I","sourceStableId":"1F2B13CEDBDF0001","pipelineFeatureId":"1R76899I/BOYSPP/332323807","provenance":{"cellId":"1R76899I","checksum":"0189a4fcfd84f474c839c1f4751088a0c9b1926484e978494a4f9442a4176ba7","readerVersion":"GDAL 3.2.2","processedAt":"2026-08-11T18:29:20.995Z"}}},{"type":"Feature","geometry":{"type":"Point","coordinates":[3.7986517,51.7830983]},"properties":{"dolphinKind":"buoy-special","rawObjectClass":"BOYSPP","sourceProperties":{"RCID":332323808,"PRIM":1,"GRUP":2,"OBJL":19,"RVER":1,"AGEN":7979,"FIDN":332323808,"FIDS":1,"LNAM":"1F2B13CEDBE00001","BOYSHP":5,"CATSPM":["18"],"COLOUR":["6"],"CONRAD":3,"OBJNAM":"BO-OW G","PEREND":"--0401","PERSTA":"--1101","INFORM":"Resting area during winter","SCAMIN":200000,"SORDAT":"20251205","SORIND":"NL,1R,Reprt,MD 586-25","sourceCellId":"1R76899I","sourceChecksum":"0189a4fcfd84f474c839c1f4751088a0c9b1926484e978494a4f9442a4176ba7","rawObjectClass":"BOYSPP","sourceStableId":"1F2B13CEDBE00001"},"sourceKind":"official","official":true,"sourceCellId":"1R76899I","sourceStableId":"1F2B13CEDBE00001","pipelineFeatureId":"1R76899I/BOYSPP/332323808","provenance":{"cellId":"1R76899I","checksum":"0189a4fcfd84f474c839c1f4751088a0c9b1926484e978494a4f9442a4176ba7","readerVersion":"GDAL 3.2.2","processedAt":"2026-08-11T18:29:20.995Z"}}},{"type":"Feature","geometry":{"type":"Point","coordinates":[3.7986183,51.7820833]},"properties":{"dolphinKind":"buoy-special","rawObjectClass":"BOYSPP","sourceProperties":{"RCID":332323809,"PRIM":1,"GRUP":2,"OBJL":19,"RVER":1,"AGEN":7979,"FIDN":332323809,"FIDS":1,"LNAM":"1F2B13CEDBE10001","BOYSHP":5,"CATSPM":["18"],"COLOUR":["6"],"CONRAD":3,"OBJNAM":"BO-OW Q","PEREND":"--0401","PERSTA":"--1101","INFORM":"Resting area during winter","SCAMIN":200000,"SORDAT":"20251205","SORIND":"NL,1R,Reprt,MD 586-25","sourceCellId":"1R76899I","sourceChecksum":"0189a4fcfd84f474c839c1f4751088a0c9b1926484e978494a4f9442a4176ba7","rawObjectClass":"BOYSPP","sourceStableId":"1F2B13CEDBE10001"},"sourceKind":"official","official":true,"sourceCellId":"1R76899I","sourceStableId":"1F2B13CEDBE10001","pipelineFeatureId":"1R76899I/BOYSPP/332323809","provenance":{"cellId":"1R76899I","checksum":"0189a4fcfd84f474c839c1f4751088a0c9b1926484e978494a4f9442a4176ba7","readerVersion":"GDAL 3.2.2","processedAt":"2026-08-11T18:29:20.995Z"}}},{"type":"Feature","geometry":{"type":"Point","coordinates":[3.8081167,51.7821983]},"properties":{"dolphinKind":"buoy-special","rawObjectClass":"BOYSPP","sourceProperties":{"RCID":332323810,"PRIM":1,"GRUP":2,"OBJL":19,"RVER":1,"AGEN":7979,"FIDN":332323810,"FIDS":1,"LNAM":"1F2B13CEDBE20001","BOYSHP":5,"CATSPM":["18"],"COLOUR":["6"],"CONRAD":3,"OBJNAM":"BO-OW H","PEREND":"--0401","PERSTA":"--1101","INFORM":"Resting area during winter","SCAMIN":200000,"SORDAT":"20251205","SORIND":"NL,1R,Reprt,MD 586-25","sourceCellId":"1R76899I","sourceChecksum":"0189a4fcfd84f474c839c1f4751088a0c9b1926484e978494a4f9442a4176ba7","rawObjectClass":"BOYSPP","sourceStableId":"1F2B13CEDBE20001"},"sourceKind":"official","official":true,"sourceCellId":"1R76899I","sourceStableId":"1F2B13CEDBE20001","pipelineFeatureId":"1R76899I/BOYSPP/332323810","provenance":{"cellId":"1R76899I","checksum":"0189a4fcfd84f474c839c1f4751088a0c9b1926484e978494a4f9442a4176ba7","readerVersion":"GDAL 3.2.2","processedAt":"2026-08-11T18:29:20.995Z"}}},{"type":"Feature","geometry":{"type":"Point","coordinates":[3.807765,51.7812033]},"properties":{"dolphinKind":"buoy-special","rawObjectClass":"BOYSPP","sourceProperties":{"RCID":332323811,"PRIM":1,"GRUP":2,"OBJL":19,"RVER":1,"AGEN":7979,"FIDN":332323811,"FIDS":1,"LNAM":"1F2B13CEDBE30001","BOYSHP":5,"CATSPM":["18"],"COLOUR":["6"],"CONRAD":3,"OBJNAM":"BO-OW R","PEREND":"--0401","PERSTA":"--1101","INFORM":"Resting area during winter","SCAMIN":200000,"SORDAT":"20251205","SORIND":"NL,1R,Reprt,MD 586-25","sourceCellId":"1R76899I","sourceChecksum":"0189a4fcfd84f474c839c1f4751088a0c9b1926484e978494a4f9442a4176ba7","rawObjectClass":"BOYSPP","sourceStableId":"1F2B13CEDBE30001"},"sourceKind":"official","official":true,"sourceCellId":"1R76899I","sourceStableId":"1F2B13CEDBE30001","pipelineFeatureId":"1R76899I/BOYSPP/332323811","provenance":{"cellId":"1R76899I","checksum":"0189a4fcfd84f474c839c1f4751088a0c9b1926484e978494a4f9442a4176ba7","readerVersion":"GDAL 3.2.2","processedAt":"2026-08-11T18:29:20.995Z"}}},{"type":"Feature","geometry":{"type":"Point","coordinates":[3.8179117,51.781205]},"properties":{"dolphinKind":"buoy-special","rawObjectClass":"BOYSPP","sourceProperties":{"RCID":332323812,"PRIM":1,"GRUP":2,"OBJL":19,"RVER":1,"AGEN":7979,"FIDN":332323812,"FIDS":1,"LNAM":"1F2B13CEDBE40001","BOYSHP":5,"CATSPM":["18"],"COLOUR":["6"],"CONRAD":3,"OBJNAM":"BO-OW I","PEREND":"--0401","PERSTA":"--1101","INFORM":"Resting area during winter","SCAMIN":200000,"SORDAT":"20251205","SORIND":"NL,1R,Reprt,MD 586-25","sourceCellId":"1R76899I","sourceChecksum":"0189a4fcfd84f474c839c1f4751088a0c9b1926484e978494a4f9442a4176ba7","rawObjectClass":"BOYSPP","sourceStableId":"1F2B13CEDBE40001"},"sourceKind":"official","official":true,"sourceCellId":"1R76899I","sourceStableId":"1F2B13CEDBE40001","pipelineFeatureId":"1R76899I/BOYSPP/332323812","provenance":{"cellId":"1R76899I","checksum":"0189a4fcfd84f474c839c1f4751088a0c9b1926484e978494a4f9442a4176ba7","readerVersion":"GDAL 3.2.2","processedAt":"2026-08-11T18:29:20.995Z"}}},{"type":"Feature","geometry":{"type":"Point","coordinates":[3.8227,51.7798767]},"properties":{"dolphinKind":"buoy-special","rawObjectClass":"BOYSPP","sourceProperties":{"RCID":332323814,"PRIM":1,"GRUP":2,"OBJL":19,"RVER":1,"AGEN":7979,"FIDN":332323814,"FIDS":1,"LNAM":"1F2B13CEDBE60001","BOYSHP":5,"CATSPM":["18"],"COLOUR":["6"],"CONRAD":3,"OBJNAM":"BO-OW J","PEREND":"--0401","PERSTA":"--1101","INFORM":"Resting area during winter","SCAMIN":200000,"SORDAT":"20251205","SORIND":"NL,1R,Reprt,MD 586-25","sourceCellId":"1R76899I","sourceChecksum":"0189a4fcfd84f474c839c1f4751088a0c9b1926484e978494a4f9442a4176ba7","rawObjectClass":"BOYSPP","sourceStableId":"1F2B13CEDBE60001"},"sourceKind":"official","official":true,"sourceCellId":"1R76899I","sourceStableId":"1F2B13CEDBE60001","pipelineFeatureId":"1R76899I/BOYSPP/332323814","provenance":{"cellId":"1R76899I","checksum":"0189a4fcfd84f474c839c1f4751088a0c9b1926484e978494a4f9442a4176ba7","readerVersion":"GDAL 3.2.2","processedAt":"2026-08-11T18:29:20.995Z"}}},{"type":"Feature","geometry":{"type":"Point","coordinates":[3.817315,51.7802733]},"properties":{"dolphinKind":"buoy-special","rawObjectClass":"BOYSPP","sourceProperties":{"RCID":332323815,"PRIM":1,"GRUP":2,"OBJL":19,"RVER":1,"AGEN":7979,"FIDN":332323815,"FIDS":1,"LNAM":"1F2B13CEDBE70001","BOYSHP":5,"CATSPM":["18"],"COLOUR":["6"],"CONRAD":3,"OBJNAM":"BO-OW S","PEREND":"--0401","PERSTA":"--1101","INFORM":"Resting area during winter","SCAMIN":200000,"SORDAT":"20251205","SORIND":"NL,1R,Reprt,MD 586-25","sourceCellId":"1R76899I","sourceChecksum":"0189a4fcfd84f474c839c1f4751088a0c9b1926484e978494a4f9442a4176ba7","rawObjectClass":"BOYSPP","sourceStableId":"1F2B13CEDBE70001"},"sourceKind":"official","official":true,"sourceCellId":"1R76899I","sourceStableId":"1F2B13CEDBE70001","pipelineFeatureId":"1R76899I/BOYSPP/332323815","provenance":{"cellId":"1R76899I","checksum":"0189a4fcfd84f474c839c1f4751088a0c9b1926484e978494a4f9442a4176ba7","readerVersion":"GDAL 3.2.2","processedAt":"2026-08-11T18:29:20.995Z"}}},{"type":"Feature","geometry":{"type":"Point","coordinates":[3.8573817,51.8226783]},"properties":{"dolphinKind":"buoy-special","rawObjectClass":"BOYSPP","sourceProperties":{"RCID":453279452,"PRIM":1,"GRUP":2,"OBJL":19,"RVER":1,"AGEN":7979,"FIDN":453279452,"FIDS":1,"LNAM":"1F2B1B047EDC0001","BOYSHP":5,"CATSPM":["18"],"COLOUR":["6"],"CONRAD":3,"OBJNAM":"BO-OW 27","PEREND":"--0401","PERSTA":"--1101","INFORM":"Resting area during winter","SCAMIN":200000,"SORDAT":"20250820","SORIND":"NL,1R,reprt,MD 421-25","sourceCellId":"1R76899I","sourceChecksum":"0189a4fcfd84f474c839c1f4751088a0c9b1926484e978494a4f9442a4176ba7","rawObjectClass":"BOYSPP","sourceStableId":"1F2B1B047EDC0001"},"sourceKind":"official","official":true,"sourceCellId":"1R76899I","sourceStableId":"1F2B1B047EDC0001","pipelineFeatureId":"1R76899I/BOYSPP/453279452","provenance":{"cellId":"1R76899I","checksum":"0189a4fcfd84f474c839c1f4751088a0c9b1926484e978494a4f9442a4176ba7","readerVersion":"GDAL 3.2.2","processedAt":"2026-08-11T18:29:20.995Z"}}},{"type":"Feature","geometry":{"type":"Point","coordinates":[3.85191,51.8173833]},"properties":{"dolphinKind":"buoy-special","rawObjectClass":"BOYSPP","sourceProperties":{"RCID":453279453,"PRIM":1,"GRUP":2,"OBJL":19,"RVER":1,"AGEN":7979,"FIDN":453279453,"FIDS":1,"LNAM":"1F2B1B047EDD0001","BOYSHP":5,"CATSPM":["18"],"COLOUR":["6"],"CONRAD":3,"OBJNAM":"BO-OW 29","PEREND":"--0401","PERSTA":"--1101","INFORM":"Resting area during winter","SCAMIN":200000,"SORDAT":"20250312","SORIND":"NL,1R,reprt,MD 591-24","sourceCellId":"1R76899I","sourceChecksum":"0189a4fcfd84f474c839c1f4751088a0c9b1926484e978494a4f9442a4176ba7","rawObjectClass":"BOYSPP","sourceStableId":"1F2B1B047EDD0001"},"sourceKind":"official","official":true,"sourceCellId":"1R76899I","sourceStableId":"1F2B1B047EDD0001","pipelineFeatureId":"1R76899I/BOYSPP/453279453","provenance":{"cellId":"1R76899I","checksum":"0189a4fcfd84f474c839c1f4751088a0c9b1926484e978494a4f9442a4176ba7","readerVersion":"GDAL 3.2.2","processedAt":"2026-08-11T18:29:20.995Z"}}},{"type":"Feature","geometry":{"type":"Point","coordinates":[3.79848,51.7873433]},"properties":{"dolphinKind":"buoy-special","rawObjectClass":"BOYSPP","sourceProperties":{"RCID":453279455,"PRIM":1,"GRUP":2,"OBJL":19,"RVER":1,"AGEN":7979,"FIDN":453279455,"FIDS":1,"LNAM":"1F2B1B047EDF0001","BOYSHP":5,"CATSPM":["18"],"COLOUR":["6"],"CONRAD":3,"OBJNAM":"BO-OW 41","PEREND":"--1101","PERSTA":"--0401","INFORM":"Resting area during summer","SCAMIN":200000,"SORDAT":"20260611","SORIND":"NL,1R,reprt, NMA","sourceCellId":"1R76899I","sourceChecksum":"0189a4fcfd84f474c839c1f4751088a0c9b1926484e978494a4f9442a4176ba7","rawObjectClass":"BOYSPP","sourceStableId":"1F2B1B047EDF0001"},"sourceKind":"official","official":true,"sourceCellId":"1R76899I","sourceStableId":"1F2B1B047EDF0001","pipelineFeatureId":"1R76899I/BOYSPP/453279455","provenance":{"cellId":"1R76899I","checksum":"0189a4fcfd84f474c839c1f4751088a0c9b1926484e978494a4f9442a4176ba7","readerVersion":"GDAL 3.2.2","processedAt":"2026-08-11T18:29:20.995Z"}}},{"type":"Feature","geometry":{"type":"Point","coordinates":[3.7802667,51.7770903]},"properties":{"dolphinKind":"buoy-special","rawObjectClass":"BOYSPP","sourceProperties":{"RCID":454407607,"PRIM":1,"GRUP":2,"OBJL":19,"RVER":1,"AGEN":7979,"FIDN":454407607,"FIDS":1,"LNAM":"1F2B1B15B5B70001","BOYSHP":5,"CATSPM":["18"],"COLOUR":["6"],"CONRAD":3,"OBJNAM":"BO-OW O","PEREND":"--0401","PERSTA":"--1101","INFORM":"Resting area during winter","SCAMIN":200000,"SORDAT":"20251205","SORIND":"NL,1R,Reprt,MD 586-25","sourceCellId":"1R76899I","sourceChecksum":"0189a4fcfd84f474c839c1f4751088a0c9b1926484e978494a4f9442a4176ba7","rawObjectClass":"BOYSPP","sourceStableId":"1F2B1B15B5B70001"},"sourceKind":"official","official":true,"sourceCellId":"1R76899I","sourceStableId":"1F2B1B15B5B70001","pipelineFeatureId":"1R76899I/BOYSPP/454407607","provenance":{"cellId":"1R76899I","checksum":"0189a4fcfd84f474c839c1f4751088a0c9b1926484e978494a4f9442a4176ba7","readerVersion":"GDAL 3.2.2","processedAt":"2026-08-11T18:29:20.995Z"}}},{"type":"Feature","geometry":{"type":"Point","coordinates":[3.7564667,51.797495]},"properties":{"dolphinKind":"buoy-special","rawObjectClass":"BOYSPP","sourceProperties":{"RCID":457695654,"PRIM":1,"GRUP":2,"OBJL":19,"RVER":1,"AGEN":7979,"FIDN":457695654,"FIDS":1,"LNAM":"1F2B1B47E1A60001","BOYSHP":5,"CATSPM":["18"],"COLOUR":["6"],"CONRAD":3,"OBJNAM":"BO-OW 7","PEREND":"--0401","PERSTA":"--1101","INFORM":"Resting area during winter","SCAMIN":200000,"SORDAT":"20250724","SORIND":"NL,1R,reprt, mail Nicky","sourceCellId":"1R76899I","sourceChecksum":"0189a4fcfd84f474c839c1f4751088a0c9b1926484e978494a4f9442a4176ba7","rawObjectClass":"BOYSPP","sourceStableId":"1F2B1B47E1A60001"},"sourceKind":"official","official":true,"sourceCellId":"1R76899I","sourceStableId":"1F2B1B47E1A60001","pipelineFeatureId":"1R76899I/BOYSPP/457695654","provenance":{"cellId":"1R76899I","checksum":"0189a4fcfd84f474c839c1f4751088a0c9b1926484e978494a4f9442a4176ba7","readerVersion":"GDAL 3.2.2","processedAt":"2026-08-11T18:29:20.995Z"}}},{"type":"Feature","geometry":{"type":"Point","coordinates":[3.7451367,51.7933017]},"properties":{"dolphinKind":"buoy-special","rawObjectClass":"BOYSPP","sourceProperties":{"RCID":457695655,"PRIM":1,"GRUP":2,"OBJL":19,"RVER":1,"AGEN":7979,"FIDN":457695655,"FIDS":1,"LNAM":"1F2B1B47E1A70001","BOYSHP":5,"CATSPM":["18"],"COLOUR":["6"],"CONRAD":3,"OBJNAM":"BO-OW 5","PEREND":"--0401","PERSTA":"--1101","INFORM":"Resting area during winter","SCAMIN":200000,"SORDAT":"20250312","SORIND":"NL,1R,reprt,MD 591-24","sourceCellId":"1R76899I","sourceChecksum":"0189a4fcfd84f474c839c1f4751088a0c9b1926484e978494a4f9442a4176ba7","rawObjectClass":"BOYSPP","sourceStableId":"1F2B1B47E1A70001"},"sourceKind":"official","official":true,"sourceCellId":"1R76899I","sourceStableId":"1F2B1B47E1A70001","pipelineFeatureId":"1R76899I/BOYSPP/457695655","provenance":{"cellId":"1R76899I","checksum":"0189a4fcfd84f474c839c1f4751088a0c9b1926484e978494a4f9442a4176ba7","readerVersion":"GDAL 3.2.2","processedAt":"2026-08-11T18:29:20.995Z"}}},{"type":"Feature","geometry":{"type":"Point","coordinates":[3.7337633,51.7890417]},"properties":{"dolphinKind":"buoy-special","rawObjectClass":"BOYSPP","sourceProperties":{"RCID":457695656,"PRIM":1,"GRUP":2,"OBJL":19,"RVER":1,"AGEN":7979,"FIDN":457695656,"FIDS":1,"LNAM":"1F2B1B47E1A80001","BOYSHP":5,"CATSPM":["18"],"COLOUR":["6"],"CONRAD":3,"OBJNAM":"BO-OW 3","PEREND":"--0401","PERSTA":"--1101","INFORM":"Resting area during winter","SCAMIN":200000,"SORDAT":"20250312","SORIND":"NL,1R,reprt,MD 591-24","sourceCellId":"1R76899I","sourceChecksum":"0189a4fcfd84f474c839c1f4751088a0c9b1926484e978494a4f9442a4176ba7","rawObjectClass":"BOYSPP","sourceStableId":"1F2B1B47E1A80001"},"sourceKind":"official","official":true,"sourceCellId":"1R76899I","sourceStableId":"1F2B1B47E1A80001","pipelineFeatureId":"1R76899I/BOYSPP/457695656","provenance":{"cellId":"1R76899I","checksum":"0189a4fcfd84f474c839c1f4751088a0c9b1926484e978494a4f9442a4176ba7","readerVersion":"GDAL 3.2.2","processedAt":"2026-08-11T18:29:20.995Z"}}},{"type":"Feature","geometry":{"type":"Point","coordinates":[3.904635,51.7903683]},"properties":{"dolphinKind":"buoy-special","rawObjectClass":"BOYSPP","sourceProperties":{"RCID":1137186580,"PRIM":1,"GRUP":2,"OBJL":19,"RVER":1,"AGEN":7979,"FIDN":1137186580,"FIDS":1,"LNAM":"1F2B43C817140001","LNAM_REFS":["1F2B43C817150001"],"FFPT_RIND":[2],"BOYSHP":5,"CATSPM":["27"],"COLOUR":["6"],"CONRAD":3,"OBJNAM":"SK-OW 1","SCAMIN":200000,"SORDAT":"20250211","SORIND":"NL,1R,reprt,MD 25-073","sourceCellId":"1R76899I","sourceChecksum":"0189a4fcfd84f474c839c1f4751088a0c9b1926484e978494a4f9442a4176ba7","rawObjectClass":"BOYSPP","sourceStableId":"1F2B43C817140001"},"sourceKind":"official","official":true,"sourceCellId":"1R76899I","sourceStableId":"1F2B43C817140001","pipelineFeatureId":"1R76899I/BOYSPP/1137186580","provenance":{"cellId":"1R76899I","checksum":"0189a4fcfd84f474c839c1f4751088a0c9b1926484e978494a4f9442a4176ba7","readerVersion":"GDAL 3.2.2","processedAt":"2026-08-11T18:29:20.995Z"}}},{"type":"Feature","geometry":{"type":"Point","coordinates":[3.9016217,51.7885117]},"properties":{"dolphinKind":"buoy-special","rawObjectClass":"BOYSPP","sourceProperties":{"RCID":1137186582,"PRIM":1,"GRUP":2,"OBJL":19,"RVER":1,"AGEN":7979,"FIDN":1137186582,"FIDS":1,"LNAM":"1F2B43C817160001","LNAM_REFS":["1F2B43C817180001"],"FFPT_RIND":[2],"BOYSHP":5,"CATSPM":["27"],"COLOUR":["6"],"CONRAD":3,"OBJNAM":"SK-OW 3","SCAMIN":200000,"SORDAT":"20250211","SORIND":"NL,1R,reprt,MD 25-073","sourceCellId":"1R76899I","sourceChecksum":"0189a4fcfd84f474c839c1f4751088a0c9b1926484e978494a4f9442a4176ba7","rawObjectClass":"BOYSPP","sourceStableId":"1F2B43C817160001"},"sourceKind":"official","official":true,"sourceCellId":"1R76899I","sourceStableId":"1F2B43C817160001","pipelineFeatureId":"1R76899I/BOYSPP/1137186582","provenance":{"cellId":"1R76899I","checksum":"0189a4fcfd84f474c839c1f4751088a0c9b1926484e978494a4f9442a4176ba7","readerVersion":"GDAL 3.2.2","processedAt":"2026-08-11T18:29:20.995Z"}}},{"type":"Feature","geometry":{"type":"Point","coordinates":[3.8986417,51.7866817]},"properties":{"dolphinKind":"buoy-special","rawObjectClass":"BOYSPP","sourceProperties":{"RCID":1137186586,"PRIM":1,"GRUP":2,"OBJL":19,"RVER":1,"AGEN":7979,"FIDN":1137186586,"FIDS":1,"LNAM":"1F2B43C8171A0001","LNAM_REFS":["1F2B43C817190001"],"FFPT_RIND":[2],"BOYSHP":5,"CATSPM":["27"],"COLOUR":["6"],"CONRAD":3,"OBJNAM":"SK-OW 5","SCAMIN":200000,"SORDAT":"20250211","SORIND":"NL,1R,reprt,MD 25-073","sourceCellId":"1R76899I","sourceChecksum":"0189a4fcfd84f474c839c1f4751088a0c9b1926484e978494a4f9442a4176ba7","rawObjectClass":"BOYSPP","sourceStableId":"1F2B43C8171A0001"},"sourceKind":"official","official":true,"sourceCellId":"1R76899I","sourceStableId":"1F2B43C8171A0001","pipelineFeatureId":"1R76899I/BOYSPP/1137186586","provenance":{"cellId":"1R76899I","checksum":"0189a4fcfd84f474c839c1f4751088a0c9b1926484e978494a4f9442a4176ba7","readerVersion":"GDAL 3.2.2","processedAt":"2026-08-11T18:29:20.995Z"}}},{"type":"Feature","geometry":{"type":"Point","coordinates":[3.8472267,51.8129133]},"properties":{"dolphinKind":"buoy-special","rawObjectClass":"BOYSPP","sourceProperties":{"RCID":1239287742,"PRIM":1,"GRUP":2,"OBJL":19,"RVER":1,"AGEN":7979,"FIDN":1239287742,"FIDS":1,"LNAM":"1F2B49DE07BE0001","BOYSHP":5,"CATSPM":["18"],"COLOUR":["6"],"CONRAD":3,"OBJNAM":"BO-OW 31","PEREND":"--0401","PERSTA":"--1101","INFORM":"Resting area during winter","SCAMIN":200000,"SORDAT":"20250312","SORIND":"NL,1R,reprt,MD 591-24","sourceCellId":"1R76899I","sourceChecksum":"0189a4fcfd84f474c839c1f4751088a0c9b1926484e978494a4f9442a4176ba7","rawObjectClass":"BOYSPP","sourceStableId":"1F2B49DE07BE0001"},"sourceKind":"official","official":true,"sourceCellId":"1R76899I","sourceStableId":"1F2B49DE07BE0001","pipelineFeatureId":"1R76899I/BOYSPP/1239287742","provenance":{"cellId":"1R76899I","checksum":"0189a4fcfd84f474c839c1f4751088a0c9b1926484e978494a4f9442a4176ba7","readerVersion":"GDAL 3.2.2","processedAt":"2026-08-11T18:29:20.995Z"}}},{"type":"Feature","geometry":{"type":"Point","coordinates":[3.8418667,51.8054033]},"properties":{"dolphinKind":"buoy-special","rawObjectClass":"BOYSPP","sourceProperties":{"RCID":1239287743,"PRIM":1,"GRUP":2,"OBJL":19,"RVER":1,"AGEN":7979,"FIDN":1239287743,"FIDS":1,"LNAM":"1F2B49DE07BF0001","BOYSHP":5,"CATSPM":["18"],"COLOUR":["6"],"CONRAD":3,"OBJNAM":"BO-OW 33","PEREND":"--0401","PERSTA":"--1101","INFORM":"Resting area during winter","SCAMIN":200000,"SORDAT":"20251205","SORIND":"NL,1R,Reprt,MD 586-25","sourceCellId":"1R76899I","sourceChecksum":"0189a4fcfd84f474c839c1f4751088a0c9b1926484e978494a4f9442a4176ba7","rawObjectClass":"BOYSPP","sourceStableId":"1F2B49DE07BF0001"},"sourceKind":"official","official":true,"sourceCellId":"1R76899I","sourceStableId":"1F2B49DE07BF0001","pipelineFeatureId":"1R76899I/BOYSPP/1239287743","provenance":{"cellId":"1R76899I","checksum":"0189a4fcfd84f474c839c1f4751088a0c9b1926484e978494a4f9442a4176ba7","readerVersion":"GDAL 3.2.2","processedAt":"2026-08-11T18:29:20.995Z"}}},{"type":"Feature","geometry":{"type":"Point","coordinates":[3.8368033,51.7986633]},"properties":{"dolphinKind":"buoy-special","rawObjectClass":"BOYSPP","sourceProperties":{"RCID":1239287744,"PRIM":1,"GRUP":2,"OBJL":19,"RVER":1,"AGEN":7979,"FIDN":1239287744,"FIDS":1,"LNAM":"1F2B49DE07C00001","BOYSHP":5,"CATSPM":["18"],"COLOUR":["6"],"CONRAD":3,"OBJNAM":"BO-OW 35","PEREND":"--0401","PERSTA":"--1101","INFORM":"Resting area during winter","SCAMIN":200000,"SORDAT":"20251205","SORIND":"NL,1R,Reprt,MD 586-25","sourceCellId":"1R76899I","sourceChecksum":"0189a4fcfd84f474c839c1f4751088a0c9b1926484e978494a4f9442a4176ba7","rawObjectClass":"BOYSPP","sourceStableId":"1F2B49DE07C00001"},"sourceKind":"official","official":true,"sourceCellId":"1R76899I","sourceStableId":"1F2B49DE07C00001","pipelineFeatureId":"1R76899I/BOYSPP/1239287744","provenance":{"cellId":"1R76899I","checksum":"0189a4fcfd84f474c839c1f4751088a0c9b1926484e978494a4f9442a4176ba7","readerVersion":"GDAL 3.2.2","processedAt":"2026-08-11T18:29:20.995Z"}}},{"type":"Feature","geometry":{"type":"Point","coordinates":[3.8315683,51.7918683]},"properties":{"dolphinKind":"buoy-special","rawObjectClass":"BOYSPP","sourceProperties":{"RCID":1239287745,"PRIM":1,"GRUP":2,"OBJL":19,"RVER":1,"AGEN":7979,"FIDN":1239287745,"FIDS":1,"LNAM":"1F2B49DE07C10001","BOYSHP":5,"CATSPM":["18"],"COLOUR":["6"],"CONRAD":3,"OBJNAM":"BO-OW 37","PEREND":"--0401","PERSTA":"--1101","INFORM":"Resting area during winter","SCAMIN":200000,"SORDAT":"20251205","SORIND":"NL,1R,Reprt,MD 586-25","sourceCellId":"1R76899I","sourceChecksum":"0189a4fcfd84f474c839c1f4751088a0c9b1926484e978494a4f9442a4176ba7","rawObjectClass":"BOYSPP","sourceStableId":"1F2B49DE07C10001"},"sourceKind":"official","official":true,"sourceCellId":"1R76899I","sourceStableId":"1F2B49DE07C10001","pipelineFeatureId":"1R76899I/BOYSPP/1239287745","provenance":{"cellId":"1R76899I","checksum":"0189a4fcfd84f474c839c1f4751088a0c9b1926484e978494a4f9442a4176ba7","readerVersion":"GDAL 3.2.2","processedAt":"2026-08-11T18:29:20.995Z"}}},{"type":"Feature","geometry":{"type":"Point","coordinates":[3.826675,51.7850733]},"properties":{"dolphinKind":"buoy-special","rawObjectClass":"BOYSPP","sourceProperties":{"RCID":1239287746,"PRIM":1,"GRUP":2,"OBJL":19,"RVER":1,"AGEN":7979,"FIDN":1239287746,"FIDS":1,"LNAM":"1F2B49DE07C20001","BOYSHP":5,"CATSPM":["18"],"COLOUR":["6"],"CONRAD":3,"OBJNAM":"BO-OW 39","PEREND":"--0401","PERSTA":"--1101","INFORM":"Resting area during winter","SCAMIN":200000,"SORDAT":"20251205","SORIND":"NL,1R,Reprt,MD 586-25","sourceCellId":"1R76899I","sourceChecksum":"0189a4fcfd84f474c839c1f4751088a0c9b1926484e978494a4f9442a4176ba7","rawObjectClass":"BOYSPP","sourceStableId":"1F2B49DE07C20001"},"sourceKind":"official","official":true,"sourceCellId":"1R76899I","sourceStableId":"1F2B49DE07C20001","pipelineFeatureId":"1R76899I/BOYSPP/1239287746","provenance":{"cellId":"1R76899I","checksum":"0189a4fcfd84f474c839c1f4751088a0c9b1926484e978494a4f9442a4176ba7","readerVersion":"GDAL 3.2.2","processedAt":"2026-08-11T18:29:20.995Z"}}},{"type":"Feature","geometry":{"type":"Point","coordinates":[3.7609417,51.7907133]},"properties":{"dolphinKind":"buoy-special","rawObjectClass":"BOYSPP","sourceProperties":{"RCID":1278079934,"PRIM":1,"GRUP":2,"OBJL":19,"RVER":1,"AGEN":7979,"FIDN":1278079934,"FIDS":1,"LNAM":"1F2B4C2DF3BE0001","BOYSHP":5,"CATSPM":["18"],"COLOUR":["6"],"CONRAD":3,"OBJNAM":"BO-OW 5","PEREND":"--1101","PERSTA":"--0401","INFORM":"Resting area during summer","SCAMIN":200000,"SORDAT":"20260611","SORIND":"NL,1R,Reprt,markeerplan beheerder","sourceCellId":"1R76899I","sourceChecksum":"0189a4fcfd84f474c839c1f4751088a0c9b1926484e978494a4f9442a4176ba7","rawObjectClass":"BOYSPP","sourceStableId":"1F2B4C2DF3BE0001"},"sourceKind":"official","official":true,"sourceCellId":"1R76899I","sourceStableId":"1F2B4C2DF3BE0001","pipelineFeatureId":"1R76899I/BOYSPP/1278079934","provenance":{"cellId":"1R76899I","checksum":"0189a4fcfd84f474c839c1f4751088a0c9b1926484e978494a4f9442a4176ba7","readerVersion":"GDAL 3.2.2","processedAt":"2026-08-11T18:29:20.995Z"}}},{"type":"Feature","geometry":{"type":"Point","coordinates":[3.763905,51.7961067]},"properties":{"dolphinKind":"buoy-special","rawObjectClass":"BOYSPP","sourceProperties":{"RCID":1278079936,"PRIM":1,"GRUP":2,"OBJL":19,"RVER":1,"AGEN":7979,"FIDN":1278079936,"FIDS":1,"LNAM":"1F2B4C2DF3C00001","BOYSHP":5,"CATSPM":["18"],"COLOUR":["6"],"CONRAD":3,"OBJNAM":"BO-OW 7","PEREND":"--1101","PERSTA":"--0401","INFORM":"Resting area during summer","SCAMIN":200000,"SORDAT":"20260611","SORIND":"NL,1R,Reprt,NMA","sourceCellId":"1R76899I","sourceChecksum":"0189a4fcfd84f474c839c1f4751088a0c9b1926484e978494a4f9442a4176ba7","rawObjectClass":"BOYSPP","sourceStableId":"1F2B4C2DF3C00001"},"sourceKind":"official","official":true,"sourceCellId":"1R76899I","sourceStableId":"1F2B4C2DF3C00001","pipelineFeatureId":"1R76899I/BOYSPP/1278079936","provenance":{"cellId":"1R76899I","checksum":"0189a4fcfd84f474c839c1f4751088a0c9b1926484e978494a4f9442a4176ba7","readerVersion":"GDAL 3.2.2","processedAt":"2026-08-11T18:29:20.995Z"}}},{"type":"Feature","geometry":{"type":"Point","coordinates":[3.7579667,51.7853283]},"properties":{"dolphinKind":"buoy-special","rawObjectClass":"BOYSPP","sourceProperties":{"RCID":1278079937,"PRIM":1,"GRUP":2,"OBJL":19,"RVER":1,"AGEN":7979,"FIDN":1278079937,"FIDS":1,"LNAM":"1F2B4C2DF3C10001","BOYSHP":5,"CATSPM":["18"],"COLOUR":["6"],"CONRAD":3,"OBJNAM":"BO-OW 3","PEREND":"--1101","PERSTA":"--0401","INFORM":"Resting area during summer","SCAMIN":200000,"SORDAT":"20260611","SORIND":"NL,1R,Reprt,NMA","sourceCellId":"1R76899I","sourceChecksum":"0189a4fcfd84f474c839c1f4751088a0c9b1926484e978494a4f9442a4176ba7","rawObjectClass":"BOYSPP","sourceStableId":"1F2B4C2DF3C10001"},"sourceKind":"official","official":true,"sourceCellId":"1R76899I","sourceStableId":"1F2B4C2DF3C10001","pipelineFeatureId":"1R76899I/BOYSPP/1278079937","provenance":{"cellId":"1R76899I","checksum":"0189a4fcfd84f474c839c1f4751088a0c9b1926484e978494a4f9442a4176ba7","readerVersion":"GDAL 3.2.2","processedAt":"2026-08-11T18:29:20.995Z"}}},{"type":"Feature","geometry":{"type":"Point","coordinates":[3.7907467,51.8102983]},"properties":{"dolphinKind":"buoy-special","rawObjectClass":"BOYSPP","sourceProperties":{"RCID":1278079939,"PRIM":1,"GRUP":2,"OBJL":19,"RVER":1,"AGEN":7979,"FIDN":1278079939,"FIDS":1,"LNAM":"1F2B4C2DF3C30001","BOYSHP":5,"CATSPM":["18"],"COLOUR":["6"],"CONRAD":3,"OBJNAM":"BO-OW 13","PEREND":"--1101","PERSTA":"--0401","INFORM":"Resting area during summer","SCAMIN":200000,"SORDAT":"20260611","SORIND":"NL,1R,Reprt,NMA","sourceCellId":"1R76899I","sourceChecksum":"0189a4fcfd84f474c839c1f4751088a0c9b1926484e978494a4f9442a4176ba7","rawObjectClass":"BOYSPP","sourceStableId":"1F2B4C2DF3C30001"},"sourceKind":"official","official":true,"sourceCellId":"1R76899I","sourceStableId":"1F2B4C2DF3C30001","pipelineFeatureId":"1R76899I/BOYSPP/1278079939","provenance":{"cellId":"1R76899I","checksum":"0189a4fcfd84f474c839c1f4751088a0c9b1926484e978494a4f9442a4176ba7","readerVersion":"GDAL 3.2.2","processedAt":"2026-08-11T18:29:20.995Z"}}},{"type":"Feature","geometry":{"type":"Point","coordinates":[3.77885,51.8059033]},"properties":{"dolphinKind":"buoy-special","rawObjectClass":"BOYSPP","sourceProperties":{"RCID":1278079940,"PRIM":1,"GRUP":2,"OBJL":19,"RVER":1,"AGEN":7979,"FIDN":1278079940,"FIDS":1,"LNAM":"1F2B4C2DF3C40001","BOYSHP":5,"CATSPM":["18"],"COLOUR":["6"],"CONRAD":3,"OBJNAM":"BO-OW 11","PEREND":"--1101","PERSTA":"--0401","INFORM":"Resting area during summer","SCAMIN":200000,"SORDAT":"20260611","SORIND":"NL,1R,Reprt,NMA","sourceCellId":"1R76899I","sourceChecksum":"0189a4fcfd84f474c839c1f4751088a0c9b1926484e978494a4f9442a4176ba7","rawObjectClass":"BOYSPP","sourceStableId":"1F2B4C2DF3C40001"},"sourceKind":"official","official":true,"sourceCellId":"1R76899I","sourceStableId":"1F2B4C2DF3C40001","pipelineFeatureId":"1R76899I/BOYSPP/1278079940","provenance":{"cellId":"1R76899I","checksum":"0189a4fcfd84f474c839c1f4751088a0c9b1926484e978494a4f9442a4176ba7","readerVersion":"GDAL 3.2.2","processedAt":"2026-08-11T18:29:20.995Z"}}},{"type":"Feature","geometry":{"type":"Point","coordinates":[3.8026483,51.81469]},"properties":{"dolphinKind":"buoy-special","rawObjectClass":"BOYSPP","sourceProperties":{"RCID":1278079941,"PRIM":1,"GRUP":2,"OBJL":19,"RVER":1,"AGEN":7979,"FIDN":1278079941,"FIDS":1,"LNAM":"1F2B4C2DF3C50001","BOYSHP":5,"CATSPM":["18"],"COLOUR":["6"],"CONRAD":3,"OBJNAM":"BO-OW 15","PEREND":"--1101","PERSTA":"--0401","INFORM":"Resting area during summer","SCAMIN":200000,"SORDAT":"20260611","SORIND":"NL,1R,Reprt,NMA","sourceCellId":"1R76899I","sourceChecksum":"0189a4fcfd84f474c839c1f4751088a0c9b1926484e978494a4f9442a4176ba7","rawObjectClass":"BOYSPP","sourceStableId":"1F2B4C2DF3C50001"},"sourceKind":"official","official":true,"sourceCellId":"1R76899I","sourceStableId":"1F2B4C2DF3C50001","pipelineFeatureId":"1R76899I/BOYSPP/1278079941","provenance":{"cellId":"1R76899I","checksum":"0189a4fcfd84f474c839c1f4751088a0c9b1926484e978494a4f9442a4176ba7","readerVersion":"GDAL 3.2.2","processedAt":"2026-08-11T18:29:20.995Z"}}},{"type":"Feature","geometry":{"type":"Point","coordinates":[3.8145417,51.8191133]},"properties":{"dolphinKind":"buoy-special","rawObjectClass":"BOYSPP","sourceProperties":{"RCID":1278079942,"PRIM":1,"GRUP":2,"OBJL":19,"RVER":1,"AGEN":7979,"FIDN":1278079942,"FIDS":1,"LNAM":"1F2B4C2DF3C60001","BOYSHP":5,"CATSPM":["18"],"COLOUR":["6"],"CONRAD":3,"OBJNAM":"BO-OW 17","PEREND":"--1101","PERSTA":"--0401","INFORM":"Resting area during summer","SCAMIN":200000,"SORDAT":"20260611","SORIND":"NL,1R,Reprt,NMA","sourceCellId":"1R76899I","sourceChecksum":"0189a4fcfd84f474c839c1f4751088a0c9b1926484e978494a4f9442a4176ba7","rawObjectClass":"BOYSPP","sourceStableId":"1F2B4C2DF3C60001"},"sourceKind":"official","official":true,"sourceCellId":"1R76899I","sourceStableId":"1F2B4C2DF3C60001","pipelineFeatureId":"1R76899I/BOYSPP/1278079942","provenance":{"cellId":"1R76899I","checksum":"0189a4fcfd84f474c839c1f4751088a0c9b1926484e978494a4f9442a4176ba7","readerVersion":"GDAL 3.2.2","processedAt":"2026-08-11T18:29:20.995Z"}}},{"type":"Feature","geometry":{"type":"Point","coordinates":[3.8145417,51.8191133]},"properties":{"dolphinKind":"buoy-special","rawObjectClass":"BOYSPP","sourceProperties":{"RCID":1278079943,"PRIM":1,"GRUP":2,"OBJL":19,"RVER":1,"AGEN":7979,"FIDN":1278079943,"FIDS":1,"LNAM":"1F2B4C2DF3C70001","BOYSHP":5,"CATSPM":["18"],"COLOUR":["6"],"CONRAD":3,"OBJNAM":"BO-OW 19","PEREND":"--1101","PERSTA":"--0401","INFORM":"Resting area during summer","SCAMIN":200000,"SORDAT":"20260611","SORIND":"NL,1R,Reprt,NMA","sourceCellId":"1R76899I","sourceChecksum":"0189a4fcfd84f474c839c1f4751088a0c9b1926484e978494a4f9442a4176ba7","rawObjectClass":"BOYSPP","sourceStableId":"1F2B4C2DF3C70001"},"sourceKind":"official","official":true,"sourceCellId":"1R76899I","sourceStableId":"1F2B4C2DF3C70001","pipelineFeatureId":"1R76899I/BOYSPP/1278079943","provenance":{"cellId":"1R76899I","checksum":"0189a4fcfd84f474c839c1f4751088a0c9b1926484e978494a4f9442a4176ba7","readerVersion":"GDAL 3.2.2","processedAt":"2026-08-11T18:29:20.995Z"}}},{"type":"Feature","geometry":{"type":"Point","coordinates":[3.8239283,51.8214683]},"properties":{"dolphinKind":"buoy-special","rawObjectClass":"BOYSPP","sourceProperties":{"RCID":1278079944,"PRIM":1,"GRUP":2,"OBJL":19,"RVER":1,"AGEN":7979,"FIDN":1278079944,"FIDS":1,"LNAM":"1F2B4C2DF3C80001","BOYSHP":5,"CATSPM":["18"],"COLOUR":["6"],"CONRAD":3,"OBJNAM":"BO-OW 21","PEREND":"--1101","PERSTA":"--0401","INFORM":"Resting area during summer","SCAMIN":200000,"SORDAT":"20260611","SORIND":"NL,1R,Reprt,NMA","sourceCellId":"1R76899I","sourceChecksum":"0189a4fcfd84f474c839c1f4751088a0c9b1926484e978494a4f9442a4176ba7","rawObjectClass":"BOYSPP","sourceStableId":"1F2B4C2DF3C80001"},"sourceKind":"official","official":true,"sourceCellId":"1R76899I","sourceStableId":"1F2B4C2DF3C80001","pipelineFeatureId":"1R76899I/BOYSPP/1278079944","provenance":{"cellId":"1R76899I","checksum":"0189a4fcfd84f474c839c1f4751088a0c9b1926484e978494a4f9442a4176ba7","readerVersion":"GDAL 3.2.2","processedAt":"2026-08-11T18:29:20.995Z"}}},{"type":"Feature","geometry":{"type":"Point","coordinates":[3.7668733,51.8015033]},"properties":{"dolphinKind":"buoy-special","rawObjectClass":"BOYSPP","sourceProperties":{"RCID":1278079946,"PRIM":1,"GRUP":2,"OBJL":19,"RVER":1,"AGEN":7979,"FIDN":1278079946,"FIDS":1,"LNAM":"1F2B4C2DF3CA0001","BOYSHP":5,"CATSPM":["18"],"COLOUR":["6"],"CONRAD":3,"OBJNAM":"BO-OW 9","PEREND":"--1101","PERSTA":"--0401","INFORM":"Resting area during summer","SCAMIN":200000,"SORDAT":"20260611","SORIND":"NL,1R,Reprt,NMA","sourceCellId":"1R76899I","sourceChecksum":"0189a4fcfd84f474c839c1f4751088a0c9b1926484e978494a4f9442a4176ba7","rawObjectClass":"BOYSPP","sourceStableId":"1F2B4C2DF3CA0001"},"sourceKind":"official","official":true,"sourceCellId":"1R76899I","sourceStableId":"1F2B4C2DF3CA0001","pipelineFeatureId":"1R76899I/BOYSPP/1278079946","provenance":{"cellId":"1R76899I","checksum":"0189a4fcfd84f474c839c1f4751088a0c9b1926484e978494a4f9442a4176ba7","readerVersion":"GDAL 3.2.2","processedAt":"2026-08-11T18:29:20.995Z"}}},{"type":"Feature","geometry":{"type":"Point","coordinates":[3.8472267,51.8129133]},"properties":{"dolphinKind":"buoy-special","rawObjectClass":"BOYSPP","sourceProperties":{"RCID":1278079948,"PRIM":1,"GRUP":2,"OBJL":19,"RVER":1,"AGEN":7979,"FIDN":1278079948,"FIDS":1,"LNAM":"1F2B4C2DF3CC0001","BOYSHP":5,"CATSPM":["18"],"COLOUR":["6"],"CONRAD":3,"OBJNAM":"BO-OW 31","PEREND":"--1101","PERSTA":"--0401","INFORM":"Resting area during summer","SCAMIN":200000,"SORDAT":"20260611","SORIND":"NL,1R,Reprt,NMA","sourceCellId":"1R76899I","sourceChecksum":"0189a4fcfd84f474c839c1f4751088a0c9b1926484e978494a4f9442a4176ba7","rawObjectClass":"BOYSPP","sourceStableId":"1F2B4C2DF3CC0001"},"sourceKind":"official","official":true,"sourceCellId":"1R76899I","sourceStableId":"1F2B4C2DF3CC0001","pipelineFeatureId":"1R76899I/BOYSPP/1278079948","provenance":{"cellId":"1R76899I","checksum":"0189a4fcfd84f474c839c1f4751088a0c9b1926484e978494a4f9442a4176ba7","readerVersion":"GDAL 3.2.2","processedAt":"2026-08-11T18:29:20.995Z"}}},{"type":"Feature","geometry":{"type":"Point","coordinates":[3.83748,51.8078167]},"properties":{"dolphinKind":"buoy-special","rawObjectClass":"BOYSPP","sourceProperties":{"RCID":1278079949,"PRIM":1,"GRUP":2,"OBJL":19,"RVER":1,"AGEN":7979,"FIDN":1278079949,"FIDS":1,"LNAM":"1F2B4C2DF3CD0001","BOYSHP":5,"CATSPM":["18"],"COLOUR":["6"],"CONRAD":3,"OBJNAM":"BO-OW 33","PEREND":"--1101","PERSTA":"--0401","INFORM":"Resting area during summer","SCAMIN":200000,"SORDAT":"20260702","SORIND":"NL,1R,reprt,MD 312-26","sourceCellId":"1R76899I","sourceChecksum":"0189a4fcfd84f474c839c1f4751088a0c9b1926484e978494a4f9442a4176ba7","rawObjectClass":"BOYSPP","sourceStableId":"1F2B4C2DF3CD0001"},"sourceKind":"official","official":true,"sourceCellId":"1R76899I","sourceStableId":"1F2B4C2DF3CD0001","pipelineFeatureId":"1R76899I/BOYSPP/1278079949","provenance":{"cellId":"1R76899I","checksum":"0189a4fcfd84f474c839c1f4751088a0c9b1926484e978494a4f9442a4176ba7","readerVersion":"GDAL 3.2.2","processedAt":"2026-08-11T18:29:20.995Z"}}},{"type":"Feature","geometry":{"type":"Point","coordinates":[3.7697378,51.7764939]},"properties":{"dolphinKind":"buoy-special","rawObjectClass":"BOYSPP","sourceProperties":{"RCID":1278079950,"PRIM":1,"GRUP":2,"OBJL":19,"RVER":1,"AGEN":7979,"FIDN":1278079950,"FIDS":1,"LNAM":"1F2B4C2DF3CE0001","BOYSHP":5,"CATSPM":["18"],"COLOUR":["6"],"CONRAD":3,"OBJNAM":"BO-OW D","PEREND":"--1101","PERSTA":"--0401","INFORM":"Resting area during summer","SCAMIN":200000,"SORDAT":"20260611","SORIND":"NL,1R,Reprt,NMA","sourceCellId":"1R76899I","sourceChecksum":"0189a4fcfd84f474c839c1f4751088a0c9b1926484e978494a4f9442a4176ba7","rawObjectClass":"BOYSPP","sourceStableId":"1F2B4C2DF3CE0001"},"sourceKind":"official","official":true,"sourceCellId":"1R76899I","sourceStableId":"1F2B4C2DF3CE0001","pipelineFeatureId":"1R76899I/BOYSPP/1278079950","provenance":{"cellId":"1R76899I","checksum":"0189a4fcfd84f474c839c1f4751088a0c9b1926484e978494a4f9442a4176ba7","readerVersion":"GDAL 3.2.2","processedAt":"2026-08-11T18:29:20.995Z"}}},{"type":"Feature","geometry":{"type":"Point","coordinates":[3.8277383,51.802715]},"properties":{"dolphinKind":"buoy-special","rawObjectClass":"BOYSPP","sourceProperties":{"RCID":1278079961,"PRIM":1,"GRUP":2,"OBJL":19,"RVER":1,"AGEN":7979,"FIDN":1278079961,"FIDS":1,"LNAM":"1F2B4C2DF3D90001","BOYSHP":5,"CATSPM":["18"],"COLOUR":["6"],"CONRAD":3,"OBJNAM":"BO-OW 35","PEREND":"--1101","PERSTA":"--0401","INFORM":"Resting area during summer","SCAMIN":200000,"SORDAT":"20260702","SORIND":"NL,1R,reprt,MD 312-26","sourceCellId":"1R76899I","sourceChecksum":"0189a4fcfd84f474c839c1f4751088a0c9b1926484e978494a4f9442a4176ba7","rawObjectClass":"BOYSPP","sourceStableId":"1F2B4C2DF3D90001"},"sourceKind":"official","official":true,"sourceCellId":"1R76899I","sourceStableId":"1F2B4C2DF3D90001","pipelineFeatureId":"1R76899I/BOYSPP/1278079961","provenance":{"cellId":"1R76899I","checksum":"0189a4fcfd84f474c839c1f4751088a0c9b1926484e978494a4f9442a4176ba7","readerVersion":"GDAL 3.2.2","processedAt":"2026-08-11T18:29:20.995Z"}}},{"type":"Feature","geometry":{"type":"Point","coordinates":[3.8179983,51.7976133]},"properties":{"dolphinKind":"buoy-special","rawObjectClass":"BOYSPP","sourceProperties":{"RCID":1278079962,"PRIM":1,"GRUP":2,"OBJL":19,"RVER":1,"AGEN":7979,"FIDN":1278079962,"FIDS":1,"LNAM":"1F2B4C2DF3DA0001","BOYSHP":5,"CATSPM":["18"],"COLOUR":["6"],"CONRAD":3,"OBJNAM":"BO-OW 37","PEREND":"--1101","PERSTA":"--0401","INFORM":"Resting area during summer","SCAMIN":200000,"SORDAT":"20260702","SORIND":"NL,1R,reprt,MD 312-26","sourceCellId":"1R76899I","sourceChecksum":"0189a4fcfd84f474c839c1f4751088a0c9b1926484e978494a4f9442a4176ba7","rawObjectClass":"BOYSPP","sourceStableId":"1F2B4C2DF3DA0001"},"sourceKind":"official","official":true,"sourceCellId":"1R76899I","sourceStableId":"1F2B4C2DF3DA0001","pipelineFeatureId":"1R76899I/BOYSPP/1278079962","provenance":{"cellId":"1R76899I","checksum":"0189a4fcfd84f474c839c1f4751088a0c9b1926484e978494a4f9442a4176ba7","readerVersion":"GDAL 3.2.2","processedAt":"2026-08-11T18:29:20.995Z"}}},{"type":"Feature","geometry":{"type":"Point","coordinates":[3.8573817,51.8226783]},"properties":{"dolphinKind":"buoy-special","rawObjectClass":"BOYSPP","sourceProperties":{"RCID":1278079963,"PRIM":1,"GRUP":2,"OBJL":19,"RVER":1,"AGEN":7979,"FIDN":1278079963,"FIDS":1,"LNAM":"1F2B4C2DF3DB0001","BOYSHP":5,"CATSPM":["18"],"COLOUR":["6"],"CONRAD":3,"OBJNAM":"BO-OW 27","PEREND":"--1101","PERSTA":"--0401","INFORM":"Resting area during summer","SCAMIN":200000,"SORDAT":"20260611","SORIND":"NL,1R,Reprt,NMA","sourceCellId":"1R76899I","sourceChecksum":"0189a4fcfd84f474c839c1f4751088a0c9b1926484e978494a4f9442a4176ba7","rawObjectClass":"BOYSPP","sourceStableId":"1F2B4C2DF3DB0001"},"sourceKind":"official","official":true,"sourceCellId":"1R76899I","sourceStableId":"1F2B4C2DF3DB0001","pipelineFeatureId":"1R76899I/BOYSPP/1278079963","provenance":{"cellId":"1R76899I","checksum":"0189a4fcfd84f474c839c1f4751088a0c9b1926484e978494a4f9442a4176ba7","readerVersion":"GDAL 3.2.2","processedAt":"2026-08-11T18:29:20.995Z"}}},{"type":"Feature","geometry":{"type":"Point","coordinates":[3.85191,51.8173833]},"properties":{"dolphinKind":"buoy-special","rawObjectClass":"BOYSPP","sourceProperties":{"RCID":1278079964,"PRIM":1,"GRUP":2,"OBJL":19,"RVER":1,"AGEN":7979,"FIDN":1278079964,"FIDS":1,"LNAM":"1F2B4C2DF3DC0001","BOYSHP":5,"CATSPM":["18"],"COLOUR":["6"],"CONRAD":3,"OBJNAM":"BO-OW 29","PEREND":"--1101","PERSTA":"--0401","INFORM":"Resting area during summer","SCAMIN":200000,"SORDAT":"20260611","SORIND":"NL,1R,Reprt,NMA","sourceCellId":"1R76899I","sourceChecksum":"0189a4fcfd84f474c839c1f4751088a0c9b1926484e978494a4f9442a4176ba7","rawObjectClass":"BOYSPP","sourceStableId":"1F2B4C2DF3DC0001"},"sourceKind":"official","official":true,"sourceCellId":"1R76899I","sourceStableId":"1F2B4C2DF3DC0001","pipelineFeatureId":"1R76899I/BOYSPP/1278079964","provenance":{"cellId":"1R76899I","checksum":"0189a4fcfd84f474c839c1f4751088a0c9b1926484e978494a4f9442a4176ba7","readerVersion":"GDAL 3.2.2","processedAt":"2026-08-11T18:29:20.995Z"}}},{"type":"Feature","geometry":{"type":"Point","coordinates":[3.8082617,51.79251]},"properties":{"dolphinKind":"buoy-special","rawObjectClass":"BOYSPP","sourceProperties":{"RCID":1278079965,"PRIM":1,"GRUP":2,"OBJL":19,"RVER":1,"AGEN":7979,"FIDN":1278079965,"FIDS":1,"LNAM":"1F2B4C2DF3DD0001","BOYSHP":5,"CATSPM":["18"],"COLOUR":["6"],"CONRAD":3,"OBJNAM":"BO-OW 39","PEREND":"--1101","PERSTA":"--0401","INFORM":"Resting area during summer","SCAMIN":200000,"SORDAT":"20260702","SORIND":"NL,1R,reprt,MD 312-26","sourceCellId":"1R76899I","sourceChecksum":"0189a4fcfd84f474c839c1f4751088a0c9b1926484e978494a4f9442a4176ba7","rawObjectClass":"BOYSPP","sourceStableId":"1F2B4C2DF3DD0001"},"sourceKind":"official","official":true,"sourceCellId":"1R76899I","sourceStableId":"1F2B4C2DF3DD0001","pipelineFeatureId":"1R76899I/BOYSPP/1278079965","provenance":{"cellId":"1R76899I","checksum":"0189a4fcfd84f474c839c1f4751088a0c9b1926484e978494a4f9442a4176ba7","readerVersion":"GDAL 3.2.2","processedAt":"2026-08-11T18:29:20.995Z"}}},{"type":"Feature","geometry":{"type":"Point","coordinates":[3.7550017,51.7799333]},"properties":{"dolphinKind":"buoy-special","rawObjectClass":"BOYSPP","sourceProperties":{"RCID":1278079969,"PRIM":1,"GRUP":2,"OBJL":19,"RVER":1,"AGEN":7979,"FIDN":1278079969,"FIDS":1,"LNAM":"1F2B4C2DF3E10001","BOYSHP":5,"CATSPM":["18"],"COLOUR":["6"],"CONRAD":3,"OBJNAM":"BO-OW 1","PEREND":"--1101","PERSTA":"--0401","INFORM":"Resting area during summer","SCAMIN":200000,"SORDAT":"20260611","SORIND":"NL,1R,Reprt,Topdesk","sourceCellId":"1R76899I","sourceChecksum":"0189a4fcfd84f474c839c1f4751088a0c9b1926484e978494a4f9442a4176ba7","rawObjectClass":"BOYSPP","sourceStableId":"1F2B4C2DF3E10001"},"sourceKind":"official","official":true,"sourceCellId":"1R76899I","sourceStableId":"1F2B4C2DF3E10001","pipelineFeatureId":"1R76899I/BOYSPP/1278079969","provenance":{"cellId":"1R76899I","checksum":"0189a4fcfd84f474c839c1f4751088a0c9b1926484e978494a4f9442a4176ba7","readerVersion":"GDAL 3.2.2","processedAt":"2026-08-11T18:29:20.995Z"}}},{"type":"Feature","geometry":{"type":"Point","coordinates":[3.7564667,51.797495]},"properties":{"dolphinKind":"buoy-special","rawObjectClass":"BOYSPP","sourceProperties":{"RCID":1278079972,"PRIM":1,"GRUP":2,"OBJL":19,"RVER":1,"AGEN":7979,"FIDN":1278079972,"FIDS":1,"LNAM":"1F2B4C2DF3E40001","BOYSHP":5,"CATSPM":["18"],"COLOUR":["6"],"CONRAD":3,"OBJNAM":"BO-WNB 7","PEREND":"--0401","PERSTA":"--1101","INFORM":"Resting area during winter","SCAMIN":200000,"SORDAT":"20231227","SORIND":"NL,1R,reprt,MD628-23","sourceCellId":"1R76899I","sourceChecksum":"0189a4fcfd84f474c839c1f4751088a0c9b1926484e978494a4f9442a4176ba7","rawObjectClass":"BOYSPP","sourceStableId":"1F2B4C2DF3E40001"},"sourceKind":"official","official":true,"sourceCellId":"1R76899I","sourceStableId":"1F2B4C2DF3E40001","pipelineFeatureId":"1R76899I/BOYSPP/1278079972","provenance":{"cellId":"1R76899I","checksum":"0189a4fcfd84f474c839c1f4751088a0c9b1926484e978494a4f9442a4176ba7","readerVersion":"GDAL 3.2.2","processedAt":"2026-08-11T18:29:20.995Z"}}},{"type":"Feature","geometry":{"type":"Point","coordinates":[3.7451367,51.7933017]},"properties":{"dolphinKind":"buoy-special","rawObjectClass":"BOYSPP","sourceProperties":{"RCID":1278079973,"PRIM":1,"GRUP":2,"OBJL":19,"RVER":1,"AGEN":7979,"FIDN":1278079973,"FIDS":1,"LNAM":"1F2B4C2DF3E50001","BOYSHP":5,"CATSPM":["18"],"COLOUR":["6"],"CONRAD":3,"OBJNAM":"BO-WNB 5","PEREND":"--0401","PERSTA":"--1101","INFORM":"Resting area during winter","SCAMIN":200000,"SORDAT":"20220429","SORIND":"NL,1R,reprt,markeerplan beheerder","sourceCellId":"1R76899I","sourceChecksum":"0189a4fcfd84f474c839c1f4751088a0c9b1926484e978494a4f9442a4176ba7","rawObjectClass":"BOYSPP","sourceStableId":"1F2B4C2DF3E50001"},"sourceKind":"official","official":true,"sourceCellId":"1R76899I","sourceStableId":"1F2B4C2DF3E50001","pipelineFeatureId":"1R76899I/BOYSPP/1278079973","provenance":{"cellId":"1R76899I","checksum":"0189a4fcfd84f474c839c1f4751088a0c9b1926484e978494a4f9442a4176ba7","readerVersion":"GDAL 3.2.2","processedAt":"2026-08-11T18:29:20.995Z"}}},{"type":"Feature","geometry":{"type":"Point","coordinates":[3.7337633,51.7890417]},"properties":{"dolphinKind":"buoy-special","rawObjectClass":"BOYSPP","sourceProperties":{"RCID":1278079974,"PRIM":1,"GRUP":2,"OBJL":19,"RVER":1,"AGEN":7979,"FIDN":1278079974,"FIDS":1,"LNAM":"1F2B4C2DF3E60001","BOYSHP":5,"CATSPM":["18"],"COLOUR":["6"],"CONRAD":3,"OBJNAM":"BO-WNB3","PEREND":"--0401","PERSTA":"--1101","INFORM":"Resting area during winter","SCAMIN":200000,"SORDAT":"20220429","SORIND":"NL,1R,reprt,markeerplan beheerder","sourceCellId":"1R76899I","sourceChecksum":"0189a4fcfd84f474c839c1f4751088a0c9b1926484e978494a4f9442a4176ba7","rawObjectClass":"BOYSPP","sourceStableId":"1F2B4C2DF3E60001"},"sourceKind":"official","official":true,"sourceCellId":"1R76899I","sourceStableId":"1F2B4C2DF3E60001","pipelineFeatureId":"1R76899I/BOYSPP/1278079974","provenance":{"cellId":"1R76899I","checksum":"0189a4fcfd84f474c839c1f4751088a0c9b1926484e978494a4f9442a4176ba7","readerVersion":"GDAL 3.2.2","processedAt":"2026-08-11T18:29:20.995Z"}}},{"type":"Feature","geometry":{"type":"Point","coordinates":[3.7795,51.7779683]},"properties":{"dolphinKind":"buoy-special","rawObjectClass":"BOYSPP","sourceProperties":{"RCID":1278123426,"PRIM":1,"GRUP":2,"OBJL":19,"RVER":1,"AGEN":7979,"FIDN":1278123426,"FIDS":1,"LNAM":"1F2B4C2E9DA20001","BOYSHP":5,"CATSPM":["18"],"COLOUR":["6"],"CONRAD":3,"OBJNAM":"BO-OW E","PEREND":"--0401","PERSTA":"--1101","INFORM":"Resting area during winter","SCAMIN":200000,"SORDAT":"20260409","SORIND":"NL,1R,Reprt,MD 189-2026","sourceCellId":"1R76899I","sourceChecksum":"0189a4fcfd84f474c839c1f4751088a0c9b1926484e978494a4f9442a4176ba7","rawObjectClass":"BOYSPP","sourceStableId":"1F2B4C2E9DA20001"},"sourceKind":"official","official":true,"sourceCellId":"1R76899I","sourceStableId":"1F2B4C2E9DA20001","pipelineFeatureId":"1R76899I/BOYSPP/1278123426","provenance":{"cellId":"1R76899I","checksum":"0189a4fcfd84f474c839c1f4751088a0c9b1926484e978494a4f9442a4176ba7","readerVersion":"GDAL 3.2.2","processedAt":"2026-08-11T18:29:20.995Z"}}},{"type":"Feature","geometry":{"type":"Point","coordinates":[3.83748,51.8078167]},"properties":{"dolphinKind":"buoy-special","rawObjectClass":"BOYSPP","sourceProperties":{"RCID":1278168034,"PRIM":1,"GRUP":2,"OBJL":19,"RVER":1,"AGEN":7979,"FIDN":1278168034,"FIDS":1,"LNAM":"1F2B4C2F4BE20001","BOYSHP":5,"CATSPM":["18"],"COLOUR":["6"],"CONRAD":3,"OBJNAM":"BO-OW 33","PEREND":"--1101","PERSTA":"--0401","INFORM":"Resting area during summer","SCAMIN":200000,"SORDAT":"20260702","SORIND":"NL,1R,reprt,MD 312-26","sourceCellId":"1R76899I","sourceChecksum":"0189a4fcfd84f474c839c1f4751088a0c9b1926484e978494a4f9442a4176ba7","rawObjectClass":"BOYSPP","sourceStableId":"1F2B4C2F4BE20001"},"sourceKind":"official","official":true,"sourceCellId":"1R76899I","sourceStableId":"1F2B4C2F4BE20001","pipelineFeatureId":"1R76899I/BOYSPP/1278168034","provenance":{"cellId":"1R76899I","checksum":"0189a4fcfd84f474c839c1f4751088a0c9b1926484e978494a4f9442a4176ba7","readerVersion":"GDAL 3.2.2","processedAt":"2026-08-11T18:29:20.995Z"}}},{"type":"Feature","geometry":{"type":"Point","coordinates":[3.7887933,51.7823017]},"properties":{"dolphinKind":"buoy-special","rawObjectClass":"BOYSPP","sourceProperties":{"RCID":1280776948,"PRIM":1,"GRUP":2,"OBJL":19,"RVER":1,"AGEN":7979,"FIDN":1280776948,"FIDS":1,"LNAM":"1F2B4C571AF40001","BOYSHP":5,"CATSPM":["18"],"COLOUR":["6"],"CONRAD":3,"OBJNAM":"BO-OW 43","PEREND":"--1101","PERSTA":"--0401","INFORM":"Resting area during summer","SCAMIN":200000,"SORDAT":"20260611","SORIND":"NL,1R,reprt, NMA","sourceCellId":"1R76899I","sourceChecksum":"0189a4fcfd84f474c839c1f4751088a0c9b1926484e978494a4f9442a4176ba7","rawObjectClass":"BOYSPP","sourceStableId":"1F2B4C571AF40001"},"sourceKind":"official","official":true,"sourceCellId":"1R76899I","sourceStableId":"1F2B4C571AF40001","pipelineFeatureId":"1R76899I/BOYSPP/1280776948","provenance":{"cellId":"1R76899I","checksum":"0189a4fcfd84f474c839c1f4751088a0c9b1926484e978494a4f9442a4176ba7","readerVersion":"GDAL 3.2.2","processedAt":"2026-08-11T18:29:20.995Z"}}},{"type":"Feature","geometry":{"type":"Point","coordinates":[3.7786033,51.7810667]},"properties":{"dolphinKind":"buoy-special","rawObjectClass":"BOYSPP","sourceProperties":{"RCID":1280777051,"PRIM":1,"GRUP":2,"OBJL":19,"RVER":1,"AGEN":7979,"FIDN":1280777051,"FIDS":1,"LNAM":"1F2B4C571B5B0001","BOYSHP":5,"CATSPM":["18"],"COLOUR":["6"],"CONRAD":3,"OBJNAM":"BO-OW 45","PEREND":"--1101","PERSTA":"--0401","INFORM":"Resting area during summer","SCAMIN":200000,"SORDAT":"20260611","SORIND":"NL,1R,reprt, NMA","sourceCellId":"1R76899I","sourceChecksum":"0189a4fcfd84f474c839c1f4751088a0c9b1926484e978494a4f9442a4176ba7","rawObjectClass":"BOYSPP","sourceStableId":"1F2B4C571B5B0001"},"sourceKind":"official","official":true,"sourceCellId":"1R76899I","sourceStableId":"1F2B4C571B5B0001","pipelineFeatureId":"1R76899I/BOYSPP/1280777051","provenance":{"cellId":"1R76899I","checksum":"0189a4fcfd84f474c839c1f4751088a0c9b1926484e978494a4f9442a4176ba7","readerVersion":"GDAL 3.2.2","processedAt":"2026-08-11T18:29:20.995Z"}}},{"type":"Feature","geometry":{"type":"Point","coordinates":[3.7684133,51.77983]},"properties":{"dolphinKind":"buoy-special","rawObjectClass":"BOYSPP","sourceProperties":{"RCID":1280777052,"PRIM":1,"GRUP":2,"OBJL":19,"RVER":1,"AGEN":7979,"FIDN":1280777052,"FIDS":1,"LNAM":"1F2B4C571B5C0001","BOYSHP":5,"CATSPM":["18"],"COLOUR":["6"],"CONRAD":3,"OBJNAM":"BO-OW 47","PEREND":"--1101","PERSTA":"--0401","INFORM":"Resting area during summer","SCAMIN":200000,"SORDAT":"20260611","SORIND":"NL,1R,reprt, NMA","sourceCellId":"1R76899I","sourceChecksum":"0189a4fcfd84f474c839c1f4751088a0c9b1926484e978494a4f9442a4176ba7","rawObjectClass":"BOYSPP","sourceStableId":"1F2B4C571B5C0001"},"sourceKind":"official","official":true,"sourceCellId":"1R76899I","sourceStableId":"1F2B4C571B5C0001","pipelineFeatureId":"1R76899I/BOYSPP/1280777052","provenance":{"cellId":"1R76899I","checksum":"0189a4fcfd84f474c839c1f4751088a0c9b1926484e978494a4f9442a4176ba7","readerVersion":"GDAL 3.2.2","processedAt":"2026-08-11T18:29:20.995Z"}}},{"type":"Feature","geometry":{"type":"Point","coordinates":[3.7621033,51.8249083]},"properties":{"dolphinKind":"light","rawObjectClass":"LIGHTS","sourceProperties":{"RCID":17632,"PRIM":1,"GRUP":2,"OBJL":75,"RVER":1,"AGEN":7979,"FIDN":1106834684,"FIDS":438,"LNAM":"1F2B41F8F4FC01B6","COLOUR":["1"],"LITCHR":5,"SIGGRP":"(9)","SIGPER":10,"SCAMIN":200000,"SORDAT":"20030930","sourceCellId":"1R76899I","sourceChecksum":"0189a4fcfd84f474c839c1f4751088a0c9b1926484e978494a4f9442a4176ba7","rawObjectClass":"LIGHTS","sourceStableId":"1F2B41F8F4FC01B6"},"sourceKind":"official","official":true,"sourceCellId":"1R76899I","sourceStableId":"1F2B41F8F4FC01B6","pipelineFeatureId":"1R76899I/LIGHTS/17632","provenance":{"cellId":"1R76899I","checksum":"0189a4fcfd84f474c839c1f4751088a0c9b1926484e978494a4f9442a4176ba7","readerVersion":"GDAL 3.2.2","processedAt":"2026-08-11T18:29:20.995Z"}}},{"type":"Feature","geometry":{"type":"Point","coordinates":[3.9313714,51.7974965]},"properties":{"dolphinKind":"light","rawObjectClass":"LIGHTS","sourceProperties":{"RCID":19716,"PRIM":1,"GRUP":2,"OBJL":75,"RVER":1,"AGEN":7979,"FIDN":1106834753,"FIDS":417,"LNAM":"1F2B41F8F54101A1","COLOUR":["3"],"LITCHR":1,"SCAMIN":200000,"sourceCellId":"1R76899I","sourceChecksum":"0189a4fcfd84f474c839c1f4751088a0c9b1926484e978494a4f9442a4176ba7","rawObjectClass":"LIGHTS","sourceStableId":"1F2B41F8F54101A1"},"sourceKind":"official","official":true,"sourceCellId":"1R76899I","sourceStableId":"1F2B41F8F54101A1","pipelineFeatureId":"1R76899I/LIGHTS/19716","provenance":{"cellId":"1R76899I","checksum":"0189a4fcfd84f474c839c1f4751088a0c9b1926484e978494a4f9442a4176ba7","readerVersion":"GDAL 3.2.2","processedAt":"2026-08-11T18:29:20.995Z"}}},{"type":"Feature","geometry":{"type":"Point","coordinates":[3.9319822,51.7976359]},"properties":{"dolphinKind":"light","rawObjectClass":"LIGHTS","sourceProperties":{"RCID":19717,"PRIM":1,"GRUP":2,"OBJL":75,"RVER":1,"AGEN":7979,"FIDN":1106834753,"FIDS":418,"LNAM":"1F2B41F8F54101A2","COLOUR":["4"],"LITCHR":1,"SCAMIN":200000,"sourceCellId":"1R76899I","sourceChecksum":"0189a4fcfd84f474c839c1f4751088a0c9b1926484e978494a4f9442a4176ba7","rawObjectClass":"LIGHTS","sourceStableId":"1F2B41F8F54101A2"},"sourceKind":"official","official":true,"sourceCellId":"1R76899I","sourceStableId":"1F2B41F8F54101A2","pipelineFeatureId":"1R76899I/LIGHTS/19717","provenance":{"cellId":"1R76899I","checksum":"0189a4fcfd84f474c839c1f4751088a0c9b1926484e978494a4f9442a4176ba7","readerVersion":"GDAL 3.2.2","processedAt":"2026-08-11T18:29:20.995Z"}}},{"type":"Feature","geometry":{"type":"Point","coordinates":[3.8687317,51.775553]},"properties":{"dolphinKind":"light","rawObjectClass":"LIGHTS","sourceProperties":{"RCID":19722,"PRIM":1,"GRUP":2,"OBJL":75,"RVER":1,"AGEN":7979,"FIDN":1106834753,"FIDS":423,"LNAM":"1F2B41F8F54101A7","COLOUR":["3"],"LITCHR":1,"SCAMIN":200000,"sourceCellId":"1R76899I","sourceChecksum":"0189a4fcfd84f474c839c1f4751088a0c9b1926484e978494a4f9442a4176ba7","rawObjectClass":"LIGHTS","sourceStableId":"1F2B41F8F54101A7"},"sourceKind":"official","official":true,"sourceCellId":"1R76899I","sourceStableId":"1F2B41F8F54101A7","pipelineFeatureId":"1R76899I/LIGHTS/19722","provenance":{"cellId":"1R76899I","checksum":"0189a4fcfd84f474c839c1f4751088a0c9b1926484e978494a4f9442a4176ba7","readerVersion":"GDAL 3.2.2","processedAt":"2026-08-11T18:29:20.995Z"}}},{"type":"Feature","geometry":{"type":"Point","coordinates":[3.8709954,51.7759602]},"properties":{"dolphinKind":"light","rawObjectClass":"LIGHTS","sourceProperties":{"RCID":19723,"PRIM":1,"GRUP":2,"OBJL":75,"RVER":1,"AGEN":7979,"FIDN":1106834753,"FIDS":424,"LNAM":"1F2B41F8F54101A8","COLOUR":["4"],"LITCHR":1,"SCAMIN":200000,"sourceCellId":"1R76899I","sourceChecksum":"0189a4fcfd84f474c839c1f4751088a0c9b1926484e978494a4f9442a4176ba7","rawObjectClass":"LIGHTS","sourceStableId":"1F2B41F8F54101A8"},"sourceKind":"official","official":true,"sourceCellId":"1R76899I","sourceStableId":"1F2B41F8F54101A8","pipelineFeatureId":"1R76899I/LIGHTS/19723","provenance":{"cellId":"1R76899I","checksum":"0189a4fcfd84f474c839c1f4751088a0c9b1926484e978494a4f9442a4176ba7","readerVersion":"GDAL 3.2.2","processedAt":"2026-08-11T18:29:20.995Z"}}},{"type":"Feature","geometry":{"type":"Point","coordinates":[3.8640284,51.8131884]},"properties":{"dolphinKind":"light","rawObjectClass":"LIGHTS","sourceProperties":{"RCID":406939102,"PRIM":1,"GRUP":2,"OBJL":75,"RVER":1,"AGEN":7979,"FIDN":406939102,"FIDS":1,"LNAM":"1F2B184165DE0001","COLOUR":["1"],"HEIGHT":56,"LITCHR":2,"SIGGRP":"(3)","SIGPER":15,"VALNMR":30,"SCAMIN":200000,"sourceCellId":"1R76899I","sourceChecksum":"0189a4fcfd84f474c839c1f4751088a0c9b1926484e978494a4f9442a4176ba7","rawObjectClass":"LIGHTS","sourceStableId":"1F2B184165DE0001"},"sourceKind":"official","official":true,"sourceCellId":"1R76899I","sourceStableId":"1F2B184165DE0001","pipelineFeatureId":"1R76899I/LIGHTS/406939102","provenance":{"cellId":"1R76899I","checksum":"0189a4fcfd84f474c839c1f4751088a0c9b1926484e978494a4f9442a4176ba7","readerVersion":"GDAL 3.2.2","processedAt":"2026-08-11T18:29:20.995Z"}}},{"type":"Feature","geometry":{"type":"Point","coordinates":[3.7621033,51.8249083]},"properties":{"dolphinKind":"topmark","rawObjectClass":"TOPMAR","sourceProperties":{"RCID":17633,"PRIM":1,"GRUP":2,"OBJL":144,"RVER":1,"AGEN":7979,"FIDN":1106834684,"FIDS":439,"LNAM":"1F2B41F8F4FC01B7","COLOUR":["2"],"TOPSHP":10,"SCAMIN":200000,"SORDAT":"20030930","sourceCellId":"1R76899I","sourceChecksum":"0189a4fcfd84f474c839c1f4751088a0c9b1926484e978494a4f9442a4176ba7","rawObjectClass":"TOPMAR","sourceStableId":"1F2B41F8F4FC01B7"},"sourceKind":"official","official":true,"sourceCellId":"1R76899I","sourceStableId":"1F2B41F8F4FC01B7","pipelineFeatureId":"1R76899I/TOPMAR/17633","provenance":{"cellId":"1R76899I","checksum":"0189a4fcfd84f474c839c1f4751088a0c9b1926484e978494a4f9442a4176ba7","readerVersion":"GDAL 3.2.2","processedAt":"2026-08-11T18:29:20.995Z"},"associationRefsVerifiedInGdalOutput":false}},{"type":"Feature","geometry":{"type":"Point","coordinates":[3.9021833,51.7753667]},"properties":{"dolphinKind":"topmark","rawObjectClass":"TOPMAR","sourceProperties":{"RCID":8557324,"PRIM":1,"GRUP":2,"OBJL":144,"RVER":1,"AGEN":7979,"FIDN":8557324,"FIDS":1,"LNAM":"1F2B0082930C0001","COLOUR":["3"],"TOPSHP":5,"SCAMIN":200000,"sourceCellId":"1R76899I","sourceChecksum":"0189a4fcfd84f474c839c1f4751088a0c9b1926484e978494a4f9442a4176ba7","rawObjectClass":"TOPMAR","sourceStableId":"1F2B0082930C0001"},"sourceKind":"official","official":true,"sourceCellId":"1R76899I","sourceStableId":"1F2B0082930C0001","pipelineFeatureId":"1R76899I/TOPMAR/8557324","provenance":{"cellId":"1R76899I","checksum":"0189a4fcfd84f474c839c1f4751088a0c9b1926484e978494a4f9442a4176ba7","readerVersion":"GDAL 3.2.2","processedAt":"2026-08-11T18:29:20.995Z"},"associationRefsVerifiedInGdalOutput":false}},{"type":"Feature","geometry":{"type":"Point","coordinates":[3.9267833,51.7921333]},"properties":{"dolphinKind":"topmark","rawObjectClass":"TOPMAR","sourceProperties":{"RCID":8557325,"PRIM":1,"GRUP":2,"OBJL":144,"RVER":1,"AGEN":7979,"FIDN":8557325,"FIDS":1,"LNAM":"1F2B0082930D0001","COLOUR":["3"],"TOPSHP":5,"SCAMIN":200000,"sourceCellId":"1R76899I","sourceChecksum":"0189a4fcfd84f474c839c1f4751088a0c9b1926484e978494a4f9442a4176ba7","rawObjectClass":"TOPMAR","sourceStableId":"1F2B0082930D0001"},"sourceKind":"official","official":true,"sourceCellId":"1R76899I","sourceStableId":"1F2B0082930D0001","pipelineFeatureId":"1R76899I/TOPMAR/8557325","provenance":{"cellId":"1R76899I","checksum":"0189a4fcfd84f474c839c1f4751088a0c9b1926484e978494a4f9442a4176ba7","readerVersion":"GDAL 3.2.2","processedAt":"2026-08-11T18:29:20.995Z"},"associationRefsVerifiedInGdalOutput":false}},{"type":"Feature","geometry":{"type":"Point","coordinates":[3.9098167,51.7861667]},"properties":{"dolphinKind":"topmark","rawObjectClass":"TOPMAR","sourceProperties":{"RCID":8557326,"PRIM":1,"GRUP":2,"OBJL":144,"RVER":1,"AGEN":7979,"FIDN":8557326,"FIDS":1,"LNAM":"1F2B0082930E0001","COLOUR":["3"],"TOPSHP":5,"SCAMIN":200000,"sourceCellId":"1R76899I","sourceChecksum":"0189a4fcfd84f474c839c1f4751088a0c9b1926484e978494a4f9442a4176ba7","rawObjectClass":"TOPMAR","sourceStableId":"1F2B0082930E0001"},"sourceKind":"official","official":true,"sourceCellId":"1R76899I","sourceStableId":"1F2B0082930E0001","pipelineFeatureId":"1R76899I/TOPMAR/8557326","provenance":{"cellId":"1R76899I","checksum":"0189a4fcfd84f474c839c1f4751088a0c9b1926484e978494a4f9442a4176ba7","readerVersion":"GDAL 3.2.2","processedAt":"2026-08-11T18:29:20.995Z"},"associationRefsVerifiedInGdalOutput":false}},{"type":"Feature","geometry":{"type":"Point","coordinates":[3.85992,51.7789233]},"properties":{"dolphinKind":"topmark","rawObjectClass":"TOPMAR","sourceProperties":{"RCID":190821401,"PRIM":1,"GRUP":2,"OBJL":144,"RVER":1,"AGEN":7979,"FIDN":190821401,"FIDS":1,"LNAM":"1F2B0B5FB4190001","COLOUR":["2"],"TOPSHP":10,"SCAMIN":200000,"SORDAT":"20170404","SORIND":"NL,1R,reprt,ENC opschonen","sourceCellId":"1R76899I","sourceChecksum":"0189a4fcfd84f474c839c1f4751088a0c9b1926484e978494a4f9442a4176ba7","rawObjectClass":"TOPMAR","sourceStableId":"1F2B0B5FB4190001"},"sourceKind":"official","official":true,"sourceCellId":"1R76899I","sourceStableId":"1F2B0B5FB4190001","pipelineFeatureId":"1R76899I/TOPMAR/190821401","provenance":{"cellId":"1R76899I","checksum":"0189a4fcfd84f474c839c1f4751088a0c9b1926484e978494a4f9442a4176ba7","readerVersion":"GDAL 3.2.2","processedAt":"2026-08-11T18:29:20.995Z"},"associationRefsVerifiedInGdalOutput":false}},{"type":"Feature","geometry":{"type":"Point","coordinates":[3.8340467,51.7825933]},"properties":{"dolphinKind":"topmark","rawObjectClass":"TOPMAR","sourceProperties":{"RCID":260457803,"PRIM":1,"GRUP":2,"OBJL":144,"RVER":1,"AGEN":7979,"FIDN":260457803,"FIDS":1,"LNAM":"1F2B0F86454B0001","COLOUR":["2"],"TOPSHP":11,"SCAMIN":200000,"SORDAT":"20180528","SORIND":"NL,1R,reprt,MD 238-18","sourceCellId":"1R76899I","sourceChecksum":"0189a4fcfd84f474c839c1f4751088a0c9b1926484e978494a4f9442a4176ba7","rawObjectClass":"TOPMAR","sourceStableId":"1F2B0F86454B0001"},"sourceKind":"official","official":true,"sourceCellId":"1R76899I","sourceStableId":"1F2B0F86454B0001","pipelineFeatureId":"1R76899I/TOPMAR/260457803","provenance":{"cellId":"1R76899I","checksum":"0189a4fcfd84f474c839c1f4751088a0c9b1926484e978494a4f9442a4176ba7","readerVersion":"GDAL 3.2.2","processedAt":"2026-08-11T18:29:20.995Z"},"associationRefsVerifiedInGdalOutput":false}},{"type":"Feature","geometry":{"type":"Point","coordinates":[3.8392067,51.7868383]},"properties":{"dolphinKind":"topmark","rawObjectClass":"TOPMAR","sourceProperties":{"RCID":260459306,"PRIM":1,"GRUP":2,"OBJL":144,"RVER":1,"AGEN":7979,"FIDN":260459306,"FIDS":1,"LNAM":"1F2B0F864B2A0001","COLOUR":["2"],"TOPSHP":11,"SCAMIN":200000,"SORDAT":"20180528","SORIND":"NL,1R,reprt,MD 238-18","sourceCellId":"1R76899I","sourceChecksum":"0189a4fcfd84f474c839c1f4751088a0c9b1926484e978494a4f9442a4176ba7","rawObjectClass":"TOPMAR","sourceStableId":"1F2B0F864B2A0001"},"sourceKind":"official","official":true,"sourceCellId":"1R76899I","sourceStableId":"1F2B0F864B2A0001","pipelineFeatureId":"1R76899I/TOPMAR/260459306","provenance":{"cellId":"1R76899I","checksum":"0189a4fcfd84f474c839c1f4751088a0c9b1926484e978494a4f9442a4176ba7","readerVersion":"GDAL 3.2.2","processedAt":"2026-08-11T18:29:20.995Z"},"associationRefsVerifiedInGdalOutput":false}},{"type":"Feature","geometry":{"type":"Point","coordinates":[3.88125,51.7782167]},"properties":{"dolphinKind":"topmark","rawObjectClass":"TOPMAR","sourceProperties":{"RCID":452519126,"PRIM":1,"GRUP":2,"OBJL":144,"RVER":1,"AGEN":7979,"FIDN":452519126,"FIDS":1,"LNAM":"1F2B1AF8E4D60001","COLOUR":["4"],"TOPSHP":1,"SCAMIN":200000,"sourceCellId":"1R76899I","sourceChecksum":"0189a4fcfd84f474c839c1f4751088a0c9b1926484e978494a4f9442a4176ba7","rawObjectClass":"TOPMAR","sourceStableId":"1F2B1AF8E4D60001"},"sourceKind":"official","official":true,"sourceCellId":"1R76899I","sourceStableId":"1F2B1AF8E4D60001","pipelineFeatureId":"1R76899I/TOPMAR/452519126","provenance":{"cellId":"1R76899I","checksum":"0189a4fcfd84f474c839c1f4751088a0c9b1926484e978494a4f9442a4176ba7","readerVersion":"GDAL 3.2.2","processedAt":"2026-08-11T18:29:20.995Z"},"associationRefsVerifiedInGdalOutput":false}},{"type":"Feature","geometry":{"type":"Point","coordinates":[3.8859166,51.7785334]},"properties":{"dolphinKind":"topmark","rawObjectClass":"TOPMAR","sourceProperties":{"RCID":452519127,"PRIM":1,"GRUP":2,"OBJL":144,"RVER":1,"AGEN":7979,"FIDN":452519127,"FIDS":1,"LNAM":"1F2B1AF8E4D70001","COLOUR":["4"],"TOPSHP":1,"SCAMIN":200000,"sourceCellId":"1R76899I","sourceChecksum":"0189a4fcfd84f474c839c1f4751088a0c9b1926484e978494a4f9442a4176ba7","rawObjectClass":"TOPMAR","sourceStableId":"1F2B1AF8E4D70001"},"sourceKind":"official","official":true,"sourceCellId":"1R76899I","sourceStableId":"1F2B1AF8E4D70001","pipelineFeatureId":"1R76899I/TOPMAR/452519127","provenance":{"cellId":"1R76899I","checksum":"0189a4fcfd84f474c839c1f4751088a0c9b1926484e978494a4f9442a4176ba7","readerVersion":"GDAL 3.2.2","processedAt":"2026-08-11T18:29:20.995Z"},"associationRefsVerifiedInGdalOutput":false}},{"type":"Feature","geometry":{"type":"Point","coordinates":[3.8300767,51.7867917]},"properties":{"dolphinKind":"topmark","rawObjectClass":"TOPMAR","sourceProperties":{"RCID":466157780,"PRIM":1,"GRUP":2,"OBJL":144,"RVER":1,"AGEN":7979,"FIDN":466157780,"FIDS":1,"LNAM":"1F2B1BC900D40001","COLOUR":["2"],"TOPSHP":10,"SCAMIN":200000,"SORDAT":"20170404","SORIND":"NL,1R,reprt,ENC opschonen","sourceCellId":"1R76899I","sourceChecksum":"0189a4fcfd84f474c839c1f4751088a0c9b1926484e978494a4f9442a4176ba7","rawObjectClass":"TOPMAR","sourceStableId":"1F2B1BC900D40001"},"sourceKind":"official","official":true,"sourceCellId":"1R76899I","sourceStableId":"1F2B1BC900D40001","pipelineFeatureId":"1R76899I/TOPMAR/466157780","provenance":{"cellId":"1R76899I","checksum":"0189a4fcfd84f474c839c1f4751088a0c9b1926484e978494a4f9442a4176ba7","readerVersion":"GDAL 3.2.2","processedAt":"2026-08-11T18:29:20.995Z"},"associationRefsVerifiedInGdalOutput":false}},{"type":"Feature","geometry":{"type":"Point","coordinates":[3.904635,51.7903683]},"properties":{"dolphinKind":"topmark","rawObjectClass":"TOPMAR","sourceProperties":{"RCID":1137186581,"PRIM":1,"GRUP":2,"OBJL":144,"RVER":1,"AGEN":7979,"FIDN":1137186581,"FIDS":1,"LNAM":"1F2B43C817150001","COLOUR":["3","1","3"],"COLPAT":["1"],"TOPSHP":5,"SCAMIN":200000,"SORDAT":"20230816","SORIND":"NL,1R,reprt,NDB verbetering","sourceCellId":"1R76899I","sourceChecksum":"0189a4fcfd84f474c839c1f4751088a0c9b1926484e978494a4f9442a4176ba7","rawObjectClass":"TOPMAR","sourceStableId":"1F2B43C817150001"},"sourceKind":"official","official":true,"sourceCellId":"1R76899I","sourceStableId":"1F2B43C817150001","pipelineFeatureId":"1R76899I/TOPMAR/1137186581","provenance":{"cellId":"1R76899I","checksum":"0189a4fcfd84f474c839c1f4751088a0c9b1926484e978494a4f9442a4176ba7","readerVersion":"GDAL 3.2.2","processedAt":"2026-08-11T18:29:20.995Z"},"associationRefsVerifiedInGdalOutput":false}},{"type":"Feature","geometry":{"type":"Point","coordinates":[3.9016217,51.7885117]},"properties":{"dolphinKind":"topmark","rawObjectClass":"TOPMAR","sourceProperties":{"RCID":1137186584,"PRIM":1,"GRUP":2,"OBJL":144,"RVER":1,"AGEN":7979,"FIDN":1137186584,"FIDS":1,"LNAM":"1F2B43C817180001","COLOUR":["3","1","3"],"COLPAT":["1"],"TOPSHP":5,"SCAMIN":200000,"sourceCellId":"1R76899I","sourceChecksum":"0189a4fcfd84f474c839c1f4751088a0c9b1926484e978494a4f9442a4176ba7","rawObjectClass":"TOPMAR","sourceStableId":"1F2B43C817180001"},"sourceKind":"official","official":true,"sourceCellId":"1R76899I","sourceStableId":"1F2B43C817180001","pipelineFeatureId":"1R76899I/TOPMAR/1137186584","provenance":{"cellId":"1R76899I","checksum":"0189a4fcfd84f474c839c1f4751088a0c9b1926484e978494a4f9442a4176ba7","readerVersion":"GDAL 3.2.2","processedAt":"2026-08-11T18:29:20.995Z"},"associationRefsVerifiedInGdalOutput":false}},{"type":"Feature","geometry":{"type":"Point","coordinates":[3.8986417,51.7866817]},"properties":{"dolphinKind":"topmark","rawObjectClass":"TOPMAR","sourceProperties":{"RCID":1137186585,"PRIM":1,"GRUP":2,"OBJL":144,"RVER":1,"AGEN":7979,"FIDN":1137186585,"FIDS":1,"LNAM":"1F2B43C817190001","COLOUR":["3","1","3"],"COLPAT":["1"],"TOPSHP":5,"SCAMIN":200000,"sourceCellId":"1R76899I","sourceChecksum":"0189a4fcfd84f474c839c1f4751088a0c9b1926484e978494a4f9442a4176ba7","rawObjectClass":"TOPMAR","sourceStableId":"1F2B43C817190001"},"sourceKind":"official","official":true,"sourceCellId":"1R76899I","sourceStableId":"1F2B43C817190001","pipelineFeatureId":"1R76899I/TOPMAR/1137186585","provenance":{"cellId":"1R76899I","checksum":"0189a4fcfd84f474c839c1f4751088a0c9b1926484e978494a4f9442a4176ba7","readerVersion":"GDAL 3.2.2","processedAt":"2026-08-11T18:29:20.995Z"},"associationRefsVerifiedInGdalOutput":false}}]}