{"type":"FeatureCollection","features":[{"type":"Feature","geometry":{"type":"Point","coordinates":[3.24222,51.50306]},"properties":{"dolphinKind":"buoy-special","rawObjectClass":"BOYSPP","sourceProperties":{"RCID":1238503045,"PRIM":1,"GRUP":2,"OBJL":19,"RVER":1,"AGEN":7979,"FIDN":1238503045,"FIDS":1,"LNAM":"1F2B49D20E850001","LNAM_REFS":["1F2B49D20E840001"],"FFPT_RIND":[2],"BOYSHP":3,"CATSPM":["10","9"],"COLOUR":["6"],"NOBJNM":"Deurloo","OBJNAM":"DEUR","INFORM":"Waverider","NINFOM":"Golfmeet boei","SCAMIN":200000,"SORDAT":"20250709","SORIND":"NL,1R,reprt,Topdesk C250702371","sourceCellId":"1R75889I","sourceChecksum":"432495df2c5161441e6a99922b6467c8c274ef2be2c21903d119e8b0dc3342c8","rawObjectClass":"BOYSPP","sourceStableId":"1F2B49D20E850001"},"sourceKind":"official","official":true,"sourceCellId":"1R75889I","sourceStableId":"1F2B49D20E850001","pipelineFeatureId":"1R75889I/BOYSPP/1238503045","provenance":{"cellId":"1R75889I","checksum":"432495df2c5161441e6a99922b6467c8c274ef2be2c21903d119e8b0dc3342c8","readerVersion":"GDAL 3.2.2","processedAt":"2026-08-11T13:43:44.753Z"}}},{"type":"Feature","geometry":{"type":"Point","coordinates":[3.2221617,51.5236928]},"properties":{"dolphinKind":"buoy-special","rawObjectClass":"BOYSPP","sourceProperties":{"RCID":1249166916,"PRIM":1,"GRUP":2,"OBJL":19,"RVER":1,"AGEN":7979,"FIDN":1249166916,"FIDS":1,"LNAM":"1F2B4A74C6440001","LNAM_REFS":["1F2B4A74C6450001","1F2B4A74C6460001"],"FFPT_RIND":[2,2],"BOYSHP":3,"CATSPM":["14"],"COLOUR":["6"],"DATEND":"20251205","OBJNAM":"MP 1","SCAMIN":200000,"SORDAT":"20251206","SORIND":"NL,1R,reprt,MD 585-25","sourceCellId":"1R75889I","sourceChecksum":"432495df2c5161441e6a99922b6467c8c274ef2be2c21903d119e8b0dc3342c8","rawObjectClass":"BOYSPP","sourceStableId":"1F2B4A74C6440001"},"sourceKind":"official","official":true,"sourceCellId":"1R75889I","sourceStableId":"1F2B4A74C6440001","pipelineFeatureId":"1R75889I/BOYSPP/1249166916","provenance":{"cellId":"1R75889I","checksum":"432495df2c5161441e6a99922b6467c8c274ef2be2c21903d119e8b0dc3342c8","readerVersion":"GDAL 3.2.2","processedAt":"2026-08-11T13:43:44.753Z"}}},{"type":"Feature","geometry":{"type":"Point","coordinates":[3.2519517,51.5069783]},"properties":{"dolphinKind":"buoy-special","rawObjectClass":"BOYSPP","sourceProperties":{"RCID":1249166919,"PRIM":1,"GRUP":2,"OBJL":19,"RVER":1,"AGEN":7979,"FIDN":1249166919,"FIDS":1,"LNAM":"1F2B4A74C6470001","LNAM_REFS":["1F2B4A74C64C0001","1F2B4A74C64D0001"],"FFPT_RIND":[2,2],"BOYSHP":3,"CATSPM":["14"],"COLOUR":["6"],"DATEND":"20251205","OBJNAM":"MP 2","SCAMIN":200000,"SORDAT":"20251206","SORIND":"NL,1R,reprt,MD 585-25","sourceCellId":"1R75889I","sourceChecksum":"432495df2c5161441e6a99922b6467c8c274ef2be2c21903d119e8b0dc3342c8","rawObjectClass":"BOYSPP","sourceStableId":"1F2B4A74C6470001"},"sourceKind":"official","official":true,"sourceCellId":"1R75889I","sourceStableId":"1F2B4A74C6470001","pipelineFeatureId":"1R75889I/BOYSPP/1249166919","provenance":{"cellId":"1R75889I","checksum":"432495df2c5161441e6a99922b6467c8c274ef2be2c21903d119e8b0dc3342c8","readerVersion":"GDAL 3.2.2","processedAt":"2026-08-11T13:43:44.753Z"}}},{"type":"Feature","geometry":{"type":"Point","coordinates":[3.2847617,51.4871867]},"properties":{"dolphinKind":"buoy-special","rawObjectClass":"BOYSPP","sourceProperties":{"RCID":1249166920,"PRIM":1,"GRUP":2,"OBJL":19,"RVER":1,"AGEN":7979,"FIDN":1249166920,"FIDS":1,"LNAM":"1F2B4A74C6480001","LNAM_REFS":["1F2B4A74C64F0001","1F2B4A74C6530001"],"FFPT_RIND":[2,2],"BOYSHP":3,"CATSPM":["14"],"COLOUR":["6"],"DATEND":"20251205","OBJNAM":"MP 3","SCAMIN":200000,"SORDAT":"20251206","SORIND":"NL,1R,reprt,MD 585-25","sourceCellId":"1R75889I","sourceChecksum":"432495df2c5161441e6a99922b6467c8c274ef2be2c21903d119e8b0dc3342c8","rawObjectClass":"BOYSPP","sourceStableId":"1F2B4A74C6480001"},"sourceKind":"official","official":true,"sourceCellId":"1R75889I","sourceStableId":"1F2B4A74C6480001","pipelineFeatureId":"1R75889I/BOYSPP/1249166920","provenance":{"cellId":"1R75889I","checksum":"432495df2c5161441e6a99922b6467c8c274ef2be2c21903d119e8b0dc3342c8","readerVersion":"GDAL 3.2.2","processedAt":"2026-08-11T13:43:44.753Z"}}},{"type":"Feature","geometry":{"type":"Point","coordinates":[3.24236,51.50391]},"properties":{"dolphinKind":"light","rawObjectClass":"LIGHTS","sourceProperties":{"RCID":16799,"PRIM":1,"GRUP":2,"OBJL":75,"RVER":1,"AGEN":7979,"FIDN":1106834597,"FIDS":430,"LNAM":"1F2B41F8F4A501AE","COLOUR":["6"],"LITCHR":2,"SIGGRP":"(1)","SIGPER":5,"SCAMIN":200000,"sourceCellId":"1R75889I","sourceChecksum":"432495df2c5161441e6a99922b6467c8c274ef2be2c21903d119e8b0dc3342c8","rawObjectClass":"LIGHTS","sourceStableId":"1F2B41F8F4A501AE"},"sourceKind":"official","official":true,"sourceCellId":"1R75889I","sourceStableId":"1F2B41F8F4A501AE","pipelineFeatureId":"1R75889I/LIGHTS/16799","provenance":{"cellId":"1R75889I","checksum":"432495df2c5161441e6a99922b6467c8c274ef2be2c21903d119e8b0dc3342c8","readerVersion":"GDAL 3.2.2","processedAt":"2026-08-11T13:43:44.753Z"}}},{"type":"Feature","geometry":{"type":"Point","coordinates":[3.24222,51.50306]},"properties":{"dolphinKind":"light","rawObjectClass":"LIGHTS","sourceProperties":{"RCID":1238503044,"PRIM":1,"GRUP":2,"OBJL":75,"RVER":1,"AGEN":7979,"FIDN":1238503044,"FIDS":1,"LNAM":"1F2B49D20E840001","COLOUR":["6"],"LITCHR":2,"SIGGRP":"(5)","SIGPER":20,"SCAMIN":300000,"SORDAT":"20080918","SORIND":"NL,1R,reprt,Bass 098/08","sourceCellId":"1R75889I","sourceChecksum":"432495df2c5161441e6a99922b6467c8c274ef2be2c21903d119e8b0dc3342c8","rawObjectClass":"LIGHTS","sourceStableId":"1F2B49D20E840001"},"sourceKind":"official","official":true,"sourceCellId":"1R75889I","sourceStableId":"1F2B49D20E840001","pipelineFeatureId":"1R75889I/LIGHTS/1238503044","provenance":{"cellId":"1R75889I","checksum":"432495df2c5161441e6a99922b6467c8c274ef2be2c21903d119e8b0dc3342c8","readerVersion":"GDAL 3.2.2","processedAt":"2026-08-11T13:43:44.753Z"}}},{"type":"Feature","geometry":{"type":"Point","coordinates":[3.2221617,51.5236928]},"properties":{"dolphinKind":"light","rawObjectClass":"LIGHTS","sourceProperties":{"RCID":1249166918,"PRIM":1,"GRUP":2,"OBJL":75,"RVER":1,"AGEN":7979,"FIDN":1249166918,"FIDS":1,"LNAM":"1F2B4A74C6460001","COLOUR":["6"],"DATEND":"20251205","LITCHR":2,"SIGGRP":"(5)","SIGPER":20,"SCAMIN":200000,"sourceCellId":"1R75889I","sourceChecksum":"432495df2c5161441e6a99922b6467c8c274ef2be2c21903d119e8b0dc3342c8","rawObjectClass":"LIGHTS","sourceStableId":"1F2B4A74C6460001"},"sourceKind":"official","official":true,"sourceCellId":"1R75889I","sourceStableId":"1F2B4A74C6460001","pipelineFeatureId":"1R75889I/LIGHTS/1249166918","provenance":{"cellId":"1R75889I","checksum":"432495df2c5161441e6a99922b6467c8c274ef2be2c21903d119e8b0dc3342c8","readerVersion":"GDAL 3.2.2","processedAt":"2026-08-11T13:43:44.753Z"}}},{"type":"Feature","geometry":{"type":"Point","coordinates":[3.2519517,51.5069783]},"properties":{"dolphinKind":"light","rawObjectClass":"LIGHTS","sourceProperties":{"RCID":1249166925,"PRIM":1,"GRUP":2,"OBJL":75,"RVER":1,"AGEN":7979,"FIDN":1249166925,"FIDS":1,"LNAM":"1F2B4A74C64D0001","COLOUR":["6"],"DATEND":"20251205","LITCHR":2,"SIGGRP":"(5)","SIGPER":20,"SCAMIN":200000,"sourceCellId":"1R75889I","sourceChecksum":"432495df2c5161441e6a99922b6467c8c274ef2be2c21903d119e8b0dc3342c8","rawObjectClass":"LIGHTS","sourceStableId":"1F2B4A74C64D0001"},"sourceKind":"official","official":true,"sourceCellId":"1R75889I","sourceStableId":"1F2B4A74C64D0001","pipelineFeatureId":"1R75889I/LIGHTS/1249166925","provenance":{"cellId":"1R75889I","checksum":"432495df2c5161441e6a99922b6467c8c274ef2be2c21903d119e8b0dc3342c8","readerVersion":"GDAL 3.2.2","processedAt":"2026-08-11T13:43:44.753Z"}}},{"type":"Feature","geometry":{"type":"Point","coordinates":[3.2847617,51.4871867]},"properties":{"dolphinKind":"light","rawObjectClass":"LIGHTS","sourceProperties":{"RCID":1249166927,"PRIM":1,"GRUP":2,"OBJL":75,"RVER":1,"AGEN":7979,"FIDN":1249166927,"FIDS":1,"LNAM":"1F2B4A74C64F0001","COLOUR":["6"],"DATEND":"20251205","LITCHR":2,"SIGGRP":"(5)","SIGPER":20,"SCAMIN":200000,"sourceCellId":"1R75889I","sourceChecksum":"432495df2c5161441e6a99922b6467c8c274ef2be2c21903d119e8b0dc3342c8","rawObjectClass":"LIGHTS","sourceStableId":"1F2B4A74C64F0001"},"sourceKind":"official","official":true,"sourceCellId":"1R75889I","sourceStableId":"1F2B4A74C64F0001","pipelineFeatureId":"1R75889I/LIGHTS/1249166927","provenance":{"cellId":"1R75889I","checksum":"432495df2c5161441e6a99922b6467c8c274ef2be2c21903d119e8b0dc3342c8","readerVersion":"GDAL 3.2.2","processedAt":"2026-08-11T13:43:44.753Z"}}},{"type":"Feature","geometry":{"type":"Point","coordinates":[3.31925,51.5091833]},"properties":{"dolphinKind":"topmark","rawObjectClass":"TOPMAR","sourceProperties":{"RCID":17158,"PRIM":1,"GRUP":2,"OBJL":144,"RVER":1,"AGEN":7979,"FIDN":1106834682,"FIDS":474,"LNAM":"1F2B41F8F4FA01DA","COLOUR":["2"],"TOPSHP":10,"SCAMIN":200000,"SORDAT":"20030930","sourceCellId":"1R75889I","sourceChecksum":"432495df2c5161441e6a99922b6467c8c274ef2be2c21903d119e8b0dc3342c8","rawObjectClass":"TOPMAR","sourceStableId":"1F2B41F8F4FA01DA"},"sourceKind":"official","official":true,"sourceCellId":"1R75889I","sourceStableId":"1F2B41F8F4FA01DA","pipelineFeatureId":"1R75889I/TOPMAR/17158","provenance":{"cellId":"1R75889I","checksum":"432495df2c5161441e6a99922b6467c8c274ef2be2c21903d119e8b0dc3342c8","readerVersion":"GDAL 3.2.2","processedAt":"2026-08-11T13:43:44.753Z"},"associationRefsVerifiedInGdalOutput":false}},{"type":"Feature","geometry":{"type":"Point","coordinates":[3.2225834,51.5086333]},"properties":{"dolphinKind":"topmark","rawObjectClass":"TOPMAR","sourceProperties":{"RCID":17159,"PRIM":1,"GRUP":2,"OBJL":144,"RVER":1,"AGEN":7979,"FIDN":1106834682,"FIDS":475,"LNAM":"1F2B41F8F4FA01DB","COLOUR":["2"],"TOPSHP":13,"SCAMIN":200000,"SORDAT":"20030930","sourceCellId":"1R75889I","sourceChecksum":"432495df2c5161441e6a99922b6467c8c274ef2be2c21903d119e8b0dc3342c8","rawObjectClass":"TOPMAR","sourceStableId":"1F2B41F8F4FA01DB"},"sourceKind":"official","official":true,"sourceCellId":"1R75889I","sourceStableId":"1F2B41F8F4FA01DB","pipelineFeatureId":"1R75889I/TOPMAR/17159","provenance":{"cellId":"1R75889I","checksum":"432495df2c5161441e6a99922b6467c8c274ef2be2c21903d119e8b0dc3342c8","readerVersion":"GDAL 3.2.2","processedAt":"2026-08-11T13:43:44.753Z"},"associationRefsVerifiedInGdalOutput":false}},{"type":"Feature","geometry":{"type":"Point","coordinates":[3.2221617,51.5236928]},"properties":{"dolphinKind":"topmark","rawObjectClass":"TOPMAR","sourceProperties":{"RCID":1249166917,"PRIM":1,"GRUP":2,"OBJL":144,"RVER":1,"AGEN":7979,"FIDN":1249166917,"FIDS":1,"LNAM":"1F2B4A74C6450001","COLOUR":["6"],"TOPSHP":7,"SCAMIN":200000,"sourceCellId":"1R75889I","sourceChecksum":"432495df2c5161441e6a99922b6467c8c274ef2be2c21903d119e8b0dc3342c8","rawObjectClass":"TOPMAR","sourceStableId":"1F2B4A74C6450001"},"sourceKind":"official","official":true,"sourceCellId":"1R75889I","sourceStableId":"1F2B4A74C6450001","pipelineFeatureId":"1R75889I/TOPMAR/1249166917","provenance":{"cellId":"1R75889I","checksum":"432495df2c5161441e6a99922b6467c8c274ef2be2c21903d119e8b0dc3342c8","readerVersion":"GDAL 3.2.2","processedAt":"2026-08-11T13:43:44.753Z"},"associationRefsVerifiedInGdalOutput":false}},{"type":"Feature","geometry":{"type":"Point","coordinates":[3.2519517,51.5069783]},"properties":{"dolphinKind":"topmark","rawObjectClass":"TOPMAR","sourceProperties":{"RCID":1249166924,"PRIM":1,"GRUP":2,"OBJL":144,"RVER":1,"AGEN":7979,"FIDN":1249166924,"FIDS":1,"LNAM":"1F2B4A74C64C0001","COLOUR":["6"],"TOPSHP":7,"SCAMIN":200000,"sourceCellId":"1R75889I","sourceChecksum":"432495df2c5161441e6a99922b6467c8c274ef2be2c21903d119e8b0dc3342c8","rawObjectClass":"TOPMAR","sourceStableId":"1F2B4A74C64C0001"},"sourceKind":"official","official":true,"sourceCellId":"1R75889I","sourceStableId":"1F2B4A74C64C0001","pipelineFeatureId":"1R75889I/TOPMAR/1249166924","provenance":{"cellId":"1R75889I","checksum":"432495df2c5161441e6a99922b6467c8c274ef2be2c21903d119e8b0dc3342c8","readerVersion":"GDAL 3.2.2","processedAt":"2026-08-11T13:43:44.753Z"},"associationRefsVerifiedInGdalOutput":false}},{"type":"Feature","geometry":{"type":"Point","coordinates":[3.2847617,51.4871867]},"properties":{"dolphinKind":"topmark","rawObjectClass":"TOPMAR","sourceProperties":{"RCID":1249166931,"PRIM":1,"GRUP":2,"OBJL":144,"RVER":1,"AGEN":7979,"FIDN":1249166931,"FIDS":1,"LNAM":"1F2B4A74C6530001","COLOUR":["6"],"TOPSHP":7,"SCAMIN":200000,"sourceCellId":"1R75889I","sourceChecksum":"432495df2c5161441e6a99922b6467c8c274ef2be2c21903d119e8b0dc3342c8","rawObjectClass":"TOPMAR","sourceStableId":"1F2B4A74C6530001"},"sourceKind":"official","official":true,"sourceCellId":"1R75889I","sourceStableId":"1F2B4A74C6530001","pipelineFeatureId":"1R75889I/TOPMAR/1249166931","provenance":{"cellId":"1R75889I","checksum":"432495df2c5161441e6a99922b6467c8c274ef2be2c21903d119e8b0dc3342c8","readerVersion":"GDAL 3.2.2","processedAt":"2026-08-11T13:43:44.753Z"},"associationRefsVerifiedInGdalOutput":false}}]}