{"type":"FeatureCollection","features":[{"type":"Feature","geometry":{"type":"Point","coordinates":[4.0482756,51.5023992]},"properties":{"dolphinKind":"beacon-special","rawObjectClass":"BCNSPP","sourceProperties":{"RCID":9305,"PRIM":1,"GRUP":2,"OBJL":9,"RVER":1,"AGEN":7979,"FIDN":1106210626,"FIDS":380,"LNAM":"1F2B41EF6F42017C","LNAM_REFS":["1F2B41EF6F420181"],"FFPT_RIND":[2],"BCNSHP":1,"CATSPM":["6"],"COLOUR":["2"],"SCAMIN":200000,"sourceCellId":"1R76K89I","sourceChecksum":"5846483df49a2949c9b099044c708d56af6abfa0a15207277ac30950667f6a11","rawObjectClass":"BCNSPP","sourceStableId":"1F2B41EF6F42017C"},"sourceKind":"official","official":true,"sourceCellId":"1R76K89I","sourceStableId":"1F2B41EF6F42017C","pipelineFeatureId":"1R76K89I/BCNSPP/9305","provenance":{"cellId":"1R76K89I","checksum":"5846483df49a2949c9b099044c708d56af6abfa0a15207277ac30950667f6a11","readerVersion":"GDAL 3.2.2","processedAt":"2026-08-11T18:29:20.995Z"}}},{"type":"Feature","geometry":{"type":"Point","coordinates":[4.0066594,51.475439]},"properties":{"dolphinKind":"beacon-special","rawObjectClass":"BCNSPP","sourceProperties":{"RCID":9346,"PRIM":1,"GRUP":2,"OBJL":9,"RVER":1,"AGEN":7979,"FIDN":1106210626,"FIDS":421,"LNAM":"1F2B41EF6F4201A5","LNAM_REFS":["1F2B41EF6F4201A8"],"FFPT_RIND":[2],"BCNSHP":1,"CATSPM":["6"],"COLOUR":["2"],"SCAMIN":200000,"sourceCellId":"1R76K89I","sourceChecksum":"5846483df49a2949c9b099044c708d56af6abfa0a15207277ac30950667f6a11","rawObjectClass":"BCNSPP","sourceStableId":"1F2B41EF6F4201A5"},"sourceKind":"official","official":true,"sourceCellId":"1R76K89I","sourceStableId":"1F2B41EF6F4201A5","pipelineFeatureId":"1R76K89I/BCNSPP/9346","provenance":{"cellId":"1R76K89I","checksum":"5846483df49a2949c9b099044c708d56af6abfa0a15207277ac30950667f6a11","readerVersion":"GDAL 3.2.2","processedAt":"2026-08-11T18:29:20.995Z"}}},{"type":"Feature","geometry":{"type":"Point","coordinates":[4.0036808,51.4753691]},"properties":{"dolphinKind":"beacon-special","rawObjectClass":"BCNSPP","sourceProperties":{"RCID":9348,"PRIM":1,"GRUP":2,"OBJL":9,"RVER":1,"AGEN":7979,"FIDN":1106210626,"FIDS":423,"LNAM":"1F2B41EF6F4201A7","LNAM_REFS":["1F2B41EF6F4201A9"],"FFPT_RIND":[2],"BCNSHP":1,"CATSPM":["6"],"COLOUR":["2"],"SCAMIN":200000,"sourceCellId":"1R76K89I","sourceChecksum":"5846483df49a2949c9b099044c708d56af6abfa0a15207277ac30950667f6a11","rawObjectClass":"BCNSPP","sourceStableId":"1F2B41EF6F4201A7"},"sourceKind":"official","official":true,"sourceCellId":"1R76K89I","sourceStableId":"1F2B41EF6F4201A7","pipelineFeatureId":"1R76K89I/BCNSPP/9348","provenance":{"cellId":"1R76K89I","checksum":"5846483df49a2949c9b099044c708d56af6abfa0a15207277ac30950667f6a11","readerVersion":"GDAL 3.2.2","processedAt":"2026-08-11T18:29:20.995Z"}}},{"type":"Feature","geometry":{"type":"Point","coordinates":[4.0134353,51.5164275]},"properties":{"dolphinKind":"beacon-special","rawObjectClass":"BCNSPP","sourceProperties":{"RCID":20436,"PRIM":1,"GRUP":2,"OBJL":9,"RVER":1,"AGEN":7979,"FIDN":1106834756,"FIDS":372,"LNAM":"1F2B41F8F5440174","LNAM_REFS":["1F2B41F8F5440175"],"FFPT_RIND":[2],"BCNSHP":1,"CATSPM":["29"],"COLOUR":["2"],"SCAMIN":200000,"SORDAT":"20151007","SORIND":"NL,1R,reprt,Topdesk M-M151003810","sourceCellId":"1R76K89I","sourceChecksum":"5846483df49a2949c9b099044c708d56af6abfa0a15207277ac30950667f6a11","rawObjectClass":"BCNSPP","sourceStableId":"1F2B41F8F5440174"},"sourceKind":"official","official":true,"sourceCellId":"1R76K89I","sourceStableId":"1F2B41F8F5440174","pipelineFeatureId":"1R76K89I/BCNSPP/20436","provenance":{"cellId":"1R76K89I","checksum":"5846483df49a2949c9b099044c708d56af6abfa0a15207277ac30950667f6a11","readerVersion":"GDAL 3.2.2","processedAt":"2026-08-11T18:29:20.995Z"}}},{"type":"Feature","geometry":{"type":"Point","coordinates":[4.0587833,51.49685]},"properties":{"dolphinKind":"buoy-lateral","rawObjectClass":"BOYLAT","sourceProperties":{"RCID":12431278,"PRIM":1,"GRUP":2,"OBJL":17,"RVER":1,"AGEN":7979,"FIDN":12431278,"FIDS":1,"LNAM":"1F2B00BDAFAE0001","LNAM_REFS":["1F2B41F8F5280142"],"FFPT_RIND":[2],"BOYSHP":5,"CATLAM":3,"COLOUR":["3","4"],"COLPAT":["1"],"CONRAD":3,"OBJNAM":"SvY 20 - VWG 1","SCAMIN":200000,"SORDAT":"20120126","SORIND":"NL,1R,reprt,MZ 7","sourceCellId":"1R76K89I","sourceChecksum":"5846483df49a2949c9b099044c708d56af6abfa0a15207277ac30950667f6a11","rawObjectClass":"BOYLAT","sourceStableId":"1F2B00BDAFAE0001"},"sourceKind":"official","official":true,"sourceCellId":"1R76K89I","sourceStableId":"1F2B00BDAFAE0001","pipelineFeatureId":"1R76K89I/BOYLAT/12431278","provenance":{"cellId":"1R76K89I","checksum":"5846483df49a2949c9b099044c708d56af6abfa0a15207277ac30950667f6a11","readerVersion":"GDAL 3.2.2","processedAt":"2026-08-11T18:29:20.995Z"}}},{"type":"Feature","geometry":{"type":"Point","coordinates":[4.1309813,51.4927615]},"properties":{"dolphinKind":"buoy-lateral","rawObjectClass":"BOYLAT","sourceProperties":{"RCID":12431279,"PRIM":1,"GRUP":2,"OBJL":17,"RVER":1,"AGEN":7979,"FIDN":12431279,"FIDS":1,"LNAM":"1F2B00BDAFAF0001","LNAM_REFS":["1F2B41F8F528011F"],"FFPT_RIND":[2],"BOYSHP":5,"CATLAM":4,"COLOUR":["4","3"],"COLPAT":["1"],"CONRAD":3,"OBJNAM":"LG 5 - PK 2","SCAMIN":200000,"SORDAT":"20121120","SORIND":"NL,1R,Reprt,MZ123","sourceCellId":"1R76K89I","sourceChecksum":"5846483df49a2949c9b099044c708d56af6abfa0a15207277ac30950667f6a11","rawObjectClass":"BOYLAT","sourceStableId":"1F2B00BDAFAF0001"},"sourceKind":"official","official":true,"sourceCellId":"1R76K89I","sourceStableId":"1F2B00BDAFAF0001","pipelineFeatureId":"1R76K89I/BOYLAT/12431279","provenance":{"cellId":"1R76K89I","checksum":"5846483df49a2949c9b099044c708d56af6abfa0a15207277ac30950667f6a11","readerVersion":"GDAL 3.2.2","processedAt":"2026-08-11T18:29:20.995Z"}}},{"type":"Feature","geometry":{"type":"Point","coordinates":[4.1222559,51.5164214]},"properties":{"dolphinKind":"buoy-lateral","rawObjectClass":"BOYLAT","sourceProperties":{"RCID":12431280,"PRIM":1,"GRUP":2,"OBJL":17,"RVER":1,"AGEN":7979,"FIDN":12431280,"FIDS":1,"LNAM":"1F2B00BDAFB00001","LNAM_REFS":["1F2B41F8F5280101"],"FFPT_RIND":[2],"BOYSHP":5,"CATLAM":4,"COLOUR":["4","3"],"COLPAT":["1"],"CONRAD":3,"OBJNAM":"TG 1 - LG 2","SCAMIN":200000,"SORDAT":"20121204","SORIND":"NL,1R,Reprt,MZ 132-2012","sourceCellId":"1R76K89I","sourceChecksum":"5846483df49a2949c9b099044c708d56af6abfa0a15207277ac30950667f6a11","rawObjectClass":"BOYLAT","sourceStableId":"1F2B00BDAFB00001"},"sourceKind":"official","official":true,"sourceCellId":"1R76K89I","sourceStableId":"1F2B00BDAFB00001","pipelineFeatureId":"1R76K89I/BOYLAT/12431280","provenance":{"cellId":"1R76K89I","checksum":"5846483df49a2949c9b099044c708d56af6abfa0a15207277ac30950667f6a11","readerVersion":"GDAL 3.2.2","processedAt":"2026-08-11T18:29:20.995Z"}}},{"type":"Feature","geometry":{"type":"Point","coordinates":[4.0199,51.5223]},"properties":{"dolphinKind":"buoy-lateral","rawObjectClass":"BOYLAT","sourceProperties":{"RCID":284378675,"PRIM":1,"GRUP":2,"OBJL":17,"RVER":1,"AGEN":7979,"FIDN":284378675,"FIDS":1,"LNAM":"1F2B10F346330001","LNAM_REFS":["1F2B00BC199B0001"],"FFPT_RIND":[2],"BOYSHP":5,"CATLAM":3,"COLOUR":["3","4"],"COLPAT":["1"],"OBJNAM":"AW 8 - O 23","SCAMIN":200000,"SORDAT":"20090401","SORIND":"NL,1R,reprt,DZD-BAS-2009/33","sourceCellId":"1R76K89I","sourceChecksum":"5846483df49a2949c9b099044c708d56af6abfa0a15207277ac30950667f6a11","rawObjectClass":"BOYLAT","sourceStableId":"1F2B10F346330001"},"sourceKind":"official","official":true,"sourceCellId":"1R76K89I","sourceStableId":"1F2B10F346330001","pipelineFeatureId":"1R76K89I/BOYLAT/284378675","provenance":{"cellId":"1R76K89I","checksum":"5846483df49a2949c9b099044c708d56af6abfa0a15207277ac30950667f6a11","readerVersion":"GDAL 3.2.2","processedAt":"2026-08-11T18:29:20.995Z"}}},{"type":"Feature","geometry":{"type":"Point","coordinates":[4.0395634,51.5226533]},"properties":{"dolphinKind":"buoy-lateral","rawObjectClass":"BOYLAT","sourceProperties":{"RCID":284383028,"PRIM":1,"GRUP":2,"OBJL":17,"RVER":1,"AGEN":7979,"FIDN":284383028,"FIDS":1,"LNAM":"1F2B10F357340001","LNAM_REFS":["1F2B41F8F52701F4","1F2B41F8F52701F6"],"FFPT_RIND":[2,2],"BOYSHP":5,"CATLAM":4,"COLOUR":["4","3"],"COLPAT":["1"],"OBJNAM":"O 25 - SvY 2","SCAMIN":200000,"SORDAT":"20170426","SORIND":"NL,1R,reprt,MD 166-17","sourceCellId":"1R76K89I","sourceChecksum":"5846483df49a2949c9b099044c708d56af6abfa0a15207277ac30950667f6a11","rawObjectClass":"BOYLAT","sourceStableId":"1F2B10F357340001"},"sourceKind":"official","official":true,"sourceCellId":"1R76K89I","sourceStableId":"1F2B10F357340001","pipelineFeatureId":"1R76K89I/BOYLAT/284383028","provenance":{"cellId":"1R76K89I","checksum":"5846483df49a2949c9b099044c708d56af6abfa0a15207277ac30950667f6a11","readerVersion":"GDAL 3.2.2","processedAt":"2026-08-11T18:29:20.995Z"}}},{"type":"Feature","geometry":{"type":"Point","coordinates":[4.0544133,51.5152883]},"properties":{"dolphinKind":"buoy-special","rawObjectClass":"BOYSPP","sourceProperties":{"RCID":18321,"PRIM":1,"GRUP":2,"OBJL":19,"RVER":1,"AGEN":7979,"FIDN":1106834728,"FIDS":314,"LNAM":"1F2B41F8F528013A","LNAM_REFS":["1F2B0D6E4C290001"],"FFPT_RIND":[2],"BOYSHP":5,"CATSPM":["27"],"COLOUR":["6"],"OBJNAM":"Stort Yerseke","SCAMIN":200000,"SORDAT":"20170516","SORIND":"NL,1R,reprt,MD 189-17","sourceCellId":"1R76K89I","sourceChecksum":"5846483df49a2949c9b099044c708d56af6abfa0a15207277ac30950667f6a11","rawObjectClass":"BOYSPP","sourceStableId":"1F2B41F8F528013A"},"sourceKind":"official","official":true,"sourceCellId":"1R76K89I","sourceStableId":"1F2B41F8F528013A","pipelineFeatureId":"1R76K89I/BOYSPP/18321","provenance":{"cellId":"1R76K89I","checksum":"5846483df49a2949c9b099044c708d56af6abfa0a15207277ac30950667f6a11","readerVersion":"GDAL 3.2.2","processedAt":"2026-08-11T18:29:20.995Z"}}},{"type":"Feature","geometry":{"type":"Point","coordinates":[4.0720528,51.50825]},"properties":{"dolphinKind":"light","rawObjectClass":"LIGHTS","sourceProperties":{"RCID":16853,"PRIM":1,"GRUP":2,"OBJL":75,"RVER":1,"AGEN":7979,"FIDN":1106834597,"FIDS":484,"LNAM":"1F2B41F8F4A501E4","COLOUR":["6"],"LITCHR":2,"SIGGRP":"(1)","SIGPER":5,"SCAMIN":200000,"sourceCellId":"1R76K89I","sourceChecksum":"5846483df49a2949c9b099044c708d56af6abfa0a15207277ac30950667f6a11","rawObjectClass":"LIGHTS","sourceStableId":"1F2B41F8F4A501E4"},"sourceKind":"official","official":true,"sourceCellId":"1R76K89I","sourceStableId":"1F2B41F8F4A501E4","pipelineFeatureId":"1R76K89I/LIGHTS/16853","provenance":{"cellId":"1R76K89I","checksum":"5846483df49a2949c9b099044c708d56af6abfa0a15207277ac30950667f6a11","readerVersion":"GDAL 3.2.2","processedAt":"2026-08-11T18:29:20.995Z"}}},{"type":"Feature","geometry":{"type":"Point","coordinates":[4.0395634,51.5226533]},"properties":{"dolphinKind":"light","rawObjectClass":"LIGHTS","sourceProperties":{"RCID":18254,"PRIM":1,"GRUP":2,"OBJL":75,"RVER":1,"AGEN":7979,"FIDN":1106834727,"FIDS":502,"LNAM":"1F2B41F8F52701F6","COLOUR":["4"],"LITCHR":2,"SIGGRP":"(2+1)","SIGPER":1,"SCAMIN":200000,"SORDAT":"20031115","sourceCellId":"1R76K89I","sourceChecksum":"5846483df49a2949c9b099044c708d56af6abfa0a15207277ac30950667f6a11","rawObjectClass":"LIGHTS","sourceStableId":"1F2B41F8F52701F6"},"sourceKind":"official","official":true,"sourceCellId":"1R76K89I","sourceStableId":"1F2B41F8F52701F6","pipelineFeatureId":"1R76K89I/LIGHTS/18254","provenance":{"cellId":"1R76K89I","checksum":"5846483df49a2949c9b099044c708d56af6abfa0a15207277ac30950667f6a11","readerVersion":"GDAL 3.2.2","processedAt":"2026-08-11T18:29:20.995Z"}}},{"type":"Feature","geometry":{"type":"Point","coordinates":[4.015769,51.5149462]},"properties":{"dolphinKind":"light","rawObjectClass":"LIGHTS","sourceProperties":{"RCID":19740,"PRIM":1,"GRUP":2,"OBJL":75,"RVER":1,"AGEN":7979,"FIDN":1106834753,"FIDS":441,"LNAM":"1F2B41F8F54101B9","COLOUR":["3"],"LITCHR":7,"SIGGRP":"(1)","SIGPER":4,"SCAMIN":200000,"sourceCellId":"1R76K89I","sourceChecksum":"5846483df49a2949c9b099044c708d56af6abfa0a15207277ac30950667f6a11","rawObjectClass":"LIGHTS","sourceStableId":"1F2B41F8F54101B9"},"sourceKind":"official","official":true,"sourceCellId":"1R76K89I","sourceStableId":"1F2B41F8F54101B9","pipelineFeatureId":"1R76K89I/LIGHTS/19740","provenance":{"cellId":"1R76K89I","checksum":"5846483df49a2949c9b099044c708d56af6abfa0a15207277ac30950667f6a11","readerVersion":"GDAL 3.2.2","processedAt":"2026-08-11T18:29:20.995Z"}}},{"type":"Feature","geometry":{"type":"Point","coordinates":[4.013083,51.51535]},"properties":{"dolphinKind":"light","rawObjectClass":"LIGHTS","sourceProperties":{"RCID":19741,"PRIM":1,"GRUP":2,"OBJL":75,"RVER":1,"AGEN":7979,"FIDN":1106834753,"FIDS":442,"LNAM":"1F2B41F8F54101BA","COLOUR":["4"],"LITCHR":7,"SIGGRP":"(1)","SIGPER":4,"SCAMIN":200000,"sourceCellId":"1R76K89I","sourceChecksum":"5846483df49a2949c9b099044c708d56af6abfa0a15207277ac30950667f6a11","rawObjectClass":"LIGHTS","sourceStableId":"1F2B41F8F54101BA"},"sourceKind":"official","official":true,"sourceCellId":"1R76K89I","sourceStableId":"1F2B41F8F54101BA","pipelineFeatureId":"1R76K89I/LIGHTS/19741","provenance":{"cellId":"1R76K89I","checksum":"5846483df49a2949c9b099044c708d56af6abfa0a15207277ac30950667f6a11","readerVersion":"GDAL 3.2.2","processedAt":"2026-08-11T18:29:20.995Z"}}},{"type":"Feature","geometry":{"type":"Point","coordinates":[4.0136939,51.5104924]},"properties":{"dolphinKind":"light","rawObjectClass":"LIGHTS","sourceProperties":{"RCID":19742,"PRIM":1,"GRUP":2,"OBJL":75,"RVER":1,"AGEN":7979,"FIDN":1106834753,"FIDS":443,"LNAM":"1F2B41F8F54101BB","COLOUR":["3"],"LITCHR":7,"SIGGRP":"(1)","SIGPER":4,"SCAMIN":200000,"sourceCellId":"1R76K89I","sourceChecksum":"5846483df49a2949c9b099044c708d56af6abfa0a15207277ac30950667f6a11","rawObjectClass":"LIGHTS","sourceStableId":"1F2B41F8F54101BB"},"sourceKind":"official","official":true,"sourceCellId":"1R76K89I","sourceStableId":"1F2B41F8F54101BB","pipelineFeatureId":"1R76K89I/LIGHTS/19742","provenance":{"cellId":"1R76K89I","checksum":"5846483df49a2949c9b099044c708d56af6abfa0a15207277ac30950667f6a11","readerVersion":"GDAL 3.2.2","processedAt":"2026-08-11T18:29:20.995Z"}}},{"type":"Feature","geometry":{"type":"Point","coordinates":[4.0101994,51.506336]},"properties":{"dolphinKind":"light","rawObjectClass":"LIGHTS","sourceProperties":{"RCID":19743,"PRIM":1,"GRUP":2,"OBJL":75,"RVER":1,"AGEN":7979,"FIDN":1106834753,"FIDS":444,"LNAM":"1F2B41F8F54101BC","COLOUR":["3"],"LITCHR":7,"SIGGRP":"(1)","SIGPER":4,"SCAMIN":200000,"sourceCellId":"1R76K89I","sourceChecksum":"5846483df49a2949c9b099044c708d56af6abfa0a15207277ac30950667f6a11","rawObjectClass":"LIGHTS","sourceStableId":"1F2B41F8F54101BC"},"sourceKind":"official","official":true,"sourceCellId":"1R76K89I","sourceStableId":"1F2B41F8F54101BC","pipelineFeatureId":"1R76K89I/LIGHTS/19743","provenance":{"cellId":"1R76K89I","checksum":"5846483df49a2949c9b099044c708d56af6abfa0a15207277ac30950667f6a11","readerVersion":"GDAL 3.2.2","processedAt":"2026-08-11T18:29:20.995Z"}}},{"type":"Feature","geometry":{"type":"Point","coordinates":[4.0071271,51.502746]},"properties":{"dolphinKind":"light","rawObjectClass":"LIGHTS","sourceProperties":{"RCID":19744,"PRIM":1,"GRUP":2,"OBJL":75,"RVER":1,"AGEN":7979,"FIDN":1106834753,"FIDS":445,"LNAM":"1F2B41F8F54101BD","COLOUR":["3"],"LITCHR":7,"SIGGRP":"(1)","SIGPER":4,"SCAMIN":200000,"sourceCellId":"1R76K89I","sourceChecksum":"5846483df49a2949c9b099044c708d56af6abfa0a15207277ac30950667f6a11","rawObjectClass":"LIGHTS","sourceStableId":"1F2B41F8F54101BD"},"sourceKind":"official","official":true,"sourceCellId":"1R76K89I","sourceStableId":"1F2B41F8F54101BD","pipelineFeatureId":"1R76K89I/LIGHTS/19744","provenance":{"cellId":"1R76K89I","checksum":"5846483df49a2949c9b099044c708d56af6abfa0a15207277ac30950667f6a11","readerVersion":"GDAL 3.2.2","processedAt":"2026-08-11T18:29:20.995Z"}}},{"type":"Feature","geometry":{"type":"Point","coordinates":[4.0109719,51.511115]},"properties":{"dolphinKind":"light","rawObjectClass":"LIGHTS","sourceProperties":{"RCID":19745,"PRIM":1,"GRUP":2,"OBJL":75,"RVER":1,"AGEN":7979,"FIDN":1106834753,"FIDS":446,"LNAM":"1F2B41F8F54101BE","COLOUR":["4"],"LITCHR":7,"SIGGRP":"(1)","SIGPER":4,"SCAMIN":200000,"sourceCellId":"1R76K89I","sourceChecksum":"5846483df49a2949c9b099044c708d56af6abfa0a15207277ac30950667f6a11","rawObjectClass":"LIGHTS","sourceStableId":"1F2B41F8F54101BE"},"sourceKind":"official","official":true,"sourceCellId":"1R76K89I","sourceStableId":"1F2B41F8F54101BE","pipelineFeatureId":"1R76K89I/LIGHTS/19745","provenance":{"cellId":"1R76K89I","checksum":"5846483df49a2949c9b099044c708d56af6abfa0a15207277ac30950667f6a11","readerVersion":"GDAL 3.2.2","processedAt":"2026-08-11T18:29:20.995Z"}}},{"type":"Feature","geometry":{"type":"Point","coordinates":[4.007729,51.5073568]},"properties":{"dolphinKind":"light","rawObjectClass":"LIGHTS","sourceProperties":{"RCID":19746,"PRIM":1,"GRUP":2,"OBJL":75,"RVER":1,"AGEN":7979,"FIDN":1106834753,"FIDS":447,"LNAM":"1F2B41F8F54101BF","COLOUR":["4"],"LITCHR":7,"SIGGRP":"(1)","SIGPER":5,"SCAMIN":200000,"sourceCellId":"1R76K89I","sourceChecksum":"5846483df49a2949c9b099044c708d56af6abfa0a15207277ac30950667f6a11","rawObjectClass":"LIGHTS","sourceStableId":"1F2B41F8F54101BF"},"sourceKind":"official","official":true,"sourceCellId":"1R76K89I","sourceStableId":"1F2B41F8F54101BF","pipelineFeatureId":"1R76K89I/LIGHTS/19746","provenance":{"cellId":"1R76K89I","checksum":"5846483df49a2949c9b099044c708d56af6abfa0a15207277ac30950667f6a11","readerVersion":"GDAL 3.2.2","processedAt":"2026-08-11T18:29:20.995Z"}}},{"type":"Feature","geometry":{"type":"Point","coordinates":[4.0059592,51.5057133]},"properties":{"dolphinKind":"light","rawObjectClass":"LIGHTS","sourceProperties":{"RCID":19747,"PRIM":1,"GRUP":2,"OBJL":75,"RVER":1,"AGEN":7979,"FIDN":1106834753,"FIDS":448,"LNAM":"1F2B41F8F54101C0","COLOUR":["4"],"LITCHR":1,"SCAMIN":200000,"sourceCellId":"1R76K89I","sourceChecksum":"5846483df49a2949c9b099044c708d56af6abfa0a15207277ac30950667f6a11","rawObjectClass":"LIGHTS","sourceStableId":"1F2B41F8F54101C0"},"sourceKind":"official","official":true,"sourceCellId":"1R76K89I","sourceStableId":"1F2B41F8F54101C0","pipelineFeatureId":"1R76K89I/LIGHTS/19747","provenance":{"cellId":"1R76K89I","checksum":"5846483df49a2949c9b099044c708d56af6abfa0a15207277ac30950667f6a11","readerVersion":"GDAL 3.2.2","processedAt":"2026-08-11T18:29:20.995Z"}}},{"type":"Feature","geometry":{"type":"Point","coordinates":[4.0042703,51.5030097]},"properties":{"dolphinKind":"light","rawObjectClass":"LIGHTS","sourceProperties":{"RCID":19748,"PRIM":1,"GRUP":2,"OBJL":75,"RVER":1,"AGEN":7979,"FIDN":1106834753,"FIDS":449,"LNAM":"1F2B41F8F54101C1","COLOUR":["4"],"LITCHR":7,"SIGGRP":"(1)","SIGPER":4,"SCAMIN":200000,"sourceCellId":"1R76K89I","sourceChecksum":"5846483df49a2949c9b099044c708d56af6abfa0a15207277ac30950667f6a11","rawObjectClass":"LIGHTS","sourceStableId":"1F2B41F8F54101C1"},"sourceKind":"official","official":true,"sourceCellId":"1R76K89I","sourceStableId":"1F2B41F8F54101C1","pipelineFeatureId":"1R76K89I/LIGHTS/19748","provenance":{"cellId":"1R76K89I","checksum":"5846483df49a2949c9b099044c708d56af6abfa0a15207277ac30950667f6a11","readerVersion":"GDAL 3.2.2","processedAt":"2026-08-11T18:29:20.995Z"}}},{"type":"Feature","geometry":{"type":"Point","coordinates":[4.0040548,51.5056629]},"properties":{"dolphinKind":"light","rawObjectClass":"LIGHTS","sourceProperties":{"RCID":19749,"PRIM":1,"GRUP":2,"OBJL":75,"RVER":1,"AGEN":7979,"FIDN":1106834753,"FIDS":450,"LNAM":"1F2B41F8F54101C2","COLOUR":["3"],"LITCHR":1,"SCAMIN":200000,"sourceCellId":"1R76K89I","sourceChecksum":"5846483df49a2949c9b099044c708d56af6abfa0a15207277ac30950667f6a11","rawObjectClass":"LIGHTS","sourceStableId":"1F2B41F8F54101C2"},"sourceKind":"official","official":true,"sourceCellId":"1R76K89I","sourceStableId":"1F2B41F8F54101C2","pipelineFeatureId":"1R76K89I/LIGHTS/19749","provenance":{"cellId":"1R76K89I","checksum":"5846483df49a2949c9b099044c708d56af6abfa0a15207277ac30950667f6a11","readerVersion":"GDAL 3.2.2","processedAt":"2026-08-11T18:29:20.995Z"}}},{"type":"Feature","geometry":{"type":"Point","coordinates":[4.0058784,51.4921783]},"properties":{"dolphinKind":"light","rawObjectClass":"LIGHTS","sourceProperties":{"RCID":19750,"PRIM":1,"GRUP":2,"OBJL":75,"RVER":1,"AGEN":7979,"FIDN":1106834753,"FIDS":451,"LNAM":"1F2B41F8F54101C3","COLOUR":["3"],"LITCHR":7,"SIGGRP":"(1)","SIGPER":4,"INFORM":"10","SCAMIN":200000,"sourceCellId":"1R76K89I","sourceChecksum":"5846483df49a2949c9b099044c708d56af6abfa0a15207277ac30950667f6a11","rawObjectClass":"LIGHTS","sourceStableId":"1F2B41F8F54101C3"},"sourceKind":"official","official":true,"sourceCellId":"1R76K89I","sourceStableId":"1F2B41F8F54101C3","pipelineFeatureId":"1R76K89I/LIGHTS/19750","provenance":{"cellId":"1R76K89I","checksum":"5846483df49a2949c9b099044c708d56af6abfa0a15207277ac30950667f6a11","readerVersion":"GDAL 3.2.2","processedAt":"2026-08-11T18:29:20.995Z"}}},{"type":"Feature","geometry":{"type":"Point","coordinates":[4.006094,51.4868103]},"properties":{"dolphinKind":"light","rawObjectClass":"LIGHTS","sourceProperties":{"RCID":19751,"PRIM":1,"GRUP":2,"OBJL":75,"RVER":1,"AGEN":7979,"FIDN":1106834753,"FIDS":452,"LNAM":"1F2B41F8F54101C4","COLOUR":["3"],"LITCHR":7,"SIGGRP":"(1)","SIGPER":4,"SCAMIN":200000,"sourceCellId":"1R76K89I","sourceChecksum":"5846483df49a2949c9b099044c708d56af6abfa0a15207277ac30950667f6a11","rawObjectClass":"LIGHTS","sourceStableId":"1F2B41F8F54101C4"},"sourceKind":"official","official":true,"sourceCellId":"1R76K89I","sourceStableId":"1F2B41F8F54101C4","pipelineFeatureId":"1R76K89I/LIGHTS/19751","provenance":{"cellId":"1R76K89I","checksum":"5846483df49a2949c9b099044c708d56af6abfa0a15207277ac30950667f6a11","readerVersion":"GDAL 3.2.2","processedAt":"2026-08-11T18:29:20.995Z"}}},{"type":"Feature","geometry":{"type":"Point","coordinates":[4.0028869,51.4920998]},"properties":{"dolphinKind":"light","rawObjectClass":"LIGHTS","sourceProperties":{"RCID":19752,"PRIM":1,"GRUP":2,"OBJL":75,"RVER":1,"AGEN":7979,"FIDN":1106834753,"FIDS":453,"LNAM":"1F2B41F8F54101C5","COLOUR":["4"],"LITCHR":7,"SIGGRP":"(1)","SIGPER":4,"SCAMIN":200000,"sourceCellId":"1R76K89I","sourceChecksum":"5846483df49a2949c9b099044c708d56af6abfa0a15207277ac30950667f6a11","rawObjectClass":"LIGHTS","sourceStableId":"1F2B41F8F54101C5"},"sourceKind":"official","official":true,"sourceCellId":"1R76K89I","sourceStableId":"1F2B41F8F54101C5","pipelineFeatureId":"1R76K89I/LIGHTS/19752","provenance":{"cellId":"1R76K89I","checksum":"5846483df49a2949c9b099044c708d56af6abfa0a15207277ac30950667f6a11","readerVersion":"GDAL 3.2.2","processedAt":"2026-08-11T18:29:20.995Z"}}},{"type":"Feature","geometry":{"type":"Point","coordinates":[4.0031923,51.4867767]},"properties":{"dolphinKind":"light","rawObjectClass":"LIGHTS","sourceProperties":{"RCID":19753,"PRIM":1,"GRUP":2,"OBJL":75,"RVER":1,"AGEN":7979,"FIDN":1106834753,"FIDS":454,"LNAM":"1F2B41F8F54101C6","COLOUR":["4"],"LITCHR":7,"SIGGRP":"(1)","SIGPER":4,"SCAMIN":200000,"sourceCellId":"1R76K89I","sourceChecksum":"5846483df49a2949c9b099044c708d56af6abfa0a15207277ac30950667f6a11","rawObjectClass":"LIGHTS","sourceStableId":"1F2B41F8F54101C6"},"sourceKind":"official","official":true,"sourceCellId":"1R76K89I","sourceStableId":"1F2B41F8F54101C6","pipelineFeatureId":"1R76K89I/LIGHTS/19753","provenance":{"cellId":"1R76K89I","checksum":"5846483df49a2949c9b099044c708d56af6abfa0a15207277ac30950667f6a11","readerVersion":"GDAL 3.2.2","processedAt":"2026-08-11T18:29:20.995Z"}}},{"type":"Feature","geometry":{"type":"Point","coordinates":[4.0063905,51.4814366]},"properties":{"dolphinKind":"light","rawObjectClass":"LIGHTS","sourceProperties":{"RCID":19754,"PRIM":1,"GRUP":2,"OBJL":75,"RVER":1,"AGEN":7979,"FIDN":1106834753,"FIDS":455,"LNAM":"1F2B41F8F54101C7","COLOUR":["3"],"LITCHR":7,"SIGGRP":"(1)","SIGPER":4,"SCAMIN":200000,"sourceCellId":"1R76K89I","sourceChecksum":"5846483df49a2949c9b099044c708d56af6abfa0a15207277ac30950667f6a11","rawObjectClass":"LIGHTS","sourceStableId":"1F2B41F8F54101C7"},"sourceKind":"official","official":true,"sourceCellId":"1R76K89I","sourceStableId":"1F2B41F8F54101C7","pipelineFeatureId":"1R76K89I/LIGHTS/19754","provenance":{"cellId":"1R76K89I","checksum":"5846483df49a2949c9b099044c708d56af6abfa0a15207277ac30950667f6a11","readerVersion":"GDAL 3.2.2","processedAt":"2026-08-11T18:29:20.995Z"}}},{"type":"Feature","geometry":{"type":"Point","coordinates":[4.0034529,51.4813189]},"properties":{"dolphinKind":"light","rawObjectClass":"LIGHTS","sourceProperties":{"RCID":19755,"PRIM":1,"GRUP":2,"OBJL":75,"RVER":1,"AGEN":7979,"FIDN":1106834753,"FIDS":456,"LNAM":"1F2B41F8F54101C8","COLOUR":["4"],"LITCHR":7,"SIGGRP":"(1)","SIGPER":4,"SCAMIN":200000,"sourceCellId":"1R76K89I","sourceChecksum":"5846483df49a2949c9b099044c708d56af6abfa0a15207277ac30950667f6a11","rawObjectClass":"LIGHTS","sourceStableId":"1F2B41F8F54101C8"},"sourceKind":"official","official":true,"sourceCellId":"1R76K89I","sourceStableId":"1F2B41F8F54101C8","pipelineFeatureId":"1R76K89I/LIGHTS/19755","provenance":{"cellId":"1R76K89I","checksum":"5846483df49a2949c9b099044c708d56af6abfa0a15207277ac30950667f6a11","readerVersion":"GDAL 3.2.2","processedAt":"2026-08-11T18:29:20.995Z"}}},{"type":"Feature","geometry":{"type":"Point","coordinates":[4.0031115,51.500278]},"properties":{"dolphinKind":"light","rawObjectClass":"LIGHTS","sourceProperties":{"RCID":19756,"PRIM":1,"GRUP":2,"OBJL":75,"RVER":1,"AGEN":7979,"FIDN":1106834753,"FIDS":457,"LNAM":"1F2B41F8F54101C9","COLOUR":["4"],"LITCHR":7,"SIGGRP":"(1)","SIGPER":4,"SCAMIN":200000,"sourceCellId":"1R76K89I","sourceChecksum":"5846483df49a2949c9b099044c708d56af6abfa0a15207277ac30950667f6a11","rawObjectClass":"LIGHTS","sourceStableId":"1F2B41F8F54101C9"},"sourceKind":"official","official":true,"sourceCellId":"1R76K89I","sourceStableId":"1F2B41F8F54101C9","pipelineFeatureId":"1R76K89I/LIGHTS/19756","provenance":{"cellId":"1R76K89I","checksum":"5846483df49a2949c9b099044c708d56af6abfa0a15207277ac30950667f6a11","readerVersion":"GDAL 3.2.2","processedAt":"2026-08-11T18:29:20.995Z"}}},{"type":"Feature","geometry":{"type":"Point","coordinates":[4.0171563,51.5188071]},"properties":{"dolphinKind":"light","rawObjectClass":"LIGHTS","sourceProperties":{"RCID":19757,"PRIM":1,"GRUP":2,"OBJL":75,"RVER":1,"AGEN":7979,"FIDN":1106834753,"FIDS":458,"LNAM":"1F2B41F8F54101CA","COLOUR":["3"],"HEIGHT":7,"LITCHR":7,"SIGGRP":"(1)","SIGPER":4,"SCAMIN":200000,"SORDAT":"20071115","SORIND":"NL,1R,reprt,DZD-BAS-2007/80","sourceCellId":"1R76K89I","sourceChecksum":"5846483df49a2949c9b099044c708d56af6abfa0a15207277ac30950667f6a11","rawObjectClass":"LIGHTS","sourceStableId":"1F2B41F8F54101CA"},"sourceKind":"official","official":true,"sourceCellId":"1R76K89I","sourceStableId":"1F2B41F8F54101CA","pipelineFeatureId":"1R76K89I/LIGHTS/19757","provenance":{"cellId":"1R76K89I","checksum":"5846483df49a2949c9b099044c708d56af6abfa0a15207277ac30950667f6a11","readerVersion":"GDAL 3.2.2","processedAt":"2026-08-11T18:29:20.995Z"}}},{"type":"Feature","geometry":{"type":"Point","coordinates":[4.0049038,51.5213659]},"properties":{"dolphinKind":"light","rawObjectClass":"LIGHTS","sourceProperties":{"RCID":19758,"PRIM":1,"GRUP":2,"OBJL":75,"RVER":1,"AGEN":7979,"FIDN":1106834753,"FIDS":459,"LNAM":"1F2B41F8F54101CB","COLOUR":["3"],"LITCHR":1,"SCAMIN":200000,"sourceCellId":"1R76K89I","sourceChecksum":"5846483df49a2949c9b099044c708d56af6abfa0a15207277ac30950667f6a11","rawObjectClass":"LIGHTS","sourceStableId":"1F2B41F8F54101CB"},"sourceKind":"official","official":true,"sourceCellId":"1R76K89I","sourceStableId":"1F2B41F8F54101CB","pipelineFeatureId":"1R76K89I/LIGHTS/19758","provenance":{"cellId":"1R76K89I","checksum":"5846483df49a2949c9b099044c708d56af6abfa0a15207277ac30950667f6a11","readerVersion":"GDAL 3.2.2","processedAt":"2026-08-11T18:29:20.995Z"}}},{"type":"Feature","geometry":{"type":"Point","coordinates":[4.0027928,51.5214106]},"properties":{"dolphinKind":"light","rawObjectClass":"LIGHTS","sourceProperties":{"RCID":19759,"PRIM":1,"GRUP":2,"OBJL":75,"RVER":1,"AGEN":7979,"FIDN":1106834753,"FIDS":460,"LNAM":"1F2B41F8F54101CC","COLOUR":["4"],"LITCHR":1,"SCAMIN":200000,"sourceCellId":"1R76K89I","sourceChecksum":"5846483df49a2949c9b099044c708d56af6abfa0a15207277ac30950667f6a11","rawObjectClass":"LIGHTS","sourceStableId":"1F2B41F8F54101CC"},"sourceKind":"official","official":true,"sourceCellId":"1R76K89I","sourceStableId":"1F2B41F8F54101CC","pipelineFeatureId":"1R76K89I/LIGHTS/19759","provenance":{"cellId":"1R76K89I","checksum":"5846483df49a2949c9b099044c708d56af6abfa0a15207277ac30950667f6a11","readerVersion":"GDAL 3.2.2","processedAt":"2026-08-11T18:29:20.995Z"}}},{"type":"Feature","geometry":{"type":"Point","coordinates":[4.0137809,51.5192992]},"properties":{"dolphinKind":"light","rawObjectClass":"LIGHTS","sourceProperties":{"RCID":19760,"PRIM":1,"GRUP":2,"OBJL":75,"RVER":1,"AGEN":7979,"FIDN":1106834753,"FIDS":461,"LNAM":"1F2B41F8F54101CD","COLOUR":["4"],"HEIGHT":9,"LITCHR":7,"SIGGRP":"(1)","SIGPER":4,"SCAMIN":200000,"SORDAT":"20071115","SORIND":"NL,1R,reprt,DZD-BAS-2007/80","sourceCellId":"1R76K89I","sourceChecksum":"5846483df49a2949c9b099044c708d56af6abfa0a15207277ac30950667f6a11","rawObjectClass":"LIGHTS","sourceStableId":"1F2B41F8F54101CD"},"sourceKind":"official","official":true,"sourceCellId":"1R76K89I","sourceStableId":"1F2B41F8F54101CD","pipelineFeatureId":"1R76K89I/LIGHTS/19760","provenance":{"cellId":"1R76K89I","checksum":"5846483df49a2949c9b099044c708d56af6abfa0a15207277ac30950667f6a11","readerVersion":"GDAL 3.2.2","processedAt":"2026-08-11T18:29:20.995Z"}}},{"type":"Feature","geometry":{"type":"Point","coordinates":[4.0575528,51.4988444]},"properties":{"dolphinKind":"light","rawObjectClass":"LIGHTS","sourceProperties":{"RCID":19840,"PRIM":1,"GRUP":2,"OBJL":75,"RVER":1,"AGEN":7979,"FIDN":1106834754,"FIDS":286,"LNAM":"1F2B41F8F542011E","CATLIT":["4","15"],"COLOUR":["1"],"HEIGHT":15,"LITCHR":7,"SIGGRP":"(1)","SIGPER":4,"INFORM":"In fog: F.Y.","SCAMIN":200000,"sourceCellId":"1R76K89I","sourceChecksum":"5846483df49a2949c9b099044c708d56af6abfa0a15207277ac30950667f6a11","rawObjectClass":"LIGHTS","sourceStableId":"1F2B41F8F542011E"},"sourceKind":"official","official":true,"sourceCellId":"1R76K89I","sourceStableId":"1F2B41F8F542011E","pipelineFeatureId":"1R76K89I/LIGHTS/19840","provenance":{"cellId":"1R76K89I","checksum":"5846483df49a2949c9b099044c708d56af6abfa0a15207277ac30950667f6a11","readerVersion":"GDAL 3.2.2","processedAt":"2026-08-11T18:29:20.995Z"}}},{"type":"Feature","geometry":{"type":"Point","coordinates":[4.0564306,51.5003333]},"properties":{"dolphinKind":"light","rawObjectClass":"LIGHTS","sourceProperties":{"RCID":19843,"PRIM":1,"GRUP":2,"OBJL":75,"RVER":1,"AGEN":7979,"FIDN":1106834754,"FIDS":289,"LNAM":"1F2B41F8F5420121","CATLIT":["4","14"],"COLOUR":["1"],"HEIGHT":10,"LITCHR":7,"SIGGRP":"(1)","SIGPER":4,"INFORM":"In fog: F.Y.","SCAMIN":200000,"sourceCellId":"1R76K89I","sourceChecksum":"5846483df49a2949c9b099044c708d56af6abfa0a15207277ac30950667f6a11","rawObjectClass":"LIGHTS","sourceStableId":"1F2B41F8F5420121"},"sourceKind":"official","official":true,"sourceCellId":"1R76K89I","sourceStableId":"1F2B41F8F5420121","pipelineFeatureId":"1R76K89I/LIGHTS/19843","provenance":{"cellId":"1R76K89I","checksum":"5846483df49a2949c9b099044c708d56af6abfa0a15207277ac30950667f6a11","readerVersion":"GDAL 3.2.2","processedAt":"2026-08-11T18:29:20.995Z"}}},{"type":"Feature","geometry":{"type":"Point","coordinates":[4.0573,51.4984509]},"properties":{"dolphinKind":"light","rawObjectClass":"LIGHTS","sourceProperties":{"RCID":20277,"PRIM":1,"GRUP":2,"OBJL":75,"RVER":1,"AGEN":7979,"FIDN":1106834755,"FIDS":468,"LNAM":"1F2B41F8F54301D4","COLOUR":["4"],"LITCHR":1,"SCAMIN":200000,"sourceCellId":"1R76K89I","sourceChecksum":"5846483df49a2949c9b099044c708d56af6abfa0a15207277ac30950667f6a11","rawObjectClass":"LIGHTS","sourceStableId":"1F2B41F8F54301D4"},"sourceKind":"official","official":true,"sourceCellId":"1R76K89I","sourceStableId":"1F2B41F8F54301D4","pipelineFeatureId":"1R76K89I/LIGHTS/20277","provenance":{"cellId":"1R76K89I","checksum":"5846483df49a2949c9b099044c708d56af6abfa0a15207277ac30950667f6a11","readerVersion":"GDAL 3.2.2","processedAt":"2026-08-11T18:29:20.995Z"}}},{"type":"Feature","geometry":{"type":"Point","coordinates":[4.0569694,51.4981764]},"properties":{"dolphinKind":"light","rawObjectClass":"LIGHTS","sourceProperties":{"RCID":20279,"PRIM":1,"GRUP":2,"OBJL":75,"RVER":1,"AGEN":7979,"FIDN":1106834755,"FIDS":470,"LNAM":"1F2B41F8F54301D6","COLOUR":["3"],"LITCHR":1,"SCAMIN":200000,"sourceCellId":"1R76K89I","sourceChecksum":"5846483df49a2949c9b099044c708d56af6abfa0a15207277ac30950667f6a11","rawObjectClass":"LIGHTS","sourceStableId":"1F2B41F8F54301D6"},"sourceKind":"official","official":true,"sourceCellId":"1R76K89I","sourceStableId":"1F2B41F8F54301D6","pipelineFeatureId":"1R76K89I/LIGHTS/20279","provenance":{"cellId":"1R76K89I","checksum":"5846483df49a2949c9b099044c708d56af6abfa0a15207277ac30950667f6a11","readerVersion":"GDAL 3.2.2","processedAt":"2026-08-11T18:29:20.995Z"}}},{"type":"Feature","geometry":{"type":"Point","coordinates":[4.0566855,51.4968303]},"properties":{"dolphinKind":"light","rawObjectClass":"LIGHTS","sourceProperties":{"RCID":20281,"PRIM":1,"GRUP":2,"OBJL":75,"RVER":1,"AGEN":7979,"FIDN":1106834755,"FIDS":472,"LNAM":"1F2B41F8F54301D8","COLOUR":["3"],"HEIGHT":9,"LITCHR":1,"SCAMIN":200000,"sourceCellId":"1R76K89I","sourceChecksum":"5846483df49a2949c9b099044c708d56af6abfa0a15207277ac30950667f6a11","rawObjectClass":"LIGHTS","sourceStableId":"1F2B41F8F54301D8"},"sourceKind":"official","official":true,"sourceCellId":"1R76K89I","sourceStableId":"1F2B41F8F54301D8","pipelineFeatureId":"1R76K89I/LIGHTS/20281","provenance":{"cellId":"1R76K89I","checksum":"5846483df49a2949c9b099044c708d56af6abfa0a15207277ac30950667f6a11","readerVersion":"GDAL 3.2.2","processedAt":"2026-08-11T18:29:20.995Z"}}},{"type":"Feature","geometry":{"type":"Point","coordinates":[4.0544992,51.495769]},"properties":{"dolphinKind":"light","rawObjectClass":"LIGHTS","sourceProperties":{"RCID":20283,"PRIM":1,"GRUP":2,"OBJL":75,"RVER":1,"AGEN":7979,"FIDN":1106834755,"FIDS":474,"LNAM":"1F2B41F8F54301DA","COLOUR":["3"],"LITCHR":1,"INFORM":"In fog: F.Y.","SCAMIN":200000,"sourceCellId":"1R76K89I","sourceChecksum":"5846483df49a2949c9b099044c708d56af6abfa0a15207277ac30950667f6a11","rawObjectClass":"LIGHTS","sourceStableId":"1F2B41F8F54301DA"},"sourceKind":"official","official":true,"sourceCellId":"1R76K89I","sourceStableId":"1F2B41F8F54301DA","pipelineFeatureId":"1R76K89I/LIGHTS/20283","provenance":{"cellId":"1R76K89I","checksum":"5846483df49a2949c9b099044c708d56af6abfa0a15207277ac30950667f6a11","readerVersion":"GDAL 3.2.2","processedAt":"2026-08-11T18:29:20.995Z"}}},{"type":"Feature","geometry":{"type":"Point","coordinates":[4.0568226,51.49692]},"properties":{"dolphinKind":"light","rawObjectClass":"LIGHTS","sourceProperties":{"RCID":20285,"PRIM":1,"GRUP":2,"OBJL":75,"RVER":1,"AGEN":7979,"FIDN":1106834755,"FIDS":476,"LNAM":"1F2B41F8F54301DC","COLOUR":["4"],"HEIGHT":9,"LITCHR":1,"SCAMIN":200000,"sourceCellId":"1R76K89I","sourceChecksum":"5846483df49a2949c9b099044c708d56af6abfa0a15207277ac30950667f6a11","rawObjectClass":"LIGHTS","sourceStableId":"1F2B41F8F54301DC"},"sourceKind":"official","official":true,"sourceCellId":"1R76K89I","sourceStableId":"1F2B41F8F54301DC","pipelineFeatureId":"1R76K89I/LIGHTS/20285","provenance":{"cellId":"1R76K89I","checksum":"5846483df49a2949c9b099044c708d56af6abfa0a15207277ac30950667f6a11","readerVersion":"GDAL 3.2.2","processedAt":"2026-08-11T18:29:20.995Z"}}},{"type":"Feature","geometry":{"type":"Point","coordinates":[4.0549125,51.4958964]},"properties":{"dolphinKind":"light","rawObjectClass":"LIGHTS","sourceProperties":{"RCID":20287,"PRIM":1,"GRUP":2,"OBJL":75,"RVER":1,"AGEN":7979,"FIDN":1106834755,"FIDS":478,"LNAM":"1F2B41F8F54301DE","COLOUR":["4"],"HEIGHT":9,"LITCHR":1,"SCAMIN":200000,"sourceCellId":"1R76K89I","sourceChecksum":"5846483df49a2949c9b099044c708d56af6abfa0a15207277ac30950667f6a11","rawObjectClass":"LIGHTS","sourceStableId":"1F2B41F8F54301DE"},"sourceKind":"official","official":true,"sourceCellId":"1R76K89I","sourceStableId":"1F2B41F8F54301DE","pipelineFeatureId":"1R76K89I/LIGHTS/20287","provenance":{"cellId":"1R76K89I","checksum":"5846483df49a2949c9b099044c708d56af6abfa0a15207277ac30950667f6a11","readerVersion":"GDAL 3.2.2","processedAt":"2026-08-11T18:29:20.995Z"}}},{"type":"Feature","geometry":{"type":"Point","coordinates":[4.0065465,51.5192627]},"properties":{"dolphinKind":"light","rawObjectClass":"LIGHTS","sourceProperties":{"RCID":20289,"PRIM":1,"GRUP":2,"OBJL":75,"RVER":1,"AGEN":7979,"FIDN":1106834755,"FIDS":480,"LNAM":"1F2B41F8F54301E0","COLOUR":["3"],"LITCHR":1,"SCAMIN":200000,"sourceCellId":"1R76K89I","sourceChecksum":"5846483df49a2949c9b099044c708d56af6abfa0a15207277ac30950667f6a11","rawObjectClass":"LIGHTS","sourceStableId":"1F2B41F8F54301E0"},"sourceKind":"official","official":true,"sourceCellId":"1R76K89I","sourceStableId":"1F2B41F8F54301E0","pipelineFeatureId":"1R76K89I/LIGHTS/20289","provenance":{"cellId":"1R76K89I","checksum":"5846483df49a2949c9b099044c708d56af6abfa0a15207277ac30950667f6a11","readerVersion":"GDAL 3.2.2","processedAt":"2026-08-11T18:29:20.995Z"}}},{"type":"Feature","geometry":{"type":"Point","coordinates":[4.0054562,51.5185684]},"properties":{"dolphinKind":"light","rawObjectClass":"LIGHTS","sourceProperties":{"RCID":20291,"PRIM":1,"GRUP":2,"OBJL":75,"RVER":1,"AGEN":7979,"FIDN":1106834755,"FIDS":482,"LNAM":"1F2B41F8F54301E2","COLOUR":["4"],"LITCHR":1,"SCAMIN":200000,"sourceCellId":"1R76K89I","sourceChecksum":"5846483df49a2949c9b099044c708d56af6abfa0a15207277ac30950667f6a11","rawObjectClass":"LIGHTS","sourceStableId":"1F2B41F8F54301E2"},"sourceKind":"official","official":true,"sourceCellId":"1R76K89I","sourceStableId":"1F2B41F8F54301E2","pipelineFeatureId":"1R76K89I/LIGHTS/20291","provenance":{"cellId":"1R76K89I","checksum":"5846483df49a2949c9b099044c708d56af6abfa0a15207277ac30950667f6a11","readerVersion":"GDAL 3.2.2","processedAt":"2026-08-11T18:29:20.995Z"}}},{"type":"Feature","geometry":{"type":"Point","coordinates":[4.006606,51.476035]},"properties":{"dolphinKind":"light","rawObjectClass":"LIGHTS","sourceProperties":{"RCID":20309,"PRIM":1,"GRUP":2,"OBJL":75,"RVER":1,"AGEN":7979,"FIDN":1106834755,"FIDS":500,"LNAM":"1F2B41F8F54301F4","COLOUR":["3"],"LITCHR":7,"SIGGRP":"(1)","SIGPER":4,"SCAMIN":200000,"sourceCellId":"1R76K89I","sourceChecksum":"5846483df49a2949c9b099044c708d56af6abfa0a15207277ac30950667f6a11","rawObjectClass":"LIGHTS","sourceStableId":"1F2B41F8F54301F4"},"sourceKind":"official","official":true,"sourceCellId":"1R76K89I","sourceStableId":"1F2B41F8F54301F4","pipelineFeatureId":"1R76K89I/LIGHTS/20309","provenance":{"cellId":"1R76K89I","checksum":"5846483df49a2949c9b099044c708d56af6abfa0a15207277ac30950667f6a11","readerVersion":"GDAL 3.2.2","processedAt":"2026-08-11T18:29:20.995Z"}}},{"type":"Feature","geometry":{"type":"Point","coordinates":[4.0037134,51.4760013]},"properties":{"dolphinKind":"light","rawObjectClass":"LIGHTS","sourceProperties":{"RCID":20310,"PRIM":1,"GRUP":2,"OBJL":75,"RVER":1,"AGEN":7979,"FIDN":1106834755,"FIDS":501,"LNAM":"1F2B41F8F54301F5","COLOUR":["4"],"LITCHR":7,"SIGGRP":"(1)","SIGPER":4,"SCAMIN":200000,"sourceCellId":"1R76K89I","sourceChecksum":"5846483df49a2949c9b099044c708d56af6abfa0a15207277ac30950667f6a11","rawObjectClass":"LIGHTS","sourceStableId":"1F2B41F8F54301F5"},"sourceKind":"official","official":true,"sourceCellId":"1R76K89I","sourceStableId":"1F2B41F8F54301F5","pipelineFeatureId":"1R76K89I/LIGHTS/20310","provenance":{"cellId":"1R76K89I","checksum":"5846483df49a2949c9b099044c708d56af6abfa0a15207277ac30950667f6a11","readerVersion":"GDAL 3.2.2","processedAt":"2026-08-11T18:29:20.995Z"}}},{"type":"Feature","geometry":{"type":"Point","coordinates":[4.0216667,51.5246667]},"properties":{"dolphinKind":"light","rawObjectClass":"LIGHTS","sourceProperties":{"RCID":12327309,"PRIM":1,"GRUP":2,"OBJL":75,"RVER":1,"AGEN":7979,"FIDN":12327309,"FIDS":1,"LNAM":"1F2B00BC198D0001","COLOUR":["3"],"LITCHR":3,"SIGGRP":"(1)","SIGPER":8,"SCAMIN":200000,"SORDAT":"20071115","SORIND":"NL,1R,Reprt,DZD-BAS-2007/80","sourceCellId":"1R76K89I","sourceChecksum":"5846483df49a2949c9b099044c708d56af6abfa0a15207277ac30950667f6a11","rawObjectClass":"LIGHTS","sourceStableId":"1F2B00BC198D0001"},"sourceKind":"official","official":true,"sourceCellId":"1R76K89I","sourceStableId":"1F2B00BC198D0001","pipelineFeatureId":"1R76K89I/LIGHTS/12327309","provenance":{"cellId":"1R76K89I","checksum":"5846483df49a2949c9b099044c708d56af6abfa0a15207277ac30950667f6a11","readerVersion":"GDAL 3.2.2","processedAt":"2026-08-11T18:29:20.995Z"}}},{"type":"Feature","geometry":{"type":"Point","coordinates":[4.0050289,51.4938323]},"properties":{"dolphinKind":"light","rawObjectClass":"LIGHTS","sourceProperties":{"RCID":189406900,"PRIM":1,"GRUP":2,"OBJL":75,"RVER":1,"AGEN":7979,"FIDN":189406900,"FIDS":1,"LNAM":"1F2B0B4A1EB40001","COLOUR":["1"],"LITCHR":1,"SCAMIN":200000,"SORDAT":"20150817","SORIND":"NL,1R,Reprt,Topdesk M-150806077","sourceCellId":"1R76K89I","sourceChecksum":"5846483df49a2949c9b099044c708d56af6abfa0a15207277ac30950667f6a11","rawObjectClass":"LIGHTS","sourceStableId":"1F2B0B4A1EB40001"},"sourceKind":"official","official":true,"sourceCellId":"1R76K89I","sourceStableId":"1F2B0B4A1EB40001","pipelineFeatureId":"1R76K89I/LIGHTS/189406900","provenance":{"cellId":"1R76K89I","checksum":"5846483df49a2949c9b099044c708d56af6abfa0a15207277ac30950667f6a11","readerVersion":"GDAL 3.2.2","processedAt":"2026-08-11T18:29:20.995Z"}}},{"type":"Feature","geometry":{"type":"Point","coordinates":[4.0050717,51.4931174]},"properties":{"dolphinKind":"light","rawObjectClass":"LIGHTS","sourceProperties":{"RCID":189406901,"PRIM":1,"GRUP":2,"OBJL":75,"RVER":1,"AGEN":7979,"FIDN":189406901,"FIDS":1,"LNAM":"1F2B0B4A1EB50001","COLOUR":["1"],"LITCHR":1,"SCAMIN":200000,"SORDAT":"20150817","SORIND":"NL,1R,reprt,Topdesk M-150806077","sourceCellId":"1R76K89I","sourceChecksum":"5846483df49a2949c9b099044c708d56af6abfa0a15207277ac30950667f6a11","rawObjectClass":"LIGHTS","sourceStableId":"1F2B0B4A1EB50001"},"sourceKind":"official","official":true,"sourceCellId":"1R76K89I","sourceStableId":"1F2B0B4A1EB50001","pipelineFeatureId":"1R76K89I/LIGHTS/189406901","provenance":{"cellId":"1R76K89I","checksum":"5846483df49a2949c9b099044c708d56af6abfa0a15207277ac30950667f6a11","readerVersion":"GDAL 3.2.2","processedAt":"2026-08-11T18:29:20.995Z"}}},{"type":"Feature","geometry":{"type":"Point","coordinates":[4.0057819,51.5012507]},"properties":{"dolphinKind":"light","rawObjectClass":"LIGHTS","sourceProperties":{"RCID":189406902,"PRIM":1,"GRUP":2,"OBJL":75,"RVER":1,"AGEN":7979,"FIDN":189406902,"FIDS":1,"LNAM":"1F2B0B4A1EB60001","COLOUR":["1"],"LITCHR":1,"SCAMIN":200000,"SORDAT":"20150817","SORIND":"NL,1R,reprt,Topdesk M-150806077","sourceCellId":"1R76K89I","sourceChecksum":"5846483df49a2949c9b099044c708d56af6abfa0a15207277ac30950667f6a11","rawObjectClass":"LIGHTS","sourceStableId":"1F2B0B4A1EB60001"},"sourceKind":"official","official":true,"sourceCellId":"1R76K89I","sourceStableId":"1F2B0B4A1EB60001","pipelineFeatureId":"1R76K89I/LIGHTS/189406902","provenance":{"cellId":"1R76K89I","checksum":"5846483df49a2949c9b099044c708d56af6abfa0a15207277ac30950667f6a11","readerVersion":"GDAL 3.2.2","processedAt":"2026-08-11T18:29:20.995Z"}}},{"type":"Feature","geometry":{"type":"Point","coordinates":[4.0060848,51.5019242]},"properties":{"dolphinKind":"light","rawObjectClass":"LIGHTS","sourceProperties":{"RCID":189406903,"PRIM":1,"GRUP":2,"OBJL":75,"RVER":1,"AGEN":7979,"FIDN":189406903,"FIDS":1,"LNAM":"1F2B0B4A1EB70001","COLOUR":["1"],"LITCHR":1,"SCAMIN":200000,"SORDAT":"20150817","SORIND":"NL,1R,reprt,Topdesk M-150806077","sourceCellId":"1R76K89I","sourceChecksum":"5846483df49a2949c9b099044c708d56af6abfa0a15207277ac30950667f6a11","rawObjectClass":"LIGHTS","sourceStableId":"1F2B0B4A1EB70001"},"sourceKind":"official","official":true,"sourceCellId":"1R76K89I","sourceStableId":"1F2B0B4A1EB70001","pipelineFeatureId":"1R76K89I/LIGHTS/189406903","provenance":{"cellId":"1R76K89I","checksum":"5846483df49a2949c9b099044c708d56af6abfa0a15207277ac30950667f6a11","readerVersion":"GDAL 3.2.2","processedAt":"2026-08-11T18:29:20.995Z"}}},{"type":"Feature","geometry":{"type":"Point","coordinates":[4.0052638,51.5059762]},"properties":{"dolphinKind":"light","rawObjectClass":"LIGHTS","sourceProperties":{"RCID":192897100,"PRIM":1,"GRUP":2,"OBJL":75,"RVER":1,"AGEN":7979,"FIDN":192897100,"FIDS":1,"LNAM":"1F2B0B7F604C0001","CATLIT":["20"],"COLOUR":["1"],"LITCHR":1,"SCAMIN":200000,"SORDAT":"20151007","SORIND":"NL,1R,reprt,Topdesk M-M151003810","sourceCellId":"1R76K89I","sourceChecksum":"5846483df49a2949c9b099044c708d56af6abfa0a15207277ac30950667f6a11","rawObjectClass":"LIGHTS","sourceStableId":"1F2B0B7F604C0001"},"sourceKind":"official","official":true,"sourceCellId":"1R76K89I","sourceStableId":"1F2B0B7F604C0001","pipelineFeatureId":"1R76K89I/LIGHTS/192897100","provenance":{"cellId":"1R76K89I","checksum":"5846483df49a2949c9b099044c708d56af6abfa0a15207277ac30950667f6a11","readerVersion":"GDAL 3.2.2","processedAt":"2026-08-11T18:29:20.995Z"}}},{"type":"Feature","geometry":{"type":"Point","coordinates":[4.0039473,51.5209178]},"properties":{"dolphinKind":"light","rawObjectClass":"LIGHTS","sourceProperties":{"RCID":196140452,"PRIM":1,"GRUP":2,"OBJL":75,"RVER":1,"AGEN":7979,"FIDN":196140452,"FIDS":1,"LNAM":"1F2B0BB0DDA40001","COLOUR":["3"],"LITCHR":1,"SCAMIN":200000,"SORDAT":"20160728","sourceCellId":"1R76K89I","sourceChecksum":"5846483df49a2949c9b099044c708d56af6abfa0a15207277ac30950667f6a11","rawObjectClass":"LIGHTS","sourceStableId":"1F2B0BB0DDA40001"},"sourceKind":"official","official":true,"sourceCellId":"1R76K89I","sourceStableId":"1F2B0BB0DDA40001","pipelineFeatureId":"1R76K89I/LIGHTS/196140452","provenance":{"cellId":"1R76K89I","checksum":"5846483df49a2949c9b099044c708d56af6abfa0a15207277ac30950667f6a11","readerVersion":"GDAL 3.2.2","processedAt":"2026-08-11T18:29:20.995Z"}}},{"type":"Feature","geometry":{"type":"Point","coordinates":[4.0041679,51.5209317]},"properties":{"dolphinKind":"light","rawObjectClass":"LIGHTS","sourceProperties":{"RCID":196140454,"PRIM":1,"GRUP":2,"OBJL":75,"RVER":1,"AGEN":7979,"FIDN":196140454,"FIDS":1,"LNAM":"1F2B0BB0DDA60001","COLOUR":["1"],"LITCHR":1,"SCAMIN":200000,"SORDAT":"20160728","sourceCellId":"1R76K89I","sourceChecksum":"5846483df49a2949c9b099044c708d56af6abfa0a15207277ac30950667f6a11","rawObjectClass":"LIGHTS","sourceStableId":"1F2B0BB0DDA60001"},"sourceKind":"official","official":true,"sourceCellId":"1R76K89I","sourceStableId":"1F2B0BB0DDA60001","pipelineFeatureId":"1R76K89I/LIGHTS/196140454","provenance":{"cellId":"1R76K89I","checksum":"5846483df49a2949c9b099044c708d56af6abfa0a15207277ac30950667f6a11","readerVersion":"GDAL 3.2.2","processedAt":"2026-08-11T18:29:20.995Z"}}},{"type":"Feature","geometry":{"type":"Point","coordinates":[4.0043943,51.5209457]},"properties":{"dolphinKind":"light","rawObjectClass":"LIGHTS","sourceProperties":{"RCID":196140456,"PRIM":1,"GRUP":2,"OBJL":75,"RVER":1,"AGEN":7979,"FIDN":196140456,"FIDS":1,"LNAM":"1F2B0BB0DDA80001","COLOUR":["1"],"LITCHR":1,"SCAMIN":200000,"SORDAT":"20160728","sourceCellId":"1R76K89I","sourceChecksum":"5846483df49a2949c9b099044c708d56af6abfa0a15207277ac30950667f6a11","rawObjectClass":"LIGHTS","sourceStableId":"1F2B0BB0DDA80001"},"sourceKind":"official","official":true,"sourceCellId":"1R76K89I","sourceStableId":"1F2B0BB0DDA80001","pipelineFeatureId":"1R76K89I/LIGHTS/196140456","provenance":{"cellId":"1R76K89I","checksum":"5846483df49a2949c9b099044c708d56af6abfa0a15207277ac30950667f6a11","readerVersion":"GDAL 3.2.2","processedAt":"2026-08-11T18:29:20.995Z"}}},{"type":"Feature","geometry":{"type":"Point","coordinates":[4.0482756,51.5023992]},"properties":{"dolphinKind":"topmark","rawObjectClass":"TOPMAR","sourceProperties":{"RCID":9310,"PRIM":1,"GRUP":2,"OBJL":144,"RVER":1,"AGEN":7979,"FIDN":1106210626,"FIDS":385,"LNAM":"1F2B41EF6F420181","COLOUR":["6"],"TOPSHP":20,"SCAMIN":200000,"sourceCellId":"1R76K89I","sourceChecksum":"5846483df49a2949c9b099044c708d56af6abfa0a15207277ac30950667f6a11","rawObjectClass":"TOPMAR","sourceStableId":"1F2B41EF6F420181"},"sourceKind":"official","official":true,"sourceCellId":"1R76K89I","sourceStableId":"1F2B41EF6F420181","pipelineFeatureId":"1R76K89I/TOPMAR/9310","provenance":{"cellId":"1R76K89I","checksum":"5846483df49a2949c9b099044c708d56af6abfa0a15207277ac30950667f6a11","readerVersion":"GDAL 3.2.2","processedAt":"2026-08-11T18:29:20.995Z"},"associationRefsVerifiedInGdalOutput":false}},{"type":"Feature","geometry":{"type":"Point","coordinates":[4.0066594,51.475439]},"properties":{"dolphinKind":"topmark","rawObjectClass":"TOPMAR","sourceProperties":{"RCID":9349,"PRIM":1,"GRUP":2,"OBJL":144,"RVER":1,"AGEN":7979,"FIDN":1106210626,"FIDS":424,"LNAM":"1F2B41EF6F4201A8","COLOUR":["6"],"TOPSHP":20,"SCAMIN":200000,"sourceCellId":"1R76K89I","sourceChecksum":"5846483df49a2949c9b099044c708d56af6abfa0a15207277ac30950667f6a11","rawObjectClass":"TOPMAR","sourceStableId":"1F2B41EF6F4201A8"},"sourceKind":"official","official":true,"sourceCellId":"1R76K89I","sourceStableId":"1F2B41EF6F4201A8","pipelineFeatureId":"1R76K89I/TOPMAR/9349","provenance":{"cellId":"1R76K89I","checksum":"5846483df49a2949c9b099044c708d56af6abfa0a15207277ac30950667f6a11","readerVersion":"GDAL 3.2.2","processedAt":"2026-08-11T18:29:20.995Z"},"associationRefsVerifiedInGdalOutput":false}},{"type":"Feature","geometry":{"type":"Point","coordinates":[4.0036808,51.4753691]},"properties":{"dolphinKind":"topmark","rawObjectClass":"TOPMAR","sourceProperties":{"RCID":9350,"PRIM":1,"GRUP":2,"OBJL":144,"RVER":1,"AGEN":7979,"FIDN":1106210626,"FIDS":425,"LNAM":"1F2B41EF6F4201A9","COLOUR":["6"],"TOPSHP":20,"SCAMIN":200000,"sourceCellId":"1R76K89I","sourceChecksum":"5846483df49a2949c9b099044c708d56af6abfa0a15207277ac30950667f6a11","rawObjectClass":"TOPMAR","sourceStableId":"1F2B41EF6F4201A9"},"sourceKind":"official","official":true,"sourceCellId":"1R76K89I","sourceStableId":"1F2B41EF6F4201A9","pipelineFeatureId":"1R76K89I/TOPMAR/9350","provenance":{"cellId":"1R76K89I","checksum":"5846483df49a2949c9b099044c708d56af6abfa0a15207277ac30950667f6a11","readerVersion":"GDAL 3.2.2","processedAt":"2026-08-11T18:29:20.995Z"},"associationRefsVerifiedInGdalOutput":false}},{"type":"Feature","geometry":{"type":"Point","coordinates":[4.0395634,51.5226533]},"properties":{"dolphinKind":"topmark","rawObjectClass":"TOPMAR","sourceProperties":{"RCID":18252,"PRIM":1,"GRUP":2,"OBJL":144,"RVER":1,"AGEN":7979,"FIDN":1106834727,"FIDS":500,"LNAM":"1F2B41F8F52701F4","COLOUR":["4"],"TOPSHP":1,"SCAMIN":200000,"sourceCellId":"1R76K89I","sourceChecksum":"5846483df49a2949c9b099044c708d56af6abfa0a15207277ac30950667f6a11","rawObjectClass":"TOPMAR","sourceStableId":"1F2B41F8F52701F4"},"sourceKind":"official","official":true,"sourceCellId":"1R76K89I","sourceStableId":"1F2B41F8F52701F4","pipelineFeatureId":"1R76K89I/TOPMAR/18252","provenance":{"cellId":"1R76K89I","checksum":"5846483df49a2949c9b099044c708d56af6abfa0a15207277ac30950667f6a11","readerVersion":"GDAL 3.2.2","processedAt":"2026-08-11T18:29:20.995Z"},"associationRefsVerifiedInGdalOutput":false}},{"type":"Feature","geometry":{"type":"Point","coordinates":[4.1177709,51.5220647]},"properties":{"dolphinKind":"topmark","rawObjectClass":"TOPMAR","sourceProperties":{"RCID":18257,"PRIM":1,"GRUP":2,"OBJL":144,"RVER":1,"AGEN":7979,"FIDN":1106834727,"FIDS":505,"LNAM":"1F2B41F8F52701F9","COLOUR":["3"],"TOPSHP":5,"SCAMIN":200000,"SORIND":"NL,1R,Reprt,MZ123","sourceCellId":"1R76K89I","sourceChecksum":"5846483df49a2949c9b099044c708d56af6abfa0a15207277ac30950667f6a11","rawObjectClass":"TOPMAR","sourceStableId":"1F2B41F8F52701F9"},"sourceKind":"official","official":true,"sourceCellId":"1R76K89I","sourceStableId":"1F2B41F8F52701F9","pipelineFeatureId":"1R76K89I/TOPMAR/18257","provenance":{"cellId":"1R76K89I","checksum":"5846483df49a2949c9b099044c708d56af6abfa0a15207277ac30950667f6a11","readerVersion":"GDAL 3.2.2","processedAt":"2026-08-11T18:29:20.995Z"},"associationRefsVerifiedInGdalOutput":false}},{"type":"Feature","geometry":{"type":"Point","coordinates":[4.0730833,51.5196667]},"properties":{"dolphinKind":"topmark","rawObjectClass":"TOPMAR","sourceProperties":{"RCID":18259,"PRIM":1,"GRUP":2,"OBJL":144,"RVER":1,"AGEN":7979,"FIDN":1106834727,"FIDS":507,"LNAM":"1F2B41F8F52701FB","COLOUR":["4"],"TOPSHP":1,"SCAMIN":200000,"SORIND":"NL,1R,Reprt,MZ 132-2012","sourceCellId":"1R76K89I","sourceChecksum":"5846483df49a2949c9b099044c708d56af6abfa0a15207277ac30950667f6a11","rawObjectClass":"TOPMAR","sourceStableId":"1F2B41F8F52701FB"},"sourceKind":"official","official":true,"sourceCellId":"1R76K89I","sourceStableId":"1F2B41F8F52701FB","pipelineFeatureId":"1R76K89I/TOPMAR/18259","provenance":{"cellId":"1R76K89I","checksum":"5846483df49a2949c9b099044c708d56af6abfa0a15207277ac30950667f6a11","readerVersion":"GDAL 3.2.2","processedAt":"2026-08-11T18:29:20.995Z"},"associationRefsVerifiedInGdalOutput":false}},{"type":"Feature","geometry":{"type":"Point","coordinates":[4.1222559,51.5164214]},"properties":{"dolphinKind":"topmark","rawObjectClass":"TOPMAR","sourceProperties":{"RCID":18264,"PRIM":1,"GRUP":2,"OBJL":144,"RVER":1,"AGEN":7979,"FIDN":1106834728,"FIDS":257,"LNAM":"1F2B41F8F5280101","COLOUR":["4"],"TOPSHP":1,"SCAMIN":200000,"SORIND":"NL,1R,Reprt,MZ 132-2012","sourceCellId":"1R76K89I","sourceChecksum":"5846483df49a2949c9b099044c708d56af6abfa0a15207277ac30950667f6a11","rawObjectClass":"TOPMAR","sourceStableId":"1F2B41F8F5280101"},"sourceKind":"official","official":true,"sourceCellId":"1R76K89I","sourceStableId":"1F2B41F8F5280101","pipelineFeatureId":"1R76K89I/TOPMAR/18264","provenance":{"cellId":"1R76K89I","checksum":"5846483df49a2949c9b099044c708d56af6abfa0a15207277ac30950667f6a11","readerVersion":"GDAL 3.2.2","processedAt":"2026-08-11T18:29:20.995Z"},"associationRefsVerifiedInGdalOutput":false}},{"type":"Feature","geometry":{"type":"Point","coordinates":[4.1268791,51.5057065]},"properties":{"dolphinKind":"topmark","rawObjectClass":"TOPMAR","sourceProperties":{"RCID":18291,"PRIM":1,"GRUP":2,"OBJL":144,"RVER":1,"AGEN":7979,"FIDN":1106834728,"FIDS":284,"LNAM":"1F2B41F8F528011C","COLOUR":["4"],"TOPSHP":1,"SCAMIN":200000,"SORIND":"NL,1R,Reprt,MZ123","sourceCellId":"1R76K89I","sourceChecksum":"5846483df49a2949c9b099044c708d56af6abfa0a15207277ac30950667f6a11","rawObjectClass":"TOPMAR","sourceStableId":"1F2B41F8F528011C"},"sourceKind":"official","official":true,"sourceCellId":"1R76K89I","sourceStableId":"1F2B41F8F528011C","pipelineFeatureId":"1R76K89I/TOPMAR/18291","provenance":{"cellId":"1R76K89I","checksum":"5846483df49a2949c9b099044c708d56af6abfa0a15207277ac30950667f6a11","readerVersion":"GDAL 3.2.2","processedAt":"2026-08-11T18:29:20.995Z"},"associationRefsVerifiedInGdalOutput":false}},{"type":"Feature","geometry":{"type":"Point","coordinates":[4.1309813,51.4927615]},"properties":{"dolphinKind":"topmark","rawObjectClass":"TOPMAR","sourceProperties":{"RCID":18294,"PRIM":1,"GRUP":2,"OBJL":144,"RVER":1,"AGEN":7979,"FIDN":1106834728,"FIDS":287,"LNAM":"1F2B41F8F528011F","COLOUR":["4"],"TOPSHP":1,"SCAMIN":200000,"SORIND":"NL,1R,Reprt,MZ123","sourceCellId":"1R76K89I","sourceChecksum":"5846483df49a2949c9b099044c708d56af6abfa0a15207277ac30950667f6a11","rawObjectClass":"TOPMAR","sourceStableId":"1F2B41F8F528011F"},"sourceKind":"official","official":true,"sourceCellId":"1R76K89I","sourceStableId":"1F2B41F8F528011F","pipelineFeatureId":"1R76K89I/TOPMAR/18294","provenance":{"cellId":"1R76K89I","checksum":"5846483df49a2949c9b099044c708d56af6abfa0a15207277ac30950667f6a11","readerVersion":"GDAL 3.2.2","processedAt":"2026-08-11T18:29:20.995Z"},"associationRefsVerifiedInGdalOutput":false}},{"type":"Feature","geometry":{"type":"Point","coordinates":[4.1280054,51.4862078]},"properties":{"dolphinKind":"topmark","rawObjectClass":"TOPMAR","sourceProperties":{"RCID":18296,"PRIM":1,"GRUP":2,"OBJL":144,"RVER":1,"AGEN":7979,"FIDN":1106834728,"FIDS":289,"LNAM":"1F2B41F8F5280121","COLOUR":["4"],"TOPSHP":1,"SCAMIN":200000,"SORIND":"NL,1R,Reprt,MZ123","sourceCellId":"1R76K89I","sourceChecksum":"5846483df49a2949c9b099044c708d56af6abfa0a15207277ac30950667f6a11","rawObjectClass":"TOPMAR","sourceStableId":"1F2B41F8F5280121"},"sourceKind":"official","official":true,"sourceCellId":"1R76K89I","sourceStableId":"1F2B41F8F5280121","pipelineFeatureId":"1R76K89I/TOPMAR/18296","provenance":{"cellId":"1R76K89I","checksum":"5846483df49a2949c9b099044c708d56af6abfa0a15207277ac30950667f6a11","readerVersion":"GDAL 3.2.2","processedAt":"2026-08-11T18:29:20.995Z"},"associationRefsVerifiedInGdalOutput":false}},{"type":"Feature","geometry":{"type":"Point","coordinates":[4.03215,51.5174167]},"properties":{"dolphinKind":"topmark","rawObjectClass":"TOPMAR","sourceProperties":{"RCID":18308,"PRIM":1,"GRUP":2,"OBJL":144,"RVER":1,"AGEN":7979,"FIDN":1106834728,"FIDS":301,"LNAM":"1F2B41F8F528012D","COLOUR":["4"],"TOPSHP":1,"SCAMIN":200000,"sourceCellId":"1R76K89I","sourceChecksum":"5846483df49a2949c9b099044c708d56af6abfa0a15207277ac30950667f6a11","rawObjectClass":"TOPMAR","sourceStableId":"1F2B41F8F528012D"},"sourceKind":"official","official":true,"sourceCellId":"1R76K89I","sourceStableId":"1F2B41F8F528012D","pipelineFeatureId":"1R76K89I/TOPMAR/18308","provenance":{"cellId":"1R76K89I","checksum":"5846483df49a2949c9b099044c708d56af6abfa0a15207277ac30950667f6a11","readerVersion":"GDAL 3.2.2","processedAt":"2026-08-11T18:29:20.995Z"},"associationRefsVerifiedInGdalOutput":false}},{"type":"Feature","geometry":{"type":"Point","coordinates":[4.0484959,51.5130623]},"properties":{"dolphinKind":"topmark","rawObjectClass":"TOPMAR","sourceProperties":{"RCID":18320,"PRIM":1,"GRUP":2,"OBJL":144,"RVER":1,"AGEN":7979,"FIDN":1106834728,"FIDS":313,"LNAM":"1F2B41F8F5280139","COLOUR":["3"],"TOPSHP":5,"SCAMIN":200000,"sourceCellId":"1R76K89I","sourceChecksum":"5846483df49a2949c9b099044c708d56af6abfa0a15207277ac30950667f6a11","rawObjectClass":"TOPMAR","sourceStableId":"1F2B41F8F5280139"},"sourceKind":"official","official":true,"sourceCellId":"1R76K89I","sourceStableId":"1F2B41F8F5280139","pipelineFeatureId":"1R76K89I/TOPMAR/18320","provenance":{"cellId":"1R76K89I","checksum":"5846483df49a2949c9b099044c708d56af6abfa0a15207277ac30950667f6a11","readerVersion":"GDAL 3.2.2","processedAt":"2026-08-11T18:29:20.995Z"},"associationRefsVerifiedInGdalOutput":false}},{"type":"Feature","geometry":{"type":"Point","coordinates":[4.0564852,51.5027786]},"properties":{"dolphinKind":"topmark","rawObjectClass":"TOPMAR","sourceProperties":{"RCID":18325,"PRIM":1,"GRUP":2,"OBJL":144,"RVER":1,"AGEN":7979,"FIDN":1106834728,"FIDS":318,"LNAM":"1F2B41F8F528013E","COLOUR":["3"],"TOPSHP":5,"SCAMIN":200000,"sourceCellId":"1R76K89I","sourceChecksum":"5846483df49a2949c9b099044c708d56af6abfa0a15207277ac30950667f6a11","rawObjectClass":"TOPMAR","sourceStableId":"1F2B41F8F528013E"},"sourceKind":"official","official":true,"sourceCellId":"1R76K89I","sourceStableId":"1F2B41F8F528013E","pipelineFeatureId":"1R76K89I/TOPMAR/18325","provenance":{"cellId":"1R76K89I","checksum":"5846483df49a2949c9b099044c708d56af6abfa0a15207277ac30950667f6a11","readerVersion":"GDAL 3.2.2","processedAt":"2026-08-11T18:29:20.995Z"},"associationRefsVerifiedInGdalOutput":false}},{"type":"Feature","geometry":{"type":"Point","coordinates":[4.0587833,51.49685]},"properties":{"dolphinKind":"topmark","rawObjectClass":"TOPMAR","sourceProperties":{"RCID":18329,"PRIM":1,"GRUP":2,"OBJL":144,"RVER":1,"AGEN":7979,"FIDN":1106834728,"FIDS":322,"LNAM":"1F2B41F8F5280142","COLOUR":["3"],"TOPSHP":5,"SCAMIN":200000,"sourceCellId":"1R76K89I","sourceChecksum":"5846483df49a2949c9b099044c708d56af6abfa0a15207277ac30950667f6a11","rawObjectClass":"TOPMAR","sourceStableId":"1F2B41F8F5280142"},"sourceKind":"official","official":true,"sourceCellId":"1R76K89I","sourceStableId":"1F2B41F8F5280142","pipelineFeatureId":"1R76K89I/TOPMAR/18329","provenance":{"cellId":"1R76K89I","checksum":"5846483df49a2949c9b099044c708d56af6abfa0a15207277ac30950667f6a11","readerVersion":"GDAL 3.2.2","processedAt":"2026-08-11T18:29:20.995Z"},"associationRefsVerifiedInGdalOutput":false}},{"type":"Feature","geometry":{"type":"Point","coordinates":[4.0134353,51.5164275]},"properties":{"dolphinKind":"topmark","rawObjectClass":"TOPMAR","sourceProperties":{"RCID":20437,"PRIM":1,"GRUP":2,"OBJL":144,"RVER":1,"AGEN":7979,"FIDN":1106834756,"FIDS":373,"LNAM":"1F2B41F8F5440175","COLOUR":["2","1","2"],"COLPAT":["1"],"TOPSHP":21,"SCAMIN":200000,"SORDAT":"20151007","SORIND":"NL,1R,reprt,Topdesk M-M151003810","sourceCellId":"1R76K89I","sourceChecksum":"5846483df49a2949c9b099044c708d56af6abfa0a15207277ac30950667f6a11","rawObjectClass":"TOPMAR","sourceStableId":"1F2B41F8F5440175"},"sourceKind":"official","official":true,"sourceCellId":"1R76K89I","sourceStableId":"1F2B41F8F5440175","pipelineFeatureId":"1R76K89I/TOPMAR/20437","provenance":{"cellId":"1R76K89I","checksum":"5846483df49a2949c9b099044c708d56af6abfa0a15207277ac30950667f6a11","readerVersion":"GDAL 3.2.2","processedAt":"2026-08-11T18:29:20.995Z"},"associationRefsVerifiedInGdalOutput":false}},{"type":"Feature","geometry":{"type":"Point","coordinates":[4.0199,51.5223]},"properties":{"dolphinKind":"topmark","rawObjectClass":"TOPMAR","sourceProperties":{"RCID":12327323,"PRIM":1,"GRUP":2,"OBJL":144,"RVER":1,"AGEN":7979,"FIDN":12327323,"FIDS":1,"LNAM":"1F2B00BC199B0001","COLOUR":["3"],"TOPSHP":5,"INFORM":"Cilinder over Sphere","NINFOM":"topteken is cilinder boven bol","SCAMIN":200000,"SORIND":"NL,1R,reprt,DZD-BAS-2007/80","sourceCellId":"1R76K89I","sourceChecksum":"5846483df49a2949c9b099044c708d56af6abfa0a15207277ac30950667f6a11","rawObjectClass":"TOPMAR","sourceStableId":"1F2B00BC199B0001"},"sourceKind":"official","official":true,"sourceCellId":"1R76K89I","sourceStableId":"1F2B00BC199B0001","pipelineFeatureId":"1R76K89I/TOPMAR/12327323","provenance":{"cellId":"1R76K89I","checksum":"5846483df49a2949c9b099044c708d56af6abfa0a15207277ac30950667f6a11","readerVersion":"GDAL 3.2.2","processedAt":"2026-08-11T18:29:20.995Z"},"associationRefsVerifiedInGdalOutput":false}},{"type":"Feature","geometry":{"type":"Point","coordinates":[4.0592923,51.4936332]},"properties":{"dolphinKind":"topmark","rawObjectClass":"TOPMAR","sourceProperties":{"RCID":12836880,"PRIM":1,"GRUP":2,"OBJL":144,"RVER":1,"AGEN":7979,"FIDN":12836880,"FIDS":1,"LNAM":"1F2B00C3E0100001","COLOUR":["3"],"TOPSHP":5,"SCAMIN":200000,"SORIND":"NL,1R,Reprt,MD0092-13","sourceCellId":"1R76K89I","sourceChecksum":"5846483df49a2949c9b099044c708d56af6abfa0a15207277ac30950667f6a11","rawObjectClass":"TOPMAR","sourceStableId":"1F2B00C3E0100001"},"sourceKind":"official","official":true,"sourceCellId":"1R76K89I","sourceStableId":"1F2B00C3E0100001","pipelineFeatureId":"1R76K89I/TOPMAR/12836880","provenance":{"cellId":"1R76K89I","checksum":"5846483df49a2949c9b099044c708d56af6abfa0a15207277ac30950667f6a11","readerVersion":"GDAL 3.2.2","processedAt":"2026-08-11T18:29:20.995Z"},"associationRefsVerifiedInGdalOutput":false}},{"type":"Feature","geometry":{"type":"Point","coordinates":[4.0590667,51.4839666]},"properties":{"dolphinKind":"topmark","rawObjectClass":"TOPMAR","sourceProperties":{"RCID":112652301,"PRIM":1,"GRUP":2,"OBJL":144,"RVER":1,"AGEN":7979,"FIDN":112652301,"FIDS":1,"LNAM":"1F2B06B6F00D0001","COLOUR":["3"],"TOPSHP":5,"SCAMIN":200000,"SORIND":"NL,1R,Reprt,MD0092-13","sourceCellId":"1R76K89I","sourceChecksum":"5846483df49a2949c9b099044c708d56af6abfa0a15207277ac30950667f6a11","rawObjectClass":"TOPMAR","sourceStableId":"1F2B06B6F00D0001"},"sourceKind":"official","official":true,"sourceCellId":"1R76K89I","sourceStableId":"1F2B06B6F00D0001","pipelineFeatureId":"1R76K89I/TOPMAR/112652301","provenance":{"cellId":"1R76K89I","checksum":"5846483df49a2949c9b099044c708d56af6abfa0a15207277ac30950667f6a11","readerVersion":"GDAL 3.2.2","processedAt":"2026-08-11T18:29:20.995Z"},"associationRefsVerifiedInGdalOutput":false}},{"type":"Feature","geometry":{"type":"Point","coordinates":[4.0574805,51.4829578]},"properties":{"dolphinKind":"topmark","rawObjectClass":"TOPMAR","sourceProperties":{"RCID":112652302,"PRIM":1,"GRUP":2,"OBJL":144,"RVER":1,"AGEN":7979,"FIDN":112652302,"FIDS":1,"LNAM":"1F2B06B6F00E0001","COLOUR":["4"],"TOPSHP":1,"SCAMIN":200000,"SORIND":"NL,1R,Reprt,MD0092-13","sourceCellId":"1R76K89I","sourceChecksum":"5846483df49a2949c9b099044c708d56af6abfa0a15207277ac30950667f6a11","rawObjectClass":"TOPMAR","sourceStableId":"1F2B06B6F00E0001"},"sourceKind":"official","official":true,"sourceCellId":"1R76K89I","sourceStableId":"1F2B06B6F00E0001","pipelineFeatureId":"1R76K89I/TOPMAR/112652302","provenance":{"cellId":"1R76K89I","checksum":"5846483df49a2949c9b099044c708d56af6abfa0a15207277ac30950667f6a11","readerVersion":"GDAL 3.2.2","processedAt":"2026-08-11T18:29:20.995Z"},"associationRefsVerifiedInGdalOutput":false}},{"type":"Feature","geometry":{"type":"Point","coordinates":[4.0157751,51.5154573]},"properties":{"dolphinKind":"topmark","rawObjectClass":"TOPMAR","sourceProperties":{"RCID":192907155,"PRIM":1,"GRUP":2,"OBJL":144,"RVER":1,"AGEN":7979,"FIDN":192907155,"FIDS":1,"LNAM":"1F2B0B7F87930001","COLOUR":["6","2"],"COLPAT":["6"],"TOPSHP":6,"INFORM":"Warning sign for an underwater pipe","NINFOM":"Zinkerbord","SCAMIN":200000,"SORDAT":"20151113","SORIND":"NL,1R,Reprt,Topdesk M151106923","sourceCellId":"1R76K89I","sourceChecksum":"5846483df49a2949c9b099044c708d56af6abfa0a15207277ac30950667f6a11","rawObjectClass":"TOPMAR","sourceStableId":"1F2B0B7F87930001"},"sourceKind":"official","official":true,"sourceCellId":"1R76K89I","sourceStableId":"1F2B0B7F87930001","pipelineFeatureId":"1R76K89I/TOPMAR/192907155","provenance":{"cellId":"1R76K89I","checksum":"5846483df49a2949c9b099044c708d56af6abfa0a15207277ac30950667f6a11","readerVersion":"GDAL 3.2.2","processedAt":"2026-08-11T18:29:20.995Z"},"associationRefsVerifiedInGdalOutput":false}},{"type":"Feature","geometry":{"type":"Point","coordinates":[4.0130536,51.5157246]},"properties":{"dolphinKind":"topmark","rawObjectClass":"TOPMAR","sourceProperties":{"RCID":192907156,"PRIM":1,"GRUP":2,"OBJL":144,"RVER":1,"AGEN":7979,"FIDN":192907156,"FIDS":1,"LNAM":"1F2B0B7F87940001","COLOUR":["6","2"],"COLPAT":["6"],"TOPSHP":6,"INFORM":"Warning for an underwater pipe","NINFOM":"Zinkerbord","SCAMIN":200000,"SORDAT":"20151113","SORIND":"NL,1R,Reprt,Topdesk M151106923","sourceCellId":"1R76K89I","sourceChecksum":"5846483df49a2949c9b099044c708d56af6abfa0a15207277ac30950667f6a11","rawObjectClass":"TOPMAR","sourceStableId":"1F2B0B7F87940001"},"sourceKind":"official","official":true,"sourceCellId":"1R76K89I","sourceStableId":"1F2B0B7F87940001","pipelineFeatureId":"1R76K89I/TOPMAR/192907156","provenance":{"cellId":"1R76K89I","checksum":"5846483df49a2949c9b099044c708d56af6abfa0a15207277ac30950667f6a11","readerVersion":"GDAL 3.2.2","processedAt":"2026-08-11T18:29:20.995Z"},"associationRefsVerifiedInGdalOutput":false}},{"type":"Feature","geometry":{"type":"Point","coordinates":[4.0544133,51.5152883]},"properties":{"dolphinKind":"topmark","rawObjectClass":"TOPMAR","sourceProperties":{"RCID":225332265,"PRIM":1,"GRUP":2,"OBJL":144,"RVER":1,"AGEN":7979,"FIDN":225332265,"FIDS":1,"LNAM":"1F2B0D6E4C290001","COLOUR":["6"],"TOPSHP":3,"SCAMIN":200000,"SORDAT":"20170516","SORIND":"NL,1R,reprt,MD 189-17","sourceCellId":"1R76K89I","sourceChecksum":"5846483df49a2949c9b099044c708d56af6abfa0a15207277ac30950667f6a11","rawObjectClass":"TOPMAR","sourceStableId":"1F2B0D6E4C290001"},"sourceKind":"official","official":true,"sourceCellId":"1R76K89I","sourceStableId":"1F2B0D6E4C290001","pipelineFeatureId":"1R76K89I/TOPMAR/225332265","provenance":{"cellId":"1R76K89I","checksum":"5846483df49a2949c9b099044c708d56af6abfa0a15207277ac30950667f6a11","readerVersion":"GDAL 3.2.2","processedAt":"2026-08-11T18:29:20.995Z"},"associationRefsVerifiedInGdalOutput":false}}]}