{"type":"FeatureCollection","features":[{"type":"Feature","geometry":{"type":"Point","coordinates":[3.4370083,51.7941883]},"properties":{"dolphinKind":"buoy-lateral","rawObjectClass":"BOYLAT","sourceProperties":{"RCID":17627,"PRIM":1,"GRUP":2,"OBJL":17,"RVER":1,"AGEN":7979,"FIDN":1106834684,"FIDS":433,"LNAM":"1F2B41F8F4FC01B1","BOYSHP":5,"CATLAM":1,"COLOUR":["3"],"CONRAD":3,"OBJNAM":"SD 4","SCAMIN":200000,"SORDAT":"20151216","SORIND":"NL,1R,reprt,MD 0517-14","sourceCellId":"1R75K99I","sourceChecksum":"872124a48efd94d2659f6f42c46a9de87b6234c147b7a775ff104b1b1e6aca47","rawObjectClass":"BOYLAT","sourceStableId":"1F2B41F8F4FC01B1"},"sourceKind":"official","official":true,"sourceCellId":"1R75K99I","sourceStableId":"1F2B41F8F4FC01B1","pipelineFeatureId":"1R75K99I/BOYLAT/17627","provenance":{"cellId":"1R75K99I","checksum":"872124a48efd94d2659f6f42c46a9de87b6234c147b7a775ff104b1b1e6aca47","readerVersion":"GDAL 3.2.2","processedAt":"2026-08-11T18:29:20.995Z"}}},{"type":"Feature","geometry":{"type":"Point","coordinates":[3.4181833,51.8069833]},"properties":{"dolphinKind":"buoy-special","rawObjectClass":"BOYSPP","sourceProperties":{"RCID":108275350,"PRIM":1,"GRUP":2,"OBJL":19,"RVER":1,"AGEN":7979,"FIDN":108275350,"FIDS":1,"LNAM":"1F2B067426960001","LNAM_REFS":["1F2B06742F930001"],"FFPT_RIND":[2],"BOYSHP":1,"CATSPM":["20"],"COLOUR":["6"],"CONRAD":3,"OBJNAM":"SB Anchor East","SCAMIN":200000,"SORDAT":"20170530","SORIND":"NL,1R,Reprt,Bass040-2017","sourceCellId":"1R75K99I","sourceChecksum":"872124a48efd94d2659f6f42c46a9de87b6234c147b7a775ff104b1b1e6aca47","rawObjectClass":"BOYSPP","sourceStableId":"1F2B067426960001"},"sourceKind":"official","official":true,"sourceCellId":"1R75K99I","sourceStableId":"1F2B067426960001","pipelineFeatureId":"1R75K99I/BOYSPP/108275350","provenance":{"cellId":"1R75K99I","checksum":"872124a48efd94d2659f6f42c46a9de87b6234c147b7a775ff104b1b1e6aca47","readerVersion":"GDAL 3.2.2","processedAt":"2026-08-11T18:29:20.995Z"}}},{"type":"Feature","geometry":{"type":"Point","coordinates":[3.4219333,51.8090833]},"properties":{"dolphinKind":"buoy-special","rawObjectClass":"BOYSPP","sourceProperties":{"RCID":1256823160,"PRIM":1,"GRUP":2,"OBJL":19,"RVER":1,"AGEN":7979,"FIDN":1256823160,"FIDS":1,"LNAM":"1F2B4AE999780001","LNAM_REFS":["1F2B4AE9997B0001","1F2B4AE9997E0001"],"FFPT_RIND":[2,2],"BOYSHP":4,"CATSPM":["9"],"COLOUR":["6"],"OBJNAM":"Accurasea 5","SCAMIN":200000,"SORDAT":"20251224","SORIND":"NL,1R,Bass 2025 152","sourceCellId":"1R75K99I","sourceChecksum":"872124a48efd94d2659f6f42c46a9de87b6234c147b7a775ff104b1b1e6aca47","rawObjectClass":"BOYSPP","sourceStableId":"1F2B4AE999780001"},"sourceKind":"official","official":true,"sourceCellId":"1R75K99I","sourceStableId":"1F2B4AE999780001","pipelineFeatureId":"1R75K99I/BOYSPP/1256823160","provenance":{"cellId":"1R75K99I","checksum":"872124a48efd94d2659f6f42c46a9de87b6234c147b7a775ff104b1b1e6aca47","readerVersion":"GDAL 3.2.2","processedAt":"2026-08-11T18:29:20.995Z"}}},{"type":"Feature","geometry":{"type":"Point","coordinates":[3.4181833,51.8069833]},"properties":{"dolphinKind":"light","rawObjectClass":"LIGHTS","sourceProperties":{"RCID":108277651,"PRIM":1,"GRUP":2,"OBJL":75,"RVER":1,"AGEN":7979,"FIDN":108277651,"FIDS":1,"LNAM":"1F2B06742F930001","COLOUR":["6"],"LITCHR":3,"SIGGRP":"(1)","SIGPER":5,"SCAMIN":200000,"SORDAT":"20170530","SORIND":"NL,1R,Reprt,Bass040-2017","sourceCellId":"1R75K99I","sourceChecksum":"872124a48efd94d2659f6f42c46a9de87b6234c147b7a775ff104b1b1e6aca47","rawObjectClass":"LIGHTS","sourceStableId":"1F2B06742F930001"},"sourceKind":"official","official":true,"sourceCellId":"1R75K99I","sourceStableId":"1F2B06742F930001","pipelineFeatureId":"1R75K99I/LIGHTS/108277651","provenance":{"cellId":"1R75K99I","checksum":"872124a48efd94d2659f6f42c46a9de87b6234c147b7a775ff104b1b1e6aca47","readerVersion":"GDAL 3.2.2","processedAt":"2026-08-11T18:29:20.995Z"}}},{"type":"Feature","geometry":{"type":"Point","coordinates":[3.4219333,51.8090833]},"properties":{"dolphinKind":"light","rawObjectClass":"LIGHTS","sourceProperties":{"RCID":1256823163,"PRIM":1,"GRUP":2,"OBJL":75,"RVER":1,"AGEN":7979,"FIDN":1256823163,"FIDS":1,"LNAM":"1F2B4AE9997B0001","COLOUR":["6"],"LITCHR":2,"SIGGRP":"(5)","SIGPER":20,"SCAMIN":200000,"sourceCellId":"1R75K99I","sourceChecksum":"872124a48efd94d2659f6f42c46a9de87b6234c147b7a775ff104b1b1e6aca47","rawObjectClass":"LIGHTS","sourceStableId":"1F2B4AE9997B0001"},"sourceKind":"official","official":true,"sourceCellId":"1R75K99I","sourceStableId":"1F2B4AE9997B0001","pipelineFeatureId":"1R75K99I/LIGHTS/1256823163","provenance":{"cellId":"1R75K99I","checksum":"872124a48efd94d2659f6f42c46a9de87b6234c147b7a775ff104b1b1e6aca47","readerVersion":"GDAL 3.2.2","processedAt":"2026-08-11T18:29:20.995Z"}}},{"type":"Feature","geometry":{"type":"Point","coordinates":[3.4219333,51.8090833]},"properties":{"dolphinKind":"topmark","rawObjectClass":"TOPMAR","sourceProperties":{"RCID":1256823166,"PRIM":1,"GRUP":2,"OBJL":144,"RVER":1,"AGEN":7979,"FIDN":1256823166,"FIDS":1,"LNAM":"1F2B4AE9997E0001","COLOUR":["6"],"TOPSHP":7,"SCAMIN":200000,"sourceCellId":"1R75K99I","sourceChecksum":"872124a48efd94d2659f6f42c46a9de87b6234c147b7a775ff104b1b1e6aca47","rawObjectClass":"TOPMAR","sourceStableId":"1F2B4AE9997E0001"},"sourceKind":"official","official":true,"sourceCellId":"1R75K99I","sourceStableId":"1F2B4AE9997E0001","pipelineFeatureId":"1R75K99I/TOPMAR/1256823166","provenance":{"cellId":"1R75K99I","checksum":"872124a48efd94d2659f6f42c46a9de87b6234c147b7a775ff104b1b1e6aca47","readerVersion":"GDAL 3.2.2","processedAt":"2026-08-11T18:29:20.995Z"},"associationRefsVerifiedInGdalOutput":false}}]}