{"type":"FeatureCollection","features":[{"type":"Feature","geometry":{"type":"Point","coordinates":[3.1838299,51.5598365]},"properties":{"dolphinKind":"buoy-lateral","rawObjectClass":"BOYLAT","sourceProperties":{"RCID":225293100,"PRIM":1,"GRUP":2,"OBJL":17,"RVER":1,"AGEN":7979,"FIDN":225293100,"FIDS":1,"LNAM":"1F2B0D6DB32C0001","LNAM_REFS":["1F2B0D6E1B480001"],"FFPT_RIND":[2],"BOYSHP":1,"CATLAM":2,"COLOUR":["4"],"OBJNAM":"WP 3","SCAMIN":200000,"SORDAT":"20170529","SORIND":"NL,1R,Reprt,Bass037-2017","sourceCellId":"1R7588FI","sourceChecksum":"236ce06d0ed8b01db8ecbf2025565af93328c7458d59defcdfccba0ad086ed22","rawObjectClass":"BOYLAT","sourceStableId":"1F2B0D6DB32C0001"},"sourceKind":"official","official":true,"sourceCellId":"1R7588FI","sourceStableId":"1F2B0D6DB32C0001","pipelineFeatureId":"1R7588FI/BOYLAT/225293100","provenance":{"cellId":"1R7588FI","checksum":"236ce06d0ed8b01db8ecbf2025565af93328c7458d59defcdfccba0ad086ed22","readerVersion":"GDAL 3.2.2","processedAt":"2026-08-11T13:43:44.753Z"}}},{"type":"Feature","geometry":{"type":"Point","coordinates":[3.1446667,51.573]},"properties":{"dolphinKind":"buoy-lateral","rawObjectClass":"BOYLAT","sourceProperties":{"RCID":225319756,"PRIM":1,"GRUP":2,"OBJL":17,"RVER":1,"AGEN":7979,"FIDN":225319756,"FIDS":1,"LNAM":"1F2B0D6E1B4C0001","LNAM_REFS":["1F2B0D6E1B4D0001"],"FFPT_RIND":[2],"BOYSHP":2,"CATLAM":1,"COLOUR":["3"],"OBJNAM":"WP 4","SCAMIN":200000,"SORDAT":"20170529","SORIND":"NL,1R,Reprt,Bass037-2017","sourceCellId":"1R7588FI","sourceChecksum":"236ce06d0ed8b01db8ecbf2025565af93328c7458d59defcdfccba0ad086ed22","rawObjectClass":"BOYLAT","sourceStableId":"1F2B0D6E1B4C0001"},"sourceKind":"official","official":true,"sourceCellId":"1R7588FI","sourceStableId":"1F2B0D6E1B4C0001","pipelineFeatureId":"1R7588FI/BOYLAT/225319756","provenance":{"cellId":"1R7588FI","checksum":"236ce06d0ed8b01db8ecbf2025565af93328c7458d59defcdfccba0ad086ed22","readerVersion":"GDAL 3.2.2","processedAt":"2026-08-11T13:43:44.753Z"}}},{"type":"Feature","geometry":{"type":"Point","coordinates":[3.1838299,51.5598365]},"properties":{"dolphinKind":"light","rawObjectClass":"LIGHTS","sourceProperties":{"RCID":225319752,"PRIM":1,"GRUP":2,"OBJL":75,"RVER":1,"AGEN":7979,"FIDN":225319752,"FIDS":1,"LNAM":"1F2B0D6E1B480001","COLOUR":["4"],"LITCHR":7,"SIGGRP":"(1)","SIGPER":8,"SCAMIN":200000,"SORDAT":"20170529","SORIND":"NL,1R,Reprt,Bass037-2017","sourceCellId":"1R7588FI","sourceChecksum":"236ce06d0ed8b01db8ecbf2025565af93328c7458d59defcdfccba0ad086ed22","rawObjectClass":"LIGHTS","sourceStableId":"1F2B0D6E1B480001"},"sourceKind":"official","official":true,"sourceCellId":"1R7588FI","sourceStableId":"1F2B0D6E1B480001","pipelineFeatureId":"1R7588FI/LIGHTS/225319752","provenance":{"cellId":"1R7588FI","checksum":"236ce06d0ed8b01db8ecbf2025565af93328c7458d59defcdfccba0ad086ed22","readerVersion":"GDAL 3.2.2","processedAt":"2026-08-11T13:43:44.753Z"}}},{"type":"Feature","geometry":{"type":"Point","coordinates":[3.1446667,51.573]},"properties":{"dolphinKind":"light","rawObjectClass":"LIGHTS","sourceProperties":{"RCID":225319757,"PRIM":1,"GRUP":2,"OBJL":75,"RVER":1,"AGEN":7979,"FIDN":225319757,"FIDS":1,"LNAM":"1F2B0D6E1B4D0001","COLOUR":["3"],"LITCHR":7,"SIGGRP":"(1)","SIGPER":8,"SCAMIN":200000,"SORDAT":"20170529","SORIND":"NL,1R,Reprt,Bass037-2017","sourceCellId":"1R7588FI","sourceChecksum":"236ce06d0ed8b01db8ecbf2025565af93328c7458d59defcdfccba0ad086ed22","rawObjectClass":"LIGHTS","sourceStableId":"1F2B0D6E1B4D0001"},"sourceKind":"official","official":true,"sourceCellId":"1R7588FI","sourceStableId":"1F2B0D6E1B4D0001","pipelineFeatureId":"1R7588FI/LIGHTS/225319757","provenance":{"cellId":"1R7588FI","checksum":"236ce06d0ed8b01db8ecbf2025565af93328c7458d59defcdfccba0ad086ed22","readerVersion":"GDAL 3.2.2","processedAt":"2026-08-11T13:43:44.753Z"}}},{"type":"Feature","geometry":{"type":"Point","coordinates":[3.291455,51.551125]},"properties":{"dolphinKind":"topmark","rawObjectClass":"TOPMAR","sourceProperties":{"RCID":17144,"PRIM":1,"GRUP":2,"OBJL":144,"RVER":1,"AGEN":7979,"FIDN":1106834682,"FIDS":460,"LNAM":"1F2B41F8F4FA01CC","COLOUR":["2"],"TOPSHP":10,"SCAMIN":200000,"SORDAT":"20030930","sourceCellId":"1R7588FI","sourceChecksum":"236ce06d0ed8b01db8ecbf2025565af93328c7458d59defcdfccba0ad086ed22","rawObjectClass":"TOPMAR","sourceStableId":"1F2B41F8F4FA01CC"},"sourceKind":"official","official":true,"sourceCellId":"1R7588FI","sourceStableId":"1F2B41F8F4FA01CC","pipelineFeatureId":"1R7588FI/TOPMAR/17144","provenance":{"cellId":"1R7588FI","checksum":"236ce06d0ed8b01db8ecbf2025565af93328c7458d59defcdfccba0ad086ed22","readerVersion":"GDAL 3.2.2","processedAt":"2026-08-11T13:43:44.753Z"},"associationRefsVerifiedInGdalOutput":false}},{"type":"Feature","geometry":{"type":"Point","coordinates":[3.3185167,51.5409333]},"properties":{"dolphinKind":"topmark","rawObjectClass":"TOPMAR","sourceProperties":{"RCID":17578,"PRIM":1,"GRUP":2,"OBJL":144,"RVER":1,"AGEN":7979,"FIDN":1106834684,"FIDS":384,"LNAM":"1F2B41F8F4FC0180","COLOUR":["2"],"TOPSHP":10,"SCAMIN":200000,"SORDAT":"20030930","sourceCellId":"1R7588FI","sourceChecksum":"236ce06d0ed8b01db8ecbf2025565af93328c7458d59defcdfccba0ad086ed22","rawObjectClass":"TOPMAR","sourceStableId":"1F2B41F8F4FC0180"},"sourceKind":"official","official":true,"sourceCellId":"1R7588FI","sourceStableId":"1F2B41F8F4FC0180","pipelineFeatureId":"1R7588FI/TOPMAR/17578","provenance":{"cellId":"1R7588FI","checksum":"236ce06d0ed8b01db8ecbf2025565af93328c7458d59defcdfccba0ad086ed22","readerVersion":"GDAL 3.2.2","processedAt":"2026-08-11T13:43:44.753Z"},"associationRefsVerifiedInGdalOutput":false}}]}