{"type":"FeatureCollection","features":[{"type":"Feature","geometry":{"type":"Point","coordinates":[3.9632833,51.7699167]},"properties":{"dolphinKind":"buoy-lateral","rawObjectClass":"BOYLAT","sourceProperties":{"RCID":8608910,"PRIM":1,"GRUP":2,"OBJL":17,"RVER":1,"AGEN":7979,"FIDN":8608910,"FIDS":1,"LNAM":"1F2B00835C8E0001","LNAM_REFS":["1F2B00835C960001"],"FFPT_RIND":[2],"BOYSHP":3,"CATLAM":3,"COLOUR":["4","3"],"COLPAT":["1"],"CONRAD":3,"OBJNAM":"G 37-PG 2","SCAMIN":200000,"sourceCellId":"1R76K93I","sourceChecksum":"9c8e58b6ac9baa6bd3b3a39752c69a0bd91c56af48932aaa3abf07c3708d23e2","rawObjectClass":"BOYLAT","sourceStableId":"1F2B00835C8E0001"},"sourceKind":"official","official":true,"sourceCellId":"1R76K93I","sourceStableId":"1F2B00835C8E0001","pipelineFeatureId":"1R76K93I/BOYLAT/8608910","provenance":{"cellId":"1R76K93I","checksum":"9c8e58b6ac9baa6bd3b3a39752c69a0bd91c56af48932aaa3abf07c3708d23e2","readerVersion":"GDAL 3.2.2","processedAt":"2026-08-11T13:43:44.753Z"}}},{"type":"Feature","geometry":{"type":"Point","coordinates":[3.9378,51.7357833]},"properties":{"dolphinKind":"buoy-lateral","rawObjectClass":"BOYLAT","sourceProperties":{"RCID":8608911,"PRIM":1,"GRUP":2,"OBJL":17,"RVER":1,"AGEN":7979,"FIDN":8608911,"FIDS":1,"LNAM":"1F2B00835C8F0001","LNAM_REFS":["1F2B00835C970001"],"FFPT_RIND":[2],"BOYSHP":3,"CATLAM":3,"COLOUR":["4","3"],"COLPAT":["1"],"CONRAD":3,"OBJNAM":"GB 11-RB 2","SCAMIN":200000,"sourceCellId":"1R76K93I","sourceChecksum":"9c8e58b6ac9baa6bd3b3a39752c69a0bd91c56af48932aaa3abf07c3708d23e2","rawObjectClass":"BOYLAT","sourceStableId":"1F2B00835C8F0001"},"sourceKind":"official","official":true,"sourceCellId":"1R76K93I","sourceStableId":"1F2B00835C8F0001","pipelineFeatureId":"1R76K93I/BOYLAT/8608911","provenance":{"cellId":"1R76K93I","checksum":"9c8e58b6ac9baa6bd3b3a39752c69a0bd91c56af48932aaa3abf07c3708d23e2","readerVersion":"GDAL 3.2.2","processedAt":"2026-08-11T13:43:44.753Z"}}},{"type":"Feature","geometry":{"type":"Point","coordinates":[3.9750167,51.7383333]},"properties":{"dolphinKind":"buoy-lateral","rawObjectClass":"BOYLAT","sourceProperties":{"RCID":8608912,"PRIM":1,"GRUP":2,"OBJL":17,"RVER":1,"AGEN":7979,"FIDN":8608912,"FIDS":1,"LNAM":"1F2B00835C900001","LNAM_REFS":["1F2B00835C980001"],"FFPT_RIND":[2],"BOYSHP":3,"CATLAM":4,"COLOUR":["3","4"],"COLPAT":["1"],"CONRAD":3,"OBJNAM":"G 38-GB 1","SCAMIN":200000,"sourceCellId":"1R76K93I","sourceChecksum":"9c8e58b6ac9baa6bd3b3a39752c69a0bd91c56af48932aaa3abf07c3708d23e2","rawObjectClass":"BOYLAT","sourceStableId":"1F2B00835C900001"},"sourceKind":"official","official":true,"sourceCellId":"1R76K93I","sourceStableId":"1F2B00835C900001","pipelineFeatureId":"1R76K93I/BOYLAT/8608912","provenance":{"cellId":"1R76K93I","checksum":"9c8e58b6ac9baa6bd3b3a39752c69a0bd91c56af48932aaa3abf07c3708d23e2","readerVersion":"GDAL 3.2.2","processedAt":"2026-08-11T13:43:44.753Z"}}},{"type":"Feature","geometry":{"type":"Point","coordinates":[3.9851167,51.7682667]},"properties":{"dolphinKind":"buoy-lateral","rawObjectClass":"BOYLAT","sourceProperties":{"RCID":8608913,"PRIM":1,"GRUP":2,"OBJL":17,"RVER":1,"AGEN":7979,"FIDN":8608913,"FIDS":1,"LNAM":"1F2B00835C910001","LNAM_REFS":["1F2B00835C990001"],"FFPT_RIND":[2],"BOYSHP":3,"CATLAM":4,"COLOUR":["3","4"],"COLPAT":["1"],"CONRAD":3,"OBJNAM":"SP 8-PG 5","SCAMIN":200000,"SORDAT":"20071203","SORIND":"NL,1R,reprt,DZD-BAS-2007/86","sourceCellId":"1R76K93I","sourceChecksum":"9c8e58b6ac9baa6bd3b3a39752c69a0bd91c56af48932aaa3abf07c3708d23e2","rawObjectClass":"BOYLAT","sourceStableId":"1F2B00835C910001"},"sourceKind":"official","official":true,"sourceCellId":"1R76K93I","sourceStableId":"1F2B00835C910001","pipelineFeatureId":"1R76K93I/BOYLAT/8608913","provenance":{"cellId":"1R76K93I","checksum":"9c8e58b6ac9baa6bd3b3a39752c69a0bd91c56af48932aaa3abf07c3708d23e2","readerVersion":"GDAL 3.2.2","processedAt":"2026-08-11T13:43:44.753Z"}}},{"type":"Feature","geometry":{"type":"Point","coordinates":[3.9360526,51.7529858]},"properties":{"dolphinKind":"buoy-special","rawObjectClass":"BOYSPP","sourceProperties":{"RCID":8608914,"PRIM":1,"GRUP":2,"OBJL":19,"RVER":1,"AGEN":7979,"FIDN":8608914,"FIDS":1,"LNAM":"1F2B00835C920001","BOYSHP":3,"CATSPM":["27"],"COLOUR":["6"],"CONRAD":3,"OBJNAM":"Milieu","SCAMIN":200000,"sourceCellId":"1R76K93I","sourceChecksum":"9c8e58b6ac9baa6bd3b3a39752c69a0bd91c56af48932aaa3abf07c3708d23e2","rawObjectClass":"BOYSPP","sourceStableId":"1F2B00835C920001"},"sourceKind":"official","official":true,"sourceCellId":"1R76K93I","sourceStableId":"1F2B00835C920001","pipelineFeatureId":"1R76K93I/BOYSPP/8608914","provenance":{"cellId":"1R76K93I","checksum":"9c8e58b6ac9baa6bd3b3a39752c69a0bd91c56af48932aaa3abf07c3708d23e2","readerVersion":"GDAL 3.2.2","processedAt":"2026-08-11T13:43:44.753Z"}}},{"type":"Feature","geometry":{"type":"Point","coordinates":[3.9383666,51.7588334]},"properties":{"dolphinKind":"buoy-special","rawObjectClass":"BOYSPP","sourceProperties":{"RCID":8608915,"PRIM":1,"GRUP":2,"OBJL":19,"RVER":1,"AGEN":7979,"FIDN":8608915,"FIDS":1,"LNAM":"1F2B00835C930001","BOYSHP":1,"CATSPM":["27"],"COLOUR":["6"],"CONRAD":3,"OBJNAM":"ZW 5","SCAMIN":200000,"sourceCellId":"1R76K93I","sourceChecksum":"9c8e58b6ac9baa6bd3b3a39752c69a0bd91c56af48932aaa3abf07c3708d23e2","rawObjectClass":"BOYSPP","sourceStableId":"1F2B00835C930001"},"sourceKind":"official","official":true,"sourceCellId":"1R76K93I","sourceStableId":"1F2B00835C930001","pipelineFeatureId":"1R76K93I/BOYSPP/8608915","provenance":{"cellId":"1R76K93I","checksum":"9c8e58b6ac9baa6bd3b3a39752c69a0bd91c56af48932aaa3abf07c3708d23e2","readerVersion":"GDAL 3.2.2","processedAt":"2026-08-11T13:43:44.753Z"}}},{"type":"Feature","geometry":{"type":"Point","coordinates":[3.9404833,51.7647834]},"properties":{"dolphinKind":"buoy-special","rawObjectClass":"BOYSPP","sourceProperties":{"RCID":8608916,"PRIM":1,"GRUP":2,"OBJL":19,"RVER":1,"AGEN":7979,"FIDN":8608916,"FIDS":1,"LNAM":"1F2B00835C940001","BOYSHP":1,"CATSPM":["27"],"COLOUR":["6"],"CONRAD":3,"OBJNAM":"ZW 7","SCAMIN":200000,"sourceCellId":"1R76K93I","sourceChecksum":"9c8e58b6ac9baa6bd3b3a39752c69a0bd91c56af48932aaa3abf07c3708d23e2","rawObjectClass":"BOYSPP","sourceStableId":"1F2B00835C940001"},"sourceKind":"official","official":true,"sourceCellId":"1R76K93I","sourceStableId":"1F2B00835C940001","pipelineFeatureId":"1R76K93I/BOYSPP/8608916","provenance":{"cellId":"1R76K93I","checksum":"9c8e58b6ac9baa6bd3b3a39752c69a0bd91c56af48932aaa3abf07c3708d23e2","readerVersion":"GDAL 3.2.2","processedAt":"2026-08-11T13:43:44.753Z"}}},{"type":"Feature","geometry":{"type":"Point","coordinates":[3.9385667,51.7525334]},"properties":{"dolphinKind":"buoy-special","rawObjectClass":"BOYSPP","sourceProperties":{"RCID":8608917,"PRIM":1,"GRUP":2,"OBJL":19,"RVER":1,"AGEN":7979,"FIDN":8608917,"FIDS":1,"LNAM":"1F2B00835C950001","BOYSHP":1,"CATSPM":["27"],"COLOUR":["6"],"CONRAD":3,"OBJNAM":"ZW 3","SCAMIN":200000,"sourceCellId":"1R76K93I","sourceChecksum":"9c8e58b6ac9baa6bd3b3a39752c69a0bd91c56af48932aaa3abf07c3708d23e2","rawObjectClass":"BOYSPP","sourceStableId":"1F2B00835C950001"},"sourceKind":"official","official":true,"sourceCellId":"1R76K93I","sourceStableId":"1F2B00835C950001","pipelineFeatureId":"1R76K93I/BOYSPP/8608917","provenance":{"cellId":"1R76K93I","checksum":"9c8e58b6ac9baa6bd3b3a39752c69a0bd91c56af48932aaa3abf07c3708d23e2","readerVersion":"GDAL 3.2.2","processedAt":"2026-08-11T13:43:44.753Z"}}},{"type":"Feature","geometry":{"type":"Point","coordinates":[3.9750386,51.7324525]},"properties":{"dolphinKind":"light","rawObjectClass":"LIGHTS","sourceProperties":{"RCID":19708,"PRIM":1,"GRUP":2,"OBJL":75,"RVER":1,"AGEN":7979,"FIDN":1106834753,"FIDS":409,"LNAM":"1F2B41F8F5410199","COLOUR":["3"],"LITCHR":1,"SCAMIN":200000,"sourceCellId":"1R76K93I","sourceChecksum":"9c8e58b6ac9baa6bd3b3a39752c69a0bd91c56af48932aaa3abf07c3708d23e2","rawObjectClass":"LIGHTS","sourceStableId":"1F2B41F8F5410199"},"sourceKind":"official","official":true,"sourceCellId":"1R76K93I","sourceStableId":"1F2B41F8F5410199","pipelineFeatureId":"1R76K93I/LIGHTS/19708","provenance":{"cellId":"1R76K93I","checksum":"9c8e58b6ac9baa6bd3b3a39752c69a0bd91c56af48932aaa3abf07c3708d23e2","readerVersion":"GDAL 3.2.2","processedAt":"2026-08-11T13:43:44.753Z"}}},{"type":"Feature","geometry":{"type":"Point","coordinates":[3.9735115,51.7326979]},"properties":{"dolphinKind":"light","rawObjectClass":"LIGHTS","sourceProperties":{"RCID":19709,"PRIM":1,"GRUP":2,"OBJL":75,"RVER":1,"AGEN":7979,"FIDN":1106834753,"FIDS":410,"LNAM":"1F2B41F8F541019A","COLOUR":["4"],"LITCHR":1,"SCAMIN":200000,"sourceCellId":"1R76K93I","sourceChecksum":"9c8e58b6ac9baa6bd3b3a39752c69a0bd91c56af48932aaa3abf07c3708d23e2","rawObjectClass":"LIGHTS","sourceStableId":"1F2B41F8F541019A"},"sourceKind":"official","official":true,"sourceCellId":"1R76K93I","sourceStableId":"1F2B41F8F541019A","pipelineFeatureId":"1R76K93I/LIGHTS/19709","provenance":{"cellId":"1R76K93I","checksum":"9c8e58b6ac9baa6bd3b3a39752c69a0bd91c56af48932aaa3abf07c3708d23e2","readerVersion":"GDAL 3.2.2","processedAt":"2026-08-11T13:43:44.753Z"}}},{"type":"Feature","geometry":{"type":"Point","coordinates":[3.9632833,51.7699167]},"properties":{"dolphinKind":"topmark","rawObjectClass":"TOPMAR","sourceProperties":{"RCID":8608918,"PRIM":1,"GRUP":2,"OBJL":144,"RVER":1,"AGEN":7979,"FIDN":8608918,"FIDS":1,"LNAM":"1F2B00835C960001","COLOUR":["4"],"TOPSHP":1,"SCAMIN":200000,"sourceCellId":"1R76K93I","sourceChecksum":"9c8e58b6ac9baa6bd3b3a39752c69a0bd91c56af48932aaa3abf07c3708d23e2","rawObjectClass":"TOPMAR","sourceStableId":"1F2B00835C960001"},"sourceKind":"official","official":true,"sourceCellId":"1R76K93I","sourceStableId":"1F2B00835C960001","pipelineFeatureId":"1R76K93I/TOPMAR/8608918","provenance":{"cellId":"1R76K93I","checksum":"9c8e58b6ac9baa6bd3b3a39752c69a0bd91c56af48932aaa3abf07c3708d23e2","readerVersion":"GDAL 3.2.2","processedAt":"2026-08-11T13:43:44.753Z"},"associationRefsVerifiedInGdalOutput":false}},{"type":"Feature","geometry":{"type":"Point","coordinates":[3.9378,51.7357833]},"properties":{"dolphinKind":"topmark","rawObjectClass":"TOPMAR","sourceProperties":{"RCID":8608919,"PRIM":1,"GRUP":2,"OBJL":144,"RVER":1,"AGEN":7979,"FIDN":8608919,"FIDS":1,"LNAM":"1F2B00835C970001","COLOUR":["4"],"TOPSHP":1,"SCAMIN":200000,"sourceCellId":"1R76K93I","sourceChecksum":"9c8e58b6ac9baa6bd3b3a39752c69a0bd91c56af48932aaa3abf07c3708d23e2","rawObjectClass":"TOPMAR","sourceStableId":"1F2B00835C970001"},"sourceKind":"official","official":true,"sourceCellId":"1R76K93I","sourceStableId":"1F2B00835C970001","pipelineFeatureId":"1R76K93I/TOPMAR/8608919","provenance":{"cellId":"1R76K93I","checksum":"9c8e58b6ac9baa6bd3b3a39752c69a0bd91c56af48932aaa3abf07c3708d23e2","readerVersion":"GDAL 3.2.2","processedAt":"2026-08-11T13:43:44.753Z"},"associationRefsVerifiedInGdalOutput":false}},{"type":"Feature","geometry":{"type":"Point","coordinates":[3.9750167,51.7383333]},"properties":{"dolphinKind":"topmark","rawObjectClass":"TOPMAR","sourceProperties":{"RCID":8608920,"PRIM":1,"GRUP":2,"OBJL":144,"RVER":1,"AGEN":7979,"FIDN":8608920,"FIDS":1,"LNAM":"1F2B00835C980001","COLOUR":["3"],"TOPSHP":5,"SCAMIN":200000,"sourceCellId":"1R76K93I","sourceChecksum":"9c8e58b6ac9baa6bd3b3a39752c69a0bd91c56af48932aaa3abf07c3708d23e2","rawObjectClass":"TOPMAR","sourceStableId":"1F2B00835C980001"},"sourceKind":"official","official":true,"sourceCellId":"1R76K93I","sourceStableId":"1F2B00835C980001","pipelineFeatureId":"1R76K93I/TOPMAR/8608920","provenance":{"cellId":"1R76K93I","checksum":"9c8e58b6ac9baa6bd3b3a39752c69a0bd91c56af48932aaa3abf07c3708d23e2","readerVersion":"GDAL 3.2.2","processedAt":"2026-08-11T13:43:44.753Z"},"associationRefsVerifiedInGdalOutput":false}},{"type":"Feature","geometry":{"type":"Point","coordinates":[3.9851167,51.7682667]},"properties":{"dolphinKind":"topmark","rawObjectClass":"TOPMAR","sourceProperties":{"RCID":8608921,"PRIM":1,"GRUP":2,"OBJL":144,"RVER":1,"AGEN":7979,"FIDN":8608921,"FIDS":1,"LNAM":"1F2B00835C990001","COLOUR":["3"],"TOPSHP":5,"SCAMIN":200000,"sourceCellId":"1R76K93I","sourceChecksum":"9c8e58b6ac9baa6bd3b3a39752c69a0bd91c56af48932aaa3abf07c3708d23e2","rawObjectClass":"TOPMAR","sourceStableId":"1F2B00835C990001"},"sourceKind":"official","official":true,"sourceCellId":"1R76K93I","sourceStableId":"1F2B00835C990001","pipelineFeatureId":"1R76K93I/TOPMAR/8608921","provenance":{"cellId":"1R76K93I","checksum":"9c8e58b6ac9baa6bd3b3a39752c69a0bd91c56af48932aaa3abf07c3708d23e2","readerVersion":"GDAL 3.2.2","processedAt":"2026-08-11T13:43:44.753Z"},"associationRefsVerifiedInGdalOutput":false}},{"type":"Feature","geometry":{"type":"Point","coordinates":[3.9893001,51.7361667]},"properties":{"dolphinKind":"topmark","rawObjectClass":"TOPMAR","sourceProperties":{"RCID":8608929,"PRIM":1,"GRUP":2,"OBJL":144,"RVER":1,"AGEN":7979,"FIDN":8608929,"FIDS":1,"LNAM":"1F2B00835CA10001","COLOUR":["4"],"TOPSHP":1,"SCAMIN":200000,"sourceCellId":"1R76K93I","sourceChecksum":"9c8e58b6ac9baa6bd3b3a39752c69a0bd91c56af48932aaa3abf07c3708d23e2","rawObjectClass":"TOPMAR","sourceStableId":"1F2B00835CA10001"},"sourceKind":"official","official":true,"sourceCellId":"1R76K93I","sourceStableId":"1F2B00835CA10001","pipelineFeatureId":"1R76K93I/TOPMAR/8608929","provenance":{"cellId":"1R76K93I","checksum":"9c8e58b6ac9baa6bd3b3a39752c69a0bd91c56af48932aaa3abf07c3708d23e2","readerVersion":"GDAL 3.2.2","processedAt":"2026-08-11T13:43:44.753Z"},"associationRefsVerifiedInGdalOutput":false}},{"type":"Feature","geometry":{"type":"Point","coordinates":[3.9728333,51.7565501]},"properties":{"dolphinKind":"topmark","rawObjectClass":"TOPMAR","sourceProperties":{"RCID":8608930,"PRIM":1,"GRUP":2,"OBJL":144,"RVER":1,"AGEN":7979,"FIDN":8608930,"FIDS":1,"LNAM":"1F2B00835CA20001","COLOUR":["4"],"TOPSHP":1,"SCAMIN":200000,"sourceCellId":"1R76K93I","sourceChecksum":"9c8e58b6ac9baa6bd3b3a39752c69a0bd91c56af48932aaa3abf07c3708d23e2","rawObjectClass":"TOPMAR","sourceStableId":"1F2B00835CA20001"},"sourceKind":"official","official":true,"sourceCellId":"1R76K93I","sourceStableId":"1F2B00835CA20001","pipelineFeatureId":"1R76K93I/TOPMAR/8608930","provenance":{"cellId":"1R76K93I","checksum":"9c8e58b6ac9baa6bd3b3a39752c69a0bd91c56af48932aaa3abf07c3708d23e2","readerVersion":"GDAL 3.2.2","processedAt":"2026-08-11T13:43:44.753Z"},"associationRefsVerifiedInGdalOutput":false}},{"type":"Feature","geometry":{"type":"Point","coordinates":[4.0335166,51.7314333]},"properties":{"dolphinKind":"topmark","rawObjectClass":"TOPMAR","sourceProperties":{"RCID":8608931,"PRIM":1,"GRUP":2,"OBJL":144,"RVER":1,"AGEN":7979,"FIDN":8608931,"FIDS":1,"LNAM":"1F2B00835CA30001","COLOUR":["4"],"TOPSHP":1,"SCAMIN":200000,"sourceCellId":"1R76K93I","sourceChecksum":"9c8e58b6ac9baa6bd3b3a39752c69a0bd91c56af48932aaa3abf07c3708d23e2","rawObjectClass":"TOPMAR","sourceStableId":"1F2B00835CA30001"},"sourceKind":"official","official":true,"sourceCellId":"1R76K93I","sourceStableId":"1F2B00835CA30001","pipelineFeatureId":"1R76K93I/TOPMAR/8608931","provenance":{"cellId":"1R76K93I","checksum":"9c8e58b6ac9baa6bd3b3a39752c69a0bd91c56af48932aaa3abf07c3708d23e2","readerVersion":"GDAL 3.2.2","processedAt":"2026-08-11T13:43:44.753Z"},"associationRefsVerifiedInGdalOutput":false}},{"type":"Feature","geometry":{"type":"Point","coordinates":[3.9408167,51.7393167]},"properties":{"dolphinKind":"topmark","rawObjectClass":"TOPMAR","sourceProperties":{"RCID":8608932,"PRIM":1,"GRUP":2,"OBJL":144,"RVER":1,"AGEN":7979,"FIDN":8608932,"FIDS":1,"LNAM":"1F2B00835CA40001","COLOUR":["4"],"TOPSHP":1,"SCAMIN":200000,"sourceCellId":"1R76K93I","sourceChecksum":"9c8e58b6ac9baa6bd3b3a39752c69a0bd91c56af48932aaa3abf07c3708d23e2","rawObjectClass":"TOPMAR","sourceStableId":"1F2B00835CA40001"},"sourceKind":"official","official":true,"sourceCellId":"1R76K93I","sourceStableId":"1F2B00835CA40001","pipelineFeatureId":"1R76K93I/TOPMAR/8608932","provenance":{"cellId":"1R76K93I","checksum":"9c8e58b6ac9baa6bd3b3a39752c69a0bd91c56af48932aaa3abf07c3708d23e2","readerVersion":"GDAL 3.2.2","processedAt":"2026-08-11T13:43:44.753Z"},"associationRefsVerifiedInGdalOutput":false}},{"type":"Feature","geometry":{"type":"Point","coordinates":[3.9880333,51.7707667]},"properties":{"dolphinKind":"topmark","rawObjectClass":"TOPMAR","sourceProperties":{"RCID":8608933,"PRIM":1,"GRUP":2,"OBJL":144,"RVER":1,"AGEN":7979,"FIDN":8608933,"FIDS":1,"LNAM":"1F2B00835CA50001","COLOUR":["4"],"TOPSHP":1,"SCAMIN":200000,"sourceCellId":"1R76K93I","sourceChecksum":"9c8e58b6ac9baa6bd3b3a39752c69a0bd91c56af48932aaa3abf07c3708d23e2","rawObjectClass":"TOPMAR","sourceStableId":"1F2B00835CA50001"},"sourceKind":"official","official":true,"sourceCellId":"1R76K93I","sourceStableId":"1F2B00835CA50001","pipelineFeatureId":"1R76K93I/TOPMAR/8608933","provenance":{"cellId":"1R76K93I","checksum":"9c8e58b6ac9baa6bd3b3a39752c69a0bd91c56af48932aaa3abf07c3708d23e2","readerVersion":"GDAL 3.2.2","processedAt":"2026-08-11T13:43:44.753Z"},"associationRefsVerifiedInGdalOutput":false}},{"type":"Feature","geometry":{"type":"Point","coordinates":[4.0133,51.7597333]},"properties":{"dolphinKind":"topmark","rawObjectClass":"TOPMAR","sourceProperties":{"RCID":8608934,"PRIM":1,"GRUP":2,"OBJL":144,"RVER":1,"AGEN":7979,"FIDN":8608934,"FIDS":1,"LNAM":"1F2B00835CA60001","COLOUR":["4"],"TOPSHP":1,"SCAMIN":200000,"sourceCellId":"1R76K93I","sourceChecksum":"9c8e58b6ac9baa6bd3b3a39752c69a0bd91c56af48932aaa3abf07c3708d23e2","rawObjectClass":"TOPMAR","sourceStableId":"1F2B00835CA60001"},"sourceKind":"official","official":true,"sourceCellId":"1R76K93I","sourceStableId":"1F2B00835CA60001","pipelineFeatureId":"1R76K93I/TOPMAR/8608934","provenance":{"cellId":"1R76K93I","checksum":"9c8e58b6ac9baa6bd3b3a39752c69a0bd91c56af48932aaa3abf07c3708d23e2","readerVersion":"GDAL 3.2.2","processedAt":"2026-08-11T13:43:44.753Z"},"associationRefsVerifiedInGdalOutput":false}},{"type":"Feature","geometry":{"type":"Point","coordinates":[4.0309517,51.7323667]},"properties":{"dolphinKind":"topmark","rawObjectClass":"TOPMAR","sourceProperties":{"RCID":8608935,"PRIM":1,"GRUP":2,"OBJL":144,"RVER":1,"AGEN":7979,"FIDN":8608935,"FIDS":1,"LNAM":"1F2B00835CA70001","COLOUR":["3"],"TOPSHP":5,"SCAMIN":200000,"SORDAT":"20180620","SORIND":"NL,1R,reprt,MD 271-18","sourceCellId":"1R76K93I","sourceChecksum":"9c8e58b6ac9baa6bd3b3a39752c69a0bd91c56af48932aaa3abf07c3708d23e2","rawObjectClass":"TOPMAR","sourceStableId":"1F2B00835CA70001"},"sourceKind":"official","official":true,"sourceCellId":"1R76K93I","sourceStableId":"1F2B00835CA70001","pipelineFeatureId":"1R76K93I/TOPMAR/8608935","provenance":{"cellId":"1R76K93I","checksum":"9c8e58b6ac9baa6bd3b3a39752c69a0bd91c56af48932aaa3abf07c3708d23e2","readerVersion":"GDAL 3.2.2","processedAt":"2026-08-11T13:43:44.753Z"},"associationRefsVerifiedInGdalOutput":false}},{"type":"Feature","geometry":{"type":"Point","coordinates":[3.9811833,51.7306667]},"properties":{"dolphinKind":"topmark","rawObjectClass":"TOPMAR","sourceProperties":{"RCID":8608936,"PRIM":1,"GRUP":2,"OBJL":144,"RVER":1,"AGEN":7979,"FIDN":8608936,"FIDS":1,"LNAM":"1F2B00835CA80001","COLOUR":["3"],"TOPSHP":5,"SCAMIN":200000,"sourceCellId":"1R76K93I","sourceChecksum":"9c8e58b6ac9baa6bd3b3a39752c69a0bd91c56af48932aaa3abf07c3708d23e2","rawObjectClass":"TOPMAR","sourceStableId":"1F2B00835CA80001"},"sourceKind":"official","official":true,"sourceCellId":"1R76K93I","sourceStableId":"1F2B00835CA80001","pipelineFeatureId":"1R76K93I/TOPMAR/8608936","provenance":{"cellId":"1R76K93I","checksum":"9c8e58b6ac9baa6bd3b3a39752c69a0bd91c56af48932aaa3abf07c3708d23e2","readerVersion":"GDAL 3.2.2","processedAt":"2026-08-11T13:43:44.753Z"},"associationRefsVerifiedInGdalOutput":false}},{"type":"Feature","geometry":{"type":"Point","coordinates":[3.9425334,51.7709333]},"properties":{"dolphinKind":"topmark","rawObjectClass":"TOPMAR","sourceProperties":{"RCID":8608937,"PRIM":1,"GRUP":2,"OBJL":144,"RVER":1,"AGEN":7979,"FIDN":8608937,"FIDS":1,"LNAM":"1F2B00835CA90001","COLOUR":["3"],"TOPSHP":5,"SCAMIN":200000,"sourceCellId":"1R76K93I","sourceChecksum":"9c8e58b6ac9baa6bd3b3a39752c69a0bd91c56af48932aaa3abf07c3708d23e2","rawObjectClass":"TOPMAR","sourceStableId":"1F2B00835CA90001"},"sourceKind":"official","official":true,"sourceCellId":"1R76K93I","sourceStableId":"1F2B00835CA90001","pipelineFeatureId":"1R76K93I/TOPMAR/8608937","provenance":{"cellId":"1R76K93I","checksum":"9c8e58b6ac9baa6bd3b3a39752c69a0bd91c56af48932aaa3abf07c3708d23e2","readerVersion":"GDAL 3.2.2","processedAt":"2026-08-11T13:43:44.753Z"},"associationRefsVerifiedInGdalOutput":false}},{"type":"Feature","geometry":{"type":"Point","coordinates":[3.937185,51.73468]},"properties":{"dolphinKind":"topmark","rawObjectClass":"TOPMAR","sourceProperties":{"RCID":8608938,"PRIM":1,"GRUP":2,"OBJL":144,"RVER":1,"AGEN":7979,"FIDN":8608938,"FIDS":1,"LNAM":"1F2B00835CAA0001","COLOUR":["3"],"TOPSHP":5,"SCAMIN":200000,"sourceCellId":"1R76K93I","sourceChecksum":"9c8e58b6ac9baa6bd3b3a39752c69a0bd91c56af48932aaa3abf07c3708d23e2","rawObjectClass":"TOPMAR","sourceStableId":"1F2B00835CAA0001"},"sourceKind":"official","official":true,"sourceCellId":"1R76K93I","sourceStableId":"1F2B00835CAA0001","pipelineFeatureId":"1R76K93I/TOPMAR/8608938","provenance":{"cellId":"1R76K93I","checksum":"9c8e58b6ac9baa6bd3b3a39752c69a0bd91c56af48932aaa3abf07c3708d23e2","readerVersion":"GDAL 3.2.2","processedAt":"2026-08-11T13:43:44.753Z"},"associationRefsVerifiedInGdalOutput":false}},{"type":"Feature","geometry":{"type":"Point","coordinates":[4.0124783,51.7572167]},"properties":{"dolphinKind":"topmark","rawObjectClass":"TOPMAR","sourceProperties":{"RCID":8608939,"PRIM":1,"GRUP":2,"OBJL":144,"RVER":1,"AGEN":7979,"FIDN":8608939,"FIDS":1,"LNAM":"1F2B00835CAB0001","COLOUR":["3"],"TOPSHP":5,"SCAMIN":200000,"sourceCellId":"1R76K93I","sourceChecksum":"9c8e58b6ac9baa6bd3b3a39752c69a0bd91c56af48932aaa3abf07c3708d23e2","rawObjectClass":"TOPMAR","sourceStableId":"1F2B00835CAB0001"},"sourceKind":"official","official":true,"sourceCellId":"1R76K93I","sourceStableId":"1F2B00835CAB0001","pipelineFeatureId":"1R76K93I/TOPMAR/8608939","provenance":{"cellId":"1R76K93I","checksum":"9c8e58b6ac9baa6bd3b3a39752c69a0bd91c56af48932aaa3abf07c3708d23e2","readerVersion":"GDAL 3.2.2","processedAt":"2026-08-11T13:43:44.753Z"},"associationRefsVerifiedInGdalOutput":false}},{"type":"Feature","geometry":{"type":"Point","coordinates":[3.9461334,51.7638334]},"properties":{"dolphinKind":"topmark","rawObjectClass":"TOPMAR","sourceProperties":{"RCID":8617948,"PRIM":1,"GRUP":2,"OBJL":144,"RVER":1,"AGEN":7979,"FIDN":8617948,"FIDS":1,"LNAM":"1F2B00837FDC0001","COLOUR":["3","4"],"COLPAT":["1"],"TOPSHP":3,"SCAMIN":200000,"sourceCellId":"1R76K93I","sourceChecksum":"9c8e58b6ac9baa6bd3b3a39752c69a0bd91c56af48932aaa3abf07c3708d23e2","rawObjectClass":"TOPMAR","sourceStableId":"1F2B00837FDC0001"},"sourceKind":"official","official":true,"sourceCellId":"1R76K93I","sourceStableId":"1F2B00837FDC0001","pipelineFeatureId":"1R76K93I/TOPMAR/8617948","provenance":{"cellId":"1R76K93I","checksum":"9c8e58b6ac9baa6bd3b3a39752c69a0bd91c56af48932aaa3abf07c3708d23e2","readerVersion":"GDAL 3.2.2","processedAt":"2026-08-11T13:43:44.753Z"},"associationRefsVerifiedInGdalOutput":false}},{"type":"Feature","geometry":{"type":"Point","coordinates":[3.9721666,51.7395]},"properties":{"dolphinKind":"topmark","rawObjectClass":"TOPMAR","sourceProperties":{"RCID":8617949,"PRIM":1,"GRUP":2,"OBJL":144,"RVER":1,"AGEN":7979,"FIDN":8617949,"FIDS":1,"LNAM":"1F2B00837FDD0001","COLOUR":["3","4"],"COLPAT":["1"],"TOPSHP":3,"SCAMIN":200000,"sourceCellId":"1R76K93I","sourceChecksum":"9c8e58b6ac9baa6bd3b3a39752c69a0bd91c56af48932aaa3abf07c3708d23e2","rawObjectClass":"TOPMAR","sourceStableId":"1F2B00837FDD0001"},"sourceKind":"official","official":true,"sourceCellId":"1R76K93I","sourceStableId":"1F2B00837FDD0001","pipelineFeatureId":"1R76K93I/TOPMAR/8617949","provenance":{"cellId":"1R76K93I","checksum":"9c8e58b6ac9baa6bd3b3a39752c69a0bd91c56af48932aaa3abf07c3708d23e2","readerVersion":"GDAL 3.2.2","processedAt":"2026-08-11T13:43:44.753Z"},"associationRefsVerifiedInGdalOutput":false}},{"type":"Feature","geometry":{"type":"Point","coordinates":[3.9655667,51.7520834]},"properties":{"dolphinKind":"topmark","rawObjectClass":"TOPMAR","sourceProperties":{"RCID":8617950,"PRIM":1,"GRUP":2,"OBJL":144,"RVER":1,"AGEN":7979,"FIDN":8617950,"FIDS":1,"LNAM":"1F2B00837FDE0001","COLOUR":["3","4"],"COLPAT":["1"],"TOPSHP":3,"SCAMIN":200000,"sourceCellId":"1R76K93I","sourceChecksum":"9c8e58b6ac9baa6bd3b3a39752c69a0bd91c56af48932aaa3abf07c3708d23e2","rawObjectClass":"TOPMAR","sourceStableId":"1F2B00837FDE0001"},"sourceKind":"official","official":true,"sourceCellId":"1R76K93I","sourceStableId":"1F2B00837FDE0001","pipelineFeatureId":"1R76K93I/TOPMAR/8617950","provenance":{"cellId":"1R76K93I","checksum":"9c8e58b6ac9baa6bd3b3a39752c69a0bd91c56af48932aaa3abf07c3708d23e2","readerVersion":"GDAL 3.2.2","processedAt":"2026-08-11T13:43:44.753Z"},"associationRefsVerifiedInGdalOutput":false}},{"type":"Feature","geometry":{"type":"Point","coordinates":[3.9906833,51.7380334]},"properties":{"dolphinKind":"topmark","rawObjectClass":"TOPMAR","sourceProperties":{"RCID":8617951,"PRIM":1,"GRUP":2,"OBJL":144,"RVER":1,"AGEN":7979,"FIDN":8617951,"FIDS":1,"LNAM":"1F2B00837FDF0001","COLOUR":["4"],"TOPSHP":1,"SCAMIN":200000,"sourceCellId":"1R76K93I","sourceChecksum":"9c8e58b6ac9baa6bd3b3a39752c69a0bd91c56af48932aaa3abf07c3708d23e2","rawObjectClass":"TOPMAR","sourceStableId":"1F2B00837FDF0001"},"sourceKind":"official","official":true,"sourceCellId":"1R76K93I","sourceStableId":"1F2B00837FDF0001","pipelineFeatureId":"1R76K93I/TOPMAR/8617951","provenance":{"cellId":"1R76K93I","checksum":"9c8e58b6ac9baa6bd3b3a39752c69a0bd91c56af48932aaa3abf07c3708d23e2","readerVersion":"GDAL 3.2.2","processedAt":"2026-08-11T13:43:44.753Z"},"associationRefsVerifiedInGdalOutput":false}},{"type":"Feature","geometry":{"type":"Point","coordinates":[3.9890833,51.7407167]},"properties":{"dolphinKind":"topmark","rawObjectClass":"TOPMAR","sourceProperties":{"RCID":8617952,"PRIM":1,"GRUP":2,"OBJL":144,"RVER":1,"AGEN":7979,"FIDN":8617952,"FIDS":1,"LNAM":"1F2B00837FE00001","COLOUR":["4"],"TOPSHP":1,"SCAMIN":200000,"sourceCellId":"1R76K93I","sourceChecksum":"9c8e58b6ac9baa6bd3b3a39752c69a0bd91c56af48932aaa3abf07c3708d23e2","rawObjectClass":"TOPMAR","sourceStableId":"1F2B00837FE00001"},"sourceKind":"official","official":true,"sourceCellId":"1R76K93I","sourceStableId":"1F2B00837FE00001","pipelineFeatureId":"1R76K93I/TOPMAR/8617952","provenance":{"cellId":"1R76K93I","checksum":"9c8e58b6ac9baa6bd3b3a39752c69a0bd91c56af48932aaa3abf07c3708d23e2","readerVersion":"GDAL 3.2.2","processedAt":"2026-08-11T13:43:44.753Z"},"associationRefsVerifiedInGdalOutput":false}},{"type":"Feature","geometry":{"type":"Point","coordinates":[3.9866167,51.7440166]},"properties":{"dolphinKind":"topmark","rawObjectClass":"TOPMAR","sourceProperties":{"RCID":8617953,"PRIM":1,"GRUP":2,"OBJL":144,"RVER":1,"AGEN":7979,"FIDN":8617953,"FIDS":1,"LNAM":"1F2B00837FE10001","COLOUR":["4"],"TOPSHP":1,"SCAMIN":200000,"sourceCellId":"1R76K93I","sourceChecksum":"9c8e58b6ac9baa6bd3b3a39752c69a0bd91c56af48932aaa3abf07c3708d23e2","rawObjectClass":"TOPMAR","sourceStableId":"1F2B00837FE10001"},"sourceKind":"official","official":true,"sourceCellId":"1R76K93I","sourceStableId":"1F2B00837FE10001","pipelineFeatureId":"1R76K93I/TOPMAR/8617953","provenance":{"cellId":"1R76K93I","checksum":"9c8e58b6ac9baa6bd3b3a39752c69a0bd91c56af48932aaa3abf07c3708d23e2","readerVersion":"GDAL 3.2.2","processedAt":"2026-08-11T13:43:44.753Z"},"associationRefsVerifiedInGdalOutput":false}},{"type":"Feature","geometry":{"type":"Point","coordinates":[3.9848667,51.7458667]},"properties":{"dolphinKind":"topmark","rawObjectClass":"TOPMAR","sourceProperties":{"RCID":8617954,"PRIM":1,"GRUP":2,"OBJL":144,"RVER":1,"AGEN":7979,"FIDN":8617954,"FIDS":1,"LNAM":"1F2B00837FE20001","COLOUR":["4"],"TOPSHP":1,"SCAMIN":200000,"sourceCellId":"1R76K93I","sourceChecksum":"9c8e58b6ac9baa6bd3b3a39752c69a0bd91c56af48932aaa3abf07c3708d23e2","rawObjectClass":"TOPMAR","sourceStableId":"1F2B00837FE20001"},"sourceKind":"official","official":true,"sourceCellId":"1R76K93I","sourceStableId":"1F2B00837FE20001","pipelineFeatureId":"1R76K93I/TOPMAR/8617954","provenance":{"cellId":"1R76K93I","checksum":"9c8e58b6ac9baa6bd3b3a39752c69a0bd91c56af48932aaa3abf07c3708d23e2","readerVersion":"GDAL 3.2.2","processedAt":"2026-08-11T13:43:44.753Z"},"associationRefsVerifiedInGdalOutput":false}},{"type":"Feature","geometry":{"type":"Point","coordinates":[3.9978999,51.7620167]},"properties":{"dolphinKind":"topmark","rawObjectClass":"TOPMAR","sourceProperties":{"RCID":8617955,"PRIM":1,"GRUP":2,"OBJL":144,"RVER":1,"AGEN":7979,"FIDN":8617955,"FIDS":1,"LNAM":"1F2B00837FE30001","COLOUR":["4"],"TOPSHP":1,"SCAMIN":200000,"sourceCellId":"1R76K93I","sourceChecksum":"9c8e58b6ac9baa6bd3b3a39752c69a0bd91c56af48932aaa3abf07c3708d23e2","rawObjectClass":"TOPMAR","sourceStableId":"1F2B00837FE30001"},"sourceKind":"official","official":true,"sourceCellId":"1R76K93I","sourceStableId":"1F2B00837FE30001","pipelineFeatureId":"1R76K93I/TOPMAR/8617955","provenance":{"cellId":"1R76K93I","checksum":"9c8e58b6ac9baa6bd3b3a39752c69a0bd91c56af48932aaa3abf07c3708d23e2","readerVersion":"GDAL 3.2.2","processedAt":"2026-08-11T13:43:44.753Z"},"associationRefsVerifiedInGdalOutput":false}},{"type":"Feature","geometry":{"type":"Point","coordinates":[4.0023,51.7619]},"properties":{"dolphinKind":"topmark","rawObjectClass":"TOPMAR","sourceProperties":{"RCID":8617956,"PRIM":1,"GRUP":2,"OBJL":144,"RVER":1,"AGEN":7979,"FIDN":8617956,"FIDS":1,"LNAM":"1F2B00837FE40001","COLOUR":["4"],"TOPSHP":1,"SCAMIN":200000,"sourceCellId":"1R76K93I","sourceChecksum":"9c8e58b6ac9baa6bd3b3a39752c69a0bd91c56af48932aaa3abf07c3708d23e2","rawObjectClass":"TOPMAR","sourceStableId":"1F2B00837FE40001"},"sourceKind":"official","official":true,"sourceCellId":"1R76K93I","sourceStableId":"1F2B00837FE40001","pipelineFeatureId":"1R76K93I/TOPMAR/8617956","provenance":{"cellId":"1R76K93I","checksum":"9c8e58b6ac9baa6bd3b3a39752c69a0bd91c56af48932aaa3abf07c3708d23e2","readerVersion":"GDAL 3.2.2","processedAt":"2026-08-11T13:43:44.753Z"},"associationRefsVerifiedInGdalOutput":false}},{"type":"Feature","geometry":{"type":"Point","coordinates":[3.9431667,51.76]},"properties":{"dolphinKind":"topmark","rawObjectClass":"TOPMAR","sourceProperties":{"RCID":8617957,"PRIM":1,"GRUP":2,"OBJL":144,"RVER":1,"AGEN":7979,"FIDN":8617957,"FIDS":1,"LNAM":"1F2B00837FE50001","COLOUR":["4"],"TOPSHP":1,"SCAMIN":200000,"sourceCellId":"1R76K93I","sourceChecksum":"9c8e58b6ac9baa6bd3b3a39752c69a0bd91c56af48932aaa3abf07c3708d23e2","rawObjectClass":"TOPMAR","sourceStableId":"1F2B00837FE50001"},"sourceKind":"official","official":true,"sourceCellId":"1R76K93I","sourceStableId":"1F2B00837FE50001","pipelineFeatureId":"1R76K93I/TOPMAR/8617957","provenance":{"cellId":"1R76K93I","checksum":"9c8e58b6ac9baa6bd3b3a39752c69a0bd91c56af48932aaa3abf07c3708d23e2","readerVersion":"GDAL 3.2.2","processedAt":"2026-08-11T13:43:44.753Z"},"associationRefsVerifiedInGdalOutput":false}},{"type":"Feature","geometry":{"type":"Point","coordinates":[3.9454167,51.7573333]},"properties":{"dolphinKind":"topmark","rawObjectClass":"TOPMAR","sourceProperties":{"RCID":8617958,"PRIM":1,"GRUP":2,"OBJL":144,"RVER":1,"AGEN":7979,"FIDN":8617958,"FIDS":1,"LNAM":"1F2B00837FE60001","COLOUR":["4"],"TOPSHP":1,"SCAMIN":200000,"sourceCellId":"1R76K93I","sourceChecksum":"9c8e58b6ac9baa6bd3b3a39752c69a0bd91c56af48932aaa3abf07c3708d23e2","rawObjectClass":"TOPMAR","sourceStableId":"1F2B00837FE60001"},"sourceKind":"official","official":true,"sourceCellId":"1R76K93I","sourceStableId":"1F2B00837FE60001","pipelineFeatureId":"1R76K93I/TOPMAR/8617958","provenance":{"cellId":"1R76K93I","checksum":"9c8e58b6ac9baa6bd3b3a39752c69a0bd91c56af48932aaa3abf07c3708d23e2","readerVersion":"GDAL 3.2.2","processedAt":"2026-08-11T13:43:44.753Z"},"associationRefsVerifiedInGdalOutput":false}},{"type":"Feature","geometry":{"type":"Point","coordinates":[3.9885666,51.7628]},"properties":{"dolphinKind":"topmark","rawObjectClass":"TOPMAR","sourceProperties":{"RCID":8617959,"PRIM":1,"GRUP":2,"OBJL":144,"RVER":1,"AGEN":7979,"FIDN":8617959,"FIDS":1,"LNAM":"1F2B00837FE70001","COLOUR":["4"],"TOPSHP":1,"SCAMIN":200000,"sourceCellId":"1R76K93I","sourceChecksum":"9c8e58b6ac9baa6bd3b3a39752c69a0bd91c56af48932aaa3abf07c3708d23e2","rawObjectClass":"TOPMAR","sourceStableId":"1F2B00837FE70001"},"sourceKind":"official","official":true,"sourceCellId":"1R76K93I","sourceStableId":"1F2B00837FE70001","pipelineFeatureId":"1R76K93I/TOPMAR/8617959","provenance":{"cellId":"1R76K93I","checksum":"9c8e58b6ac9baa6bd3b3a39752c69a0bd91c56af48932aaa3abf07c3708d23e2","readerVersion":"GDAL 3.2.2","processedAt":"2026-08-11T13:43:44.753Z"},"associationRefsVerifiedInGdalOutput":false}},{"type":"Feature","geometry":{"type":"Point","coordinates":[3.9931334,51.7621834]},"properties":{"dolphinKind":"topmark","rawObjectClass":"TOPMAR","sourceProperties":{"RCID":8617960,"PRIM":1,"GRUP":2,"OBJL":144,"RVER":1,"AGEN":7979,"FIDN":8617960,"FIDS":1,"LNAM":"1F2B00837FE80001","COLOUR":["4"],"TOPSHP":1,"SCAMIN":200000,"sourceCellId":"1R76K93I","sourceChecksum":"9c8e58b6ac9baa6bd3b3a39752c69a0bd91c56af48932aaa3abf07c3708d23e2","rawObjectClass":"TOPMAR","sourceStableId":"1F2B00837FE80001"},"sourceKind":"official","official":true,"sourceCellId":"1R76K93I","sourceStableId":"1F2B00837FE80001","pipelineFeatureId":"1R76K93I/TOPMAR/8617960","provenance":{"cellId":"1R76K93I","checksum":"9c8e58b6ac9baa6bd3b3a39752c69a0bd91c56af48932aaa3abf07c3708d23e2","readerVersion":"GDAL 3.2.2","processedAt":"2026-08-11T13:43:44.753Z"},"associationRefsVerifiedInGdalOutput":false}},{"type":"Feature","geometry":{"type":"Point","coordinates":[3.9841667,51.76355]},"properties":{"dolphinKind":"topmark","rawObjectClass":"TOPMAR","sourceProperties":{"RCID":8617961,"PRIM":1,"GRUP":2,"OBJL":144,"RVER":1,"AGEN":7979,"FIDN":8617961,"FIDS":1,"LNAM":"1F2B00837FE90001","COLOUR":["4"],"TOPSHP":1,"SCAMIN":200000,"sourceCellId":"1R76K93I","sourceChecksum":"9c8e58b6ac9baa6bd3b3a39752c69a0bd91c56af48932aaa3abf07c3708d23e2","rawObjectClass":"TOPMAR","sourceStableId":"1F2B00837FE90001"},"sourceKind":"official","official":true,"sourceCellId":"1R76K93I","sourceStableId":"1F2B00837FE90001","pipelineFeatureId":"1R76K93I/TOPMAR/8617961","provenance":{"cellId":"1R76K93I","checksum":"9c8e58b6ac9baa6bd3b3a39752c69a0bd91c56af48932aaa3abf07c3708d23e2","readerVersion":"GDAL 3.2.2","processedAt":"2026-08-11T13:43:44.753Z"},"associationRefsVerifiedInGdalOutput":false}},{"type":"Feature","geometry":{"type":"Point","coordinates":[3.9794,51.7510833]},"properties":{"dolphinKind":"topmark","rawObjectClass":"TOPMAR","sourceProperties":{"RCID":8617962,"PRIM":1,"GRUP":2,"OBJL":144,"RVER":1,"AGEN":7979,"FIDN":8617962,"FIDS":1,"LNAM":"1F2B00837FEA0001","COLOUR":["4"],"TOPSHP":1,"SCAMIN":200000,"sourceCellId":"1R76K93I","sourceChecksum":"9c8e58b6ac9baa6bd3b3a39752c69a0bd91c56af48932aaa3abf07c3708d23e2","rawObjectClass":"TOPMAR","sourceStableId":"1F2B00837FEA0001"},"sourceKind":"official","official":true,"sourceCellId":"1R76K93I","sourceStableId":"1F2B00837FEA0001","pipelineFeatureId":"1R76K93I/TOPMAR/8617962","provenance":{"cellId":"1R76K93I","checksum":"9c8e58b6ac9baa6bd3b3a39752c69a0bd91c56af48932aaa3abf07c3708d23e2","readerVersion":"GDAL 3.2.2","processedAt":"2026-08-11T13:43:44.753Z"},"associationRefsVerifiedInGdalOutput":false}},{"type":"Feature","geometry":{"type":"Point","coordinates":[3.9917832,51.7354833]},"properties":{"dolphinKind":"topmark","rawObjectClass":"TOPMAR","sourceProperties":{"RCID":8617963,"PRIM":1,"GRUP":2,"OBJL":144,"RVER":1,"AGEN":7979,"FIDN":8617963,"FIDS":1,"LNAM":"1F2B00837FEB0001","COLOUR":["4"],"TOPSHP":1,"SCAMIN":200000,"sourceCellId":"1R76K93I","sourceChecksum":"9c8e58b6ac9baa6bd3b3a39752c69a0bd91c56af48932aaa3abf07c3708d23e2","rawObjectClass":"TOPMAR","sourceStableId":"1F2B00837FEB0001"},"sourceKind":"official","official":true,"sourceCellId":"1R76K93I","sourceStableId":"1F2B00837FEB0001","pipelineFeatureId":"1R76K93I/TOPMAR/8617963","provenance":{"cellId":"1R76K93I","checksum":"9c8e58b6ac9baa6bd3b3a39752c69a0bd91c56af48932aaa3abf07c3708d23e2","readerVersion":"GDAL 3.2.2","processedAt":"2026-08-11T13:43:44.753Z"},"associationRefsVerifiedInGdalOutput":false}},{"type":"Feature","geometry":{"type":"Point","coordinates":[3.9816667,51.7491]},"properties":{"dolphinKind":"topmark","rawObjectClass":"TOPMAR","sourceProperties":{"RCID":8617964,"PRIM":1,"GRUP":2,"OBJL":144,"RVER":1,"AGEN":7979,"FIDN":8617964,"FIDS":1,"LNAM":"1F2B00837FEC0001","COLOUR":["4"],"TOPSHP":1,"SCAMIN":200000,"sourceCellId":"1R76K93I","sourceChecksum":"9c8e58b6ac9baa6bd3b3a39752c69a0bd91c56af48932aaa3abf07c3708d23e2","rawObjectClass":"TOPMAR","sourceStableId":"1F2B00837FEC0001"},"sourceKind":"official","official":true,"sourceCellId":"1R76K93I","sourceStableId":"1F2B00837FEC0001","pipelineFeatureId":"1R76K93I/TOPMAR/8617964","provenance":{"cellId":"1R76K93I","checksum":"9c8e58b6ac9baa6bd3b3a39752c69a0bd91c56af48932aaa3abf07c3708d23e2","readerVersion":"GDAL 3.2.2","processedAt":"2026-08-11T13:43:44.753Z"},"associationRefsVerifiedInGdalOutput":false}},{"type":"Feature","geometry":{"type":"Point","coordinates":[3.9973834,51.7262333]},"properties":{"dolphinKind":"topmark","rawObjectClass":"TOPMAR","sourceProperties":{"RCID":8617965,"PRIM":1,"GRUP":2,"OBJL":144,"RVER":1,"AGEN":7979,"FIDN":8617965,"FIDS":1,"LNAM":"1F2B00837FED0001","COLOUR":["4"],"TOPSHP":1,"SCAMIN":200000,"sourceCellId":"1R76K93I","sourceChecksum":"9c8e58b6ac9baa6bd3b3a39752c69a0bd91c56af48932aaa3abf07c3708d23e2","rawObjectClass":"TOPMAR","sourceStableId":"1F2B00837FED0001"},"sourceKind":"official","official":true,"sourceCellId":"1R76K93I","sourceStableId":"1F2B00837FED0001","pipelineFeatureId":"1R76K93I/TOPMAR/8617965","provenance":{"cellId":"1R76K93I","checksum":"9c8e58b6ac9baa6bd3b3a39752c69a0bd91c56af48932aaa3abf07c3708d23e2","readerVersion":"GDAL 3.2.2","processedAt":"2026-08-11T13:43:44.753Z"},"associationRefsVerifiedInGdalOutput":false}},{"type":"Feature","geometry":{"type":"Point","coordinates":[3.9837667,51.7472001]},"properties":{"dolphinKind":"topmark","rawObjectClass":"TOPMAR","sourceProperties":{"RCID":8617966,"PRIM":1,"GRUP":2,"OBJL":144,"RVER":1,"AGEN":7979,"FIDN":8617966,"FIDS":1,"LNAM":"1F2B00837FEE0001","COLOUR":["4"],"TOPSHP":1,"SCAMIN":200000,"sourceCellId":"1R76K93I","sourceChecksum":"9c8e58b6ac9baa6bd3b3a39752c69a0bd91c56af48932aaa3abf07c3708d23e2","rawObjectClass":"TOPMAR","sourceStableId":"1F2B00837FEE0001"},"sourceKind":"official","official":true,"sourceCellId":"1R76K93I","sourceStableId":"1F2B00837FEE0001","pipelineFeatureId":"1R76K93I/TOPMAR/8617966","provenance":{"cellId":"1R76K93I","checksum":"9c8e58b6ac9baa6bd3b3a39752c69a0bd91c56af48932aaa3abf07c3708d23e2","readerVersion":"GDAL 3.2.2","processedAt":"2026-08-11T13:43:44.753Z"},"associationRefsVerifiedInGdalOutput":false}},{"type":"Feature","geometry":{"type":"Point","coordinates":[3.99425,51.73065]},"properties":{"dolphinKind":"topmark","rawObjectClass":"TOPMAR","sourceProperties":{"RCID":8617967,"PRIM":1,"GRUP":2,"OBJL":144,"RVER":1,"AGEN":7979,"FIDN":8617967,"FIDS":1,"LNAM":"1F2B00837FEF0001","COLOUR":["4"],"TOPSHP":1,"SCAMIN":200000,"sourceCellId":"1R76K93I","sourceChecksum":"9c8e58b6ac9baa6bd3b3a39752c69a0bd91c56af48932aaa3abf07c3708d23e2","rawObjectClass":"TOPMAR","sourceStableId":"1F2B00837FEF0001"},"sourceKind":"official","official":true,"sourceCellId":"1R76K93I","sourceStableId":"1F2B00837FEF0001","pipelineFeatureId":"1R76K93I/TOPMAR/8617967","provenance":{"cellId":"1R76K93I","checksum":"9c8e58b6ac9baa6bd3b3a39752c69a0bd91c56af48932aaa3abf07c3708d23e2","readerVersion":"GDAL 3.2.2","processedAt":"2026-08-11T13:43:44.753Z"},"associationRefsVerifiedInGdalOutput":false}},{"type":"Feature","geometry":{"type":"Point","coordinates":[3.95,51.7387167]},"properties":{"dolphinKind":"topmark","rawObjectClass":"TOPMAR","sourceProperties":{"RCID":8617968,"PRIM":1,"GRUP":2,"OBJL":144,"RVER":1,"AGEN":7979,"FIDN":8617968,"FIDS":1,"LNAM":"1F2B00837FF00001","COLOUR":["4"],"TOPSHP":1,"SCAMIN":200000,"sourceCellId":"1R76K93I","sourceChecksum":"9c8e58b6ac9baa6bd3b3a39752c69a0bd91c56af48932aaa3abf07c3708d23e2","rawObjectClass":"TOPMAR","sourceStableId":"1F2B00837FF00001"},"sourceKind":"official","official":true,"sourceCellId":"1R76K93I","sourceStableId":"1F2B00837FF00001","pipelineFeatureId":"1R76K93I/TOPMAR/8617968","provenance":{"cellId":"1R76K93I","checksum":"9c8e58b6ac9baa6bd3b3a39752c69a0bd91c56af48932aaa3abf07c3708d23e2","readerVersion":"GDAL 3.2.2","processedAt":"2026-08-11T13:43:44.753Z"},"associationRefsVerifiedInGdalOutput":false}},{"type":"Feature","geometry":{"type":"Point","coordinates":[3.9535833,51.7508333]},"properties":{"dolphinKind":"topmark","rawObjectClass":"TOPMAR","sourceProperties":{"RCID":8617969,"PRIM":1,"GRUP":2,"OBJL":144,"RVER":1,"AGEN":7979,"FIDN":8617969,"FIDS":1,"LNAM":"1F2B00837FF10001","COLOUR":["4"],"TOPSHP":1,"SCAMIN":200000,"sourceCellId":"1R76K93I","sourceChecksum":"9c8e58b6ac9baa6bd3b3a39752c69a0bd91c56af48932aaa3abf07c3708d23e2","rawObjectClass":"TOPMAR","sourceStableId":"1F2B00837FF10001"},"sourceKind":"official","official":true,"sourceCellId":"1R76K93I","sourceStableId":"1F2B00837FF10001","pipelineFeatureId":"1R76K93I/TOPMAR/8617969","provenance":{"cellId":"1R76K93I","checksum":"9c8e58b6ac9baa6bd3b3a39752c69a0bd91c56af48932aaa3abf07c3708d23e2","readerVersion":"GDAL 3.2.2","processedAt":"2026-08-11T13:43:44.753Z"},"associationRefsVerifiedInGdalOutput":false}},{"type":"Feature","geometry":{"type":"Point","coordinates":[3.95,51.7523833]},"properties":{"dolphinKind":"topmark","rawObjectClass":"TOPMAR","sourceProperties":{"RCID":8617970,"PRIM":1,"GRUP":2,"OBJL":144,"RVER":1,"AGEN":7979,"FIDN":8617970,"FIDS":1,"LNAM":"1F2B00837FF20001","COLOUR":["4"],"TOPSHP":1,"SCAMIN":200000,"sourceCellId":"1R76K93I","sourceChecksum":"9c8e58b6ac9baa6bd3b3a39752c69a0bd91c56af48932aaa3abf07c3708d23e2","rawObjectClass":"TOPMAR","sourceStableId":"1F2B00837FF20001"},"sourceKind":"official","official":true,"sourceCellId":"1R76K93I","sourceStableId":"1F2B00837FF20001","pipelineFeatureId":"1R76K93I/TOPMAR/8617970","provenance":{"cellId":"1R76K93I","checksum":"9c8e58b6ac9baa6bd3b3a39752c69a0bd91c56af48932aaa3abf07c3708d23e2","readerVersion":"GDAL 3.2.2","processedAt":"2026-08-11T13:43:44.753Z"},"associationRefsVerifiedInGdalOutput":false}},{"type":"Feature","geometry":{"type":"Point","coordinates":[3.9475333,51.7549167]},"properties":{"dolphinKind":"topmark","rawObjectClass":"TOPMAR","sourceProperties":{"RCID":8617971,"PRIM":1,"GRUP":2,"OBJL":144,"RVER":1,"AGEN":7979,"FIDN":8617971,"FIDS":1,"LNAM":"1F2B00837FF30001","COLOUR":["4"],"TOPSHP":1,"SCAMIN":200000,"sourceCellId":"1R76K93I","sourceChecksum":"9c8e58b6ac9baa6bd3b3a39752c69a0bd91c56af48932aaa3abf07c3708d23e2","rawObjectClass":"TOPMAR","sourceStableId":"1F2B00837FF30001"},"sourceKind":"official","official":true,"sourceCellId":"1R76K93I","sourceStableId":"1F2B00837FF30001","pipelineFeatureId":"1R76K93I/TOPMAR/8617971","provenance":{"cellId":"1R76K93I","checksum":"9c8e58b6ac9baa6bd3b3a39752c69a0bd91c56af48932aaa3abf07c3708d23e2","readerVersion":"GDAL 3.2.2","processedAt":"2026-08-11T13:43:44.753Z"},"associationRefsVerifiedInGdalOutput":false}},{"type":"Feature","geometry":{"type":"Point","coordinates":[3.9606833,51.7510667]},"properties":{"dolphinKind":"topmark","rawObjectClass":"TOPMAR","sourceProperties":{"RCID":8617972,"PRIM":1,"GRUP":2,"OBJL":144,"RVER":1,"AGEN":7979,"FIDN":8617972,"FIDS":1,"LNAM":"1F2B00837FF40001","COLOUR":["4"],"TOPSHP":1,"SCAMIN":200000,"sourceCellId":"1R76K93I","sourceChecksum":"9c8e58b6ac9baa6bd3b3a39752c69a0bd91c56af48932aaa3abf07c3708d23e2","rawObjectClass":"TOPMAR","sourceStableId":"1F2B00837FF40001"},"sourceKind":"official","official":true,"sourceCellId":"1R76K93I","sourceStableId":"1F2B00837FF40001","pipelineFeatureId":"1R76K93I/TOPMAR/8617972","provenance":{"cellId":"1R76K93I","checksum":"9c8e58b6ac9baa6bd3b3a39752c69a0bd91c56af48932aaa3abf07c3708d23e2","readerVersion":"GDAL 3.2.2","processedAt":"2026-08-11T13:43:44.753Z"},"associationRefsVerifiedInGdalOutput":false}},{"type":"Feature","geometry":{"type":"Point","coordinates":[3.9500501,51.7400167]},"properties":{"dolphinKind":"topmark","rawObjectClass":"TOPMAR","sourceProperties":{"RCID":8617973,"PRIM":1,"GRUP":2,"OBJL":144,"RVER":1,"AGEN":7979,"FIDN":8617973,"FIDS":1,"LNAM":"1F2B00837FF50001","COLOUR":["4"],"TOPSHP":1,"SCAMIN":200000,"sourceCellId":"1R76K93I","sourceChecksum":"9c8e58b6ac9baa6bd3b3a39752c69a0bd91c56af48932aaa3abf07c3708d23e2","rawObjectClass":"TOPMAR","sourceStableId":"1F2B00837FF50001"},"sourceKind":"official","official":true,"sourceCellId":"1R76K93I","sourceStableId":"1F2B00837FF50001","pipelineFeatureId":"1R76K93I/TOPMAR/8617973","provenance":{"cellId":"1R76K93I","checksum":"9c8e58b6ac9baa6bd3b3a39752c69a0bd91c56af48932aaa3abf07c3708d23e2","readerVersion":"GDAL 3.2.2","processedAt":"2026-08-11T13:43:44.753Z"},"associationRefsVerifiedInGdalOutput":false}},{"type":"Feature","geometry":{"type":"Point","coordinates":[3.9578,51.7501667]},"properties":{"dolphinKind":"topmark","rawObjectClass":"TOPMAR","sourceProperties":{"RCID":8617974,"PRIM":1,"GRUP":2,"OBJL":144,"RVER":1,"AGEN":7979,"FIDN":8617974,"FIDS":1,"LNAM":"1F2B00837FF60001","COLOUR":["4"],"TOPSHP":1,"SCAMIN":200000,"sourceCellId":"1R76K93I","sourceChecksum":"9c8e58b6ac9baa6bd3b3a39752c69a0bd91c56af48932aaa3abf07c3708d23e2","rawObjectClass":"TOPMAR","sourceStableId":"1F2B00837FF60001"},"sourceKind":"official","official":true,"sourceCellId":"1R76K93I","sourceStableId":"1F2B00837FF60001","pipelineFeatureId":"1R76K93I/TOPMAR/8617974","provenance":{"cellId":"1R76K93I","checksum":"9c8e58b6ac9baa6bd3b3a39752c69a0bd91c56af48932aaa3abf07c3708d23e2","readerVersion":"GDAL 3.2.2","processedAt":"2026-08-11T13:43:44.753Z"},"associationRefsVerifiedInGdalOutput":false}},{"type":"Feature","geometry":{"type":"Point","coordinates":[3.9571334,51.7616666]},"properties":{"dolphinKind":"topmark","rawObjectClass":"TOPMAR","sourceProperties":{"RCID":8617975,"PRIM":1,"GRUP":2,"OBJL":144,"RVER":1,"AGEN":7979,"FIDN":8617975,"FIDS":1,"LNAM":"1F2B00837FF70001","COLOUR":["3"],"TOPSHP":5,"SCAMIN":200000,"sourceCellId":"1R76K93I","sourceChecksum":"9c8e58b6ac9baa6bd3b3a39752c69a0bd91c56af48932aaa3abf07c3708d23e2","rawObjectClass":"TOPMAR","sourceStableId":"1F2B00837FF70001"},"sourceKind":"official","official":true,"sourceCellId":"1R76K93I","sourceStableId":"1F2B00837FF70001","pipelineFeatureId":"1R76K93I/TOPMAR/8617975","provenance":{"cellId":"1R76K93I","checksum":"9c8e58b6ac9baa6bd3b3a39752c69a0bd91c56af48932aaa3abf07c3708d23e2","readerVersion":"GDAL 3.2.2","processedAt":"2026-08-11T13:43:44.753Z"},"associationRefsVerifiedInGdalOutput":false}},{"type":"Feature","geometry":{"type":"Point","coordinates":[3.9541167,51.7640833]},"properties":{"dolphinKind":"topmark","rawObjectClass":"TOPMAR","sourceProperties":{"RCID":8617976,"PRIM":1,"GRUP":2,"OBJL":144,"RVER":1,"AGEN":7979,"FIDN":8617976,"FIDS":1,"LNAM":"1F2B00837FF80001","COLOUR":["3"],"TOPSHP":5,"SCAMIN":200000,"sourceCellId":"1R76K93I","sourceChecksum":"9c8e58b6ac9baa6bd3b3a39752c69a0bd91c56af48932aaa3abf07c3708d23e2","rawObjectClass":"TOPMAR","sourceStableId":"1F2B00837FF80001"},"sourceKind":"official","official":true,"sourceCellId":"1R76K93I","sourceStableId":"1F2B00837FF80001","pipelineFeatureId":"1R76K93I/TOPMAR/8617976","provenance":{"cellId":"1R76K93I","checksum":"9c8e58b6ac9baa6bd3b3a39752c69a0bd91c56af48932aaa3abf07c3708d23e2","readerVersion":"GDAL 3.2.2","processedAt":"2026-08-11T13:43:44.753Z"},"associationRefsVerifiedInGdalOutput":false}},{"type":"Feature","geometry":{"type":"Point","coordinates":[4.00035,51.76015]},"properties":{"dolphinKind":"topmark","rawObjectClass":"TOPMAR","sourceProperties":{"RCID":8617978,"PRIM":1,"GRUP":2,"OBJL":144,"RVER":1,"AGEN":7979,"FIDN":8617978,"FIDS":1,"LNAM":"1F2B00837FFA0001","COLOUR":["3"],"TOPSHP":5,"SCAMIN":200000,"sourceCellId":"1R76K93I","sourceChecksum":"9c8e58b6ac9baa6bd3b3a39752c69a0bd91c56af48932aaa3abf07c3708d23e2","rawObjectClass":"TOPMAR","sourceStableId":"1F2B00837FFA0001"},"sourceKind":"official","official":true,"sourceCellId":"1R76K93I","sourceStableId":"1F2B00837FFA0001","pipelineFeatureId":"1R76K93I/TOPMAR/8617978","provenance":{"cellId":"1R76K93I","checksum":"9c8e58b6ac9baa6bd3b3a39752c69a0bd91c56af48932aaa3abf07c3708d23e2","readerVersion":"GDAL 3.2.2","processedAt":"2026-08-11T13:43:44.753Z"},"associationRefsVerifiedInGdalOutput":false}},{"type":"Feature","geometry":{"type":"Point","coordinates":[3.9641667,51.7508333]},"properties":{"dolphinKind":"topmark","rawObjectClass":"TOPMAR","sourceProperties":{"RCID":8617979,"PRIM":1,"GRUP":2,"OBJL":144,"RVER":1,"AGEN":7979,"FIDN":8617979,"FIDS":1,"LNAM":"1F2B00837FFB0001","COLOUR":["3"],"TOPSHP":5,"SCAMIN":200000,"sourceCellId":"1R76K93I","sourceChecksum":"9c8e58b6ac9baa6bd3b3a39752c69a0bd91c56af48932aaa3abf07c3708d23e2","rawObjectClass":"TOPMAR","sourceStableId":"1F2B00837FFB0001"},"sourceKind":"official","official":true,"sourceCellId":"1R76K93I","sourceStableId":"1F2B00837FFB0001","pipelineFeatureId":"1R76K93I/TOPMAR/8617979","provenance":{"cellId":"1R76K93I","checksum":"9c8e58b6ac9baa6bd3b3a39752c69a0bd91c56af48932aaa3abf07c3708d23e2","readerVersion":"GDAL 3.2.2","processedAt":"2026-08-11T13:43:44.753Z"},"associationRefsVerifiedInGdalOutput":false}},{"type":"Feature","geometry":{"type":"Point","coordinates":[3.9362,51.749]},"properties":{"dolphinKind":"topmark","rawObjectClass":"TOPMAR","sourceProperties":{"RCID":8617980,"PRIM":1,"GRUP":2,"OBJL":144,"RVER":1,"AGEN":7979,"FIDN":8617980,"FIDS":1,"LNAM":"1F2B00837FFC0001","COLOUR":["3"],"TOPSHP":5,"SCAMIN":200000,"sourceCellId":"1R76K93I","sourceChecksum":"9c8e58b6ac9baa6bd3b3a39752c69a0bd91c56af48932aaa3abf07c3708d23e2","rawObjectClass":"TOPMAR","sourceStableId":"1F2B00837FFC0001"},"sourceKind":"official","official":true,"sourceCellId":"1R76K93I","sourceStableId":"1F2B00837FFC0001","pipelineFeatureId":"1R76K93I/TOPMAR/8617980","provenance":{"cellId":"1R76K93I","checksum":"9c8e58b6ac9baa6bd3b3a39752c69a0bd91c56af48932aaa3abf07c3708d23e2","readerVersion":"GDAL 3.2.2","processedAt":"2026-08-11T13:43:44.753Z"},"associationRefsVerifiedInGdalOutput":false}},{"type":"Feature","geometry":{"type":"Point","coordinates":[3.9514833,51.7488001]},"properties":{"dolphinKind":"topmark","rawObjectClass":"TOPMAR","sourceProperties":{"RCID":8617981,"PRIM":1,"GRUP":2,"OBJL":144,"RVER":1,"AGEN":7979,"FIDN":8617981,"FIDS":1,"LNAM":"1F2B00837FFD0001","COLOUR":["3"],"TOPSHP":5,"SCAMIN":200000,"sourceCellId":"1R76K93I","sourceChecksum":"9c8e58b6ac9baa6bd3b3a39752c69a0bd91c56af48932aaa3abf07c3708d23e2","rawObjectClass":"TOPMAR","sourceStableId":"1F2B00837FFD0001"},"sourceKind":"official","official":true,"sourceCellId":"1R76K93I","sourceStableId":"1F2B00837FFD0001","pipelineFeatureId":"1R76K93I/TOPMAR/8617981","provenance":{"cellId":"1R76K93I","checksum":"9c8e58b6ac9baa6bd3b3a39752c69a0bd91c56af48932aaa3abf07c3708d23e2","readerVersion":"GDAL 3.2.2","processedAt":"2026-08-11T13:43:44.753Z"},"associationRefsVerifiedInGdalOutput":false}},{"type":"Feature","geometry":{"type":"Point","coordinates":[3.9556666,51.7483667]},"properties":{"dolphinKind":"topmark","rawObjectClass":"TOPMAR","sourceProperties":{"RCID":8617983,"PRIM":1,"GRUP":2,"OBJL":144,"RVER":1,"AGEN":7979,"FIDN":8617983,"FIDS":1,"LNAM":"1F2B00837FFF0001","COLOUR":["3"],"TOPSHP":5,"SCAMIN":200000,"sourceCellId":"1R76K93I","sourceChecksum":"9c8e58b6ac9baa6bd3b3a39752c69a0bd91c56af48932aaa3abf07c3708d23e2","rawObjectClass":"TOPMAR","sourceStableId":"1F2B00837FFF0001"},"sourceKind":"official","official":true,"sourceCellId":"1R76K93I","sourceStableId":"1F2B00837FFF0001","pipelineFeatureId":"1R76K93I/TOPMAR/8617983","provenance":{"cellId":"1R76K93I","checksum":"9c8e58b6ac9baa6bd3b3a39752c69a0bd91c56af48932aaa3abf07c3708d23e2","readerVersion":"GDAL 3.2.2","processedAt":"2026-08-11T13:43:44.753Z"},"associationRefsVerifiedInGdalOutput":false}},{"type":"Feature","geometry":{"type":"Point","coordinates":[3.9592834,51.7495667]},"properties":{"dolphinKind":"topmark","rawObjectClass":"TOPMAR","sourceProperties":{"RCID":8617984,"PRIM":1,"GRUP":2,"OBJL":144,"RVER":1,"AGEN":7979,"FIDN":8617984,"FIDS":1,"LNAM":"1F2B008380000001","COLOUR":["3"],"TOPSHP":5,"SCAMIN":200000,"sourceCellId":"1R76K93I","sourceChecksum":"9c8e58b6ac9baa6bd3b3a39752c69a0bd91c56af48932aaa3abf07c3708d23e2","rawObjectClass":"TOPMAR","sourceStableId":"1F2B008380000001"},"sourceKind":"official","official":true,"sourceCellId":"1R76K93I","sourceStableId":"1F2B008380000001","pipelineFeatureId":"1R76K93I/TOPMAR/8617984","provenance":{"cellId":"1R76K93I","checksum":"9c8e58b6ac9baa6bd3b3a39752c69a0bd91c56af48932aaa3abf07c3708d23e2","readerVersion":"GDAL 3.2.2","processedAt":"2026-08-11T13:43:44.753Z"},"associationRefsVerifiedInGdalOutput":false}},{"type":"Feature","geometry":{"type":"Point","coordinates":[3.9510333,51.7647]},"properties":{"dolphinKind":"topmark","rawObjectClass":"TOPMAR","sourceProperties":{"RCID":25492025,"PRIM":1,"GRUP":2,"OBJL":144,"RVER":1,"AGEN":7979,"FIDN":25492025,"FIDS":1,"LNAM":"1F2B0184FA390001","COLOUR":["3"],"TOPSHP":5,"SCAMIN":200000,"sourceCellId":"1R76K93I","sourceChecksum":"9c8e58b6ac9baa6bd3b3a39752c69a0bd91c56af48932aaa3abf07c3708d23e2","rawObjectClass":"TOPMAR","sourceStableId":"1F2B0184FA390001"},"sourceKind":"official","official":true,"sourceCellId":"1R76K93I","sourceStableId":"1F2B0184FA390001","pipelineFeatureId":"1R76K93I/TOPMAR/25492025","provenance":{"cellId":"1R76K93I","checksum":"9c8e58b6ac9baa6bd3b3a39752c69a0bd91c56af48932aaa3abf07c3708d23e2","readerVersion":"GDAL 3.2.2","processedAt":"2026-08-11T13:43:44.753Z"},"associationRefsVerifiedInGdalOutput":false}},{"type":"Feature","geometry":{"type":"Point","coordinates":[3.9612833,51.7597389]},"properties":{"dolphinKind":"topmark","rawObjectClass":"TOPMAR","sourceProperties":{"RCID":410928243,"PRIM":1,"GRUP":2,"OBJL":144,"RVER":1,"AGEN":7979,"FIDN":410928243,"FIDS":1,"LNAM":"1F2B187E44730001","COLOUR":["3"],"TOPSHP":5,"SCAMIN":200000,"sourceCellId":"1R76K93I","sourceChecksum":"9c8e58b6ac9baa6bd3b3a39752c69a0bd91c56af48932aaa3abf07c3708d23e2","rawObjectClass":"TOPMAR","sourceStableId":"1F2B187E44730001"},"sourceKind":"official","official":true,"sourceCellId":"1R76K93I","sourceStableId":"1F2B187E44730001","pipelineFeatureId":"1R76K93I/TOPMAR/410928243","provenance":{"cellId":"1R76K93I","checksum":"9c8e58b6ac9baa6bd3b3a39752c69a0bd91c56af48932aaa3abf07c3708d23e2","readerVersion":"GDAL 3.2.2","processedAt":"2026-08-11T13:43:44.753Z"},"associationRefsVerifiedInGdalOutput":false}},{"type":"Feature","geometry":{"type":"Point","coordinates":[3.97915,51.7622317]},"properties":{"dolphinKind":"topmark","rawObjectClass":"TOPMAR","sourceProperties":{"RCID":1182665862,"PRIM":1,"GRUP":2,"OBJL":144,"RVER":1,"AGEN":7979,"FIDN":1182665862,"FIDS":1,"LNAM":"1F2B467E0C860001","COLOUR":["3"],"TOPSHP":5,"SCAMIN":200000,"sourceCellId":"1R76K93I","sourceChecksum":"9c8e58b6ac9baa6bd3b3a39752c69a0bd91c56af48932aaa3abf07c3708d23e2","rawObjectClass":"TOPMAR","sourceStableId":"1F2B467E0C860001"},"sourceKind":"official","official":true,"sourceCellId":"1R76K93I","sourceStableId":"1F2B467E0C860001","pipelineFeatureId":"1R76K93I/TOPMAR/1182665862","provenance":{"cellId":"1R76K93I","checksum":"9c8e58b6ac9baa6bd3b3a39752c69a0bd91c56af48932aaa3abf07c3708d23e2","readerVersion":"GDAL 3.2.2","processedAt":"2026-08-11T13:43:44.753Z"},"associationRefsVerifiedInGdalOutput":false}}]}