{"type":"FeatureCollection","features":[{"type":"Feature","geometry":{"type":"Point","coordinates":[3.8338333,51.3072666]},"properties":{"dolphinKind":"light","rawObjectClass":"LIGHTS","sourceProperties":{"RCID":16634,"PRIM":1,"GRUP":2,"OBJL":75,"RVER":1,"AGEN":7979,"FIDN":1106834597,"FIDS":265,"LNAM":"1F2B41F8F4A50109","COLOUR":["1","3","4"],"HEIGHT":27,"LITCHR":29,"SIGGRP":"(1)","SIGPER":1,"INFORM":"Licht geeft leiding bij aanlopen van sluis","SCAMIN":200000,"SORDAT":"20030923","SORIND":"NL,North Sea Port","sourceCellId":"1R7687LI","sourceChecksum":"15df29d0ae5fbc875483ea2addc2d4e6c9148a876bdf65f0adfc75742fe31c47","rawObjectClass":"LIGHTS","sourceStableId":"1F2B41F8F4A50109"},"sourceKind":"official","official":true,"sourceCellId":"1R7687LI","sourceStableId":"1F2B41F8F4A50109","pipelineFeatureId":"1R7687LI/LIGHTS/16634","provenance":{"cellId":"1R7687LI","checksum":"15df29d0ae5fbc875483ea2addc2d4e6c9148a876bdf65f0adfc75742fe31c47","readerVersion":"GDAL 3.2.2","processedAt":"2026-08-11T13:43:44.753Z"}}},{"type":"Feature","geometry":{"type":"Point","coordinates":[3.8410533,51.28278]},"properties":{"dolphinKind":"light","rawObjectClass":"LIGHTS","sourceProperties":{"RCID":167280970,"PRIM":1,"GRUP":2,"OBJL":75,"RVER":1,"AGEN":7979,"FIDN":167280970,"FIDS":1,"LNAM":"1F2B09F8814A0001","COLOUR":["3"],"HEIGHT":6.7,"LITCHR":7,"OBJNAM":"OL 123","SIGGRP":"(1)","SIGPER":4,"VALNMR":2.4,"SCAMIN":200000,"SORDAT":"20211215","SORIND":"NL,1R,reprt,MD 691-21","sourceCellId":"1R7687LI","sourceChecksum":"15df29d0ae5fbc875483ea2addc2d4e6c9148a876bdf65f0adfc75742fe31c47","rawObjectClass":"LIGHTS","sourceStableId":"1F2B09F8814A0001"},"sourceKind":"official","official":true,"sourceCellId":"1R7687LI","sourceStableId":"1F2B09F8814A0001","pipelineFeatureId":"1R7687LI/LIGHTS/167280970","provenance":{"cellId":"1R7687LI","checksum":"15df29d0ae5fbc875483ea2addc2d4e6c9148a876bdf65f0adfc75742fe31c47","readerVersion":"GDAL 3.2.2","processedAt":"2026-08-11T13:43:44.753Z"}}},{"type":"Feature","geometry":{"type":"Point","coordinates":[3.8385967,51.28887]},"properties":{"dolphinKind":"light","rawObjectClass":"LIGHTS","sourceProperties":{"RCID":167280971,"PRIM":1,"GRUP":2,"OBJL":75,"RVER":1,"AGEN":7979,"FIDN":167280971,"FIDS":1,"LNAM":"1F2B09F8814B0001","COLOUR":["3"],"HEIGHT":6.7,"LITCHR":7,"OBJNAM":"OL 131","SIGGRP":"(1)","SIGPER":4,"VALNMR":3,"SCAMIN":200000,"SORDAT":"20190412","SORIND":"NL,1R,reprt,MD 156-19","sourceCellId":"1R7687LI","sourceChecksum":"15df29d0ae5fbc875483ea2addc2d4e6c9148a876bdf65f0adfc75742fe31c47","rawObjectClass":"LIGHTS","sourceStableId":"1F2B09F8814B0001"},"sourceKind":"official","official":true,"sourceCellId":"1R7687LI","sourceStableId":"1F2B09F8814B0001","pipelineFeatureId":"1R7687LI/LIGHTS/167280971","provenance":{"cellId":"1R7687LI","checksum":"15df29d0ae5fbc875483ea2addc2d4e6c9148a876bdf65f0adfc75742fe31c47","readerVersion":"GDAL 3.2.2","processedAt":"2026-08-11T13:43:44.753Z"}}},{"type":"Feature","geometry":{"type":"Point","coordinates":[3.8349591,51.2990886]},"properties":{"dolphinKind":"light","rawObjectClass":"LIGHTS","sourceProperties":{"RCID":167280973,"PRIM":1,"GRUP":2,"OBJL":75,"RVER":1,"AGEN":7979,"FIDN":167280973,"FIDS":1,"LNAM":"1F2B09F8814D0001","COLOUR":["3"],"HEIGHT":6.7,"LITCHR":7,"OBJNAM":"OL 153","SIGGRP":"(1)","SIGPER":4,"VALNMR":2.4,"SCAMIN":200000,"SORDAT":"20211215","SORIND":"NL,1R,reprt,MD 691-21","sourceCellId":"1R7687LI","sourceChecksum":"15df29d0ae5fbc875483ea2addc2d4e6c9148a876bdf65f0adfc75742fe31c47","rawObjectClass":"LIGHTS","sourceStableId":"1F2B09F8814D0001"},"sourceKind":"official","official":true,"sourceCellId":"1R7687LI","sourceStableId":"1F2B09F8814D0001","pipelineFeatureId":"1R7687LI/LIGHTS/167280973","provenance":{"cellId":"1R7687LI","checksum":"15df29d0ae5fbc875483ea2addc2d4e6c9148a876bdf65f0adfc75742fe31c47","readerVersion":"GDAL 3.2.2","processedAt":"2026-08-11T13:43:44.753Z"}}},{"type":"Feature","geometry":{"type":"Point","coordinates":[3.833067,51.3045399]},"properties":{"dolphinKind":"light","rawObjectClass":"LIGHTS","sourceProperties":{"RCID":167280975,"PRIM":1,"GRUP":2,"OBJL":75,"RVER":1,"AGEN":7979,"FIDN":167280975,"FIDS":1,"LNAM":"1F2B09F8814F0001","COLOUR":["3"],"HEIGHT":6.7,"LITCHR":7,"SIGGRP":"(1)","SIGPER":4,"VALNMR":3,"SCAMIN":200000,"SORDAT":"20190412","SORIND":"NL,North Sea Ports | MD 156-19","sourceCellId":"1R7687LI","sourceChecksum":"15df29d0ae5fbc875483ea2addc2d4e6c9148a876bdf65f0adfc75742fe31c47","rawObjectClass":"LIGHTS","sourceStableId":"1F2B09F8814F0001"},"sourceKind":"official","official":true,"sourceCellId":"1R7687LI","sourceStableId":"1F2B09F8814F0001","pipelineFeatureId":"1R7687LI/LIGHTS/167280975","provenance":{"cellId":"1R7687LI","checksum":"15df29d0ae5fbc875483ea2addc2d4e6c9148a876bdf65f0adfc75742fe31c47","readerVersion":"GDAL 3.2.2","processedAt":"2026-08-11T13:43:44.753Z"}}},{"type":"Feature","geometry":{"type":"Point","coordinates":[3.838285,51.2823833]},"properties":{"dolphinKind":"light","rawObjectClass":"LIGHTS","sourceProperties":{"RCID":167280987,"PRIM":1,"GRUP":2,"OBJL":75,"RVER":1,"AGEN":7979,"FIDN":167280987,"FIDS":1,"LNAM":"1F2B09F8815B0001","COLOUR":["4"],"HEIGHT":6.7,"LITCHR":7,"OBJNAM":"OL 126","SIGGRP":"(1)","SIGPER":4,"VALNMR":2.4,"SCAMIN":200000,"SORDAT":"20211215","SORIND":"NL,1R,reprt,MD 691-21","sourceCellId":"1R7687LI","sourceChecksum":"15df29d0ae5fbc875483ea2addc2d4e6c9148a876bdf65f0adfc75742fe31c47","rawObjectClass":"LIGHTS","sourceStableId":"1F2B09F8815B0001"},"sourceKind":"official","official":true,"sourceCellId":"1R7687LI","sourceStableId":"1F2B09F8815B0001","pipelineFeatureId":"1R7687LI/LIGHTS/167280987","provenance":{"cellId":"1R7687LI","checksum":"15df29d0ae5fbc875483ea2addc2d4e6c9148a876bdf65f0adfc75742fe31c47","readerVersion":"GDAL 3.2.2","processedAt":"2026-08-11T13:43:44.753Z"}}},{"type":"Feature","geometry":{"type":"Point","coordinates":[3.8361567,51.2885317]},"properties":{"dolphinKind":"light","rawObjectClass":"LIGHTS","sourceProperties":{"RCID":167280989,"PRIM":1,"GRUP":2,"OBJL":75,"RVER":1,"AGEN":7979,"FIDN":167280989,"FIDS":1,"LNAM":"1F2B09F8815D0001","COLOUR":["4"],"HEIGHT":6.7,"LITCHR":7,"OBJNAM":"OL 134","SIGGRP":"(1)","SIGPER":4,"VALNMR":3,"SCAMIN":200000,"SORDAT":"20190412","SORIND":"NL,1R,reprt,MD 156-19","sourceCellId":"1R7687LI","sourceChecksum":"15df29d0ae5fbc875483ea2addc2d4e6c9148a876bdf65f0adfc75742fe31c47","rawObjectClass":"LIGHTS","sourceStableId":"1F2B09F8815D0001"},"sourceKind":"official","official":true,"sourceCellId":"1R7687LI","sourceStableId":"1F2B09F8815D0001","pipelineFeatureId":"1R7687LI/LIGHTS/167280989","provenance":{"cellId":"1R7687LI","checksum":"15df29d0ae5fbc875483ea2addc2d4e6c9148a876bdf65f0adfc75742fe31c47","readerVersion":"GDAL 3.2.2","processedAt":"2026-08-11T13:43:44.753Z"}}},{"type":"Feature","geometry":{"type":"Point","coordinates":[3.8326217,51.2988313]},"properties":{"dolphinKind":"light","rawObjectClass":"LIGHTS","sourceProperties":{"RCID":167280991,"PRIM":1,"GRUP":2,"OBJL":75,"RVER":1,"AGEN":7979,"FIDN":167280991,"FIDS":1,"LNAM":"1F2B09F8815F0001","COLOUR":["4"],"HEIGHT":6.7,"LITCHR":7,"OBJNAM":"OL 160","SIGGRP":"(1)","SIGPER":4,"VALNMR":2.4,"SCAMIN":200000,"SORDAT":"20211215","SORIND":"NL,1R,reprt,MD 691-21","sourceCellId":"1R7687LI","sourceChecksum":"15df29d0ae5fbc875483ea2addc2d4e6c9148a876bdf65f0adfc75742fe31c47","rawObjectClass":"LIGHTS","sourceStableId":"1F2B09F8815F0001"},"sourceKind":"official","official":true,"sourceCellId":"1R7687LI","sourceStableId":"1F2B09F8815F0001","pipelineFeatureId":"1R7687LI/LIGHTS/167280991","provenance":{"cellId":"1R7687LI","checksum":"15df29d0ae5fbc875483ea2addc2d4e6c9148a876bdf65f0adfc75742fe31c47","readerVersion":"GDAL 3.2.2","processedAt":"2026-08-11T13:43:44.753Z"}}},{"type":"Feature","geometry":{"type":"Point","coordinates":[3.8307533,51.304075]},"properties":{"dolphinKind":"light","rawObjectClass":"LIGHTS","sourceProperties":{"RCID":167280993,"PRIM":1,"GRUP":2,"OBJL":75,"RVER":1,"AGEN":7979,"FIDN":167280993,"FIDS":1,"LNAM":"1F2B09F881610001","COLOUR":["4"],"HEIGHT":6.7,"LITCHR":7,"OBJNAM":"OL 168","SIGGRP":"(1)","SIGPER":4,"VALNMR":3,"SCAMIN":200000,"SORDAT":"20190412","SORIND":"NL,1R,reprt,MD 156-19","sourceCellId":"1R7687LI","sourceChecksum":"15df29d0ae5fbc875483ea2addc2d4e6c9148a876bdf65f0adfc75742fe31c47","rawObjectClass":"LIGHTS","sourceStableId":"1F2B09F881610001"},"sourceKind":"official","official":true,"sourceCellId":"1R7687LI","sourceStableId":"1F2B09F881610001","pipelineFeatureId":"1R7687LI/LIGHTS/167280993","provenance":{"cellId":"1R7687LI","checksum":"15df29d0ae5fbc875483ea2addc2d4e6c9148a876bdf65f0adfc75742fe31c47","readerVersion":"GDAL 3.2.2","processedAt":"2026-08-11T13:43:44.753Z"}}},{"type":"Feature","geometry":{"type":"Point","coordinates":[3.8381764,51.2752574]},"properties":{"dolphinKind":"light","rawObjectClass":"LIGHTS","sourceProperties":{"RCID":505779560,"PRIM":1,"GRUP":2,"OBJL":75,"RVER":1,"AGEN":7979,"FIDN":505779560,"FIDS":1,"LNAM":"1F2B1E2595680001","COLOUR":["3"],"LITCHR":7,"SIGGRP":"(1)","SCAMIN":200000,"SORDAT":"20230313","SORIND":"NL,1R,Reprt,NSP","sourceCellId":"1R7687LI","sourceChecksum":"15df29d0ae5fbc875483ea2addc2d4e6c9148a876bdf65f0adfc75742fe31c47","rawObjectClass":"LIGHTS","sourceStableId":"1F2B1E2595680001"},"sourceKind":"official","official":true,"sourceCellId":"1R7687LI","sourceStableId":"1F2B1E2595680001","pipelineFeatureId":"1R7687LI/LIGHTS/505779560","provenance":{"cellId":"1R7687LI","checksum":"15df29d0ae5fbc875483ea2addc2d4e6c9148a876bdf65f0adfc75742fe31c47","readerVersion":"GDAL 3.2.2","processedAt":"2026-08-11T13:43:44.753Z"}}},{"type":"Feature","geometry":{"type":"Point","coordinates":[3.8374944,51.2755052]},"properties":{"dolphinKind":"light","rawObjectClass":"LIGHTS","sourceProperties":{"RCID":505779561,"PRIM":1,"GRUP":2,"OBJL":75,"RVER":1,"AGEN":7979,"FIDN":505779561,"FIDS":1,"LNAM":"1F2B1E2595690001","COLOUR":["4"],"LITCHR":7,"SIGGRP":"(1)","SCAMIN":200000,"SORDAT":"20230313","SORIND":"NL,1R,Reprt,NSP","sourceCellId":"1R7687LI","sourceChecksum":"15df29d0ae5fbc875483ea2addc2d4e6c9148a876bdf65f0adfc75742fe31c47","rawObjectClass":"LIGHTS","sourceStableId":"1F2B1E2595690001"},"sourceKind":"official","official":true,"sourceCellId":"1R7687LI","sourceStableId":"1F2B1E2595690001","pipelineFeatureId":"1R7687LI/LIGHTS/505779561","provenance":{"cellId":"1R7687LI","checksum":"15df29d0ae5fbc875483ea2addc2d4e6c9148a876bdf65f0adfc75742fe31c47","readerVersion":"GDAL 3.2.2","processedAt":"2026-08-11T13:43:44.753Z"}}},{"type":"Feature","geometry":{"type":"Point","coordinates":[3.8426735,51.2777383]},"properties":{"dolphinKind":"light","rawObjectClass":"LIGHTS","sourceProperties":{"RCID":505779566,"PRIM":1,"GRUP":2,"OBJL":75,"RVER":1,"AGEN":7979,"FIDN":505779566,"FIDS":1,"LNAM":"1F2B1E25956E0001","COLOUR":["3"],"LITCHR":7,"SIGGRP":"(1)","SCAMIN":200000,"SORDAT":"20230313","SORIND":"NL,1R,Reprt,NSP","sourceCellId":"1R7687LI","sourceChecksum":"15df29d0ae5fbc875483ea2addc2d4e6c9148a876bdf65f0adfc75742fe31c47","rawObjectClass":"LIGHTS","sourceStableId":"1F2B1E25956E0001"},"sourceKind":"official","official":true,"sourceCellId":"1R7687LI","sourceStableId":"1F2B1E25956E0001","pipelineFeatureId":"1R7687LI/LIGHTS/505779566","provenance":{"cellId":"1R7687LI","checksum":"15df29d0ae5fbc875483ea2addc2d4e6c9148a876bdf65f0adfc75742fe31c47","readerVersion":"GDAL 3.2.2","processedAt":"2026-08-11T13:43:44.753Z"}}},{"type":"Feature","geometry":{"type":"Point","coordinates":[3.833356,51.3048898]},"properties":{"dolphinKind":"light","rawObjectClass":"LIGHTS","sourceProperties":{"RCID":506011521,"PRIM":1,"GRUP":2,"OBJL":75,"RVER":1,"AGEN":7979,"FIDN":506011521,"FIDS":1,"LNAM":"1F2B1E291F810001","COLOUR":["4"],"LITCHR":7,"SIGGRP":"(1)","SCAMIN":200000,"SORDAT":"20230314","SORIND":"NL,1R,Reprt,NSP","sourceCellId":"1R7687LI","sourceChecksum":"15df29d0ae5fbc875483ea2addc2d4e6c9148a876bdf65f0adfc75742fe31c47","rawObjectClass":"LIGHTS","sourceStableId":"1F2B1E291F810001"},"sourceKind":"official","official":true,"sourceCellId":"1R7687LI","sourceStableId":"1F2B1E291F810001","pipelineFeatureId":"1R7687LI/LIGHTS/506011521","provenance":{"cellId":"1R7687LI","checksum":"15df29d0ae5fbc875483ea2addc2d4e6c9148a876bdf65f0adfc75742fe31c47","readerVersion":"GDAL 3.2.2","processedAt":"2026-08-11T13:43:44.753Z"}}},{"type":"Feature","geometry":{"type":"Point","coordinates":[3.832997,51.3050038]},"properties":{"dolphinKind":"light","rawObjectClass":"LIGHTS","sourceProperties":{"RCID":506011522,"PRIM":1,"GRUP":2,"OBJL":75,"RVER":1,"AGEN":7979,"FIDN":506011522,"FIDS":1,"LNAM":"1F2B1E291F820001","COLOUR":["6"],"LITCHR":1,"SCAMIN":200000,"SORDAT":"20240110","SORIND":"NL,1R,Reprt,ENC-verbetering","sourceCellId":"1R7687LI","sourceChecksum":"15df29d0ae5fbc875483ea2addc2d4e6c9148a876bdf65f0adfc75742fe31c47","rawObjectClass":"LIGHTS","sourceStableId":"1F2B1E291F820001"},"sourceKind":"official","official":true,"sourceCellId":"1R7687LI","sourceStableId":"1F2B1E291F820001","pipelineFeatureId":"1R7687LI/LIGHTS/506011522","provenance":{"cellId":"1R7687LI","checksum":"15df29d0ae5fbc875483ea2addc2d4e6c9148a876bdf65f0adfc75742fe31c47","readerVersion":"GDAL 3.2.2","processedAt":"2026-08-11T13:43:44.753Z"}}},{"type":"Feature","geometry":{"type":"Point","coordinates":[3.8320025,51.3075709]},"properties":{"dolphinKind":"light","rawObjectClass":"LIGHTS","sourceProperties":{"RCID":506011523,"PRIM":1,"GRUP":2,"OBJL":75,"RVER":1,"AGEN":7979,"FIDN":506011523,"FIDS":1,"LNAM":"1F2B1E291F830001","COLOUR":["6"],"LITCHR":1,"SCAMIN":200000,"SORDAT":"20230314","SORIND":"NL,1R,Reprt,NSP","sourceCellId":"1R7687LI","sourceChecksum":"15df29d0ae5fbc875483ea2addc2d4e6c9148a876bdf65f0adfc75742fe31c47","rawObjectClass":"LIGHTS","sourceStableId":"1F2B1E291F830001"},"sourceKind":"official","official":true,"sourceCellId":"1R7687LI","sourceStableId":"1F2B1E291F830001","pipelineFeatureId":"1R7687LI/LIGHTS/506011523","provenance":{"cellId":"1R7687LI","checksum":"15df29d0ae5fbc875483ea2addc2d4e6c9148a876bdf65f0adfc75742fe31c47","readerVersion":"GDAL 3.2.2","processedAt":"2026-08-11T13:43:44.753Z"}}},{"type":"Feature","geometry":{"type":"Point","coordinates":[3.8323065,51.3073239]},"properties":{"dolphinKind":"light","rawObjectClass":"LIGHTS","sourceProperties":{"RCID":506011624,"PRIM":1,"GRUP":2,"OBJL":75,"RVER":1,"AGEN":7979,"FIDN":506011624,"FIDS":1,"LNAM":"1F2B1E291FE80001","COLOUR":["3"],"LITCHR":7,"SIGGRP":"(1)","SCAMIN":200000,"SORDAT":"20230314","SORIND":"NL,1R,Reprt,NSP","sourceCellId":"1R7687LI","sourceChecksum":"15df29d0ae5fbc875483ea2addc2d4e6c9148a876bdf65f0adfc75742fe31c47","rawObjectClass":"LIGHTS","sourceStableId":"1F2B1E291FE80001"},"sourceKind":"official","official":true,"sourceCellId":"1R7687LI","sourceStableId":"1F2B1E291FE80001","pipelineFeatureId":"1R7687LI/LIGHTS/506011624","provenance":{"cellId":"1R7687LI","checksum":"15df29d0ae5fbc875483ea2addc2d4e6c9148a876bdf65f0adfc75742fe31c47","readerVersion":"GDAL 3.2.2","processedAt":"2026-08-11T13:43:44.753Z"}}},{"type":"Feature","geometry":{"type":"Point","coordinates":[3.8317101,51.3097625]},"properties":{"dolphinKind":"light","rawObjectClass":"LIGHTS","sourceProperties":{"RCID":506011626,"PRIM":1,"GRUP":2,"OBJL":75,"RVER":1,"AGEN":7979,"FIDN":506011626,"FIDS":1,"LNAM":"1F2B1E291FEA0001","COLOUR":["3"],"LITCHR":7,"SIGGRP":"(1)","SCAMIN":200000,"SORDAT":"20230314","SORIND":"NL,1R,Reprt,NSP","sourceCellId":"1R7687LI","sourceChecksum":"15df29d0ae5fbc875483ea2addc2d4e6c9148a876bdf65f0adfc75742fe31c47","rawObjectClass":"LIGHTS","sourceStableId":"1F2B1E291FEA0001"},"sourceKind":"official","official":true,"sourceCellId":"1R7687LI","sourceStableId":"1F2B1E291FEA0001","pipelineFeatureId":"1R7687LI/LIGHTS/506011626","provenance":{"cellId":"1R7687LI","checksum":"15df29d0ae5fbc875483ea2addc2d4e6c9148a876bdf65f0adfc75742fe31c47","readerVersion":"GDAL 3.2.2","processedAt":"2026-08-11T13:43:44.753Z"}}},{"type":"Feature","geometry":{"type":"Point","coordinates":[3.8290019,51.3168094]},"properties":{"dolphinKind":"light","rawObjectClass":"LIGHTS","sourceProperties":{"RCID":506025279,"PRIM":1,"GRUP":2,"OBJL":75,"RVER":1,"AGEN":7979,"FIDN":506025279,"FIDS":1,"LNAM":"1F2B1E29553F0001","COLOUR":["4"],"LITCHR":7,"SIGGRP":"(1)","SCAMIN":200000,"SORDAT":"20230314","SORIND":"NL,1R,Reprt,NSP","sourceCellId":"1R7687LI","sourceChecksum":"15df29d0ae5fbc875483ea2addc2d4e6c9148a876bdf65f0adfc75742fe31c47","rawObjectClass":"LIGHTS","sourceStableId":"1F2B1E29553F0001"},"sourceKind":"official","official":true,"sourceCellId":"1R7687LI","sourceStableId":"1F2B1E29553F0001","pipelineFeatureId":"1R7687LI/LIGHTS/506025279","provenance":{"cellId":"1R7687LI","checksum":"15df29d0ae5fbc875483ea2addc2d4e6c9148a876bdf65f0adfc75742fe31c47","readerVersion":"GDAL 3.2.2","processedAt":"2026-08-11T13:43:44.753Z"}}},{"type":"Feature","geometry":{"type":"Point","coordinates":[3.8288791,51.3168862]},"properties":{"dolphinKind":"light","rawObjectClass":"LIGHTS","sourceProperties":{"RCID":506025330,"PRIM":1,"GRUP":2,"OBJL":75,"RVER":1,"AGEN":7979,"FIDN":506025330,"FIDS":1,"LNAM":"1F2B1E2955720001","COLOUR":["6"],"LITCHR":1,"SCAMIN":200000,"SORDAT":"20230314","SORIND":"NL,1R,Reprt,NSP","sourceCellId":"1R7687LI","sourceChecksum":"15df29d0ae5fbc875483ea2addc2d4e6c9148a876bdf65f0adfc75742fe31c47","rawObjectClass":"LIGHTS","sourceStableId":"1F2B1E2955720001"},"sourceKind":"official","official":true,"sourceCellId":"1R7687LI","sourceStableId":"1F2B1E2955720001","pipelineFeatureId":"1R7687LI/LIGHTS/506025330","provenance":{"cellId":"1R7687LI","checksum":"15df29d0ae5fbc875483ea2addc2d4e6c9148a876bdf65f0adfc75742fe31c47","readerVersion":"GDAL 3.2.2","processedAt":"2026-08-11T13:43:44.753Z"}}},{"type":"Feature","geometry":{"type":"Point","coordinates":[3.8283979,51.3179751]},"properties":{"dolphinKind":"light","rawObjectClass":"LIGHTS","sourceProperties":{"RCID":506036131,"PRIM":1,"GRUP":2,"OBJL":75,"RVER":1,"AGEN":7979,"FIDN":506036131,"FIDS":1,"LNAM":"1F2B1E297FA30001","COLOUR":["6"],"LITCHR":1,"SCAMIN":200000,"SORDAT":"20240110","SORIND":"NL,1R,Reprt,ENC-verbetering","sourceCellId":"1R7687LI","sourceChecksum":"15df29d0ae5fbc875483ea2addc2d4e6c9148a876bdf65f0adfc75742fe31c47","rawObjectClass":"LIGHTS","sourceStableId":"1F2B1E297FA30001"},"sourceKind":"official","official":true,"sourceCellId":"1R7687LI","sourceStableId":"1F2B1E297FA30001","pipelineFeatureId":"1R7687LI/LIGHTS/506036131","provenance":{"cellId":"1R7687LI","checksum":"15df29d0ae5fbc875483ea2addc2d4e6c9148a876bdf65f0adfc75742fe31c47","readerVersion":"GDAL 3.2.2","processedAt":"2026-08-11T13:43:44.753Z"}}},{"type":"Feature","geometry":{"type":"Point","coordinates":[3.828435,51.3179947]},"properties":{"dolphinKind":"light","rawObjectClass":"LIGHTS","sourceProperties":{"RCID":506036132,"PRIM":1,"GRUP":2,"OBJL":75,"RVER":1,"AGEN":7979,"FIDN":506036132,"FIDS":1,"LNAM":"1F2B1E297FA40001","COLOUR":["3"],"LITCHR":7,"SIGGRP":"(1)","SCAMIN":200000,"SORDAT":"20230314","SORIND":"NL,1R,Reprt,NSP","sourceCellId":"1R7687LI","sourceChecksum":"15df29d0ae5fbc875483ea2addc2d4e6c9148a876bdf65f0adfc75742fe31c47","rawObjectClass":"LIGHTS","sourceStableId":"1F2B1E297FA40001"},"sourceKind":"official","official":true,"sourceCellId":"1R7687LI","sourceStableId":"1F2B1E297FA40001","pipelineFeatureId":"1R7687LI/LIGHTS/506036132","provenance":{"cellId":"1R7687LI","checksum":"15df29d0ae5fbc875483ea2addc2d4e6c9148a876bdf65f0adfc75742fe31c47","readerVersion":"GDAL 3.2.2","processedAt":"2026-08-11T13:43:44.753Z"}}},{"type":"Feature","geometry":{"type":"Point","coordinates":[3.8280681,51.319266]},"properties":{"dolphinKind":"light","rawObjectClass":"LIGHTS","sourceProperties":{"RCID":506036134,"PRIM":1,"GRUP":2,"OBJL":75,"RVER":1,"AGEN":7979,"FIDN":506036134,"FIDS":1,"LNAM":"1F2B1E297FA60001","COLOUR":["4"],"LITCHR":7,"SIGGRP":"(1)","SCAMIN":200000,"SORDAT":"20230314","SORIND":"NL,1R,Reprt,NSP","sourceCellId":"1R7687LI","sourceChecksum":"15df29d0ae5fbc875483ea2addc2d4e6c9148a876bdf65f0adfc75742fe31c47","rawObjectClass":"LIGHTS","sourceStableId":"1F2B1E297FA60001"},"sourceKind":"official","official":true,"sourceCellId":"1R7687LI","sourceStableId":"1F2B1E297FA60001","pipelineFeatureId":"1R7687LI/LIGHTS/506036134","provenance":{"cellId":"1R7687LI","checksum":"15df29d0ae5fbc875483ea2addc2d4e6c9148a876bdf65f0adfc75742fe31c47","readerVersion":"GDAL 3.2.2","processedAt":"2026-08-11T13:43:44.753Z"}}},{"type":"Feature","geometry":{"type":"Point","coordinates":[3.8279938,51.3193624]},"properties":{"dolphinKind":"light","rawObjectClass":"LIGHTS","sourceProperties":{"RCID":506036136,"PRIM":1,"GRUP":2,"OBJL":75,"RVER":1,"AGEN":7979,"FIDN":506036136,"FIDS":1,"LNAM":"1F2B1E297FA80001","COLOUR":["6"],"LITCHR":1,"SCAMIN":200000,"SORDAT":"20230314","SORIND":"NL,1R,Reprt,NSP","sourceCellId":"1R7687LI","sourceChecksum":"15df29d0ae5fbc875483ea2addc2d4e6c9148a876bdf65f0adfc75742fe31c47","rawObjectClass":"LIGHTS","sourceStableId":"1F2B1E297FA80001"},"sourceKind":"official","official":true,"sourceCellId":"1R7687LI","sourceStableId":"1F2B1E297FA80001","pipelineFeatureId":"1R7687LI/LIGHTS/506036136","provenance":{"cellId":"1R7687LI","checksum":"15df29d0ae5fbc875483ea2addc2d4e6c9148a876bdf65f0adfc75742fe31c47","readerVersion":"GDAL 3.2.2","processedAt":"2026-08-11T13:43:44.753Z"}}},{"type":"Feature","geometry":{"type":"Point","coordinates":[3.8274497,51.320324]},"properties":{"dolphinKind":"light","rawObjectClass":"LIGHTS","sourceProperties":{"RCID":506036137,"PRIM":1,"GRUP":2,"OBJL":75,"RVER":1,"AGEN":7979,"FIDN":506036137,"FIDS":1,"LNAM":"1F2B1E297FA90001","COLOUR":["6"],"LITCHR":1,"SCAMIN":200000,"SORDAT":"20230314","SORIND":"NL,1R,Reprt,NSP","sourceCellId":"1R7687LI","sourceChecksum":"15df29d0ae5fbc875483ea2addc2d4e6c9148a876bdf65f0adfc75742fe31c47","rawObjectClass":"LIGHTS","sourceStableId":"1F2B1E297FA90001"},"sourceKind":"official","official":true,"sourceCellId":"1R7687LI","sourceStableId":"1F2B1E297FA90001","pipelineFeatureId":"1R7687LI/LIGHTS/506036137","provenance":{"cellId":"1R7687LI","checksum":"15df29d0ae5fbc875483ea2addc2d4e6c9148a876bdf65f0adfc75742fe31c47","readerVersion":"GDAL 3.2.2","processedAt":"2026-08-11T13:43:44.753Z"}}},{"type":"Feature","geometry":{"type":"Point","coordinates":[3.8277168,51.3202271]},"properties":{"dolphinKind":"light","rawObjectClass":"LIGHTS","sourceProperties":{"RCID":506036138,"PRIM":1,"GRUP":2,"OBJL":75,"RVER":1,"AGEN":7979,"FIDN":506036138,"FIDS":1,"LNAM":"1F2B1E297FAA0001","COLOUR":["3"],"LITCHR":7,"SIGGRP":"(1)","SCAMIN":200000,"SORDAT":"20230314","SORIND":"NL,1R,Reprt,NSP","sourceCellId":"1R7687LI","sourceChecksum":"15df29d0ae5fbc875483ea2addc2d4e6c9148a876bdf65f0adfc75742fe31c47","rawObjectClass":"LIGHTS","sourceStableId":"1F2B1E297FAA0001"},"sourceKind":"official","official":true,"sourceCellId":"1R7687LI","sourceStableId":"1F2B1E297FAA0001","pipelineFeatureId":"1R7687LI/LIGHTS/506036138","provenance":{"cellId":"1R7687LI","checksum":"15df29d0ae5fbc875483ea2addc2d4e6c9148a876bdf65f0adfc75742fe31c47","readerVersion":"GDAL 3.2.2","processedAt":"2026-08-11T13:43:44.753Z"}}},{"type":"Feature","geometry":{"type":"Point","coordinates":[3.82519,51.3227117]},"properties":{"dolphinKind":"light","rawObjectClass":"LIGHTS","sourceProperties":{"RCID":1166665952,"PRIM":1,"GRUP":2,"OBJL":75,"RVER":1,"AGEN":7979,"FIDN":1166665952,"FIDS":1,"LNAM":"1F2B4589E8E00001","COLOUR":["4"],"LITCHR":7,"SIGGRP":"(1)","SIGPER":2,"SCAMIN":200000,"SORDAT":"20240903","SORIND":"NL,1R,NMA","sourceCellId":"1R7687LI","sourceChecksum":"15df29d0ae5fbc875483ea2addc2d4e6c9148a876bdf65f0adfc75742fe31c47","rawObjectClass":"LIGHTS","sourceStableId":"1F2B4589E8E00001"},"sourceKind":"official","official":true,"sourceCellId":"1R7687LI","sourceStableId":"1F2B4589E8E00001","pipelineFeatureId":"1R7687LI/LIGHTS/1166665952","provenance":{"cellId":"1R7687LI","checksum":"15df29d0ae5fbc875483ea2addc2d4e6c9148a876bdf65f0adfc75742fe31c47","readerVersion":"GDAL 3.2.2","processedAt":"2026-08-11T13:43:44.753Z"}}},{"type":"Feature","geometry":{"type":"Point","coordinates":[3.8246417,51.3229817]},"properties":{"dolphinKind":"light","rawObjectClass":"LIGHTS","sourceProperties":{"RCID":1241374600,"PRIM":1,"GRUP":2,"OBJL":75,"RVER":1,"AGEN":7979,"FIDN":1241374600,"FIDS":1,"LNAM":"1F2B49FDDF880001","COLOUR":["6"],"HEIGHT":4,"LITCHR":2,"SIGPER":5,"VALNMR":2,"SCAMIN":200000,"SORDAT":"20260625","SORIND":"NL,1R,reprt,MD 307-26","sourceCellId":"1R7687LI","sourceChecksum":"15df29d0ae5fbc875483ea2addc2d4e6c9148a876bdf65f0adfc75742fe31c47","rawObjectClass":"LIGHTS","sourceStableId":"1F2B49FDDF880001"},"sourceKind":"official","official":true,"sourceCellId":"1R7687LI","sourceStableId":"1F2B49FDDF880001","pipelineFeatureId":"1R7687LI/LIGHTS/1241374600","provenance":{"cellId":"1R7687LI","checksum":"15df29d0ae5fbc875483ea2addc2d4e6c9148a876bdf65f0adfc75742fe31c47","readerVersion":"GDAL 3.2.2","processedAt":"2026-08-11T13:43:44.753Z"}}},{"type":"Feature","geometry":{"type":"Point","coordinates":[3.8221917,51.320395]},"properties":{"dolphinKind":"light","rawObjectClass":"LIGHTS","sourceProperties":{"RCID":1280023428,"PRIM":1,"GRUP":2,"OBJL":75,"RVER":1,"AGEN":7979,"FIDN":1280023428,"FIDS":1,"LNAM":"1F2B4C4B9B840001","COLOUR":["6"],"HEIGHT":4,"LITCHR":2,"SIGPER":5,"VALNMR":2,"SCAMIN":200000,"SORDAT":"20260625","SORIND":"NL,1R,reprt,MD 307-26","sourceCellId":"1R7687LI","sourceChecksum":"15df29d0ae5fbc875483ea2addc2d4e6c9148a876bdf65f0adfc75742fe31c47","rawObjectClass":"LIGHTS","sourceStableId":"1F2B4C4B9B840001"},"sourceKind":"official","official":true,"sourceCellId":"1R7687LI","sourceStableId":"1F2B4C4B9B840001","pipelineFeatureId":"1R7687LI/LIGHTS/1280023428","provenance":{"cellId":"1R7687LI","checksum":"15df29d0ae5fbc875483ea2addc2d4e6c9148a876bdf65f0adfc75742fe31c47","readerVersion":"GDAL 3.2.2","processedAt":"2026-08-11T13:43:44.753Z"}}},{"type":"Feature","geometry":{"type":"Point","coordinates":[3.8199117,51.323295]},"properties":{"dolphinKind":"light","rawObjectClass":"LIGHTS","sourceProperties":{"RCID":1280026279,"PRIM":1,"GRUP":2,"OBJL":75,"RVER":1,"AGEN":7979,"FIDN":1280026279,"FIDS":1,"LNAM":"1F2B4C4BA6A70001","COLOUR":["6"],"HEIGHT":4,"LITCHR":2,"SIGPER":5,"VALNMR":2,"SCAMIN":200000,"SORDAT":"20260625","SORIND":"NL,1R,reprt,MD 307-26","sourceCellId":"1R7687LI","sourceChecksum":"15df29d0ae5fbc875483ea2addc2d4e6c9148a876bdf65f0adfc75742fe31c47","rawObjectClass":"LIGHTS","sourceStableId":"1F2B4C4BA6A70001"},"sourceKind":"official","official":true,"sourceCellId":"1R7687LI","sourceStableId":"1F2B4C4BA6A70001","pipelineFeatureId":"1R7687LI/LIGHTS/1280026279","provenance":{"cellId":"1R7687LI","checksum":"15df29d0ae5fbc875483ea2addc2d4e6c9148a876bdf65f0adfc75742fe31c47","readerVersion":"GDAL 3.2.2","processedAt":"2026-08-11T13:43:44.753Z"}}},{"type":"Feature","geometry":{"type":"Point","coordinates":[3.82519,51.3227117]},"properties":{"dolphinKind":"topmark","rawObjectClass":"TOPMAR","sourceProperties":{"RCID":1166666053,"PRIM":1,"GRUP":2,"OBJL":144,"RVER":1,"AGEN":7979,"FIDN":1166666053,"FIDS":1,"LNAM":"1F2B4589E9450001","COLOUR":["4"],"TOPSHP":1,"SCAMIN":200000,"SORDAT":"20231115","SORIND":"NL,1R,reprt,MD 568-23","sourceCellId":"1R7687LI","sourceChecksum":"15df29d0ae5fbc875483ea2addc2d4e6c9148a876bdf65f0adfc75742fe31c47","rawObjectClass":"TOPMAR","sourceStableId":"1F2B4589E9450001"},"sourceKind":"official","official":true,"sourceCellId":"1R7687LI","sourceStableId":"1F2B4589E9450001","pipelineFeatureId":"1R7687LI/TOPMAR/1166666053","provenance":{"cellId":"1R7687LI","checksum":"15df29d0ae5fbc875483ea2addc2d4e6c9148a876bdf65f0adfc75742fe31c47","readerVersion":"GDAL 3.2.2","processedAt":"2026-08-11T13:43:44.753Z"},"associationRefsVerifiedInGdalOutput":false}}]}