{"type":"FeatureCollection","features":[{"type":"Feature","geometry":{"type":"Point","coordinates":[4.22845,51.36155]},"properties":{"dolphinKind":"buoy-lateral","rawObjectClass":"BOYLAT","sourceProperties":{"RCID":14117,"PRIM":1,"GRUP":2,"OBJL":17,"RVER":1,"AGEN":7979,"FIDN":1106210692,"FIDS":374,"LNAM":"1F2B41EF6F840176","LNAM_REFS":["1F2B41EF6F84010E","1F2B41EF6F84010F"],"FFPT_RIND":[2,2],"BOYSHP":2,"CATLAM":1,"COLOUR":["3"],"OBJNAM":"78","SCAMIN":200000,"SORDAT":"20101214","SORIND":"NL,1R,Reprt,BASS106/10","sourceCellId":"1R76W7RI","sourceChecksum":"e64ad2ad1ef547ddceb06ca25383b5fc643e06ebdeb1c81f128752767d2c6761","rawObjectClass":"BOYLAT","sourceStableId":"1F2B41EF6F840176"},"sourceKind":"official","official":true,"sourceCellId":"1R76W7RI","sourceStableId":"1F2B41EF6F840176","pipelineFeatureId":"1R76W7RI/BOYLAT/14117","provenance":{"cellId":"1R76W7RI","checksum":"e64ad2ad1ef547ddceb06ca25383b5fc643e06ebdeb1c81f128752767d2c6761","readerVersion":"GDAL 3.2.2","processedAt":"2026-08-11T18:29:20.995Z"}}},{"type":"Feature","geometry":{"type":"Point","coordinates":[4.2237167,51.3664]},"properties":{"dolphinKind":"buoy-lateral","rawObjectClass":"BOYLAT","sourceProperties":{"RCID":14119,"PRIM":1,"GRUP":2,"OBJL":17,"RVER":1,"AGEN":7979,"FIDN":1106210692,"FIDS":376,"LNAM":"1F2B41EF6F840178","LNAM_REFS":["1F2B41EF6F840112","1F2B41EF6F840113"],"FFPT_RIND":[2,2],"BOYSHP":2,"CATLAM":1,"COLOUR":["3"],"OBJNAM":"76","SCAMIN":200000,"SORDAT":"20101214","SORIND":"NL,1R,Reprt,BASS106/10","sourceCellId":"1R76W7RI","sourceChecksum":"e64ad2ad1ef547ddceb06ca25383b5fc643e06ebdeb1c81f128752767d2c6761","rawObjectClass":"BOYLAT","sourceStableId":"1F2B41EF6F840178"},"sourceKind":"official","official":true,"sourceCellId":"1R76W7RI","sourceStableId":"1F2B41EF6F840178","pipelineFeatureId":"1R76W7RI/BOYLAT/14119","provenance":{"cellId":"1R76W7RI","checksum":"e64ad2ad1ef547ddceb06ca25383b5fc643e06ebdeb1c81f128752767d2c6761","readerVersion":"GDAL 3.2.2","processedAt":"2026-08-11T18:29:20.995Z"}}},{"type":"Feature","geometry":{"type":"Point","coordinates":[4.1357666,51.3703667]},"properties":{"dolphinKind":"buoy-lateral","rawObjectClass":"BOYLAT","sourceProperties":{"RCID":17280,"PRIM":1,"GRUP":2,"OBJL":17,"RVER":1,"AGEN":7979,"FIDN":1106834683,"FIDS":341,"LNAM":"1F2B41F8F4FB0155","LNAM_REFS":["1F2B41F8F4FB0156"],"FFPT_RIND":[2],"BOYSHP":1,"CATLAM":2,"COLOUR":["4"],"CONRAD":3,"OBJNAM":"65A","SCAMIN":200000,"SORDAT":"20030930","sourceCellId":"1R76W7RI","sourceChecksum":"e64ad2ad1ef547ddceb06ca25383b5fc643e06ebdeb1c81f128752767d2c6761","rawObjectClass":"BOYLAT","sourceStableId":"1F2B41F8F4FB0155"},"sourceKind":"official","official":true,"sourceCellId":"1R76W7RI","sourceStableId":"1F2B41F8F4FB0155","pipelineFeatureId":"1R76W7RI/BOYLAT/17280","provenance":{"cellId":"1R76W7RI","checksum":"e64ad2ad1ef547ddceb06ca25383b5fc643e06ebdeb1c81f128752767d2c6761","readerVersion":"GDAL 3.2.2","processedAt":"2026-08-11T18:29:20.995Z"}}},{"type":"Feature","geometry":{"type":"Point","coordinates":[4.1437333,51.3719334]},"properties":{"dolphinKind":"buoy-lateral","rawObjectClass":"BOYLAT","sourceProperties":{"RCID":17282,"PRIM":1,"GRUP":2,"OBJL":17,"RVER":1,"AGEN":7979,"FIDN":1106834683,"FIDS":343,"LNAM":"1F2B41F8F4FB0157","LNAM_REFS":["1F2B41F8F4FB0158"],"FFPT_RIND":[2],"BOYSHP":1,"CATLAM":2,"COLOUR":["4"],"CONRAD":3,"OBJNAM":"67","SCAMIN":200000,"SORDAT":"20030930","sourceCellId":"1R76W7RI","sourceChecksum":"e64ad2ad1ef547ddceb06ca25383b5fc643e06ebdeb1c81f128752767d2c6761","rawObjectClass":"BOYLAT","sourceStableId":"1F2B41F8F4FB0157"},"sourceKind":"official","official":true,"sourceCellId":"1R76W7RI","sourceStableId":"1F2B41F8F4FB0157","pipelineFeatureId":"1R76W7RI/BOYLAT/17282","provenance":{"cellId":"1R76W7RI","checksum":"e64ad2ad1ef547ddceb06ca25383b5fc643e06ebdeb1c81f128752767d2c6761","readerVersion":"GDAL 3.2.2","processedAt":"2026-08-11T18:29:20.995Z"}}},{"type":"Feature","geometry":{"type":"Point","coordinates":[4.1509833,51.3740666]},"properties":{"dolphinKind":"buoy-lateral","rawObjectClass":"BOYLAT","sourceProperties":{"RCID":17284,"PRIM":1,"GRUP":2,"OBJL":17,"RVER":1,"AGEN":7979,"FIDN":1106834683,"FIDS":345,"LNAM":"1F2B41F8F4FB0159","LNAM_REFS":["1F2B41F8F4FB015A","1F2B4874B0BE0001"],"FFPT_RIND":[2,2],"BOYSHP":1,"CATLAM":2,"COLOUR":["4"],"CONRAD":3,"OBJNAM":"69","SCAMIN":200000,"SORDAT":"20030930","sourceCellId":"1R76W7RI","sourceChecksum":"e64ad2ad1ef547ddceb06ca25383b5fc643e06ebdeb1c81f128752767d2c6761","rawObjectClass":"BOYLAT","sourceStableId":"1F2B41F8F4FB0159"},"sourceKind":"official","official":true,"sourceCellId":"1R76W7RI","sourceStableId":"1F2B41F8F4FB0159","pipelineFeatureId":"1R76W7RI/BOYLAT/17284","provenance":{"cellId":"1R76W7RI","checksum":"e64ad2ad1ef547ddceb06ca25383b5fc643e06ebdeb1c81f128752767d2c6761","readerVersion":"GDAL 3.2.2","processedAt":"2026-08-11T18:29:20.995Z"}}},{"type":"Feature","geometry":{"type":"Point","coordinates":[4.2161333,51.3702333]},"properties":{"dolphinKind":"buoy-lateral","rawObjectClass":"BOYLAT","sourceProperties":{"RCID":17302,"PRIM":1,"GRUP":2,"OBJL":17,"RVER":1,"AGEN":7979,"FIDN":1106834683,"FIDS":363,"LNAM":"1F2B41F8F4FB016B","LNAM_REFS":["1F2B41F8F4FB016A"],"FFPT_RIND":[2],"BOYSHP":1,"CATLAM":2,"COLOUR":["4"],"CONRAD":3,"OBJNAM":"83","SCAMIN":200000,"SORDAT":"20101214","SORIND":"NL,1R,reprt,BASS106/10","sourceCellId":"1R76W7RI","sourceChecksum":"e64ad2ad1ef547ddceb06ca25383b5fc643e06ebdeb1c81f128752767d2c6761","rawObjectClass":"BOYLAT","sourceStableId":"1F2B41F8F4FB016B"},"sourceKind":"official","official":true,"sourceCellId":"1R76W7RI","sourceStableId":"1F2B41F8F4FB016B","pipelineFeatureId":"1R76W7RI/BOYLAT/17302","provenance":{"cellId":"1R76W7RI","checksum":"e64ad2ad1ef547ddceb06ca25383b5fc643e06ebdeb1c81f128752767d2c6761","readerVersion":"GDAL 3.2.2","processedAt":"2026-08-11T18:29:20.995Z"}}},{"type":"Feature","geometry":{"type":"Point","coordinates":[4.2204167,51.3626167]},"properties":{"dolphinKind":"buoy-lateral","rawObjectClass":"BOYLAT","sourceProperties":{"RCID":17303,"PRIM":1,"GRUP":2,"OBJL":17,"RVER":1,"AGEN":7979,"FIDN":1106834683,"FIDS":364,"LNAM":"1F2B41F8F4FB016C","LNAM_REFS":["1F2B1CF6FB480001"],"FFPT_RIND":[2],"BOYSHP":5,"CATLAM":2,"COLOUR":["4"],"CONRAD":3,"OBJNAM":"83A","SCAMIN":200000,"SORDAT":"20221118","SORIND":"NL,1R,Reprt,email Kristian Cijsouw 20221115","sourceCellId":"1R76W7RI","sourceChecksum":"e64ad2ad1ef547ddceb06ca25383b5fc643e06ebdeb1c81f128752767d2c6761","rawObjectClass":"BOYLAT","sourceStableId":"1F2B41F8F4FB016C"},"sourceKind":"official","official":true,"sourceCellId":"1R76W7RI","sourceStableId":"1F2B41F8F4FB016C","pipelineFeatureId":"1R76W7RI/BOYLAT/17303","provenance":{"cellId":"1R76W7RI","checksum":"e64ad2ad1ef547ddceb06ca25383b5fc643e06ebdeb1c81f128752767d2c6761","readerVersion":"GDAL 3.2.2","processedAt":"2026-08-11T18:29:20.995Z"}}},{"type":"Feature","geometry":{"type":"Point","coordinates":[4.22505,51.3579667]},"properties":{"dolphinKind":"buoy-lateral","rawObjectClass":"BOYLAT","sourceProperties":{"RCID":17305,"PRIM":1,"GRUP":2,"OBJL":17,"RVER":1,"AGEN":7979,"FIDN":1106834683,"FIDS":366,"LNAM":"1F2B41F8F4FB016E","LNAM_REFS":["1F2B41F8F4FB016D","1F2B4874B0CA0001"],"FFPT_RIND":[2,2],"BOYSHP":1,"CATLAM":2,"COLOUR":["4"],"CONRAD":3,"OBJNAM":"85","SCAMIN":200000,"SORDAT":"20060106","SORIND":"NL,1R,reprt,BASS02/06","sourceCellId":"1R76W7RI","sourceChecksum":"e64ad2ad1ef547ddceb06ca25383b5fc643e06ebdeb1c81f128752767d2c6761","rawObjectClass":"BOYLAT","sourceStableId":"1F2B41F8F4FB016E"},"sourceKind":"official","official":true,"sourceCellId":"1R76W7RI","sourceStableId":"1F2B41F8F4FB016E","pipelineFeatureId":"1R76W7RI/BOYLAT/17305","provenance":{"cellId":"1R76W7RI","checksum":"e64ad2ad1ef547ddceb06ca25383b5fc643e06ebdeb1c81f128752767d2c6761","readerVersion":"GDAL 3.2.2","processedAt":"2026-08-11T18:29:20.995Z"}}},{"type":"Feature","geometry":{"type":"Point","coordinates":[4.1351933,51.374995]},"properties":{"dolphinKind":"buoy-lateral","rawObjectClass":"BOYLAT","sourceProperties":{"RCID":17362,"PRIM":1,"GRUP":2,"OBJL":17,"RVER":1,"AGEN":7979,"FIDN":1106834683,"FIDS":423,"LNAM":"1F2B41F8F4FB01A7","BOYSHP":5,"CATLAM":1,"COLOUR":["3"],"CONRAD":3,"OBJNAM":"62","SCAMIN":200000,"SORDAT":"20220215","SORIND":"NL,1R,Reprt,Markeringsplan SvV Poortjes","sourceCellId":"1R76W7RI","sourceChecksum":"e64ad2ad1ef547ddceb06ca25383b5fc643e06ebdeb1c81f128752767d2c6761","rawObjectClass":"BOYLAT","sourceStableId":"1F2B41F8F4FB01A7"},"sourceKind":"official","official":true,"sourceCellId":"1R76W7RI","sourceStableId":"1F2B41F8F4FB01A7","pipelineFeatureId":"1R76W7RI/BOYLAT/17362","provenance":{"cellId":"1R76W7RI","checksum":"e64ad2ad1ef547ddceb06ca25383b5fc643e06ebdeb1c81f128752767d2c6761","readerVersion":"GDAL 3.2.2","processedAt":"2026-08-11T18:29:20.995Z"}}},{"type":"Feature","geometry":{"type":"Point","coordinates":[4.2203833,51.3741833]},"properties":{"dolphinKind":"buoy-lateral","rawObjectClass":"BOYLAT","sourceProperties":{"RCID":17377,"PRIM":1,"GRUP":2,"OBJL":17,"RVER":1,"AGEN":7979,"FIDN":1106834683,"FIDS":438,"LNAM":"1F2B41F8F4FB01B6","LNAM_REFS":["1F2B41F8F4FB01B7"],"FFPT_RIND":[2],"BOYSHP":2,"CATLAM":1,"COLOUR":["3"],"CONRAD":3,"OBJNAM":"74","SCAMIN":200000,"SORDAT":"20060106","SORIND":"NL,1R,reprt,BASS02/06","sourceCellId":"1R76W7RI","sourceChecksum":"e64ad2ad1ef547ddceb06ca25383b5fc643e06ebdeb1c81f128752767d2c6761","rawObjectClass":"BOYLAT","sourceStableId":"1F2B41F8F4FB01B6"},"sourceKind":"official","official":true,"sourceCellId":"1R76W7RI","sourceStableId":"1F2B41F8F4FB01B6","pipelineFeatureId":"1R76W7RI/BOYLAT/17377","provenance":{"cellId":"1R76W7RI","checksum":"e64ad2ad1ef547ddceb06ca25383b5fc643e06ebdeb1c81f128752767d2c6761","readerVersion":"GDAL 3.2.2","processedAt":"2026-08-11T18:29:20.995Z"}}},{"type":"Feature","geometry":{"type":"Point","coordinates":[4.2333558,51.3621798]},"properties":{"dolphinKind":"buoy-special","rawObjectClass":"BOYSPP","sourceProperties":{"RCID":13994,"PRIM":1,"GRUP":2,"OBJL":19,"RVER":1,"AGEN":7979,"FIDN":1106210691,"FIDS":506,"LNAM":"1F2B41EF6F8301FA","BOYSHP":2,"CATSPM":["27"],"COLOUR":["6"],"OBJNAM":"Dam 6","SCAMIN":200000,"sourceCellId":"1R76W7RI","sourceChecksum":"e64ad2ad1ef547ddceb06ca25383b5fc643e06ebdeb1c81f128752767d2c6761","rawObjectClass":"BOYSPP","sourceStableId":"1F2B41EF6F8301FA"},"sourceKind":"official","official":true,"sourceCellId":"1R76W7RI","sourceStableId":"1F2B41EF6F8301FA","pipelineFeatureId":"1R76W7RI/BOYSPP/13994","provenance":{"cellId":"1R76W7RI","checksum":"e64ad2ad1ef547ddceb06ca25383b5fc643e06ebdeb1c81f128752767d2c6761","readerVersion":"GDAL 3.2.2","processedAt":"2026-08-11T18:29:20.995Z"}}},{"type":"Feature","geometry":{"type":"Point","coordinates":[4.2273554,51.3670133]},"properties":{"dolphinKind":"buoy-special","rawObjectClass":"BOYSPP","sourceProperties":{"RCID":13995,"PRIM":1,"GRUP":2,"OBJL":19,"RVER":1,"AGEN":7979,"FIDN":1106210691,"FIDS":507,"LNAM":"1F2B41EF6F8301FB","BOYSHP":2,"CATSPM":["27"],"COLOUR":["6"],"OBJNAM":"Dam 4","SCAMIN":200000,"sourceCellId":"1R76W7RI","sourceChecksum":"e64ad2ad1ef547ddceb06ca25383b5fc643e06ebdeb1c81f128752767d2c6761","rawObjectClass":"BOYSPP","sourceStableId":"1F2B41EF6F8301FB"},"sourceKind":"official","official":true,"sourceCellId":"1R76W7RI","sourceStableId":"1F2B41EF6F8301FB","pipelineFeatureId":"1R76W7RI/BOYSPP/13995","provenance":{"cellId":"1R76W7RI","checksum":"e64ad2ad1ef547ddceb06ca25383b5fc643e06ebdeb1c81f128752767d2c6761","readerVersion":"GDAL 3.2.2","processedAt":"2026-08-11T18:29:20.995Z"}}},{"type":"Feature","geometry":{"type":"Point","coordinates":[4.2215217,51.37358]},"properties":{"dolphinKind":"buoy-special","rawObjectClass":"BOYSPP","sourceProperties":{"RCID":17206,"PRIM":1,"GRUP":2,"OBJL":19,"RVER":1,"AGEN":7979,"FIDN":1106834683,"FIDS":267,"LNAM":"1F2B41F8F4FB010B","BOYSHP":5,"CATSPM":["27"],"COLOUR":["6"],"CONRAD":3,"NATCON":["8"],"OBJNAM":"Dam 2","SCAMIN":200000,"SORDAT":"20230628","SORIND":"NL,1R,reprt,ENC Verbetering","sourceCellId":"1R76W7RI","sourceChecksum":"e64ad2ad1ef547ddceb06ca25383b5fc643e06ebdeb1c81f128752767d2c6761","rawObjectClass":"BOYSPP","sourceStableId":"1F2B41F8F4FB010B"},"sourceKind":"official","official":true,"sourceCellId":"1R76W7RI","sourceStableId":"1F2B41F8F4FB010B","pipelineFeatureId":"1R76W7RI/BOYSPP/17206","provenance":{"cellId":"1R76W7RI","checksum":"e64ad2ad1ef547ddceb06ca25383b5fc643e06ebdeb1c81f128752767d2c6761","readerVersion":"GDAL 3.2.2","processedAt":"2026-08-11T18:29:20.995Z"}}},{"type":"Feature","geometry":{"type":"Point","coordinates":[4.2221833,51.36017]},"properties":{"dolphinKind":"buoy-special","rawObjectClass":"BOYSPP","sourceProperties":{"RCID":17220,"PRIM":1,"GRUP":2,"OBJL":19,"RVER":1,"AGEN":7979,"FIDN":1106834683,"FIDS":281,"LNAM":"1F2B41F8F4FB0119","LNAM_REFS":["1F2B16AB99E80001"],"FFPT_RIND":[2],"BOYSHP":5,"CATSPM":["16","35","41"],"COLOUR":["6"],"CONRAD":3,"NATCON":["8"],"OBJNAM":"ZS 3","SCAMIN":200000,"SORDAT":"20200824","SORIND":"NL,1R,reprt,MD 379-20","sourceCellId":"1R76W7RI","sourceChecksum":"e64ad2ad1ef547ddceb06ca25383b5fc643e06ebdeb1c81f128752767d2c6761","rawObjectClass":"BOYSPP","sourceStableId":"1F2B41F8F4FB0119"},"sourceKind":"official","official":true,"sourceCellId":"1R76W7RI","sourceStableId":"1F2B41F8F4FB0119","pipelineFeatureId":"1R76W7RI/BOYSPP/17220","provenance":{"cellId":"1R76W7RI","checksum":"e64ad2ad1ef547ddceb06ca25383b5fc643e06ebdeb1c81f128752767d2c6761","readerVersion":"GDAL 3.2.2","processedAt":"2026-08-11T18:29:20.995Z"}}},{"type":"Feature","geometry":{"type":"Point","coordinates":[4.230395,51.3533867]},"properties":{"dolphinKind":"buoy-special","rawObjectClass":"BOYSPP","sourceProperties":{"RCID":17222,"PRIM":1,"GRUP":2,"OBJL":19,"RVER":1,"AGEN":7979,"FIDN":1106834683,"FIDS":283,"LNAM":"1F2B41F8F4FB011B","LNAM_REFS":["1F2B41F8F4FB011C"],"FFPT_RIND":[2],"BOYSHP":5,"CATSPM":["16","35","41"],"COLOUR":["6"],"CONRAD":3,"NATCON":["8"],"OBJNAM":"ZS 5","SCAMIN":200000,"SORDAT":"20200824","SORIND":"NL,1R,reprt,MD 379-20","sourceCellId":"1R76W7RI","sourceChecksum":"e64ad2ad1ef547ddceb06ca25383b5fc643e06ebdeb1c81f128752767d2c6761","rawObjectClass":"BOYSPP","sourceStableId":"1F2B41F8F4FB011B"},"sourceKind":"official","official":true,"sourceCellId":"1R76W7RI","sourceStableId":"1F2B41F8F4FB011B","pipelineFeatureId":"1R76W7RI/BOYSPP/17222","provenance":{"cellId":"1R76W7RI","checksum":"e64ad2ad1ef547ddceb06ca25383b5fc643e06ebdeb1c81f128752767d2c6761","readerVersion":"GDAL 3.2.2","processedAt":"2026-08-11T18:29:20.995Z"}}},{"type":"Feature","geometry":{"type":"Point","coordinates":[4.1450833,51.3699983]},"properties":{"dolphinKind":"buoy-special","rawObjectClass":"BOYSPP","sourceProperties":{"RCID":21081182,"PRIM":1,"GRUP":2,"OBJL":19,"RVER":1,"AGEN":7979,"FIDN":21081182,"FIDS":1,"LNAM":"1F2B0141AC5E0001","LNAM_REFS":["1F2B0141AC5F0001"],"FFPT_RIND":[2],"BOYSHP":3,"CATSPM":["27"],"COLOUR":["6"],"NOBJNM":"Overloop van Valkenisse","OBJNAM":"OVVA","INFORM":"Wave measurement buoy","NINFOM":"Golfmeetboei - Elders beheerd","SCAMIN":200000,"SORDAT":"20251202","SORIND":"NL,1R,reprt, Mail MOW","sourceCellId":"1R76W7RI","sourceChecksum":"e64ad2ad1ef547ddceb06ca25383b5fc643e06ebdeb1c81f128752767d2c6761","rawObjectClass":"BOYSPP","sourceStableId":"1F2B0141AC5E0001"},"sourceKind":"official","official":true,"sourceCellId":"1R76W7RI","sourceStableId":"1F2B0141AC5E0001","pipelineFeatureId":"1R76W7RI/BOYSPP/21081182","provenance":{"cellId":"1R76W7RI","checksum":"e64ad2ad1ef547ddceb06ca25383b5fc643e06ebdeb1c81f128752767d2c6761","readerVersion":"GDAL 3.2.2","processedAt":"2026-08-11T18:29:20.995Z"}}},{"type":"Feature","geometry":{"type":"Point","coordinates":[4.136545,51.3688133]},"properties":{"dolphinKind":"buoy-special","rawObjectClass":"BOYSPP","sourceProperties":{"RCID":451205824,"PRIM":1,"GRUP":2,"OBJL":19,"RVER":1,"AGEN":7979,"FIDN":451205824,"FIDS":1,"LNAM":"1F2B1AE4DAC00001","BOYSHP":5,"CATSPM":["41"],"COLOUR":["6"],"CONRAD":3,"OBJNAM":"F 65 A","SCAMIN":200000,"SORDAT":"20220308","sourceCellId":"1R76W7RI","sourceChecksum":"e64ad2ad1ef547ddceb06ca25383b5fc643e06ebdeb1c81f128752767d2c6761","rawObjectClass":"BOYSPP","sourceStableId":"1F2B1AE4DAC00001"},"sourceKind":"official","official":true,"sourceCellId":"1R76W7RI","sourceStableId":"1F2B1AE4DAC00001","pipelineFeatureId":"1R76W7RI/BOYSPP/451205824","provenance":{"cellId":"1R76W7RI","checksum":"e64ad2ad1ef547ddceb06ca25383b5fc643e06ebdeb1c81f128752767d2c6761","readerVersion":"GDAL 3.2.2","processedAt":"2026-08-11T18:29:20.995Z"}}},{"type":"Feature","geometry":{"type":"Point","coordinates":[4.144635,51.370715]},"properties":{"dolphinKind":"buoy-special","rawObjectClass":"BOYSPP","sourceProperties":{"RCID":451205825,"PRIM":1,"GRUP":2,"OBJL":19,"RVER":1,"AGEN":7979,"FIDN":451205825,"FIDS":1,"LNAM":"1F2B1AE4DAC10001","BOYSHP":5,"CATSPM":["41"],"COLOUR":["6"],"CONRAD":3,"OBJNAM":"F 67","SCAMIN":200000,"SORDAT":"20220308","sourceCellId":"1R76W7RI","sourceChecksum":"e64ad2ad1ef547ddceb06ca25383b5fc643e06ebdeb1c81f128752767d2c6761","rawObjectClass":"BOYSPP","sourceStableId":"1F2B1AE4DAC10001"},"sourceKind":"official","official":true,"sourceCellId":"1R76W7RI","sourceStableId":"1F2B1AE4DAC10001","pipelineFeatureId":"1R76W7RI/BOYSPP/451205825","provenance":{"cellId":"1R76W7RI","checksum":"e64ad2ad1ef547ddceb06ca25383b5fc643e06ebdeb1c81f128752767d2c6761","readerVersion":"GDAL 3.2.2","processedAt":"2026-08-11T18:29:20.995Z"}}},{"type":"Feature","geometry":{"type":"Point","coordinates":[4.15191,51.3731967]},"properties":{"dolphinKind":"buoy-special","rawObjectClass":"BOYSPP","sourceProperties":{"RCID":451205826,"PRIM":1,"GRUP":2,"OBJL":19,"RVER":1,"AGEN":7979,"FIDN":451205826,"FIDS":1,"LNAM":"1F2B1AE4DAC20001","BOYSHP":5,"CATSPM":["41"],"COLOUR":["6"],"CONRAD":3,"OBJNAM":"F 69","SCAMIN":200000,"SORDAT":"20220308","sourceCellId":"1R76W7RI","sourceChecksum":"e64ad2ad1ef547ddceb06ca25383b5fc643e06ebdeb1c81f128752767d2c6761","rawObjectClass":"BOYSPP","sourceStableId":"1F2B1AE4DAC20001"},"sourceKind":"official","official":true,"sourceCellId":"1R76W7RI","sourceStableId":"1F2B1AE4DAC20001","pipelineFeatureId":"1R76W7RI/BOYSPP/451205826","provenance":{"cellId":"1R76W7RI","checksum":"e64ad2ad1ef547ddceb06ca25383b5fc643e06ebdeb1c81f128752767d2c6761","readerVersion":"GDAL 3.2.2","processedAt":"2026-08-11T18:29:20.995Z"}}},{"type":"Feature","geometry":{"type":"Point","coordinates":[4.22845,51.36155]},"properties":{"dolphinKind":"light","rawObjectClass":"LIGHTS","sourceProperties":{"RCID":14013,"PRIM":1,"GRUP":2,"OBJL":75,"RVER":1,"AGEN":7979,"FIDN":1106210692,"FIDS":270,"LNAM":"1F2B41EF6F84010E","COLOUR":["3"],"LITCHR":7,"SIGGRP":"(1)","SIGPER":1.5,"SCAMIN":200000,"sourceCellId":"1R76W7RI","sourceChecksum":"e64ad2ad1ef547ddceb06ca25383b5fc643e06ebdeb1c81f128752767d2c6761","rawObjectClass":"LIGHTS","sourceStableId":"1F2B41EF6F84010E"},"sourceKind":"official","official":true,"sourceCellId":"1R76W7RI","sourceStableId":"1F2B41EF6F84010E","pipelineFeatureId":"1R76W7RI/LIGHTS/14013","provenance":{"cellId":"1R76W7RI","checksum":"e64ad2ad1ef547ddceb06ca25383b5fc643e06ebdeb1c81f128752767d2c6761","readerVersion":"GDAL 3.2.2","processedAt":"2026-08-11T18:29:20.995Z"}}},{"type":"Feature","geometry":{"type":"Point","coordinates":[4.2237167,51.3664]},"properties":{"dolphinKind":"light","rawObjectClass":"LIGHTS","sourceProperties":{"RCID":14017,"PRIM":1,"GRUP":2,"OBJL":75,"RVER":1,"AGEN":7979,"FIDN":1106210692,"FIDS":274,"LNAM":"1F2B41EF6F840112","COLOUR":["3"],"LITCHR":7,"SIGGRP":"(1)","SIGPER":8,"SCAMIN":200000,"sourceCellId":"1R76W7RI","sourceChecksum":"e64ad2ad1ef547ddceb06ca25383b5fc643e06ebdeb1c81f128752767d2c6761","rawObjectClass":"LIGHTS","sourceStableId":"1F2B41EF6F840112"},"sourceKind":"official","official":true,"sourceCellId":"1R76W7RI","sourceStableId":"1F2B41EF6F840112","pipelineFeatureId":"1R76W7RI/LIGHTS/14017","provenance":{"cellId":"1R76W7RI","checksum":"e64ad2ad1ef547ddceb06ca25383b5fc643e06ebdeb1c81f128752767d2c6761","readerVersion":"GDAL 3.2.2","processedAt":"2026-08-11T18:29:20.995Z"}}},{"type":"Feature","geometry":{"type":"Point","coordinates":[4.2175433,51.3642033]},"properties":{"dolphinKind":"light","rawObjectClass":"LIGHTS","sourceProperties":{"RCID":16741,"PRIM":1,"GRUP":2,"OBJL":75,"RVER":1,"AGEN":7979,"FIDN":1106834597,"FIDS":372,"LNAM":"1F2B41F8F4A50174","COLOUR":["3"],"EXCLIT":4,"HEIGHT":9.6,"LITCHR":7,"SECTR1":158,"SECTR2":168,"SIGGRP":"(1)","SIGPER":10,"SCAMIN":200000,"SORDAT":"20240424","SORIND":"NL,1R,reprt,MD 229-24","sourceCellId":"1R76W7RI","sourceChecksum":"e64ad2ad1ef547ddceb06ca25383b5fc643e06ebdeb1c81f128752767d2c6761","rawObjectClass":"LIGHTS","sourceStableId":"1F2B41F8F4A50174"},"sourceKind":"official","official":true,"sourceCellId":"1R76W7RI","sourceStableId":"1F2B41F8F4A50174","pipelineFeatureId":"1R76W7RI/LIGHTS/16741","provenance":{"cellId":"1R76W7RI","checksum":"e64ad2ad1ef547ddceb06ca25383b5fc643e06ebdeb1c81f128752767d2c6761","readerVersion":"GDAL 3.2.2","processedAt":"2026-08-11T18:29:20.995Z"}}},{"type":"Feature","geometry":{"type":"Point","coordinates":[4.2175433,51.3642033]},"properties":{"dolphinKind":"light","rawObjectClass":"LIGHTS","sourceProperties":{"RCID":16742,"PRIM":1,"GRUP":2,"OBJL":75,"RVER":1,"AGEN":7979,"FIDN":1106834597,"FIDS":373,"LNAM":"1F2B41F8F4A50175","COLOUR":["1"],"EXCLIT":4,"HEIGHT":9.6,"LITCHR":7,"SECTR1":168,"SECTR2":240.5,"SIGGRP":"(1)","SIGPER":10,"SCAMIN":200000,"SORDAT":"20240424","SORIND":"NL,1R,reprt,MD 229-24","sourceCellId":"1R76W7RI","sourceChecksum":"e64ad2ad1ef547ddceb06ca25383b5fc643e06ebdeb1c81f128752767d2c6761","rawObjectClass":"LIGHTS","sourceStableId":"1F2B41F8F4A50175"},"sourceKind":"official","official":true,"sourceCellId":"1R76W7RI","sourceStableId":"1F2B41F8F4A50175","pipelineFeatureId":"1R76W7RI/LIGHTS/16742","provenance":{"cellId":"1R76W7RI","checksum":"e64ad2ad1ef547ddceb06ca25383b5fc643e06ebdeb1c81f128752767d2c6761","readerVersion":"GDAL 3.2.2","processedAt":"2026-08-11T18:29:20.995Z"}}},{"type":"Feature","geometry":{"type":"Point","coordinates":[4.2175433,51.3642033]},"properties":{"dolphinKind":"light","rawObjectClass":"LIGHTS","sourceProperties":{"RCID":16743,"PRIM":1,"GRUP":2,"OBJL":75,"RVER":1,"AGEN":7979,"FIDN":1106834597,"FIDS":374,"LNAM":"1F2B41F8F4A50176","COLOUR":["4"],"EXCLIT":4,"HEIGHT":9.6,"LITCHR":7,"SECTR1":240.5,"SECTR2":291,"SIGGRP":"(1)","SIGPER":10,"SCAMIN":200000,"SORDAT":"20240424","SORIND":"NL,1R,reprt,MD 229-24","sourceCellId":"1R76W7RI","sourceChecksum":"e64ad2ad1ef547ddceb06ca25383b5fc643e06ebdeb1c81f128752767d2c6761","rawObjectClass":"LIGHTS","sourceStableId":"1F2B41F8F4A50176"},"sourceKind":"official","official":true,"sourceCellId":"1R76W7RI","sourceStableId":"1F2B41F8F4A50176","pipelineFeatureId":"1R76W7RI/LIGHTS/16743","provenance":{"cellId":"1R76W7RI","checksum":"e64ad2ad1ef547ddceb06ca25383b5fc643e06ebdeb1c81f128752767d2c6761","readerVersion":"GDAL 3.2.2","processedAt":"2026-08-11T18:29:20.995Z"}}},{"type":"Feature","geometry":{"type":"Point","coordinates":[4.2175433,51.3642033]},"properties":{"dolphinKind":"light","rawObjectClass":"LIGHTS","sourceProperties":{"RCID":16744,"PRIM":1,"GRUP":2,"OBJL":75,"RVER":1,"AGEN":7979,"FIDN":1106834597,"FIDS":375,"LNAM":"1F2B41F8F4A50177","COLOUR":["3"],"EXCLIT":4,"HEIGHT":9.6,"LITCHR":7,"SECTR1":323,"SECTR2":340,"SIGGRP":"(1)","SIGPER":10,"SCAMIN":200000,"SORDAT":"20240424","SORIND":"NL,1R,reprt,MD 229-24","sourceCellId":"1R76W7RI","sourceChecksum":"e64ad2ad1ef547ddceb06ca25383b5fc643e06ebdeb1c81f128752767d2c6761","rawObjectClass":"LIGHTS","sourceStableId":"1F2B41F8F4A50177"},"sourceKind":"official","official":true,"sourceCellId":"1R76W7RI","sourceStableId":"1F2B41F8F4A50177","pipelineFeatureId":"1R76W7RI/LIGHTS/16744","provenance":{"cellId":"1R76W7RI","checksum":"e64ad2ad1ef547ddceb06ca25383b5fc643e06ebdeb1c81f128752767d2c6761","readerVersion":"GDAL 3.2.2","processedAt":"2026-08-11T18:29:20.995Z"}}},{"type":"Feature","geometry":{"type":"Point","coordinates":[4.2175433,51.3642033]},"properties":{"dolphinKind":"light","rawObjectClass":"LIGHTS","sourceProperties":{"RCID":16745,"PRIM":1,"GRUP":2,"OBJL":75,"RVER":1,"AGEN":7979,"FIDN":1106834597,"FIDS":376,"LNAM":"1F2B41F8F4A50178","COLOUR":["1"],"EXCLIT":4,"HEIGHT":9.6,"LITCHR":7,"SECTR1":291,"SECTR2":323,"SIGGRP":"(1)","SIGPER":10,"SCAMIN":200000,"SORDAT":"20240424","SORIND":"NL,1R,reprt,MD 229-24","sourceCellId":"1R76W7RI","sourceChecksum":"e64ad2ad1ef547ddceb06ca25383b5fc643e06ebdeb1c81f128752767d2c6761","rawObjectClass":"LIGHTS","sourceStableId":"1F2B41F8F4A50178"},"sourceKind":"official","official":true,"sourceCellId":"1R76W7RI","sourceStableId":"1F2B41F8F4A50178","pipelineFeatureId":"1R76W7RI/LIGHTS/16745","provenance":{"cellId":"1R76W7RI","checksum":"e64ad2ad1ef547ddceb06ca25383b5fc643e06ebdeb1c81f128752767d2c6761","readerVersion":"GDAL 3.2.2","processedAt":"2026-08-11T18:29:20.995Z"}}},{"type":"Feature","geometry":{"type":"Point","coordinates":[4.1357666,51.3703667]},"properties":{"dolphinKind":"light","rawObjectClass":"LIGHTS","sourceProperties":{"RCID":17281,"PRIM":1,"GRUP":2,"OBJL":75,"RVER":1,"AGEN":7979,"FIDN":1106834683,"FIDS":342,"LNAM":"1F2B41F8F4FB0156","COLOUR":["4"],"LITCHR":7,"SIGGRP":"(1)","SIGPER":8,"SCAMIN":200000,"SORDAT":"20030930","sourceCellId":"1R76W7RI","sourceChecksum":"e64ad2ad1ef547ddceb06ca25383b5fc643e06ebdeb1c81f128752767d2c6761","rawObjectClass":"LIGHTS","sourceStableId":"1F2B41F8F4FB0156"},"sourceKind":"official","official":true,"sourceCellId":"1R76W7RI","sourceStableId":"1F2B41F8F4FB0156","pipelineFeatureId":"1R76W7RI/LIGHTS/17281","provenance":{"cellId":"1R76W7RI","checksum":"e64ad2ad1ef547ddceb06ca25383b5fc643e06ebdeb1c81f128752767d2c6761","readerVersion":"GDAL 3.2.2","processedAt":"2026-08-11T18:29:20.995Z"}}},{"type":"Feature","geometry":{"type":"Point","coordinates":[4.1437333,51.3719334]},"properties":{"dolphinKind":"light","rawObjectClass":"LIGHTS","sourceProperties":{"RCID":17283,"PRIM":1,"GRUP":2,"OBJL":75,"RVER":1,"AGEN":7979,"FIDN":1106834683,"FIDS":344,"LNAM":"1F2B41F8F4FB0158","COLOUR":["4"],"LITCHR":7,"SIGGRP":"(1)","SIGPER":4,"SCAMIN":200000,"SORDAT":"20030930","sourceCellId":"1R76W7RI","sourceChecksum":"e64ad2ad1ef547ddceb06ca25383b5fc643e06ebdeb1c81f128752767d2c6761","rawObjectClass":"LIGHTS","sourceStableId":"1F2B41F8F4FB0158"},"sourceKind":"official","official":true,"sourceCellId":"1R76W7RI","sourceStableId":"1F2B41F8F4FB0158","pipelineFeatureId":"1R76W7RI/LIGHTS/17283","provenance":{"cellId":"1R76W7RI","checksum":"e64ad2ad1ef547ddceb06ca25383b5fc643e06ebdeb1c81f128752767d2c6761","readerVersion":"GDAL 3.2.2","processedAt":"2026-08-11T18:29:20.995Z"}}},{"type":"Feature","geometry":{"type":"Point","coordinates":[4.1509833,51.3740666]},"properties":{"dolphinKind":"light","rawObjectClass":"LIGHTS","sourceProperties":{"RCID":17285,"PRIM":1,"GRUP":2,"OBJL":75,"RVER":1,"AGEN":7979,"FIDN":1106834683,"FIDS":346,"LNAM":"1F2B41F8F4FB015A","COLOUR":["4"],"LITCHR":7,"SIGGRP":"(1)","SIGPER":8,"SCAMIN":200000,"SORDAT":"20160303","SORIND":"NL,1R,reprt,BASS 018-2016","sourceCellId":"1R76W7RI","sourceChecksum":"e64ad2ad1ef547ddceb06ca25383b5fc643e06ebdeb1c81f128752767d2c6761","rawObjectClass":"LIGHTS","sourceStableId":"1F2B41F8F4FB015A"},"sourceKind":"official","official":true,"sourceCellId":"1R76W7RI","sourceStableId":"1F2B41F8F4FB015A","pipelineFeatureId":"1R76W7RI/LIGHTS/17285","provenance":{"cellId":"1R76W7RI","checksum":"e64ad2ad1ef547ddceb06ca25383b5fc643e06ebdeb1c81f128752767d2c6761","readerVersion":"GDAL 3.2.2","processedAt":"2026-08-11T18:29:20.995Z"}}},{"type":"Feature","geometry":{"type":"Point","coordinates":[4.2161333,51.3702333]},"properties":{"dolphinKind":"light","rawObjectClass":"LIGHTS","sourceProperties":{"RCID":17301,"PRIM":1,"GRUP":2,"OBJL":75,"RVER":1,"AGEN":7979,"FIDN":1106834683,"FIDS":362,"LNAM":"1F2B41F8F4FB016A","COLOUR":["4"],"EXCLIT":4,"LITCHR":4,"SIGGRP":"(1)","SIGPER":1,"SCAMIN":200000,"SORDAT":"20030930","sourceCellId":"1R76W7RI","sourceChecksum":"e64ad2ad1ef547ddceb06ca25383b5fc643e06ebdeb1c81f128752767d2c6761","rawObjectClass":"LIGHTS","sourceStableId":"1F2B41F8F4FB016A"},"sourceKind":"official","official":true,"sourceCellId":"1R76W7RI","sourceStableId":"1F2B41F8F4FB016A","pipelineFeatureId":"1R76W7RI/LIGHTS/17301","provenance":{"cellId":"1R76W7RI","checksum":"e64ad2ad1ef547ddceb06ca25383b5fc643e06ebdeb1c81f128752767d2c6761","readerVersion":"GDAL 3.2.2","processedAt":"2026-08-11T18:29:20.995Z"}}},{"type":"Feature","geometry":{"type":"Point","coordinates":[4.22505,51.3579667]},"properties":{"dolphinKind":"light","rawObjectClass":"LIGHTS","sourceProperties":{"RCID":17304,"PRIM":1,"GRUP":2,"OBJL":75,"RVER":1,"AGEN":7979,"FIDN":1106834683,"FIDS":365,"LNAM":"1F2B41F8F4FB016D","COLOUR":["4"],"EXCLIT":4,"LITCHR":7,"SIGGRP":"(1)","SIGPER":4,"SCAMIN":200000,"SORDAT":"20030930","sourceCellId":"1R76W7RI","sourceChecksum":"e64ad2ad1ef547ddceb06ca25383b5fc643e06ebdeb1c81f128752767d2c6761","rawObjectClass":"LIGHTS","sourceStableId":"1F2B41F8F4FB016D"},"sourceKind":"official","official":true,"sourceCellId":"1R76W7RI","sourceStableId":"1F2B41F8F4FB016D","pipelineFeatureId":"1R76W7RI/LIGHTS/17304","provenance":{"cellId":"1R76W7RI","checksum":"e64ad2ad1ef547ddceb06ca25383b5fc643e06ebdeb1c81f128752767d2c6761","readerVersion":"GDAL 3.2.2","processedAt":"2026-08-11T18:29:20.995Z"}}},{"type":"Feature","geometry":{"type":"Point","coordinates":[4.2203833,51.3741833]},"properties":{"dolphinKind":"light","rawObjectClass":"LIGHTS","sourceProperties":{"RCID":17378,"PRIM":1,"GRUP":2,"OBJL":75,"RVER":1,"AGEN":7979,"FIDN":1106834683,"FIDS":439,"LNAM":"1F2B41F8F4FB01B7","COLOUR":["3"],"EXCLIT":4,"LITCHR":7,"SIGGRP":"(1)","SIGPER":8,"SCAMIN":200000,"SORDAT":"20030930","sourceCellId":"1R76W7RI","sourceChecksum":"e64ad2ad1ef547ddceb06ca25383b5fc643e06ebdeb1c81f128752767d2c6761","rawObjectClass":"LIGHTS","sourceStableId":"1F2B41F8F4FB01B7"},"sourceKind":"official","official":true,"sourceCellId":"1R76W7RI","sourceStableId":"1F2B41F8F4FB01B7","pipelineFeatureId":"1R76W7RI/LIGHTS/17378","provenance":{"cellId":"1R76W7RI","checksum":"e64ad2ad1ef547ddceb06ca25383b5fc643e06ebdeb1c81f128752767d2c6761","readerVersion":"GDAL 3.2.2","processedAt":"2026-08-11T18:29:20.995Z"}}},{"type":"Feature","geometry":{"type":"Point","coordinates":[4.1450833,51.3699983]},"properties":{"dolphinKind":"light","rawObjectClass":"LIGHTS","sourceProperties":{"RCID":21081183,"PRIM":1,"GRUP":2,"OBJL":75,"RVER":1,"AGEN":7979,"FIDN":21081183,"FIDS":1,"LNAM":"1F2B0141AC5F0001","COLOUR":["6"],"LITCHR":2,"SIGGRP":"(5)","SIGPER":20,"SCAMIN":200000,"SORDAT":"20081028","SORIND":"NL,1R,reprt,Bass111/08","sourceCellId":"1R76W7RI","sourceChecksum":"e64ad2ad1ef547ddceb06ca25383b5fc643e06ebdeb1c81f128752767d2c6761","rawObjectClass":"LIGHTS","sourceStableId":"1F2B0141AC5F0001"},"sourceKind":"official","official":true,"sourceCellId":"1R76W7RI","sourceStableId":"1F2B0141AC5F0001","pipelineFeatureId":"1R76W7RI/LIGHTS/21081183","provenance":{"cellId":"1R76W7RI","checksum":"e64ad2ad1ef547ddceb06ca25383b5fc643e06ebdeb1c81f128752767d2c6761","readerVersion":"GDAL 3.2.2","processedAt":"2026-08-11T18:29:20.995Z"}}},{"type":"Feature","geometry":{"type":"Point","coordinates":[4.2204167,51.3626167]},"properties":{"dolphinKind":"light","rawObjectClass":"LIGHTS","sourceProperties":{"RCID":485948232,"PRIM":1,"GRUP":2,"OBJL":75,"RVER":1,"AGEN":7979,"FIDN":485948232,"FIDS":1,"LNAM":"1F2B1CF6FB480001","COLOUR":["4"],"LITCHR":7,"SIGGRP":"(1)","SIGPER":8,"SCAMIN":200000,"sourceCellId":"1R76W7RI","sourceChecksum":"e64ad2ad1ef547ddceb06ca25383b5fc643e06ebdeb1c81f128752767d2c6761","rawObjectClass":"LIGHTS","sourceStableId":"1F2B1CF6FB480001"},"sourceKind":"official","official":true,"sourceCellId":"1R76W7RI","sourceStableId":"1F2B1CF6FB480001","pipelineFeatureId":"1R76W7RI/LIGHTS/485948232","provenance":{"cellId":"1R76W7RI","checksum":"e64ad2ad1ef547ddceb06ca25383b5fc643e06ebdeb1c81f128752767d2c6761","readerVersion":"GDAL 3.2.2","processedAt":"2026-08-11T18:29:20.995Z"}}},{"type":"Feature","geometry":{"type":"Point","coordinates":[4.22845,51.36155]},"properties":{"dolphinKind":"topmark","rawObjectClass":"TOPMAR","sourceProperties":{"RCID":14014,"PRIM":1,"GRUP":2,"OBJL":144,"RVER":1,"AGEN":7979,"FIDN":1106210692,"FIDS":271,"LNAM":"1F2B41EF6F84010F","COLOUR":["3"],"TOPSHP":5,"SCAMIN":200000,"sourceCellId":"1R76W7RI","sourceChecksum":"e64ad2ad1ef547ddceb06ca25383b5fc643e06ebdeb1c81f128752767d2c6761","rawObjectClass":"TOPMAR","sourceStableId":"1F2B41EF6F84010F"},"sourceKind":"official","official":true,"sourceCellId":"1R76W7RI","sourceStableId":"1F2B41EF6F84010F","pipelineFeatureId":"1R76W7RI/TOPMAR/14014","provenance":{"cellId":"1R76W7RI","checksum":"e64ad2ad1ef547ddceb06ca25383b5fc643e06ebdeb1c81f128752767d2c6761","readerVersion":"GDAL 3.2.2","processedAt":"2026-08-11T18:29:20.995Z"},"associationRefsVerifiedInGdalOutput":false}},{"type":"Feature","geometry":{"type":"Point","coordinates":[4.2237167,51.3664]},"properties":{"dolphinKind":"topmark","rawObjectClass":"TOPMAR","sourceProperties":{"RCID":14018,"PRIM":1,"GRUP":2,"OBJL":144,"RVER":1,"AGEN":7979,"FIDN":1106210692,"FIDS":275,"LNAM":"1F2B41EF6F840113","COLOUR":["3"],"TOPSHP":5,"SCAMIN":200000,"sourceCellId":"1R76W7RI","sourceChecksum":"e64ad2ad1ef547ddceb06ca25383b5fc643e06ebdeb1c81f128752767d2c6761","rawObjectClass":"TOPMAR","sourceStableId":"1F2B41EF6F840113"},"sourceKind":"official","official":true,"sourceCellId":"1R76W7RI","sourceStableId":"1F2B41EF6F840113","pipelineFeatureId":"1R76W7RI/TOPMAR/14018","provenance":{"cellId":"1R76W7RI","checksum":"e64ad2ad1ef547ddceb06ca25383b5fc643e06ebdeb1c81f128752767d2c6761","readerVersion":"GDAL 3.2.2","processedAt":"2026-08-11T18:29:20.995Z"},"associationRefsVerifiedInGdalOutput":false}},{"type":"Feature","geometry":{"type":"Point","coordinates":[4.230395,51.3533867]},"properties":{"dolphinKind":"topmark","rawObjectClass":"TOPMAR","sourceProperties":{"RCID":17223,"PRIM":1,"GRUP":2,"OBJL":144,"RVER":1,"AGEN":7979,"FIDN":1106834683,"FIDS":284,"LNAM":"1F2B41F8F4FB011C","COLOUR":["6"],"TOPSHP":7,"SCAMIN":200000,"SORDAT":"20200824","sourceCellId":"1R76W7RI","sourceChecksum":"e64ad2ad1ef547ddceb06ca25383b5fc643e06ebdeb1c81f128752767d2c6761","rawObjectClass":"TOPMAR","sourceStableId":"1F2B41F8F4FB011C"},"sourceKind":"official","official":true,"sourceCellId":"1R76W7RI","sourceStableId":"1F2B41F8F4FB011C","pipelineFeatureId":"1R76W7RI/TOPMAR/17223","provenance":{"cellId":"1R76W7RI","checksum":"e64ad2ad1ef547ddceb06ca25383b5fc643e06ebdeb1c81f128752767d2c6761","readerVersion":"GDAL 3.2.2","processedAt":"2026-08-11T18:29:20.995Z"},"associationRefsVerifiedInGdalOutput":false}},{"type":"Feature","geometry":{"type":"Point","coordinates":[4.2221833,51.36017]},"properties":{"dolphinKind":"topmark","rawObjectClass":"TOPMAR","sourceProperties":{"RCID":380344808,"PRIM":1,"GRUP":2,"OBJL":144,"RVER":1,"AGEN":7979,"FIDN":380344808,"FIDS":1,"LNAM":"1F2B16AB99E80001","COLOUR":["6"],"TOPSHP":7,"SCAMIN":200000,"sourceCellId":"1R76W7RI","sourceChecksum":"e64ad2ad1ef547ddceb06ca25383b5fc643e06ebdeb1c81f128752767d2c6761","rawObjectClass":"TOPMAR","sourceStableId":"1F2B16AB99E80001"},"sourceKind":"official","official":true,"sourceCellId":"1R76W7RI","sourceStableId":"1F2B16AB99E80001","pipelineFeatureId":"1R76W7RI/TOPMAR/380344808","provenance":{"cellId":"1R76W7RI","checksum":"e64ad2ad1ef547ddceb06ca25383b5fc643e06ebdeb1c81f128752767d2c6761","readerVersion":"GDAL 3.2.2","processedAt":"2026-08-11T18:29:20.995Z"},"associationRefsVerifiedInGdalOutput":false}},{"type":"Feature","geometry":{"type":"Point","coordinates":[4.1509833,51.3740666]},"properties":{"dolphinKind":"topmark","rawObjectClass":"TOPMAR","sourceProperties":{"RCID":1215606974,"PRIM":1,"GRUP":2,"OBJL":144,"RVER":1,"AGEN":7979,"FIDN":1215606974,"FIDS":1,"LNAM":"1F2B4874B0BE0001","COLOUR":["4"],"TOPSHP":1,"SCAMIN":200000,"SORDAT":"20250114","SORIND":"NL,1R,Reprt,MD 026-25","sourceCellId":"1R76W7RI","sourceChecksum":"e64ad2ad1ef547ddceb06ca25383b5fc643e06ebdeb1c81f128752767d2c6761","rawObjectClass":"TOPMAR","sourceStableId":"1F2B4874B0BE0001"},"sourceKind":"official","official":true,"sourceCellId":"1R76W7RI","sourceStableId":"1F2B4874B0BE0001","pipelineFeatureId":"1R76W7RI/TOPMAR/1215606974","provenance":{"cellId":"1R76W7RI","checksum":"e64ad2ad1ef547ddceb06ca25383b5fc643e06ebdeb1c81f128752767d2c6761","readerVersion":"GDAL 3.2.2","processedAt":"2026-08-11T18:29:20.995Z"},"associationRefsVerifiedInGdalOutput":false}},{"type":"Feature","geometry":{"type":"Point","coordinates":[4.22505,51.3579667]},"properties":{"dolphinKind":"topmark","rawObjectClass":"TOPMAR","sourceProperties":{"RCID":1215606986,"PRIM":1,"GRUP":2,"OBJL":144,"RVER":1,"AGEN":7979,"FIDN":1215606986,"FIDS":1,"LNAM":"1F2B4874B0CA0001","COLOUR":["4"],"TOPSHP":1,"SCAMIN":200000,"SORDAT":"20250114","SORIND":"NL,1R,Reprt,MD 026-25","sourceCellId":"1R76W7RI","sourceChecksum":"e64ad2ad1ef547ddceb06ca25383b5fc643e06ebdeb1c81f128752767d2c6761","rawObjectClass":"TOPMAR","sourceStableId":"1F2B4874B0CA0001"},"sourceKind":"official","official":true,"sourceCellId":"1R76W7RI","sourceStableId":"1F2B4874B0CA0001","pipelineFeatureId":"1R76W7RI/TOPMAR/1215606986","provenance":{"cellId":"1R76W7RI","checksum":"e64ad2ad1ef547ddceb06ca25383b5fc643e06ebdeb1c81f128752767d2c6761","readerVersion":"GDAL 3.2.2","processedAt":"2026-08-11T18:29:20.995Z"},"associationRefsVerifiedInGdalOutput":false}}]}