{"type":"FeatureCollection","features":[{"type":"Feature","geometry":{"type":"Point","coordinates":[3.1633333,51.772]},"properties":{"dolphinKind":"buoy-lateral","rawObjectClass":"BOYLAT","sourceProperties":{"RCID":300086726,"PRIM":1,"GRUP":2,"OBJL":17,"RVER":1,"AGEN":7979,"FIDN":300086726,"FIDS":1,"LNAM":"1F2B11E2F5C60001","LNAM_REFS":["1F2B11E2F5C70001"],"FFPT_RIND":[2],"BOYSHP":2,"CATLAM":1,"COLOUR":["3"],"CONRAD":3,"OBJNAM":"SNW 2","SCAMIN":200000,"SORDAT":"20190325","sourceCellId":"1R75893I","sourceChecksum":"2e6164d70f4dfec6e028989199bc2fabc170866f2274801cbcc17963edecc73f","rawObjectClass":"BOYLAT","sourceStableId":"1F2B11E2F5C60001"},"sourceKind":"official","official":true,"sourceCellId":"1R75893I","sourceStableId":"1F2B11E2F5C60001","pipelineFeatureId":"1R75893I/BOYLAT/300086726","provenance":{"cellId":"1R75893I","checksum":"2e6164d70f4dfec6e028989199bc2fabc170866f2274801cbcc17963edecc73f","readerVersion":"GDAL 3.2.2","processedAt":"2026-08-11T18:29:20.995Z"}}},{"type":"Feature","geometry":{"type":"Point","coordinates":[3.3228333,51.7539333]},"properties":{"dolphinKind":"buoy-special","rawObjectClass":"BOYSPP","sourceProperties":{"RCID":17615,"PRIM":1,"GRUP":2,"OBJL":19,"RVER":1,"AGEN":7979,"FIDN":1106834684,"FIDS":421,"LNAM":"1F2B41F8F4FC01A5","LNAM_REFS":["1F2B41F8F4FC01A6"],"FFPT_RIND":[2],"BOYSHP":1,"CATSPM":["40"],"COLOUR":["6"],"CONRAD":3,"OBJNAM":"SB Anchor South","SCAMIN":200000,"SORDAT":"20170530","SORIND":"NL,1R,Reprt,Bass040-2017","sourceCellId":"1R75893I","sourceChecksum":"2e6164d70f4dfec6e028989199bc2fabc170866f2274801cbcc17963edecc73f","rawObjectClass":"BOYSPP","sourceStableId":"1F2B41F8F4FC01A5"},"sourceKind":"official","official":true,"sourceCellId":"1R75893I","sourceStableId":"1F2B41F8F4FC01A5","pipelineFeatureId":"1R75893I/BOYSPP/17615","provenance":{"cellId":"1R75893I","checksum":"2e6164d70f4dfec6e028989199bc2fabc170866f2274801cbcc17963edecc73f","readerVersion":"GDAL 3.2.2","processedAt":"2026-08-11T18:29:20.995Z"}}},{"type":"Feature","geometry":{"type":"Point","coordinates":[3.3224,51.75257]},"properties":{"dolphinKind":"buoy-special","rawObjectClass":"BOYSPP","sourceProperties":{"RCID":13019675,"PRIM":1,"GRUP":2,"OBJL":19,"RVER":1,"AGEN":7979,"FIDN":13019675,"FIDS":1,"LNAM":"1F2B00C6AA1B0001","LNAM_REFS":["1F2B00C6AA1A0001"],"FFPT_RIND":[2],"BOYSHP":3,"CATSPM":["10","9"],"COLOUR":["6"],"NOBJNM":"Schouwenbank","OBJNAM":"SCHB","INFORM":"Wave rider","NINFOM":"Golfmeet boei","SCAMIN":200000,"SORDAT":"20250709","SORIND":"NL,1R,reprt,Topdesk C250702371","sourceCellId":"1R75893I","sourceChecksum":"2e6164d70f4dfec6e028989199bc2fabc170866f2274801cbcc17963edecc73f","rawObjectClass":"BOYSPP","sourceStableId":"1F2B00C6AA1B0001"},"sourceKind":"official","official":true,"sourceCellId":"1R75893I","sourceStableId":"1F2B00C6AA1B0001","pipelineFeatureId":"1R75893I/BOYSPP/13019675","provenance":{"cellId":"1R75893I","checksum":"2e6164d70f4dfec6e028989199bc2fabc170866f2274801cbcc17963edecc73f","readerVersion":"GDAL 3.2.2","processedAt":"2026-08-11T18:29:20.995Z"}}},{"type":"Feature","geometry":{"type":"Point","coordinates":[3.32,51.75]},"properties":{"dolphinKind":"buoy-special","rawObjectClass":"BOYSPP","sourceProperties":{"RCID":19464878,"PRIM":1,"GRUP":2,"OBJL":19,"RVER":1,"AGEN":7979,"FIDN":19464878,"FIDS":1,"LNAM":"1F2B012902AE0001","LNAM_REFS":["1F2B012902AD0001"],"FFPT_RIND":[2],"BOYSHP":3,"CATSPM":["10","9"],"COLOUR":["6"],"NOBJNM":"Schouwenbank 2","OBJNAM":"SCB2","INFORM":"Waverider","NINFOM":"Golfmeet boei","SCAMIN":200000,"SORDAT":"20250709","SORIND":"NL,1R,reprt,Topdesk C250702371","sourceCellId":"1R75893I","sourceChecksum":"2e6164d70f4dfec6e028989199bc2fabc170866f2274801cbcc17963edecc73f","rawObjectClass":"BOYSPP","sourceStableId":"1F2B012902AE0001"},"sourceKind":"official","official":true,"sourceCellId":"1R75893I","sourceStableId":"1F2B012902AE0001","pipelineFeatureId":"1R75893I/BOYSPP/19464878","provenance":{"cellId":"1R75893I","checksum":"2e6164d70f4dfec6e028989199bc2fabc170866f2274801cbcc17963edecc73f","readerVersion":"GDAL 3.2.2","processedAt":"2026-08-11T18:29:20.995Z"}}},{"type":"Feature","geometry":{"type":"Point","coordinates":[3.1608833,51.77105]},"properties":{"dolphinKind":"buoy-special","rawObjectClass":"BOYSPP","sourceProperties":{"RCID":434446276,"PRIM":1,"GRUP":2,"OBJL":19,"RVER":1,"AGEN":7979,"FIDN":434446276,"FIDS":1,"LNAM":"1F2B19E51FC40001","LNAM_REFS":["1F2B19E524430001","1F2B19E524440001"],"FFPT_RIND":[2,2],"BOYSHP":5,"CATSPM":["27"],"COLOUR":["6"],"MARSYS":1,"OBJNAM":"MT 3","SCAMIN":200000,"SORDAT":"20211007","SORIND":"NL,1R,Reprt,MD 562-21","sourceCellId":"1R75893I","sourceChecksum":"2e6164d70f4dfec6e028989199bc2fabc170866f2274801cbcc17963edecc73f","rawObjectClass":"BOYSPP","sourceStableId":"1F2B19E51FC40001"},"sourceKind":"official","official":true,"sourceCellId":"1R75893I","sourceStableId":"1F2B19E51FC40001","pipelineFeatureId":"1R75893I/BOYSPP/434446276","provenance":{"cellId":"1R75893I","checksum":"2e6164d70f4dfec6e028989199bc2fabc170866f2274801cbcc17963edecc73f","readerVersion":"GDAL 3.2.2","processedAt":"2026-08-11T18:29:20.995Z"}}},{"type":"Feature","geometry":{"type":"Point","coordinates":[3.3285333,51.75245]},"properties":{"dolphinKind":"buoy-special","rawObjectClass":"BOYSPP","sourceProperties":{"RCID":1256823159,"PRIM":1,"GRUP":2,"OBJL":19,"RVER":1,"AGEN":7979,"FIDN":1256823159,"FIDS":1,"LNAM":"1F2B4AE999770001","LNAM_REFS":["1F2B4AE9997A0001","1F2B4AE9997D0001"],"FFPT_RIND":[2,2],"BOYSHP":4,"CATSPM":["9"],"COLOUR":["6"],"OBJNAM":"Accurasea 2","SCAMIN":200000,"SORDAT":"20251224","SORIND":"NL,1R,Bass 2025 152","sourceCellId":"1R75893I","sourceChecksum":"2e6164d70f4dfec6e028989199bc2fabc170866f2274801cbcc17963edecc73f","rawObjectClass":"BOYSPP","sourceStableId":"1F2B4AE999770001"},"sourceKind":"official","official":true,"sourceCellId":"1R75893I","sourceStableId":"1F2B4AE999770001","pipelineFeatureId":"1R75893I/BOYSPP/1256823159","provenance":{"cellId":"1R75893I","checksum":"2e6164d70f4dfec6e028989199bc2fabc170866f2274801cbcc17963edecc73f","readerVersion":"GDAL 3.2.2","processedAt":"2026-08-11T18:29:20.995Z"}}},{"type":"Feature","geometry":{"type":"Point","coordinates":[3.3228333,51.7539333]},"properties":{"dolphinKind":"light","rawObjectClass":"LIGHTS","sourceProperties":{"RCID":17616,"PRIM":1,"GRUP":2,"OBJL":75,"RVER":1,"AGEN":7979,"FIDN":1106834684,"FIDS":422,"LNAM":"1F2B41F8F4FC01A6","COLOUR":["6"],"LITCHR":3,"SIGGRP":"(1)","SIGPER":5,"SCAMIN":200000,"SORDAT":"20170530","SORIND":"NL,1R,Reprt,Bass040-2017","sourceCellId":"1R75893I","sourceChecksum":"2e6164d70f4dfec6e028989199bc2fabc170866f2274801cbcc17963edecc73f","rawObjectClass":"LIGHTS","sourceStableId":"1F2B41F8F4FC01A6"},"sourceKind":"official","official":true,"sourceCellId":"1R75893I","sourceStableId":"1F2B41F8F4FC01A6","pipelineFeatureId":"1R75893I/LIGHTS/17616","provenance":{"cellId":"1R75893I","checksum":"2e6164d70f4dfec6e028989199bc2fabc170866f2274801cbcc17963edecc73f","readerVersion":"GDAL 3.2.2","processedAt":"2026-08-11T18:29:20.995Z"}}},{"type":"Feature","geometry":{"type":"Point","coordinates":[3.3224,51.75257]},"properties":{"dolphinKind":"light","rawObjectClass":"LIGHTS","sourceProperties":{"RCID":13019674,"PRIM":1,"GRUP":2,"OBJL":75,"RVER":1,"AGEN":7979,"FIDN":13019674,"FIDS":1,"LNAM":"1F2B00C6AA1A0001","COLOUR":["6"],"LITCHR":2,"SIGGRP":"(5)","SIGPER":20,"SCAMIN":300000,"SORDAT":"20080918","SORIND":"NL,1R,reprt,Bass 098/08","sourceCellId":"1R75893I","sourceChecksum":"2e6164d70f4dfec6e028989199bc2fabc170866f2274801cbcc17963edecc73f","rawObjectClass":"LIGHTS","sourceStableId":"1F2B00C6AA1A0001"},"sourceKind":"official","official":true,"sourceCellId":"1R75893I","sourceStableId":"1F2B00C6AA1A0001","pipelineFeatureId":"1R75893I/LIGHTS/13019674","provenance":{"cellId":"1R75893I","checksum":"2e6164d70f4dfec6e028989199bc2fabc170866f2274801cbcc17963edecc73f","readerVersion":"GDAL 3.2.2","processedAt":"2026-08-11T18:29:20.995Z"}}},{"type":"Feature","geometry":{"type":"Point","coordinates":[3.32,51.75]},"properties":{"dolphinKind":"light","rawObjectClass":"LIGHTS","sourceProperties":{"RCID":19464877,"PRIM":1,"GRUP":2,"OBJL":75,"RVER":1,"AGEN":7979,"FIDN":19464877,"FIDS":1,"LNAM":"1F2B012902AD0001","COLOUR":["6"],"LITCHR":2,"SIGGRP":"(5)","SIGPER":20,"SCAMIN":300000,"SORDAT":"20080918","SORIND":"NL,1R,reprt,Bass 098/08","sourceCellId":"1R75893I","sourceChecksum":"2e6164d70f4dfec6e028989199bc2fabc170866f2274801cbcc17963edecc73f","rawObjectClass":"LIGHTS","sourceStableId":"1F2B012902AD0001"},"sourceKind":"official","official":true,"sourceCellId":"1R75893I","sourceStableId":"1F2B012902AD0001","pipelineFeatureId":"1R75893I/LIGHTS/19464877","provenance":{"cellId":"1R75893I","checksum":"2e6164d70f4dfec6e028989199bc2fabc170866f2274801cbcc17963edecc73f","readerVersion":"GDAL 3.2.2","processedAt":"2026-08-11T18:29:20.995Z"}}},{"type":"Feature","geometry":{"type":"Point","coordinates":[3.1633333,51.772]},"properties":{"dolphinKind":"light","rawObjectClass":"LIGHTS","sourceProperties":{"RCID":300086727,"PRIM":1,"GRUP":2,"OBJL":75,"RVER":1,"AGEN":7979,"FIDN":300086727,"FIDS":1,"LNAM":"1F2B11E2F5C70001","COLOUR":["3"],"LITCHR":3,"SIGGRP":"(1)","SIGPER":8,"SCAMIN":200000,"SORDAT":"20190325","sourceCellId":"1R75893I","sourceChecksum":"2e6164d70f4dfec6e028989199bc2fabc170866f2274801cbcc17963edecc73f","rawObjectClass":"LIGHTS","sourceStableId":"1F2B11E2F5C70001"},"sourceKind":"official","official":true,"sourceCellId":"1R75893I","sourceStableId":"1F2B11E2F5C70001","pipelineFeatureId":"1R75893I/LIGHTS/300086727","provenance":{"cellId":"1R75893I","checksum":"2e6164d70f4dfec6e028989199bc2fabc170866f2274801cbcc17963edecc73f","readerVersion":"GDAL 3.2.2","processedAt":"2026-08-11T18:29:20.995Z"}}},{"type":"Feature","geometry":{"type":"Point","coordinates":[3.1608833,51.77105]},"properties":{"dolphinKind":"light","rawObjectClass":"LIGHTS","sourceProperties":{"RCID":434447428,"PRIM":1,"GRUP":2,"OBJL":75,"RVER":1,"AGEN":7979,"FIDN":434447428,"FIDS":1,"LNAM":"1F2B19E524440001","COLOUR":["6"],"LITCHR":2,"SIGGRP":"(5)","SIGPER":20,"SCAMIN":200000,"SORDAT":"20211007","SORIND":"NL,1R,Reprt,MD 562-21","sourceCellId":"1R75893I","sourceChecksum":"2e6164d70f4dfec6e028989199bc2fabc170866f2274801cbcc17963edecc73f","rawObjectClass":"LIGHTS","sourceStableId":"1F2B19E524440001"},"sourceKind":"official","official":true,"sourceCellId":"1R75893I","sourceStableId":"1F2B19E524440001","pipelineFeatureId":"1R75893I/LIGHTS/434447428","provenance":{"cellId":"1R75893I","checksum":"2e6164d70f4dfec6e028989199bc2fabc170866f2274801cbcc17963edecc73f","readerVersion":"GDAL 3.2.2","processedAt":"2026-08-11T18:29:20.995Z"}}},{"type":"Feature","geometry":{"type":"Point","coordinates":[3.3285333,51.75245]},"properties":{"dolphinKind":"light","rawObjectClass":"LIGHTS","sourceProperties":{"RCID":1256823162,"PRIM":1,"GRUP":2,"OBJL":75,"RVER":1,"AGEN":7979,"FIDN":1256823162,"FIDS":1,"LNAM":"1F2B4AE9997A0001","COLOUR":["6"],"LITCHR":2,"SIGGRP":"(5)","SIGPER":20,"SCAMIN":200000,"sourceCellId":"1R75893I","sourceChecksum":"2e6164d70f4dfec6e028989199bc2fabc170866f2274801cbcc17963edecc73f","rawObjectClass":"LIGHTS","sourceStableId":"1F2B4AE9997A0001"},"sourceKind":"official","official":true,"sourceCellId":"1R75893I","sourceStableId":"1F2B4AE9997A0001","pipelineFeatureId":"1R75893I/LIGHTS/1256823162","provenance":{"cellId":"1R75893I","checksum":"2e6164d70f4dfec6e028989199bc2fabc170866f2274801cbcc17963edecc73f","readerVersion":"GDAL 3.2.2","processedAt":"2026-08-11T18:29:20.995Z"}}},{"type":"Feature","geometry":{"type":"Point","coordinates":[3.1608833,51.77105]},"properties":{"dolphinKind":"topmark","rawObjectClass":"TOPMAR","sourceProperties":{"RCID":434447427,"PRIM":1,"GRUP":2,"OBJL":144,"RVER":1,"AGEN":7979,"FIDN":434447427,"FIDS":1,"LNAM":"1F2B19E524430001","COLOUR":["6"],"TOPSHP":7,"SCAMIN":200000,"SORDAT":"20211007","SORIND":"NL,1R,Reprt,MD 562-21","sourceCellId":"1R75893I","sourceChecksum":"2e6164d70f4dfec6e028989199bc2fabc170866f2274801cbcc17963edecc73f","rawObjectClass":"TOPMAR","sourceStableId":"1F2B19E524430001"},"sourceKind":"official","official":true,"sourceCellId":"1R75893I","sourceStableId":"1F2B19E524430001","pipelineFeatureId":"1R75893I/TOPMAR/434447427","provenance":{"cellId":"1R75893I","checksum":"2e6164d70f4dfec6e028989199bc2fabc170866f2274801cbcc17963edecc73f","readerVersion":"GDAL 3.2.2","processedAt":"2026-08-11T18:29:20.995Z"},"associationRefsVerifiedInGdalOutput":false}},{"type":"Feature","geometry":{"type":"Point","coordinates":[3.3285333,51.75245]},"properties":{"dolphinKind":"topmark","rawObjectClass":"TOPMAR","sourceProperties":{"RCID":1256823165,"PRIM":1,"GRUP":2,"OBJL":144,"RVER":1,"AGEN":7979,"FIDN":1256823165,"FIDS":1,"LNAM":"1F2B4AE9997D0001","COLOUR":["6"],"TOPSHP":7,"SCAMIN":200000,"sourceCellId":"1R75893I","sourceChecksum":"2e6164d70f4dfec6e028989199bc2fabc170866f2274801cbcc17963edecc73f","rawObjectClass":"TOPMAR","sourceStableId":"1F2B4AE9997D0001"},"sourceKind":"official","official":true,"sourceCellId":"1R75893I","sourceStableId":"1F2B4AE9997D0001","pipelineFeatureId":"1R75893I/TOPMAR/1256823165","provenance":{"cellId":"1R75893I","checksum":"2e6164d70f4dfec6e028989199bc2fabc170866f2274801cbcc17963edecc73f","readerVersion":"GDAL 3.2.2","processedAt":"2026-08-11T18:29:20.995Z"},"associationRefsVerifiedInGdalOutput":false}}]}