{"type":"FeatureCollection","features":[{"type":"Feature","geometry":{"type":"Point","coordinates":[4.0646667,51.69515]},"properties":{"dolphinKind":"buoy-lateral","rawObjectClass":"BOYLAT","sourceProperties":{"RCID":284396688,"PRIM":1,"GRUP":2,"OBJL":17,"RVER":1,"AGEN":7979,"FIDN":284396688,"FIDS":1,"LNAM":"1F2B10F38C900001","LNAM_REFS":["1F2B0FB705FF0001"],"FFPT_RIND":[2],"BOYSHP":5,"CATLAM":3,"COLOUR":["4","3"],"COLPAT":["1"],"CONRAD":3,"OBJNAM":"GH 7A-26A","PEREND":"--1101","PERSTA":"--0301","INFORM":"Seasonal marking period 0401-1001","NINFOM":"Seizoens betonning gedurende periode 0401-1001","SCAMIN":200000,"SORDAT":"20251103","SORIND":"NL,1R,reprt,MD531-2025","sourceCellId":"1R76K8XI","sourceChecksum":"5db8d3efa753781209c832dd7407eef2f1114a59572b8698f7bd3e3c6e730356","rawObjectClass":"BOYLAT","sourceStableId":"1F2B10F38C900001"},"sourceKind":"official","official":true,"sourceCellId":"1R76K8XI","sourceStableId":"1F2B10F38C900001","pipelineFeatureId":"1R76K8XI/BOYLAT/284396688","provenance":{"cellId":"1R76K8XI","checksum":"5db8d3efa753781209c832dd7407eef2f1114a59572b8698f7bd3e3c6e730356","readerVersion":"GDAL 3.2.2","processedAt":"2026-08-11T18:29:20.995Z"}}},{"type":"Feature","geometry":{"type":"Point","coordinates":[4.0464167,51.6982667]},"properties":{"dolphinKind":"buoy-lateral","rawObjectClass":"BOYLAT","sourceProperties":{"RCID":284396689,"PRIM":1,"GRUP":2,"OBJL":17,"RVER":1,"AGEN":7979,"FIDN":284396689,"FIDS":1,"LNAM":"1F2B10F38C910001","LNAM_REFS":["1F2B0FB6FE5B0001"],"FFPT_RIND":[2],"BOYSHP":5,"CATLAM":3,"COLOUR":["4","3"],"COLPAT":["1"],"CONRAD":3,"OBJNAM":"H 1A-29A","PEREND":"--1101","PERSTA":"--0301","INFORM":"Seasonal marking period 0401-1001","NINFOM":"Seizoens betonning gedurende periode 0401-1001","SCAMIN":200000,"SORDAT":"20251103","SORIND":"NL,1R,reprt,MD531-2025","sourceCellId":"1R76K8XI","sourceChecksum":"5db8d3efa753781209c832dd7407eef2f1114a59572b8698f7bd3e3c6e730356","rawObjectClass":"BOYLAT","sourceStableId":"1F2B10F38C910001"},"sourceKind":"official","official":true,"sourceCellId":"1R76K8XI","sourceStableId":"1F2B10F38C910001","pipelineFeatureId":"1R76K8XI/BOYLAT/284396689","provenance":{"cellId":"1R76K8XI","checksum":"5db8d3efa753781209c832dd7407eef2f1114a59572b8698f7bd3e3c6e730356","readerVersion":"GDAL 3.2.2","processedAt":"2026-08-11T18:29:20.995Z"}}},{"type":"Feature","geometry":{"type":"Point","coordinates":[4.0431667,51.6956667]},"properties":{"dolphinKind":"buoy-lateral","rawObjectClass":"BOYLAT","sourceProperties":{"RCID":284396691,"PRIM":1,"GRUP":2,"OBJL":17,"RVER":1,"AGEN":7979,"FIDN":284396691,"FIDS":1,"LNAM":"1F2B10F38C930001","LNAM_REFS":["1F2B0083A15E0001"],"FFPT_RIND":[2],"BOYSHP":3,"CATLAM":4,"COLOUR":["4","3"],"COLPAT":["1"],"CONRAD":3,"OBJNAM":"G-7/H-2","SCAMIN":200000,"SORDAT":"20180620","SORIND":"NL,1R,reprt,MD 271-18","sourceCellId":"1R76K8XI","sourceChecksum":"5db8d3efa753781209c832dd7407eef2f1114a59572b8698f7bd3e3c6e730356","rawObjectClass":"BOYLAT","sourceStableId":"1F2B10F38C930001"},"sourceKind":"official","official":true,"sourceCellId":"1R76K8XI","sourceStableId":"1F2B10F38C930001","pipelineFeatureId":"1R76K8XI/BOYLAT/284396691","provenance":{"cellId":"1R76K8XI","checksum":"5db8d3efa753781209c832dd7407eef2f1114a59572b8698f7bd3e3c6e730356","readerVersion":"GDAL 3.2.2","processedAt":"2026-08-11T18:29:20.995Z"}}},{"type":"Feature","geometry":{"type":"Point","coordinates":[4.0730999,51.6812667]},"properties":{"dolphinKind":"buoy-lateral","rawObjectClass":"BOYLAT","sourceProperties":{"RCID":284396692,"PRIM":1,"GRUP":2,"OBJL":17,"RVER":1,"AGEN":7979,"FIDN":284396692,"FIDS":1,"LNAM":"1F2B10F38C940001","LNAM_REFS":["1F2B0083A15D0001"],"FFPT_RIND":[2],"BOYSHP":3,"CATLAM":4,"COLOUR":["4","3"],"COLPAT":["1"],"CONRAD":3,"OBJNAM":"G 5-GH 14","SCAMIN":200000,"sourceCellId":"1R76K8XI","sourceChecksum":"5db8d3efa753781209c832dd7407eef2f1114a59572b8698f7bd3e3c6e730356","rawObjectClass":"BOYLAT","sourceStableId":"1F2B10F38C940001"},"sourceKind":"official","official":true,"sourceCellId":"1R76K8XI","sourceStableId":"1F2B10F38C940001","pipelineFeatureId":"1R76K8XI/BOYLAT/284396692","provenance":{"cellId":"1R76K8XI","checksum":"5db8d3efa753781209c832dd7407eef2f1114a59572b8698f7bd3e3c6e730356","readerVersion":"GDAL 3.2.2","processedAt":"2026-08-11T18:29:20.995Z"}}},{"type":"Feature","geometry":{"type":"Point","coordinates":[4.1020333,51.6766667]},"properties":{"dolphinKind":"buoy-special","rawObjectClass":"BOYSPP","sourceProperties":{"RCID":8626580,"PRIM":1,"GRUP":2,"OBJL":19,"RVER":1,"AGEN":7979,"FIDN":8626580,"FIDS":1,"LNAM":"1F2B0083A1940001","LNAM_REFS":["1F2B49C7DED90001"],"FFPT_RIND":[2],"BOYSHP":5,"CATSPM":["27","50"],"COLOUR":["6"],"CONRAD":3,"OBJNAM":"9 GMO","PEREND":"--1001","PERSTA":"--0301","INFORM":"Speedboat area","NINFOM":"Snelle motorboot baan","SCAMIN":200000,"SORDAT":"20220318","SORIND":"NL,1R,reprt,MD 157-22","sourceCellId":"1R76K8XI","sourceChecksum":"5db8d3efa753781209c832dd7407eef2f1114a59572b8698f7bd3e3c6e730356","rawObjectClass":"BOYSPP","sourceStableId":"1F2B0083A1940001"},"sourceKind":"official","official":true,"sourceCellId":"1R76K8XI","sourceStableId":"1F2B0083A1940001","pipelineFeatureId":"1R76K8XI/BOYSPP/8626580","provenance":{"cellId":"1R76K8XI","checksum":"5db8d3efa753781209c832dd7407eef2f1114a59572b8698f7bd3e3c6e730356","readerVersion":"GDAL 3.2.2","processedAt":"2026-08-11T18:29:20.995Z"}}},{"type":"Feature","geometry":{"type":"Point","coordinates":[4.0986833,51.6763166]},"properties":{"dolphinKind":"buoy-special","rawObjectClass":"BOYSPP","sourceProperties":{"RCID":8626581,"PRIM":1,"GRUP":2,"OBJL":19,"RVER":1,"AGEN":7979,"FIDN":8626581,"FIDS":1,"LNAM":"1F2B0083A1950001","LNAM_REFS":["1F2B49C7DEDD0001"],"FFPT_RIND":[2],"BOYSHP":5,"CATSPM":["27","50"],"COLOUR":["6"],"CONRAD":3,"OBJNAM":"5 GMO","PEREND":"--1001","PERSTA":"--0301","INFORM":"Speedboat area","NINFOM":"Snelle motorboot baan","SCAMIN":200000,"SORDAT":"20220318","SORIND":"NL,1R,reprt,MD 157-22","sourceCellId":"1R76K8XI","sourceChecksum":"5db8d3efa753781209c832dd7407eef2f1114a59572b8698f7bd3e3c6e730356","rawObjectClass":"BOYSPP","sourceStableId":"1F2B0083A1950001"},"sourceKind":"official","official":true,"sourceCellId":"1R76K8XI","sourceStableId":"1F2B0083A1950001","pipelineFeatureId":"1R76K8XI/BOYSPP/8626581","provenance":{"cellId":"1R76K8XI","checksum":"5db8d3efa753781209c832dd7407eef2f1114a59572b8698f7bd3e3c6e730356","readerVersion":"GDAL 3.2.2","processedAt":"2026-08-11T18:29:20.995Z"}}},{"type":"Feature","geometry":{"type":"Point","coordinates":[4.1001499,51.6776]},"properties":{"dolphinKind":"buoy-special","rawObjectClass":"BOYSPP","sourceProperties":{"RCID":8626582,"PRIM":1,"GRUP":2,"OBJL":19,"RVER":1,"AGEN":7979,"FIDN":8626582,"FIDS":1,"LNAM":"1F2B0083A1960001","LNAM_REFS":["1F2B49C7DEDC0001"],"FFPT_RIND":[2],"BOYSHP":5,"CATSPM":["27","50"],"COLOUR":["6"],"CONRAD":3,"OBJNAM":"6 GMO","PEREND":"--1001","PERSTA":"--0301","INFORM":"Speedboat area","NINFOM":"Snelle motorboot baan","SCAMIN":200000,"SORDAT":"20220318","SORIND":"NL,1R,reprt,MD 157-22","sourceCellId":"1R76K8XI","sourceChecksum":"5db8d3efa753781209c832dd7407eef2f1114a59572b8698f7bd3e3c6e730356","rawObjectClass":"BOYSPP","sourceStableId":"1F2B0083A1960001"},"sourceKind":"official","official":true,"sourceCellId":"1R76K8XI","sourceStableId":"1F2B0083A1960001","pipelineFeatureId":"1R76K8XI/BOYSPP/8626582","provenance":{"cellId":"1R76K8XI","checksum":"5db8d3efa753781209c832dd7407eef2f1114a59572b8698f7bd3e3c6e730356","readerVersion":"GDAL 3.2.2","processedAt":"2026-08-11T18:29:20.995Z"}}},{"type":"Feature","geometry":{"type":"Point","coordinates":[4.1049667,51.6785]},"properties":{"dolphinKind":"buoy-special","rawObjectClass":"BOYSPP","sourceProperties":{"RCID":8626583,"PRIM":1,"GRUP":2,"OBJL":19,"RVER":1,"AGEN":7979,"FIDN":8626583,"FIDS":1,"LNAM":"1F2B0083A1970001","LNAM_REFS":["1F2B49C7DEDA0001"],"FFPT_RIND":[2],"BOYSHP":5,"CATSPM":["27","50"],"COLOUR":["6"],"CONRAD":3,"OBJNAM":"8 GMO","PEREND":"--1001","PERSTA":"--0301","INFORM":"Speedboat area","NINFOM":"Snelle motorboot baan","SCAMIN":200000,"SORDAT":"20220318","SORIND":"NL,1R,reprt,MD 157-22","sourceCellId":"1R76K8XI","sourceChecksum":"5db8d3efa753781209c832dd7407eef2f1114a59572b8698f7bd3e3c6e730356","rawObjectClass":"BOYSPP","sourceStableId":"1F2B0083A1970001"},"sourceKind":"official","official":true,"sourceCellId":"1R76K8XI","sourceStableId":"1F2B0083A1970001","pipelineFeatureId":"1R76K8XI/BOYSPP/8626583","provenance":{"cellId":"1R76K8XI","checksum":"5db8d3efa753781209c832dd7407eef2f1114a59572b8698f7bd3e3c6e730356","readerVersion":"GDAL 3.2.2","processedAt":"2026-08-11T18:29:20.995Z"}}},{"type":"Feature","geometry":{"type":"Point","coordinates":[4.09975,51.6758]},"properties":{"dolphinKind":"buoy-special","rawObjectClass":"BOYSPP","sourceProperties":{"RCID":8626584,"PRIM":1,"GRUP":2,"OBJL":19,"RVER":1,"AGEN":7979,"FIDN":8626584,"FIDS":1,"LNAM":"1F2B0083A1980001","LNAM_REFS":["1F2B49C7DED80001"],"FFPT_RIND":[2],"BOYSHP":5,"CATSPM":["27","50"],"COLOUR":["6"],"CONRAD":3,"OBJNAM":"10 GMO","PEREND":"--1001","PERSTA":"--0301","INFORM":"Speedboat area","NINFOM":"Snelle motorboot baan","SCAMIN":200000,"SORDAT":"20220318","SORIND":"NL,1R,reprt,MD 157-22","sourceCellId":"1R76K8XI","sourceChecksum":"5db8d3efa753781209c832dd7407eef2f1114a59572b8698f7bd3e3c6e730356","rawObjectClass":"BOYSPP","sourceStableId":"1F2B0083A1980001"},"sourceKind":"official","official":true,"sourceCellId":"1R76K8XI","sourceStableId":"1F2B0083A1980001","pipelineFeatureId":"1R76K8XI/BOYSPP/8626584","provenance":{"cellId":"1R76K8XI","checksum":"5db8d3efa753781209c832dd7407eef2f1114a59572b8698f7bd3e3c6e730356","readerVersion":"GDAL 3.2.2","processedAt":"2026-08-11T18:29:20.995Z"}}},{"type":"Feature","geometry":{"type":"Point","coordinates":[4.1020167,51.67935]},"properties":{"dolphinKind":"buoy-special","rawObjectClass":"BOYSPP","sourceProperties":{"RCID":8626585,"PRIM":1,"GRUP":2,"OBJL":19,"RVER":1,"AGEN":7979,"FIDN":8626585,"FIDS":1,"LNAM":"1F2B0083A1990001","LNAM_REFS":["1F2B49C7DEDB0001"],"FFPT_RIND":[2],"BOYSHP":5,"CATSPM":["27","50"],"COLOUR":["6"],"CONRAD":3,"OBJNAM":"7 GMO","PEREND":"--1001","PERSTA":"--0301","INFORM":"Speedboat area","NINFOM":"Snelle motorboot baan","SCAMIN":200000,"SORDAT":"20220318","SORIND":"NL,1R,reprt,MD 157-22","sourceCellId":"1R76K8XI","sourceChecksum":"5db8d3efa753781209c832dd7407eef2f1114a59572b8698f7bd3e3c6e730356","rawObjectClass":"BOYSPP","sourceStableId":"1F2B0083A1990001"},"sourceKind":"official","official":true,"sourceCellId":"1R76K8XI","sourceStableId":"1F2B0083A1990001","pipelineFeatureId":"1R76K8XI/BOYSPP/8626585","provenance":{"cellId":"1R76K8XI","checksum":"5db8d3efa753781209c832dd7407eef2f1114a59572b8698f7bd3e3c6e730356","readerVersion":"GDAL 3.2.2","processedAt":"2026-08-11T18:29:20.995Z"}}},{"type":"Feature","geometry":{"type":"Point","coordinates":[4.0974166,51.67515]},"properties":{"dolphinKind":"buoy-special","rawObjectClass":"BOYSPP","sourceProperties":{"RCID":8626586,"PRIM":1,"GRUP":2,"OBJL":19,"RVER":1,"AGEN":7979,"FIDN":8626586,"FIDS":1,"LNAM":"1F2B0083A19A0001","LNAM_REFS":["1F2B49C7DEDE0001"],"FFPT_RIND":[2],"BOYSHP":5,"CATSPM":["27","50"],"COLOUR":["6"],"CONRAD":3,"OBJNAM":"4 GMO","PEREND":"--1001","PERSTA":"--0301","INFORM":"Speedboat area","NINFOM":"Snelle motorboot baan","SCAMIN":200000,"SORDAT":"20220318","SORIND":"NL,1R,reprt,MD 157-22","sourceCellId":"1R76K8XI","sourceChecksum":"5db8d3efa753781209c832dd7407eef2f1114a59572b8698f7bd3e3c6e730356","rawObjectClass":"BOYSPP","sourceStableId":"1F2B0083A19A0001"},"sourceKind":"official","official":true,"sourceCellId":"1R76K8XI","sourceStableId":"1F2B0083A19A0001","pipelineFeatureId":"1R76K8XI/BOYSPP/8626586","provenance":{"cellId":"1R76K8XI","checksum":"5db8d3efa753781209c832dd7407eef2f1114a59572b8698f7bd3e3c6e730356","readerVersion":"GDAL 3.2.2","processedAt":"2026-08-11T18:29:20.995Z"}}},{"type":"Feature","geometry":{"type":"Point","coordinates":[4.0857625,51.7067864]},"properties":{"dolphinKind":"light","rawObjectClass":"LIGHTS","sourceProperties":{"RCID":19712,"PRIM":1,"GRUP":2,"OBJL":75,"RVER":1,"AGEN":7979,"FIDN":1106834753,"FIDS":413,"LNAM":"1F2B41F8F541019D","COLOUR":["3"],"LITCHR":1,"SCAMIN":200000,"sourceCellId":"1R76K8XI","sourceChecksum":"5db8d3efa753781209c832dd7407eef2f1114a59572b8698f7bd3e3c6e730356","rawObjectClass":"LIGHTS","sourceStableId":"1F2B41F8F541019D"},"sourceKind":"official","official":true,"sourceCellId":"1R76K8XI","sourceStableId":"1F2B41F8F541019D","pipelineFeatureId":"1R76K8XI/LIGHTS/19712","provenance":{"cellId":"1R76K8XI","checksum":"5db8d3efa753781209c832dd7407eef2f1114a59572b8698f7bd3e3c6e730356","readerVersion":"GDAL 3.2.2","processedAt":"2026-08-11T18:29:20.995Z"}}},{"type":"Feature","geometry":{"type":"Point","coordinates":[4.0857361,51.7092608]},"properties":{"dolphinKind":"light","rawObjectClass":"LIGHTS","sourceProperties":{"RCID":19713,"PRIM":1,"GRUP":2,"OBJL":75,"RVER":1,"AGEN":7979,"FIDN":1106834753,"FIDS":414,"LNAM":"1F2B41F8F541019E","CATLIT":["15"],"COLOUR":["4"],"LITCHR":1,"SCAMIN":200000,"sourceCellId":"1R76K8XI","sourceChecksum":"5db8d3efa753781209c832dd7407eef2f1114a59572b8698f7bd3e3c6e730356","rawObjectClass":"LIGHTS","sourceStableId":"1F2B41F8F541019E"},"sourceKind":"official","official":true,"sourceCellId":"1R76K8XI","sourceStableId":"1F2B41F8F541019E","pipelineFeatureId":"1R76K8XI/LIGHTS/19713","provenance":{"cellId":"1R76K8XI","checksum":"5db8d3efa753781209c832dd7407eef2f1114a59572b8698f7bd3e3c6e730356","readerVersion":"GDAL 3.2.2","processedAt":"2026-08-11T18:29:20.995Z"}}},{"type":"Feature","geometry":{"type":"Point","coordinates":[4.0865286,51.7071381]},"properties":{"dolphinKind":"light","rawObjectClass":"LIGHTS","sourceProperties":{"RCID":19714,"PRIM":1,"GRUP":2,"OBJL":75,"RVER":1,"AGEN":7979,"FIDN":1106834753,"FIDS":415,"LNAM":"1F2B41F8F541019F","CATLIT":["14"],"COLOUR":["4"],"LITCHR":1,"SCAMIN":200000,"sourceCellId":"1R76K8XI","sourceChecksum":"5db8d3efa753781209c832dd7407eef2f1114a59572b8698f7bd3e3c6e730356","rawObjectClass":"LIGHTS","sourceStableId":"1F2B41F8F541019F"},"sourceKind":"official","official":true,"sourceCellId":"1R76K8XI","sourceStableId":"1F2B41F8F541019F","pipelineFeatureId":"1R76K8XI/LIGHTS/19714","provenance":{"cellId":"1R76K8XI","checksum":"5db8d3efa753781209c832dd7407eef2f1114a59572b8698f7bd3e3c6e730356","readerVersion":"GDAL 3.2.2","processedAt":"2026-08-11T18:29:20.995Z"}}},{"type":"Feature","geometry":{"type":"Point","coordinates":[4.0730999,51.6812667]},"properties":{"dolphinKind":"topmark","rawObjectClass":"TOPMAR","sourceProperties":{"RCID":8626525,"PRIM":1,"GRUP":2,"OBJL":144,"RVER":1,"AGEN":7979,"FIDN":8626525,"FIDS":1,"LNAM":"1F2B0083A15D0001","COLOUR":["4"],"TOPSHP":1,"SCAMIN":200000,"sourceCellId":"1R76K8XI","sourceChecksum":"5db8d3efa753781209c832dd7407eef2f1114a59572b8698f7bd3e3c6e730356","rawObjectClass":"TOPMAR","sourceStableId":"1F2B0083A15D0001"},"sourceKind":"official","official":true,"sourceCellId":"1R76K8XI","sourceStableId":"1F2B0083A15D0001","pipelineFeatureId":"1R76K8XI/TOPMAR/8626525","provenance":{"cellId":"1R76K8XI","checksum":"5db8d3efa753781209c832dd7407eef2f1114a59572b8698f7bd3e3c6e730356","readerVersion":"GDAL 3.2.2","processedAt":"2026-08-11T18:29:20.995Z"},"associationRefsVerifiedInGdalOutput":false}},{"type":"Feature","geometry":{"type":"Point","coordinates":[4.0431667,51.6956667]},"properties":{"dolphinKind":"topmark","rawObjectClass":"TOPMAR","sourceProperties":{"RCID":8626526,"PRIM":1,"GRUP":2,"OBJL":144,"RVER":1,"AGEN":7979,"FIDN":8626526,"FIDS":1,"LNAM":"1F2B0083A15E0001","COLOUR":["4"],"TOPSHP":1,"SCAMIN":200000,"SORDAT":"20180620","SORIND":"NL,1R,reprt,MD 271-18","sourceCellId":"1R76K8XI","sourceChecksum":"5db8d3efa753781209c832dd7407eef2f1114a59572b8698f7bd3e3c6e730356","rawObjectClass":"TOPMAR","sourceStableId":"1F2B0083A15E0001"},"sourceKind":"official","official":true,"sourceCellId":"1R76K8XI","sourceStableId":"1F2B0083A15E0001","pipelineFeatureId":"1R76K8XI/TOPMAR/8626526","provenance":{"cellId":"1R76K8XI","checksum":"5db8d3efa753781209c832dd7407eef2f1114a59572b8698f7bd3e3c6e730356","readerVersion":"GDAL 3.2.2","processedAt":"2026-08-11T18:29:20.995Z"},"associationRefsVerifiedInGdalOutput":false}},{"type":"Feature","geometry":{"type":"Point","coordinates":[4.0021832,51.7154166]},"properties":{"dolphinKind":"topmark","rawObjectClass":"TOPMAR","sourceProperties":{"RCID":8626528,"PRIM":1,"GRUP":2,"OBJL":144,"RVER":1,"AGEN":7979,"FIDN":8626528,"FIDS":1,"LNAM":"1F2B0083A1600001","COLOUR":["4"],"TOPSHP":1,"SCAMIN":200000,"sourceCellId":"1R76K8XI","sourceChecksum":"5db8d3efa753781209c832dd7407eef2f1114a59572b8698f7bd3e3c6e730356","rawObjectClass":"TOPMAR","sourceStableId":"1F2B0083A1600001"},"sourceKind":"official","official":true,"sourceCellId":"1R76K8XI","sourceStableId":"1F2B0083A1600001","pipelineFeatureId":"1R76K8XI/TOPMAR/8626528","provenance":{"cellId":"1R76K8XI","checksum":"5db8d3efa753781209c832dd7407eef2f1114a59572b8698f7bd3e3c6e730356","readerVersion":"GDAL 3.2.2","processedAt":"2026-08-11T18:29:20.995Z"},"associationRefsVerifiedInGdalOutput":false}},{"type":"Feature","geometry":{"type":"Point","coordinates":[4.0947999,51.696]},"properties":{"dolphinKind":"topmark","rawObjectClass":"TOPMAR","sourceProperties":{"RCID":8626529,"PRIM":1,"GRUP":2,"OBJL":144,"RVER":1,"AGEN":7979,"FIDN":8626529,"FIDS":1,"LNAM":"1F2B0083A1610001","COLOUR":["4"],"TOPSHP":1,"SCAMIN":200000,"sourceCellId":"1R76K8XI","sourceChecksum":"5db8d3efa753781209c832dd7407eef2f1114a59572b8698f7bd3e3c6e730356","rawObjectClass":"TOPMAR","sourceStableId":"1F2B0083A1610001"},"sourceKind":"official","official":true,"sourceCellId":"1R76K8XI","sourceStableId":"1F2B0083A1610001","pipelineFeatureId":"1R76K8XI/TOPMAR/8626529","provenance":{"cellId":"1R76K8XI","checksum":"5db8d3efa753781209c832dd7407eef2f1114a59572b8698f7bd3e3c6e730356","readerVersion":"GDAL 3.2.2","processedAt":"2026-08-11T18:29:20.995Z"},"associationRefsVerifiedInGdalOutput":false}},{"type":"Feature","geometry":{"type":"Point","coordinates":[4.0056333,51.7054833]},"properties":{"dolphinKind":"topmark","rawObjectClass":"TOPMAR","sourceProperties":{"RCID":8626530,"PRIM":1,"GRUP":2,"OBJL":144,"RVER":1,"AGEN":7979,"FIDN":8626530,"FIDS":1,"LNAM":"1F2B0083A1620001","COLOUR":["3"],"TOPSHP":5,"SCAMIN":200000,"sourceCellId":"1R76K8XI","sourceChecksum":"5db8d3efa753781209c832dd7407eef2f1114a59572b8698f7bd3e3c6e730356","rawObjectClass":"TOPMAR","sourceStableId":"1F2B0083A1620001"},"sourceKind":"official","official":true,"sourceCellId":"1R76K8XI","sourceStableId":"1F2B0083A1620001","pipelineFeatureId":"1R76K8XI/TOPMAR/8626530","provenance":{"cellId":"1R76K8XI","checksum":"5db8d3efa753781209c832dd7407eef2f1114a59572b8698f7bd3e3c6e730356","readerVersion":"GDAL 3.2.2","processedAt":"2026-08-11T18:29:20.995Z"},"associationRefsVerifiedInGdalOutput":false}},{"type":"Feature","geometry":{"type":"Point","coordinates":[4.0585001,51.6854667]},"properties":{"dolphinKind":"topmark","rawObjectClass":"TOPMAR","sourceProperties":{"RCID":8626531,"PRIM":1,"GRUP":2,"OBJL":144,"RVER":1,"AGEN":7979,"FIDN":8626531,"FIDS":1,"LNAM":"1F2B0083A1630001","COLOUR":["3"],"TOPSHP":5,"SCAMIN":200000,"sourceCellId":"1R76K8XI","sourceChecksum":"5db8d3efa753781209c832dd7407eef2f1114a59572b8698f7bd3e3c6e730356","rawObjectClass":"TOPMAR","sourceStableId":"1F2B0083A1630001"},"sourceKind":"official","official":true,"sourceCellId":"1R76K8XI","sourceStableId":"1F2B0083A1630001","pipelineFeatureId":"1R76K8XI/TOPMAR/8626531","provenance":{"cellId":"1R76K8XI","checksum":"5db8d3efa753781209c832dd7407eef2f1114a59572b8698f7bd3e3c6e730356","readerVersion":"GDAL 3.2.2","processedAt":"2026-08-11T18:29:20.995Z"},"associationRefsVerifiedInGdalOutput":false}},{"type":"Feature","geometry":{"type":"Point","coordinates":[4.0232833,51.69305]},"properties":{"dolphinKind":"topmark","rawObjectClass":"TOPMAR","sourceProperties":{"RCID":8626532,"PRIM":1,"GRUP":2,"OBJL":144,"RVER":1,"AGEN":7979,"FIDN":8626532,"FIDS":1,"LNAM":"1F2B0083A1640001","COLOUR":["3"],"TOPSHP":5,"SCAMIN":200000,"sourceCellId":"1R76K8XI","sourceChecksum":"5db8d3efa753781209c832dd7407eef2f1114a59572b8698f7bd3e3c6e730356","rawObjectClass":"TOPMAR","sourceStableId":"1F2B0083A1640001"},"sourceKind":"official","official":true,"sourceCellId":"1R76K8XI","sourceStableId":"1F2B0083A1640001","pipelineFeatureId":"1R76K8XI/TOPMAR/8626532","provenance":{"cellId":"1R76K8XI","checksum":"5db8d3efa753781209c832dd7407eef2f1114a59572b8698f7bd3e3c6e730356","readerVersion":"GDAL 3.2.2","processedAt":"2026-08-11T18:29:20.995Z"},"associationRefsVerifiedInGdalOutput":false}},{"type":"Feature","geometry":{"type":"Point","coordinates":[4.0768167,51.6872834]},"properties":{"dolphinKind":"topmark","rawObjectClass":"TOPMAR","sourceProperties":{"RCID":8626533,"PRIM":1,"GRUP":2,"OBJL":144,"RVER":1,"AGEN":7979,"FIDN":8626533,"FIDS":1,"LNAM":"1F2B0083A1650001","COLOUR":["3"],"TOPSHP":5,"SCAMIN":200000,"sourceCellId":"1R76K8XI","sourceChecksum":"5db8d3efa753781209c832dd7407eef2f1114a59572b8698f7bd3e3c6e730356","rawObjectClass":"TOPMAR","sourceStableId":"1F2B0083A1650001"},"sourceKind":"official","official":true,"sourceCellId":"1R76K8XI","sourceStableId":"1F2B0083A1650001","pipelineFeatureId":"1R76K8XI/TOPMAR/8626533","provenance":{"cellId":"1R76K8XI","checksum":"5db8d3efa753781209c832dd7407eef2f1114a59572b8698f7bd3e3c6e730356","readerVersion":"GDAL 3.2.2","processedAt":"2026-08-11T18:29:20.995Z"},"associationRefsVerifiedInGdalOutput":false}},{"type":"Feature","geometry":{"type":"Point","coordinates":[4.1046333,51.6855334]},"properties":{"dolphinKind":"topmark","rawObjectClass":"TOPMAR","sourceProperties":{"RCID":8626534,"PRIM":1,"GRUP":2,"OBJL":144,"RVER":1,"AGEN":7979,"FIDN":8626534,"FIDS":1,"LNAM":"1F2B0083A1660001","COLOUR":["3"],"TOPSHP":5,"SCAMIN":200000,"sourceCellId":"1R76K8XI","sourceChecksum":"5db8d3efa753781209c832dd7407eef2f1114a59572b8698f7bd3e3c6e730356","rawObjectClass":"TOPMAR","sourceStableId":"1F2B0083A1660001"},"sourceKind":"official","official":true,"sourceCellId":"1R76K8XI","sourceStableId":"1F2B0083A1660001","pipelineFeatureId":"1R76K8XI/TOPMAR/8626534","provenance":{"cellId":"1R76K8XI","checksum":"5db8d3efa753781209c832dd7407eef2f1114a59572b8698f7bd3e3c6e730356","readerVersion":"GDAL 3.2.2","processedAt":"2026-08-11T18:29:20.995Z"},"associationRefsVerifiedInGdalOutput":false}},{"type":"Feature","geometry":{"type":"Point","coordinates":[4.0314666,51.7143167]},"properties":{"dolphinKind":"topmark","rawObjectClass":"TOPMAR","sourceProperties":{"RCID":8626587,"PRIM":1,"GRUP":2,"OBJL":144,"RVER":1,"AGEN":7979,"FIDN":8626587,"FIDS":1,"LNAM":"1F2B0083A19B0001","COLOUR":["3","4"],"COLPAT":["1"],"TOPSHP":3,"SCAMIN":200000,"sourceCellId":"1R76K8XI","sourceChecksum":"5db8d3efa753781209c832dd7407eef2f1114a59572b8698f7bd3e3c6e730356","rawObjectClass":"TOPMAR","sourceStableId":"1F2B0083A19B0001"},"sourceKind":"official","official":true,"sourceCellId":"1R76K8XI","sourceStableId":"1F2B0083A19B0001","pipelineFeatureId":"1R76K8XI/TOPMAR/8626587","provenance":{"cellId":"1R76K8XI","checksum":"5db8d3efa753781209c832dd7407eef2f1114a59572b8698f7bd3e3c6e730356","readerVersion":"GDAL 3.2.2","processedAt":"2026-08-11T18:29:20.995Z"},"associationRefsVerifiedInGdalOutput":false}},{"type":"Feature","geometry":{"type":"Point","coordinates":[4.0009501,51.72285]},"properties":{"dolphinKind":"topmark","rawObjectClass":"TOPMAR","sourceProperties":{"RCID":8626588,"PRIM":1,"GRUP":2,"OBJL":144,"RVER":1,"AGEN":7979,"FIDN":8626588,"FIDS":1,"LNAM":"1F2B0083A19C0001","COLOUR":["4"],"TOPSHP":1,"SCAMIN":200000,"sourceCellId":"1R76K8XI","sourceChecksum":"5db8d3efa753781209c832dd7407eef2f1114a59572b8698f7bd3e3c6e730356","rawObjectClass":"TOPMAR","sourceStableId":"1F2B0083A19C0001"},"sourceKind":"official","official":true,"sourceCellId":"1R76K8XI","sourceStableId":"1F2B0083A19C0001","pipelineFeatureId":"1R76K8XI/TOPMAR/8626588","provenance":{"cellId":"1R76K8XI","checksum":"5db8d3efa753781209c832dd7407eef2f1114a59572b8698f7bd3e3c6e730356","readerVersion":"GDAL 3.2.2","processedAt":"2026-08-11T18:29:20.995Z"},"associationRefsVerifiedInGdalOutput":false}},{"type":"Feature","geometry":{"type":"Point","coordinates":[4.0469833,51.7011167]},"properties":{"dolphinKind":"topmark","rawObjectClass":"TOPMAR","sourceProperties":{"RCID":8626589,"PRIM":1,"GRUP":2,"OBJL":144,"RVER":1,"AGEN":7979,"FIDN":8626589,"FIDS":1,"LNAM":"1F2B0083A19D0001","COLOUR":["4"],"TOPSHP":1,"SCAMIN":200000,"SORDAT":"20180620","SORIND":"NL,1R,reprt,MD 272-18","sourceCellId":"1R76K8XI","sourceChecksum":"5db8d3efa753781209c832dd7407eef2f1114a59572b8698f7bd3e3c6e730356","rawObjectClass":"TOPMAR","sourceStableId":"1F2B0083A19D0001"},"sourceKind":"official","official":true,"sourceCellId":"1R76K8XI","sourceStableId":"1F2B0083A19D0001","pipelineFeatureId":"1R76K8XI/TOPMAR/8626589","provenance":{"cellId":"1R76K8XI","checksum":"5db8d3efa753781209c832dd7407eef2f1114a59572b8698f7bd3e3c6e730356","readerVersion":"GDAL 3.2.2","processedAt":"2026-08-11T18:29:20.995Z"},"associationRefsVerifiedInGdalOutput":false}},{"type":"Feature","geometry":{"type":"Point","coordinates":[4.0014666,51.7183666]},"properties":{"dolphinKind":"topmark","rawObjectClass":"TOPMAR","sourceProperties":{"RCID":8626590,"PRIM":1,"GRUP":2,"OBJL":144,"RVER":1,"AGEN":7979,"FIDN":8626590,"FIDS":1,"LNAM":"1F2B0083A19E0001","COLOUR":["4"],"TOPSHP":1,"SCAMIN":200000,"sourceCellId":"1R76K8XI","sourceChecksum":"5db8d3efa753781209c832dd7407eef2f1114a59572b8698f7bd3e3c6e730356","rawObjectClass":"TOPMAR","sourceStableId":"1F2B0083A19E0001"},"sourceKind":"official","official":true,"sourceCellId":"1R76K8XI","sourceStableId":"1F2B0083A19E0001","pipelineFeatureId":"1R76K8XI/TOPMAR/8626590","provenance":{"cellId":"1R76K8XI","checksum":"5db8d3efa753781209c832dd7407eef2f1114a59572b8698f7bd3e3c6e730356","readerVersion":"GDAL 3.2.2","processedAt":"2026-08-11T18:29:20.995Z"},"associationRefsVerifiedInGdalOutput":false}},{"type":"Feature","geometry":{"type":"Point","coordinates":[4.0012,51.7208334]},"properties":{"dolphinKind":"topmark","rawObjectClass":"TOPMAR","sourceProperties":{"RCID":8626591,"PRIM":1,"GRUP":2,"OBJL":144,"RVER":1,"AGEN":7979,"FIDN":8626591,"FIDS":1,"LNAM":"1F2B0083A19F0001","COLOUR":["4"],"TOPSHP":1,"SCAMIN":200000,"sourceCellId":"1R76K8XI","sourceChecksum":"5db8d3efa753781209c832dd7407eef2f1114a59572b8698f7bd3e3c6e730356","rawObjectClass":"TOPMAR","sourceStableId":"1F2B0083A19F0001"},"sourceKind":"official","official":true,"sourceCellId":"1R76K8XI","sourceStableId":"1F2B0083A19F0001","pipelineFeatureId":"1R76K8XI/TOPMAR/8626591","provenance":{"cellId":"1R76K8XI","checksum":"5db8d3efa753781209c832dd7407eef2f1114a59572b8698f7bd3e3c6e730356","readerVersion":"GDAL 3.2.2","processedAt":"2026-08-11T18:29:20.995Z"},"associationRefsVerifiedInGdalOutput":false}},{"type":"Feature","geometry":{"type":"Point","coordinates":[4.0220167,51.715]},"properties":{"dolphinKind":"topmark","rawObjectClass":"TOPMAR","sourceProperties":{"RCID":8626592,"PRIM":1,"GRUP":2,"OBJL":144,"RVER":1,"AGEN":7979,"FIDN":8626592,"FIDS":1,"LNAM":"1F2B0083A1A00001","COLOUR":["4"],"TOPSHP":1,"SCAMIN":200000,"sourceCellId":"1R76K8XI","sourceChecksum":"5db8d3efa753781209c832dd7407eef2f1114a59572b8698f7bd3e3c6e730356","rawObjectClass":"TOPMAR","sourceStableId":"1F2B0083A1A00001"},"sourceKind":"official","official":true,"sourceCellId":"1R76K8XI","sourceStableId":"1F2B0083A1A00001","pipelineFeatureId":"1R76K8XI/TOPMAR/8626592","provenance":{"cellId":"1R76K8XI","checksum":"5db8d3efa753781209c832dd7407eef2f1114a59572b8698f7bd3e3c6e730356","readerVersion":"GDAL 3.2.2","processedAt":"2026-08-11T18:29:20.995Z"},"associationRefsVerifiedInGdalOutput":false}},{"type":"Feature","geometry":{"type":"Point","coordinates":[4.0176,51.7146667]},"properties":{"dolphinKind":"topmark","rawObjectClass":"TOPMAR","sourceProperties":{"RCID":8626593,"PRIM":1,"GRUP":2,"OBJL":144,"RVER":1,"AGEN":7979,"FIDN":8626593,"FIDS":1,"LNAM":"1F2B0083A1A10001","COLOUR":["4"],"TOPSHP":1,"SCAMIN":200000,"sourceCellId":"1R76K8XI","sourceChecksum":"5db8d3efa753781209c832dd7407eef2f1114a59572b8698f7bd3e3c6e730356","rawObjectClass":"TOPMAR","sourceStableId":"1F2B0083A1A10001"},"sourceKind":"official","official":true,"sourceCellId":"1R76K8XI","sourceStableId":"1F2B0083A1A10001","pipelineFeatureId":"1R76K8XI/TOPMAR/8626593","provenance":{"cellId":"1R76K8XI","checksum":"5db8d3efa753781209c832dd7407eef2f1114a59572b8698f7bd3e3c6e730356","readerVersion":"GDAL 3.2.2","processedAt":"2026-08-11T18:29:20.995Z"},"associationRefsVerifiedInGdalOutput":false}},{"type":"Feature","geometry":{"type":"Point","coordinates":[4.0258,51.7151667]},"properties":{"dolphinKind":"topmark","rawObjectClass":"TOPMAR","sourceProperties":{"RCID":8626594,"PRIM":1,"GRUP":2,"OBJL":144,"RVER":1,"AGEN":7979,"FIDN":8626594,"FIDS":1,"LNAM":"1F2B0083A1A20001","COLOUR":["4"],"TOPSHP":1,"SCAMIN":200000,"sourceCellId":"1R76K8XI","sourceChecksum":"5db8d3efa753781209c832dd7407eef2f1114a59572b8698f7bd3e3c6e730356","rawObjectClass":"TOPMAR","sourceStableId":"1F2B0083A1A20001"},"sourceKind":"official","official":true,"sourceCellId":"1R76K8XI","sourceStableId":"1F2B0083A1A20001","pipelineFeatureId":"1R76K8XI/TOPMAR/8626594","provenance":{"cellId":"1R76K8XI","checksum":"5db8d3efa753781209c832dd7407eef2f1114a59572b8698f7bd3e3c6e730356","readerVersion":"GDAL 3.2.2","processedAt":"2026-08-11T18:29:20.995Z"},"associationRefsVerifiedInGdalOutput":false}},{"type":"Feature","geometry":{"type":"Point","coordinates":[4.0096,51.7144167]},"properties":{"dolphinKind":"topmark","rawObjectClass":"TOPMAR","sourceProperties":{"RCID":8626595,"PRIM":1,"GRUP":2,"OBJL":144,"RVER":1,"AGEN":7979,"FIDN":8626595,"FIDS":1,"LNAM":"1F2B0083A1A30001","COLOUR":["4"],"TOPSHP":1,"SCAMIN":200000,"sourceCellId":"1R76K8XI","sourceChecksum":"5db8d3efa753781209c832dd7407eef2f1114a59572b8698f7bd3e3c6e730356","rawObjectClass":"TOPMAR","sourceStableId":"1F2B0083A1A30001"},"sourceKind":"official","official":true,"sourceCellId":"1R76K8XI","sourceStableId":"1F2B0083A1A30001","pipelineFeatureId":"1R76K8XI/TOPMAR/8626595","provenance":{"cellId":"1R76K8XI","checksum":"5db8d3efa753781209c832dd7407eef2f1114a59572b8698f7bd3e3c6e730356","readerVersion":"GDAL 3.2.2","processedAt":"2026-08-11T18:29:20.995Z"},"associationRefsVerifiedInGdalOutput":false}},{"type":"Feature","geometry":{"type":"Point","coordinates":[4.0048667,51.71415]},"properties":{"dolphinKind":"topmark","rawObjectClass":"TOPMAR","sourceProperties":{"RCID":8626596,"PRIM":1,"GRUP":2,"OBJL":144,"RVER":1,"AGEN":7979,"FIDN":8626596,"FIDS":1,"LNAM":"1F2B0083A1A40001","COLOUR":["4"],"TOPSHP":1,"SCAMIN":200000,"sourceCellId":"1R76K8XI","sourceChecksum":"5db8d3efa753781209c832dd7407eef2f1114a59572b8698f7bd3e3c6e730356","rawObjectClass":"TOPMAR","sourceStableId":"1F2B0083A1A40001"},"sourceKind":"official","official":true,"sourceCellId":"1R76K8XI","sourceStableId":"1F2B0083A1A40001","pipelineFeatureId":"1R76K8XI/TOPMAR/8626596","provenance":{"cellId":"1R76K8XI","checksum":"5db8d3efa753781209c832dd7407eef2f1114a59572b8698f7bd3e3c6e730356","readerVersion":"GDAL 3.2.2","processedAt":"2026-08-11T18:29:20.995Z"},"associationRefsVerifiedInGdalOutput":false}},{"type":"Feature","geometry":{"type":"Point","coordinates":[4.0029333,51.7161]},"properties":{"dolphinKind":"topmark","rawObjectClass":"TOPMAR","sourceProperties":{"RCID":8626597,"PRIM":1,"GRUP":2,"OBJL":144,"RVER":1,"AGEN":7979,"FIDN":8626597,"FIDS":1,"LNAM":"1F2B0083A1A50001","COLOUR":["4"],"TOPSHP":1,"SCAMIN":200000,"sourceCellId":"1R76K8XI","sourceChecksum":"5db8d3efa753781209c832dd7407eef2f1114a59572b8698f7bd3e3c6e730356","rawObjectClass":"TOPMAR","sourceStableId":"1F2B0083A1A50001"},"sourceKind":"official","official":true,"sourceCellId":"1R76K8XI","sourceStableId":"1F2B0083A1A50001","pipelineFeatureId":"1R76K8XI/TOPMAR/8626597","provenance":{"cellId":"1R76K8XI","checksum":"5db8d3efa753781209c832dd7407eef2f1114a59572b8698f7bd3e3c6e730356","readerVersion":"GDAL 3.2.2","processedAt":"2026-08-11T18:29:20.995Z"},"associationRefsVerifiedInGdalOutput":false}},{"type":"Feature","geometry":{"type":"Point","coordinates":[4.1224167,51.6944833]},"properties":{"dolphinKind":"topmark","rawObjectClass":"TOPMAR","sourceProperties":{"RCID":8626599,"PRIM":1,"GRUP":2,"OBJL":144,"RVER":1,"AGEN":7979,"FIDN":8626599,"FIDS":1,"LNAM":"1F2B0083A1A70001","COLOUR":["4"],"TOPSHP":1,"SCAMIN":200000,"sourceCellId":"1R76K8XI","sourceChecksum":"5db8d3efa753781209c832dd7407eef2f1114a59572b8698f7bd3e3c6e730356","rawObjectClass":"TOPMAR","sourceStableId":"1F2B0083A1A70001"},"sourceKind":"official","official":true,"sourceCellId":"1R76K8XI","sourceStableId":"1F2B0083A1A70001","pipelineFeatureId":"1R76K8XI/TOPMAR/8626599","provenance":{"cellId":"1R76K8XI","checksum":"5db8d3efa753781209c832dd7407eef2f1114a59572b8698f7bd3e3c6e730356","readerVersion":"GDAL 3.2.2","processedAt":"2026-08-11T18:29:20.995Z"},"associationRefsVerifiedInGdalOutput":false}},{"type":"Feature","geometry":{"type":"Point","coordinates":[4.1286,51.6936834]},"properties":{"dolphinKind":"topmark","rawObjectClass":"TOPMAR","sourceProperties":{"RCID":8626600,"PRIM":1,"GRUP":2,"OBJL":144,"RVER":1,"AGEN":7979,"FIDN":8626600,"FIDS":1,"LNAM":"1F2B0083A1A80001","COLOUR":["4"],"TOPSHP":1,"SCAMIN":200000,"sourceCellId":"1R76K8XI","sourceChecksum":"5db8d3efa753781209c832dd7407eef2f1114a59572b8698f7bd3e3c6e730356","rawObjectClass":"TOPMAR","sourceStableId":"1F2B0083A1A80001"},"sourceKind":"official","official":true,"sourceCellId":"1R76K8XI","sourceStableId":"1F2B0083A1A80001","pipelineFeatureId":"1R76K8XI/TOPMAR/8626600","provenance":{"cellId":"1R76K8XI","checksum":"5db8d3efa753781209c832dd7407eef2f1114a59572b8698f7bd3e3c6e730356","readerVersion":"GDAL 3.2.2","processedAt":"2026-08-11T18:29:20.995Z"},"associationRefsVerifiedInGdalOutput":false}},{"type":"Feature","geometry":{"type":"Point","coordinates":[4.1088167,51.6789834]},"properties":{"dolphinKind":"topmark","rawObjectClass":"TOPMAR","sourceProperties":{"RCID":8626601,"PRIM":1,"GRUP":2,"OBJL":144,"RVER":1,"AGEN":7979,"FIDN":8626601,"FIDS":1,"LNAM":"1F2B0083A1A90001","COLOUR":["4"],"TOPSHP":1,"SCAMIN":200000,"sourceCellId":"1R76K8XI","sourceChecksum":"5db8d3efa753781209c832dd7407eef2f1114a59572b8698f7bd3e3c6e730356","rawObjectClass":"TOPMAR","sourceStableId":"1F2B0083A1A90001"},"sourceKind":"official","official":true,"sourceCellId":"1R76K8XI","sourceStableId":"1F2B0083A1A90001","pipelineFeatureId":"1R76K8XI/TOPMAR/8626601","provenance":{"cellId":"1R76K8XI","checksum":"5db8d3efa753781209c832dd7407eef2f1114a59572b8698f7bd3e3c6e730356","readerVersion":"GDAL 3.2.2","processedAt":"2026-08-11T18:29:20.995Z"},"associationRefsVerifiedInGdalOutput":false}},{"type":"Feature","geometry":{"type":"Point","coordinates":[4.1166667,51.68075]},"properties":{"dolphinKind":"topmark","rawObjectClass":"TOPMAR","sourceProperties":{"RCID":8626602,"PRIM":1,"GRUP":2,"OBJL":144,"RVER":1,"AGEN":7979,"FIDN":8626602,"FIDS":1,"LNAM":"1F2B0083A1AA0001","COLOUR":["4"],"TOPSHP":1,"SCAMIN":200000,"sourceCellId":"1R76K8XI","sourceChecksum":"5db8d3efa753781209c832dd7407eef2f1114a59572b8698f7bd3e3c6e730356","rawObjectClass":"TOPMAR","sourceStableId":"1F2B0083A1AA0001"},"sourceKind":"official","official":true,"sourceCellId":"1R76K8XI","sourceStableId":"1F2B0083A1AA0001","pipelineFeatureId":"1R76K8XI/TOPMAR/8626602","provenance":{"cellId":"1R76K8XI","checksum":"5db8d3efa753781209c832dd7407eef2f1114a59572b8698f7bd3e3c6e730356","readerVersion":"GDAL 3.2.2","processedAt":"2026-08-11T18:29:20.995Z"},"associationRefsVerifiedInGdalOutput":false}},{"type":"Feature","geometry":{"type":"Point","coordinates":[4.1228,51.6814]},"properties":{"dolphinKind":"topmark","rawObjectClass":"TOPMAR","sourceProperties":{"RCID":8626603,"PRIM":1,"GRUP":2,"OBJL":144,"RVER":1,"AGEN":7979,"FIDN":8626603,"FIDS":1,"LNAM":"1F2B0083A1AB0001","COLOUR":["4"],"TOPSHP":1,"SCAMIN":200000,"sourceCellId":"1R76K8XI","sourceChecksum":"5db8d3efa753781209c832dd7407eef2f1114a59572b8698f7bd3e3c6e730356","rawObjectClass":"TOPMAR","sourceStableId":"1F2B0083A1AB0001"},"sourceKind":"official","official":true,"sourceCellId":"1R76K8XI","sourceStableId":"1F2B0083A1AB0001","pipelineFeatureId":"1R76K8XI/TOPMAR/8626603","provenance":{"cellId":"1R76K8XI","checksum":"5db8d3efa753781209c832dd7407eef2f1114a59572b8698f7bd3e3c6e730356","readerVersion":"GDAL 3.2.2","processedAt":"2026-08-11T18:29:20.995Z"},"associationRefsVerifiedInGdalOutput":false}},{"type":"Feature","geometry":{"type":"Point","coordinates":[4.0724834,51.6962]},"properties":{"dolphinKind":"topmark","rawObjectClass":"TOPMAR","sourceProperties":{"RCID":8626604,"PRIM":1,"GRUP":2,"OBJL":144,"RVER":1,"AGEN":7979,"FIDN":8626604,"FIDS":1,"LNAM":"1F2B0083A1AC0001","COLOUR":["4"],"TOPSHP":1,"SCAMIN":200000,"sourceCellId":"1R76K8XI","sourceChecksum":"5db8d3efa753781209c832dd7407eef2f1114a59572b8698f7bd3e3c6e730356","rawObjectClass":"TOPMAR","sourceStableId":"1F2B0083A1AC0001"},"sourceKind":"official","official":true,"sourceCellId":"1R76K8XI","sourceStableId":"1F2B0083A1AC0001","pipelineFeatureId":"1R76K8XI/TOPMAR/8626604","provenance":{"cellId":"1R76K8XI","checksum":"5db8d3efa753781209c832dd7407eef2f1114a59572b8698f7bd3e3c6e730356","readerVersion":"GDAL 3.2.2","processedAt":"2026-08-11T18:29:20.995Z"},"associationRefsVerifiedInGdalOutput":false}},{"type":"Feature","geometry":{"type":"Point","coordinates":[4.1156668,51.69575]},"properties":{"dolphinKind":"topmark","rawObjectClass":"TOPMAR","sourceProperties":{"RCID":8626605,"PRIM":1,"GRUP":2,"OBJL":144,"RVER":1,"AGEN":7979,"FIDN":8626605,"FIDS":1,"LNAM":"1F2B0083A1AD0001","COLOUR":["4"],"TOPSHP":1,"SCAMIN":200000,"sourceCellId":"1R76K8XI","sourceChecksum":"5db8d3efa753781209c832dd7407eef2f1114a59572b8698f7bd3e3c6e730356","rawObjectClass":"TOPMAR","sourceStableId":"1F2B0083A1AD0001"},"sourceKind":"official","official":true,"sourceCellId":"1R76K8XI","sourceStableId":"1F2B0083A1AD0001","pipelineFeatureId":"1R76K8XI/TOPMAR/8626605","provenance":{"cellId":"1R76K8XI","checksum":"5db8d3efa753781209c832dd7407eef2f1114a59572b8698f7bd3e3c6e730356","readerVersion":"GDAL 3.2.2","processedAt":"2026-08-11T18:29:20.995Z"},"associationRefsVerifiedInGdalOutput":false}},{"type":"Feature","geometry":{"type":"Point","coordinates":[4.1082667,51.6967]},"properties":{"dolphinKind":"topmark","rawObjectClass":"TOPMAR","sourceProperties":{"RCID":8626606,"PRIM":1,"GRUP":2,"OBJL":144,"RVER":1,"AGEN":7979,"FIDN":8626606,"FIDS":1,"LNAM":"1F2B0083A1AE0001","COLOUR":["4"],"TOPSHP":1,"SCAMIN":200000,"sourceCellId":"1R76K8XI","sourceChecksum":"5db8d3efa753781209c832dd7407eef2f1114a59572b8698f7bd3e3c6e730356","rawObjectClass":"TOPMAR","sourceStableId":"1F2B0083A1AE0001"},"sourceKind":"official","official":true,"sourceCellId":"1R76K8XI","sourceStableId":"1F2B0083A1AE0001","pipelineFeatureId":"1R76K8XI/TOPMAR/8626606","provenance":{"cellId":"1R76K8XI","checksum":"5db8d3efa753781209c832dd7407eef2f1114a59572b8698f7bd3e3c6e730356","readerVersion":"GDAL 3.2.2","processedAt":"2026-08-11T18:29:20.995Z"},"associationRefsVerifiedInGdalOutput":false}},{"type":"Feature","geometry":{"type":"Point","coordinates":[4.0522667,51.7010833]},"properties":{"dolphinKind":"topmark","rawObjectClass":"TOPMAR","sourceProperties":{"RCID":8626607,"PRIM":1,"GRUP":2,"OBJL":144,"RVER":1,"AGEN":7979,"FIDN":8626607,"FIDS":1,"LNAM":"1F2B0083A1AF0001","COLOUR":["4"],"TOPSHP":1,"SCAMIN":200000,"SORDAT":"20180620","SORIND":"NL,1R,reprt,MD 272-18","sourceCellId":"1R76K8XI","sourceChecksum":"5db8d3efa753781209c832dd7407eef2f1114a59572b8698f7bd3e3c6e730356","rawObjectClass":"TOPMAR","sourceStableId":"1F2B0083A1AF0001"},"sourceKind":"official","official":true,"sourceCellId":"1R76K8XI","sourceStableId":"1F2B0083A1AF0001","pipelineFeatureId":"1R76K8XI/TOPMAR/8626607","provenance":{"cellId":"1R76K8XI","checksum":"5db8d3efa753781209c832dd7407eef2f1114a59572b8698f7bd3e3c6e730356","readerVersion":"GDAL 3.2.2","processedAt":"2026-08-11T18:29:20.995Z"},"associationRefsVerifiedInGdalOutput":false}},{"type":"Feature","geometry":{"type":"Point","coordinates":[4.059,51.7006667]},"properties":{"dolphinKind":"topmark","rawObjectClass":"TOPMAR","sourceProperties":{"RCID":8626608,"PRIM":1,"GRUP":2,"OBJL":144,"RVER":1,"AGEN":7979,"FIDN":8626608,"FIDS":1,"LNAM":"1F2B0083A1B00001","COLOUR":["4"],"TOPSHP":1,"SCAMIN":200000,"sourceCellId":"1R76K8XI","sourceChecksum":"5db8d3efa753781209c832dd7407eef2f1114a59572b8698f7bd3e3c6e730356","rawObjectClass":"TOPMAR","sourceStableId":"1F2B0083A1B00001"},"sourceKind":"official","official":true,"sourceCellId":"1R76K8XI","sourceStableId":"1F2B0083A1B00001","pipelineFeatureId":"1R76K8XI/TOPMAR/8626608","provenance":{"cellId":"1R76K8XI","checksum":"5db8d3efa753781209c832dd7407eef2f1114a59572b8698f7bd3e3c6e730356","readerVersion":"GDAL 3.2.2","processedAt":"2026-08-11T18:29:20.995Z"},"associationRefsVerifiedInGdalOutput":false}},{"type":"Feature","geometry":{"type":"Point","coordinates":[4.0651833,51.69785]},"properties":{"dolphinKind":"topmark","rawObjectClass":"TOPMAR","sourceProperties":{"RCID":8626609,"PRIM":1,"GRUP":2,"OBJL":144,"RVER":1,"AGEN":7979,"FIDN":8626609,"FIDS":1,"LNAM":"1F2B0083A1B10001","COLOUR":["4"],"TOPSHP":1,"SCAMIN":200000,"sourceCellId":"1R76K8XI","sourceChecksum":"5db8d3efa753781209c832dd7407eef2f1114a59572b8698f7bd3e3c6e730356","rawObjectClass":"TOPMAR","sourceStableId":"1F2B0083A1B10001"},"sourceKind":"official","official":true,"sourceCellId":"1R76K8XI","sourceStableId":"1F2B0083A1B10001","pipelineFeatureId":"1R76K8XI/TOPMAR/8626609","provenance":{"cellId":"1R76K8XI","checksum":"5db8d3efa753781209c832dd7407eef2f1114a59572b8698f7bd3e3c6e730356","readerVersion":"GDAL 3.2.2","processedAt":"2026-08-11T18:29:20.995Z"},"associationRefsVerifiedInGdalOutput":false}},{"type":"Feature","geometry":{"type":"Point","coordinates":[4.0810166,51.6971833]},"properties":{"dolphinKind":"topmark","rawObjectClass":"TOPMAR","sourceProperties":{"RCID":8626610,"PRIM":1,"GRUP":2,"OBJL":144,"RVER":1,"AGEN":7979,"FIDN":8626610,"FIDS":1,"LNAM":"1F2B0083A1B20001","COLOUR":["4"],"TOPSHP":1,"SCAMIN":200000,"sourceCellId":"1R76K8XI","sourceChecksum":"5db8d3efa753781209c832dd7407eef2f1114a59572b8698f7bd3e3c6e730356","rawObjectClass":"TOPMAR","sourceStableId":"1F2B0083A1B20001"},"sourceKind":"official","official":true,"sourceCellId":"1R76K8XI","sourceStableId":"1F2B0083A1B20001","pipelineFeatureId":"1R76K8XI/TOPMAR/8626610","provenance":{"cellId":"1R76K8XI","checksum":"5db8d3efa753781209c832dd7407eef2f1114a59572b8698f7bd3e3c6e730356","readerVersion":"GDAL 3.2.2","processedAt":"2026-08-11T18:29:20.995Z"},"associationRefsVerifiedInGdalOutput":false}},{"type":"Feature","geometry":{"type":"Point","coordinates":[4.0937167,51.6972666]},"properties":{"dolphinKind":"topmark","rawObjectClass":"TOPMAR","sourceProperties":{"RCID":8626611,"PRIM":1,"GRUP":2,"OBJL":144,"RVER":1,"AGEN":7979,"FIDN":8626611,"FIDS":1,"LNAM":"1F2B0083A1B30001","COLOUR":["4"],"TOPSHP":1,"SCAMIN":200000,"sourceCellId":"1R76K8XI","sourceChecksum":"5db8d3efa753781209c832dd7407eef2f1114a59572b8698f7bd3e3c6e730356","rawObjectClass":"TOPMAR","sourceStableId":"1F2B0083A1B30001"},"sourceKind":"official","official":true,"sourceCellId":"1R76K8XI","sourceStableId":"1F2B0083A1B30001","pipelineFeatureId":"1R76K8XI/TOPMAR/8626611","provenance":{"cellId":"1R76K8XI","checksum":"5db8d3efa753781209c832dd7407eef2f1114a59572b8698f7bd3e3c6e730356","readerVersion":"GDAL 3.2.2","processedAt":"2026-08-11T18:29:20.995Z"},"associationRefsVerifiedInGdalOutput":false}},{"type":"Feature","geometry":{"type":"Point","coordinates":[4.1008,51.6971]},"properties":{"dolphinKind":"topmark","rawObjectClass":"TOPMAR","sourceProperties":{"RCID":8626612,"PRIM":1,"GRUP":2,"OBJL":144,"RVER":1,"AGEN":7979,"FIDN":8626612,"FIDS":1,"LNAM":"1F2B0083A1B40001","COLOUR":["4"],"TOPSHP":1,"SCAMIN":200000,"sourceCellId":"1R76K8XI","sourceChecksum":"5db8d3efa753781209c832dd7407eef2f1114a59572b8698f7bd3e3c6e730356","rawObjectClass":"TOPMAR","sourceStableId":"1F2B0083A1B40001"},"sourceKind":"official","official":true,"sourceCellId":"1R76K8XI","sourceStableId":"1F2B0083A1B40001","pipelineFeatureId":"1R76K8XI/TOPMAR/8626612","provenance":{"cellId":"1R76K8XI","checksum":"5db8d3efa753781209c832dd7407eef2f1114a59572b8698f7bd3e3c6e730356","readerVersion":"GDAL 3.2.2","processedAt":"2026-08-11T18:29:20.995Z"},"associationRefsVerifiedInGdalOutput":false}},{"type":"Feature","geometry":{"type":"Point","coordinates":[4.0321667,51.7175333]},"properties":{"dolphinKind":"topmark","rawObjectClass":"TOPMAR","sourceProperties":{"RCID":8626613,"PRIM":1,"GRUP":2,"OBJL":144,"RVER":1,"AGEN":7979,"FIDN":8626613,"FIDS":1,"LNAM":"1F2B0083A1B50001","COLOUR":["3"],"TOPSHP":5,"SCAMIN":200000,"sourceCellId":"1R76K8XI","sourceChecksum":"5db8d3efa753781209c832dd7407eef2f1114a59572b8698f7bd3e3c6e730356","rawObjectClass":"TOPMAR","sourceStableId":"1F2B0083A1B50001"},"sourceKind":"official","official":true,"sourceCellId":"1R76K8XI","sourceStableId":"1F2B0083A1B50001","pipelineFeatureId":"1R76K8XI/TOPMAR/8626613","provenance":{"cellId":"1R76K8XI","checksum":"5db8d3efa753781209c832dd7407eef2f1114a59572b8698f7bd3e3c6e730356","readerVersion":"GDAL 3.2.2","processedAt":"2026-08-11T18:29:20.995Z"},"associationRefsVerifiedInGdalOutput":false}},{"type":"Feature","geometry":{"type":"Point","coordinates":[4.0369,51.6884666]},"properties":{"dolphinKind":"topmark","rawObjectClass":"TOPMAR","sourceProperties":{"RCID":8626614,"PRIM":1,"GRUP":2,"OBJL":144,"RVER":1,"AGEN":7979,"FIDN":8626614,"FIDS":1,"LNAM":"1F2B0083A1B60001","COLOUR":["3"],"TOPSHP":5,"SCAMIN":200000,"sourceCellId":"1R76K8XI","sourceChecksum":"5db8d3efa753781209c832dd7407eef2f1114a59572b8698f7bd3e3c6e730356","rawObjectClass":"TOPMAR","sourceStableId":"1F2B0083A1B60001"},"sourceKind":"official","official":true,"sourceCellId":"1R76K8XI","sourceStableId":"1F2B0083A1B60001","pipelineFeatureId":"1R76K8XI/TOPMAR/8626614","provenance":{"cellId":"1R76K8XI","checksum":"5db8d3efa753781209c832dd7407eef2f1114a59572b8698f7bd3e3c6e730356","readerVersion":"GDAL 3.2.2","processedAt":"2026-08-11T18:29:20.995Z"},"associationRefsVerifiedInGdalOutput":false}},{"type":"Feature","geometry":{"type":"Point","coordinates":[4.0564334,51.6845]},"properties":{"dolphinKind":"topmark","rawObjectClass":"TOPMAR","sourceProperties":{"RCID":8626615,"PRIM":1,"GRUP":2,"OBJL":144,"RVER":1,"AGEN":7979,"FIDN":8626615,"FIDS":1,"LNAM":"1F2B0083A1B70001","COLOUR":["3"],"TOPSHP":5,"SCAMIN":200000,"sourceCellId":"1R76K8XI","sourceChecksum":"5db8d3efa753781209c832dd7407eef2f1114a59572b8698f7bd3e3c6e730356","rawObjectClass":"TOPMAR","sourceStableId":"1F2B0083A1B70001"},"sourceKind":"official","official":true,"sourceCellId":"1R76K8XI","sourceStableId":"1F2B0083A1B70001","pipelineFeatureId":"1R76K8XI/TOPMAR/8626615","provenance":{"cellId":"1R76K8XI","checksum":"5db8d3efa753781209c832dd7407eef2f1114a59572b8698f7bd3e3c6e730356","readerVersion":"GDAL 3.2.2","processedAt":"2026-08-11T18:29:20.995Z"},"associationRefsVerifiedInGdalOutput":false}},{"type":"Feature","geometry":{"type":"Point","coordinates":[4.05245,51.68515]},"properties":{"dolphinKind":"topmark","rawObjectClass":"TOPMAR","sourceProperties":{"RCID":8626616,"PRIM":1,"GRUP":2,"OBJL":144,"RVER":1,"AGEN":7979,"FIDN":8626616,"FIDS":1,"LNAM":"1F2B0083A1B80001","COLOUR":["3"],"TOPSHP":5,"SCAMIN":200000,"sourceCellId":"1R76K8XI","sourceChecksum":"5db8d3efa753781209c832dd7407eef2f1114a59572b8698f7bd3e3c6e730356","rawObjectClass":"TOPMAR","sourceStableId":"1F2B0083A1B80001"},"sourceKind":"official","official":true,"sourceCellId":"1R76K8XI","sourceStableId":"1F2B0083A1B80001","pipelineFeatureId":"1R76K8XI/TOPMAR/8626616","provenance":{"cellId":"1R76K8XI","checksum":"5db8d3efa753781209c832dd7407eef2f1114a59572b8698f7bd3e3c6e730356","readerVersion":"GDAL 3.2.2","processedAt":"2026-08-11T18:29:20.995Z"},"associationRefsVerifiedInGdalOutput":false}},{"type":"Feature","geometry":{"type":"Point","coordinates":[4.0487833,51.6860666]},"properties":{"dolphinKind":"topmark","rawObjectClass":"TOPMAR","sourceProperties":{"RCID":8626617,"PRIM":1,"GRUP":2,"OBJL":144,"RVER":1,"AGEN":7979,"FIDN":8626617,"FIDS":1,"LNAM":"1F2B0083A1B90001","COLOUR":["3"],"TOPSHP":5,"SCAMIN":200000,"sourceCellId":"1R76K8XI","sourceChecksum":"5db8d3efa753781209c832dd7407eef2f1114a59572b8698f7bd3e3c6e730356","rawObjectClass":"TOPMAR","sourceStableId":"1F2B0083A1B90001"},"sourceKind":"official","official":true,"sourceCellId":"1R76K8XI","sourceStableId":"1F2B0083A1B90001","pipelineFeatureId":"1R76K8XI/TOPMAR/8626617","provenance":{"cellId":"1R76K8XI","checksum":"5db8d3efa753781209c832dd7407eef2f1114a59572b8698f7bd3e3c6e730356","readerVersion":"GDAL 3.2.2","processedAt":"2026-08-11T18:29:20.995Z"},"associationRefsVerifiedInGdalOutput":false}},{"type":"Feature","geometry":{"type":"Point","coordinates":[4.04135,51.6877167]},"properties":{"dolphinKind":"topmark","rawObjectClass":"TOPMAR","sourceProperties":{"RCID":8626618,"PRIM":1,"GRUP":2,"OBJL":144,"RVER":1,"AGEN":7979,"FIDN":8626618,"FIDS":1,"LNAM":"1F2B0083A1BA0001","COLOUR":["3"],"TOPSHP":5,"SCAMIN":200000,"sourceCellId":"1R76K8XI","sourceChecksum":"5db8d3efa753781209c832dd7407eef2f1114a59572b8698f7bd3e3c6e730356","rawObjectClass":"TOPMAR","sourceStableId":"1F2B0083A1BA0001"},"sourceKind":"official","official":true,"sourceCellId":"1R76K8XI","sourceStableId":"1F2B0083A1BA0001","pipelineFeatureId":"1R76K8XI/TOPMAR/8626618","provenance":{"cellId":"1R76K8XI","checksum":"5db8d3efa753781209c832dd7407eef2f1114a59572b8698f7bd3e3c6e730356","readerVersion":"GDAL 3.2.2","processedAt":"2026-08-11T18:29:20.995Z"},"associationRefsVerifiedInGdalOutput":false}},{"type":"Feature","geometry":{"type":"Point","coordinates":[4.0328833,51.6894834]},"properties":{"dolphinKind":"topmark","rawObjectClass":"TOPMAR","sourceProperties":{"RCID":8626619,"PRIM":1,"GRUP":2,"OBJL":144,"RVER":1,"AGEN":7979,"FIDN":8626619,"FIDS":1,"LNAM":"1F2B0083A1BB0001","COLOUR":["3"],"TOPSHP":5,"SCAMIN":200000,"sourceCellId":"1R76K8XI","sourceChecksum":"5db8d3efa753781209c832dd7407eef2f1114a59572b8698f7bd3e3c6e730356","rawObjectClass":"TOPMAR","sourceStableId":"1F2B0083A1BB0001"},"sourceKind":"official","official":true,"sourceCellId":"1R76K8XI","sourceStableId":"1F2B0083A1BB0001","pipelineFeatureId":"1R76K8XI/TOPMAR/8626619","provenance":{"cellId":"1R76K8XI","checksum":"5db8d3efa753781209c832dd7407eef2f1114a59572b8698f7bd3e3c6e730356","readerVersion":"GDAL 3.2.2","processedAt":"2026-08-11T18:29:20.995Z"},"associationRefsVerifiedInGdalOutput":false}},{"type":"Feature","geometry":{"type":"Point","coordinates":[4.0287333,51.6904167]},"properties":{"dolphinKind":"topmark","rawObjectClass":"TOPMAR","sourceProperties":{"RCID":8626620,"PRIM":1,"GRUP":2,"OBJL":144,"RVER":1,"AGEN":7979,"FIDN":8626620,"FIDS":1,"LNAM":"1F2B0083A1BC0001","COLOUR":["3"],"TOPSHP":5,"SCAMIN":200000,"sourceCellId":"1R76K8XI","sourceChecksum":"5db8d3efa753781209c832dd7407eef2f1114a59572b8698f7bd3e3c6e730356","rawObjectClass":"TOPMAR","sourceStableId":"1F2B0083A1BC0001"},"sourceKind":"official","official":true,"sourceCellId":"1R76K8XI","sourceStableId":"1F2B0083A1BC0001","pipelineFeatureId":"1R76K8XI/TOPMAR/8626620","provenance":{"cellId":"1R76K8XI","checksum":"5db8d3efa753781209c832dd7407eef2f1114a59572b8698f7bd3e3c6e730356","readerVersion":"GDAL 3.2.2","processedAt":"2026-08-11T18:29:20.995Z"},"associationRefsVerifiedInGdalOutput":false}},{"type":"Feature","geometry":{"type":"Point","coordinates":[4.02445,51.6909667]},"properties":{"dolphinKind":"topmark","rawObjectClass":"TOPMAR","sourceProperties":{"RCID":8626621,"PRIM":1,"GRUP":2,"OBJL":144,"RVER":1,"AGEN":7979,"FIDN":8626621,"FIDS":1,"LNAM":"1F2B0083A1BD0001","COLOUR":["3"],"TOPSHP":5,"SCAMIN":200000,"sourceCellId":"1R76K8XI","sourceChecksum":"5db8d3efa753781209c832dd7407eef2f1114a59572b8698f7bd3e3c6e730356","rawObjectClass":"TOPMAR","sourceStableId":"1F2B0083A1BD0001"},"sourceKind":"official","official":true,"sourceCellId":"1R76K8XI","sourceStableId":"1F2B0083A1BD0001","pipelineFeatureId":"1R76K8XI/TOPMAR/8626621","provenance":{"cellId":"1R76K8XI","checksum":"5db8d3efa753781209c832dd7407eef2f1114a59572b8698f7bd3e3c6e730356","readerVersion":"GDAL 3.2.2","processedAt":"2026-08-11T18:29:20.995Z"},"associationRefsVerifiedInGdalOutput":false}},{"type":"Feature","geometry":{"type":"Point","coordinates":[4.0206499,51.6916667]},"properties":{"dolphinKind":"topmark","rawObjectClass":"TOPMAR","sourceProperties":{"RCID":8626622,"PRIM":1,"GRUP":2,"OBJL":144,"RVER":1,"AGEN":7979,"FIDN":8626622,"FIDS":1,"LNAM":"1F2B0083A1BE0001","COLOUR":["3"],"TOPSHP":5,"SCAMIN":200000,"sourceCellId":"1R76K8XI","sourceChecksum":"5db8d3efa753781209c832dd7407eef2f1114a59572b8698f7bd3e3c6e730356","rawObjectClass":"TOPMAR","sourceStableId":"1F2B0083A1BE0001"},"sourceKind":"official","official":true,"sourceCellId":"1R76K8XI","sourceStableId":"1F2B0083A1BE0001","pipelineFeatureId":"1R76K8XI/TOPMAR/8626622","provenance":{"cellId":"1R76K8XI","checksum":"5db8d3efa753781209c832dd7407eef2f1114a59572b8698f7bd3e3c6e730356","readerVersion":"GDAL 3.2.2","processedAt":"2026-08-11T18:29:20.995Z"},"associationRefsVerifiedInGdalOutput":false}},{"type":"Feature","geometry":{"type":"Point","coordinates":[4.0161499,51.69275]},"properties":{"dolphinKind":"topmark","rawObjectClass":"TOPMAR","sourceProperties":{"RCID":8626623,"PRIM":1,"GRUP":2,"OBJL":144,"RVER":1,"AGEN":7979,"FIDN":8626623,"FIDS":1,"LNAM":"1F2B0083A1BF0001","COLOUR":["3"],"TOPSHP":5,"SCAMIN":200000,"sourceCellId":"1R76K8XI","sourceChecksum":"5db8d3efa753781209c832dd7407eef2f1114a59572b8698f7bd3e3c6e730356","rawObjectClass":"TOPMAR","sourceStableId":"1F2B0083A1BF0001"},"sourceKind":"official","official":true,"sourceCellId":"1R76K8XI","sourceStableId":"1F2B0083A1BF0001","pipelineFeatureId":"1R76K8XI/TOPMAR/8626623","provenance":{"cellId":"1R76K8XI","checksum":"5db8d3efa753781209c832dd7407eef2f1114a59572b8698f7bd3e3c6e730356","readerVersion":"GDAL 3.2.2","processedAt":"2026-08-11T18:29:20.995Z"},"associationRefsVerifiedInGdalOutput":false}},{"type":"Feature","geometry":{"type":"Point","coordinates":[4.0134666,51.6953]},"properties":{"dolphinKind":"topmark","rawObjectClass":"TOPMAR","sourceProperties":{"RCID":8626624,"PRIM":1,"GRUP":2,"OBJL":144,"RVER":1,"AGEN":7979,"FIDN":8626624,"FIDS":1,"LNAM":"1F2B0083A1C00001","COLOUR":["3"],"TOPSHP":5,"SCAMIN":200000,"sourceCellId":"1R76K8XI","sourceChecksum":"5db8d3efa753781209c832dd7407eef2f1114a59572b8698f7bd3e3c6e730356","rawObjectClass":"TOPMAR","sourceStableId":"1F2B0083A1C00001"},"sourceKind":"official","official":true,"sourceCellId":"1R76K8XI","sourceStableId":"1F2B0083A1C00001","pipelineFeatureId":"1R76K8XI/TOPMAR/8626624","provenance":{"cellId":"1R76K8XI","checksum":"5db8d3efa753781209c832dd7407eef2f1114a59572b8698f7bd3e3c6e730356","readerVersion":"GDAL 3.2.2","processedAt":"2026-08-11T18:29:20.995Z"},"associationRefsVerifiedInGdalOutput":false}},{"type":"Feature","geometry":{"type":"Point","coordinates":[4.0455,51.68675]},"properties":{"dolphinKind":"topmark","rawObjectClass":"TOPMAR","sourceProperties":{"RCID":8626625,"PRIM":1,"GRUP":2,"OBJL":144,"RVER":1,"AGEN":7979,"FIDN":8626625,"FIDS":1,"LNAM":"1F2B0083A1C10001","COLOUR":["3"],"TOPSHP":5,"SCAMIN":200000,"sourceCellId":"1R76K8XI","sourceChecksum":"5db8d3efa753781209c832dd7407eef2f1114a59572b8698f7bd3e3c6e730356","rawObjectClass":"TOPMAR","sourceStableId":"1F2B0083A1C10001"},"sourceKind":"official","official":true,"sourceCellId":"1R76K8XI","sourceStableId":"1F2B0083A1C10001","pipelineFeatureId":"1R76K8XI/TOPMAR/8626625","provenance":{"cellId":"1R76K8XI","checksum":"5db8d3efa753781209c832dd7407eef2f1114a59572b8698f7bd3e3c6e730356","readerVersion":"GDAL 3.2.2","processedAt":"2026-08-11T18:29:20.995Z"},"associationRefsVerifiedInGdalOutput":false}},{"type":"Feature","geometry":{"type":"Point","coordinates":[4.0607001,51.6833167]},"properties":{"dolphinKind":"topmark","rawObjectClass":"TOPMAR","sourceProperties":{"RCID":8626628,"PRIM":1,"GRUP":2,"OBJL":144,"RVER":1,"AGEN":7979,"FIDN":8626628,"FIDS":1,"LNAM":"1F2B0083A1C40001","COLOUR":["3"],"TOPSHP":5,"SCAMIN":200000,"sourceCellId":"1R76K8XI","sourceChecksum":"5db8d3efa753781209c832dd7407eef2f1114a59572b8698f7bd3e3c6e730356","rawObjectClass":"TOPMAR","sourceStableId":"1F2B0083A1C40001"},"sourceKind":"official","official":true,"sourceCellId":"1R76K8XI","sourceStableId":"1F2B0083A1C40001","pipelineFeatureId":"1R76K8XI/TOPMAR/8626628","provenance":{"cellId":"1R76K8XI","checksum":"5db8d3efa753781209c832dd7407eef2f1114a59572b8698f7bd3e3c6e730356","readerVersion":"GDAL 3.2.2","processedAt":"2026-08-11T18:29:20.995Z"},"associationRefsVerifiedInGdalOutput":false}},{"type":"Feature","geometry":{"type":"Point","coordinates":[4.0950834,51.6817833]},"properties":{"dolphinKind":"topmark","rawObjectClass":"TOPMAR","sourceProperties":{"RCID":8626629,"PRIM":1,"GRUP":2,"OBJL":144,"RVER":1,"AGEN":7979,"FIDN":8626629,"FIDS":1,"LNAM":"1F2B0083A1C50001","COLOUR":["3"],"TOPSHP":5,"SCAMIN":200000,"sourceCellId":"1R76K8XI","sourceChecksum":"5db8d3efa753781209c832dd7407eef2f1114a59572b8698f7bd3e3c6e730356","rawObjectClass":"TOPMAR","sourceStableId":"1F2B0083A1C50001"},"sourceKind":"official","official":true,"sourceCellId":"1R76K8XI","sourceStableId":"1F2B0083A1C50001","pipelineFeatureId":"1R76K8XI/TOPMAR/8626629","provenance":{"cellId":"1R76K8XI","checksum":"5db8d3efa753781209c832dd7407eef2f1114a59572b8698f7bd3e3c6e730356","readerVersion":"GDAL 3.2.2","processedAt":"2026-08-11T18:29:20.995Z"},"associationRefsVerifiedInGdalOutput":false}},{"type":"Feature","geometry":{"type":"Point","coordinates":[4.0918,51.68345]},"properties":{"dolphinKind":"topmark","rawObjectClass":"TOPMAR","sourceProperties":{"RCID":8626630,"PRIM":1,"GRUP":2,"OBJL":144,"RVER":1,"AGEN":7979,"FIDN":8626630,"FIDS":1,"LNAM":"1F2B0083A1C60001","COLOUR":["3"],"TOPSHP":5,"SCAMIN":200000,"sourceCellId":"1R76K8XI","sourceChecksum":"5db8d3efa753781209c832dd7407eef2f1114a59572b8698f7bd3e3c6e730356","rawObjectClass":"TOPMAR","sourceStableId":"1F2B0083A1C60001"},"sourceKind":"official","official":true,"sourceCellId":"1R76K8XI","sourceStableId":"1F2B0083A1C60001","pipelineFeatureId":"1R76K8XI/TOPMAR/8626630","provenance":{"cellId":"1R76K8XI","checksum":"5db8d3efa753781209c832dd7407eef2f1114a59572b8698f7bd3e3c6e730356","readerVersion":"GDAL 3.2.2","processedAt":"2026-08-11T18:29:20.995Z"},"associationRefsVerifiedInGdalOutput":false}},{"type":"Feature","geometry":{"type":"Point","coordinates":[4.1311667,51.68375]},"properties":{"dolphinKind":"topmark","rawObjectClass":"TOPMAR","sourceProperties":{"RCID":8631358,"PRIM":1,"GRUP":2,"OBJL":144,"RVER":1,"AGEN":7979,"FIDN":8631358,"FIDS":1,"LNAM":"1F2B0083B43E0001","COLOUR":["4"],"TOPSHP":1,"SCAMIN":200000,"SORDAT":"20170330","SORIND":"NL,1R,reprt,Kitesurfgebieden","sourceCellId":"1R76K8XI","sourceChecksum":"5db8d3efa753781209c832dd7407eef2f1114a59572b8698f7bd3e3c6e730356","rawObjectClass":"TOPMAR","sourceStableId":"1F2B0083B43E0001"},"sourceKind":"official","official":true,"sourceCellId":"1R76K8XI","sourceStableId":"1F2B0083B43E0001","pipelineFeatureId":"1R76K8XI/TOPMAR/8631358","provenance":{"cellId":"1R76K8XI","checksum":"5db8d3efa753781209c832dd7407eef2f1114a59572b8698f7bd3e3c6e730356","readerVersion":"GDAL 3.2.2","processedAt":"2026-08-11T18:29:20.995Z"},"associationRefsVerifiedInGdalOutput":false}},{"type":"Feature","geometry":{"type":"Point","coordinates":[4.1000333,51.6818333]},"properties":{"dolphinKind":"topmark","rawObjectClass":"TOPMAR","sourceProperties":{"RCID":25492019,"PRIM":1,"GRUP":2,"OBJL":144,"RVER":1,"AGEN":7979,"FIDN":25492019,"FIDS":1,"LNAM":"1F2B0184FA330001","COLOUR":["3"],"TOPSHP":5,"SCAMIN":200000,"sourceCellId":"1R76K8XI","sourceChecksum":"5db8d3efa753781209c832dd7407eef2f1114a59572b8698f7bd3e3c6e730356","rawObjectClass":"TOPMAR","sourceStableId":"1F2B0184FA330001"},"sourceKind":"official","official":true,"sourceCellId":"1R76K8XI","sourceStableId":"1F2B0184FA330001","pipelineFeatureId":"1R76K8XI/TOPMAR/25492019","provenance":{"cellId":"1R76K8XI","checksum":"5db8d3efa753781209c832dd7407eef2f1114a59572b8698f7bd3e3c6e730356","readerVersion":"GDAL 3.2.2","processedAt":"2026-08-11T18:29:20.995Z"},"associationRefsVerifiedInGdalOutput":false}},{"type":"Feature","geometry":{"type":"Point","coordinates":[4.1032833,51.6838833]},"properties":{"dolphinKind":"topmark","rawObjectClass":"TOPMAR","sourceProperties":{"RCID":25492021,"PRIM":1,"GRUP":2,"OBJL":144,"RVER":1,"AGEN":7979,"FIDN":25492021,"FIDS":1,"LNAM":"1F2B0184FA350001","COLOUR":["3"],"TOPSHP":5,"SCAMIN":200000,"sourceCellId":"1R76K8XI","sourceChecksum":"5db8d3efa753781209c832dd7407eef2f1114a59572b8698f7bd3e3c6e730356","rawObjectClass":"TOPMAR","sourceStableId":"1F2B0184FA350001"},"sourceKind":"official","official":true,"sourceCellId":"1R76K8XI","sourceStableId":"1F2B0184FA350001","pipelineFeatureId":"1R76K8XI/TOPMAR/25492021","provenance":{"cellId":"1R76K8XI","checksum":"5db8d3efa753781209c832dd7407eef2f1114a59572b8698f7bd3e3c6e730356","readerVersion":"GDAL 3.2.2","processedAt":"2026-08-11T18:29:20.995Z"},"associationRefsVerifiedInGdalOutput":false}},{"type":"Feature","geometry":{"type":"Point","coordinates":[4.10065,51.6872333]},"properties":{"dolphinKind":"topmark","rawObjectClass":"TOPMAR","sourceProperties":{"RCID":25492023,"PRIM":1,"GRUP":2,"OBJL":144,"RVER":1,"AGEN":7979,"FIDN":25492023,"FIDS":1,"LNAM":"1F2B0184FA370001","COLOUR":["3"],"TOPSHP":5,"SCAMIN":200000,"sourceCellId":"1R76K8XI","sourceChecksum":"5db8d3efa753781209c832dd7407eef2f1114a59572b8698f7bd3e3c6e730356","rawObjectClass":"TOPMAR","sourceStableId":"1F2B0184FA370001"},"sourceKind":"official","official":true,"sourceCellId":"1R76K8XI","sourceStableId":"1F2B0184FA370001","pipelineFeatureId":"1R76K8XI/TOPMAR/25492023","provenance":{"cellId":"1R76K8XI","checksum":"5db8d3efa753781209c832dd7407eef2f1114a59572b8698f7bd3e3c6e730356","readerVersion":"GDAL 3.2.2","processedAt":"2026-08-11T18:29:20.995Z"},"associationRefsVerifiedInGdalOutput":false}},{"type":"Feature","geometry":{"type":"Point","coordinates":[4.12685,51.6825333]},"properties":{"dolphinKind":"topmark","rawObjectClass":"TOPMAR","sourceProperties":{"RCID":209455850,"PRIM":1,"GRUP":2,"OBJL":144,"RVER":1,"AGEN":7979,"FIDN":209455850,"FIDS":1,"LNAM":"1F2B0C7C0AEA0001","COLOUR":["1"],"TOPSHP":1,"SCAMIN":200000,"SORDAT":"20170330","SORIND":"NL,1R,reprt,Kitesurfgebieden","sourceCellId":"1R76K8XI","sourceChecksum":"5db8d3efa753781209c832dd7407eef2f1114a59572b8698f7bd3e3c6e730356","rawObjectClass":"TOPMAR","sourceStableId":"1F2B0C7C0AEA0001"},"sourceKind":"official","official":true,"sourceCellId":"1R76K8XI","sourceStableId":"1F2B0C7C0AEA0001","pipelineFeatureId":"1R76K8XI/TOPMAR/209455850","provenance":{"cellId":"1R76K8XI","checksum":"5db8d3efa753781209c832dd7407eef2f1114a59572b8698f7bd3e3c6e730356","readerVersion":"GDAL 3.2.2","processedAt":"2026-08-11T18:29:20.995Z"},"associationRefsVerifiedInGdalOutput":false}},{"type":"Feature","geometry":{"type":"Point","coordinates":[4.0455333,51.6985333]},"properties":{"dolphinKind":"topmark","rawObjectClass":"TOPMAR","sourceProperties":{"RCID":263637202,"PRIM":1,"GRUP":2,"OBJL":144,"RVER":1,"AGEN":7979,"FIDN":263637202,"FIDS":1,"LNAM":"1F2B0FB6C8D20001","COLOUR":["4"],"TOPSHP":1,"SCAMIN":200000,"SORDAT":"20180620","SORIND":"NL,1R,reprt,MD 271-18","sourceCellId":"1R76K8XI","sourceChecksum":"5db8d3efa753781209c832dd7407eef2f1114a59572b8698f7bd3e3c6e730356","rawObjectClass":"TOPMAR","sourceStableId":"1F2B0FB6C8D20001"},"sourceKind":"official","official":true,"sourceCellId":"1R76K8XI","sourceStableId":"1F2B0FB6C8D20001","pipelineFeatureId":"1R76K8XI/TOPMAR/263637202","provenance":{"cellId":"1R76K8XI","checksum":"5db8d3efa753781209c832dd7407eef2f1114a59572b8698f7bd3e3c6e730356","readerVersion":"GDAL 3.2.2","processedAt":"2026-08-11T18:29:20.995Z"},"associationRefsVerifiedInGdalOutput":false}},{"type":"Feature","geometry":{"type":"Point","coordinates":[4.0429667,51.6974667]},"properties":{"dolphinKind":"topmark","rawObjectClass":"TOPMAR","sourceProperties":{"RCID":263637253,"PRIM":1,"GRUP":2,"OBJL":144,"RVER":1,"AGEN":7979,"FIDN":263637253,"FIDS":1,"LNAM":"1F2B0FB6C9050001","COLOUR":["3"],"TOPSHP":5,"SCAMIN":200000,"SORDAT":"20180620","SORIND":"NL,1R,reprt,MD 271-18","sourceCellId":"1R76K8XI","sourceChecksum":"5db8d3efa753781209c832dd7407eef2f1114a59572b8698f7bd3e3c6e730356","rawObjectClass":"TOPMAR","sourceStableId":"1F2B0FB6C9050001"},"sourceKind":"official","official":true,"sourceCellId":"1R76K8XI","sourceStableId":"1F2B0FB6C9050001","pipelineFeatureId":"1R76K8XI/TOPMAR/263637253","provenance":{"cellId":"1R76K8XI","checksum":"5db8d3efa753781209c832dd7407eef2f1114a59572b8698f7bd3e3c6e730356","readerVersion":"GDAL 3.2.2","processedAt":"2026-08-11T18:29:20.995Z"},"associationRefsVerifiedInGdalOutput":false}},{"type":"Feature","geometry":{"type":"Point","coordinates":[4.0481833,51.6946]},"properties":{"dolphinKind":"topmark","rawObjectClass":"TOPMAR","sourceProperties":{"RCID":263637305,"PRIM":1,"GRUP":2,"OBJL":144,"RVER":1,"AGEN":7979,"FIDN":263637305,"FIDS":1,"LNAM":"1F2B0FB6C9390001","COLOUR":["4"],"TOPSHP":1,"SCAMIN":200000,"SORDAT":"20180620","SORIND":"NL,1R,reprt,MD 271-18","sourceCellId":"1R76K8XI","sourceChecksum":"5db8d3efa753781209c832dd7407eef2f1114a59572b8698f7bd3e3c6e730356","rawObjectClass":"TOPMAR","sourceStableId":"1F2B0FB6C9390001"},"sourceKind":"official","official":true,"sourceCellId":"1R76K8XI","sourceStableId":"1F2B0FB6C9390001","pipelineFeatureId":"1R76K8XI/TOPMAR/263637305","provenance":{"cellId":"1R76K8XI","checksum":"5db8d3efa753781209c832dd7407eef2f1114a59572b8698f7bd3e3c6e730356","readerVersion":"GDAL 3.2.2","processedAt":"2026-08-11T18:29:20.995Z"},"associationRefsVerifiedInGdalOutput":false}},{"type":"Feature","geometry":{"type":"Point","coordinates":[4.0464167,51.6982667]},"properties":{"dolphinKind":"topmark","rawObjectClass":"TOPMAR","sourceProperties":{"RCID":263650907,"PRIM":1,"GRUP":2,"OBJL":144,"RVER":1,"AGEN":7979,"FIDN":263650907,"FIDS":1,"LNAM":"1F2B0FB6FE5B0001","COLOUR":["4"],"TOPSHP":29,"SCAMIN":200000,"SORDAT":"20180620","SORIND":"NL,1R,reprt,MD 272-18","sourceCellId":"1R76K8XI","sourceChecksum":"5db8d3efa753781209c832dd7407eef2f1114a59572b8698f7bd3e3c6e730356","rawObjectClass":"TOPMAR","sourceStableId":"1F2B0FB6FE5B0001"},"sourceKind":"official","official":true,"sourceCellId":"1R76K8XI","sourceStableId":"1F2B0FB6FE5B0001","pipelineFeatureId":"1R76K8XI/TOPMAR/263650907","provenance":{"cellId":"1R76K8XI","checksum":"5db8d3efa753781209c832dd7407eef2f1114a59572b8698f7bd3e3c6e730356","readerVersion":"GDAL 3.2.2","processedAt":"2026-08-11T18:29:20.995Z"},"associationRefsVerifiedInGdalOutput":false}},{"type":"Feature","geometry":{"type":"Point","coordinates":[4.0519333,51.6974333]},"properties":{"dolphinKind":"topmark","rawObjectClass":"TOPMAR","sourceProperties":{"RCID":263650959,"PRIM":1,"GRUP":2,"OBJL":144,"RVER":1,"AGEN":7979,"FIDN":263650959,"FIDS":1,"LNAM":"1F2B0FB6FE8F0001","COLOUR":["3"],"TOPSHP":5,"SCAMIN":200000,"SORDAT":"20180620","SORIND":"NL,1R,reprt,MD 272-18","sourceCellId":"1R76K8XI","sourceChecksum":"5db8d3efa753781209c832dd7407eef2f1114a59572b8698f7bd3e3c6e730356","rawObjectClass":"TOPMAR","sourceStableId":"1F2B0FB6FE8F0001"},"sourceKind":"official","official":true,"sourceCellId":"1R76K8XI","sourceStableId":"1F2B0FB6FE8F0001","pipelineFeatureId":"1R76K8XI/TOPMAR/263650959","provenance":{"cellId":"1R76K8XI","checksum":"5db8d3efa753781209c832dd7407eef2f1114a59572b8698f7bd3e3c6e730356","readerVersion":"GDAL 3.2.2","processedAt":"2026-08-11T18:29:20.995Z"},"associationRefsVerifiedInGdalOutput":false}},{"type":"Feature","geometry":{"type":"Point","coordinates":[4.0579,51.6963333]},"properties":{"dolphinKind":"topmark","rawObjectClass":"TOPMAR","sourceProperties":{"RCID":263652861,"PRIM":1,"GRUP":2,"OBJL":144,"RVER":1,"AGEN":7979,"FIDN":263652861,"FIDS":1,"LNAM":"1F2B0FB705FD0001","COLOUR":["3"],"TOPSHP":5,"SCAMIN":200000,"SORDAT":"20180620","SORIND":"NL,1R,reprt,MD 272-18","sourceCellId":"1R76K8XI","sourceChecksum":"5db8d3efa753781209c832dd7407eef2f1114a59572b8698f7bd3e3c6e730356","rawObjectClass":"TOPMAR","sourceStableId":"1F2B0FB705FD0001"},"sourceKind":"official","official":true,"sourceCellId":"1R76K8XI","sourceStableId":"1F2B0FB705FD0001","pipelineFeatureId":"1R76K8XI/TOPMAR/263652861","provenance":{"cellId":"1R76K8XI","checksum":"5db8d3efa753781209c832dd7407eef2f1114a59572b8698f7bd3e3c6e730356","readerVersion":"GDAL 3.2.2","processedAt":"2026-08-11T18:29:20.995Z"},"associationRefsVerifiedInGdalOutput":false}},{"type":"Feature","geometry":{"type":"Point","coordinates":[4.0646667,51.69515]},"properties":{"dolphinKind":"topmark","rawObjectClass":"TOPMAR","sourceProperties":{"RCID":263652863,"PRIM":1,"GRUP":2,"OBJL":144,"RVER":1,"AGEN":7979,"FIDN":263652863,"FIDS":1,"LNAM":"1F2B0FB705FF0001","COLOUR":["4"],"TOPSHP":29,"SCAMIN":200000,"SORDAT":"20180620","SORIND":"NL,1R,reprt,MD 272-18","sourceCellId":"1R76K8XI","sourceChecksum":"5db8d3efa753781209c832dd7407eef2f1114a59572b8698f7bd3e3c6e730356","rawObjectClass":"TOPMAR","sourceStableId":"1F2B0FB705FF0001"},"sourceKind":"official","official":true,"sourceCellId":"1R76K8XI","sourceStableId":"1F2B0FB705FF0001","pipelineFeatureId":"1R76K8XI/TOPMAR/263652863","provenance":{"cellId":"1R76K8XI","checksum":"5db8d3efa753781209c832dd7407eef2f1114a59572b8698f7bd3e3c6e730356","readerVersion":"GDAL 3.2.2","processedAt":"2026-08-11T18:29:20.995Z"},"associationRefsVerifiedInGdalOutput":false}},{"type":"Feature","geometry":{"type":"Point","coordinates":[4.089065,51.6958667]},"properties":{"dolphinKind":"topmark","rawObjectClass":"TOPMAR","sourceProperties":{"RCID":1163005454,"PRIM":1,"GRUP":2,"OBJL":144,"RVER":1,"AGEN":7979,"FIDN":1163005454,"FIDS":1,"LNAM":"1F2B45520E0E0001","COLOUR":["4"],"TOPSHP":1,"SCAMIN":200000,"SORDAT":"20231023","SORIND":"NL,1R,reprt,MD 507-23","sourceCellId":"1R76K8XI","sourceChecksum":"5db8d3efa753781209c832dd7407eef2f1114a59572b8698f7bd3e3c6e730356","rawObjectClass":"TOPMAR","sourceStableId":"1F2B45520E0E0001"},"sourceKind":"official","official":true,"sourceCellId":"1R76K8XI","sourceStableId":"1F2B45520E0E0001","pipelineFeatureId":"1R76K8XI/TOPMAR/1163005454","provenance":{"cellId":"1R76K8XI","checksum":"5db8d3efa753781209c832dd7407eef2f1114a59572b8698f7bd3e3c6e730356","readerVersion":"GDAL 3.2.2","processedAt":"2026-08-11T18:29:20.995Z"},"associationRefsVerifiedInGdalOutput":false}}]}