{"type":"FeatureCollection","features":[{"type":"Feature","geometry":{"type":"Point","coordinates":[3.37341,51.5873933]},"properties":{"dolphinKind":"buoy-lateral","rawObjectClass":"BOYLAT","sourceProperties":{"RCID":17454,"PRIM":1,"GRUP":2,"OBJL":17,"RVER":1,"AGEN":7979,"FIDN":1106834684,"FIDS":260,"LNAM":"1F2B41F8F4FC0104","LNAM_REFS":["1F2B41F8F4FC0103"],"FFPT_RIND":[2],"BOYSHP":1,"CATLAM":2,"COLOUR":["4"],"OBJNAM":"OG 3","SCAMIN":200000,"SORDAT":"20170530","SORIND":"NL,1R,Reprt,BASS039-2017","sourceCellId":"1R75K8LI","sourceChecksum":"f5a3e7e4b4d5e20ea81855f68e4fa6589e63223a43b5c410c10a0a9e7ba77ac4","rawObjectClass":"BOYLAT","sourceStableId":"1F2B41F8F4FC0104"},"sourceKind":"official","official":true,"sourceCellId":"1R75K8LI","sourceStableId":"1F2B41F8F4FC0104","pipelineFeatureId":"1R75K8LI/BOYLAT/17454","provenance":{"cellId":"1R75K8LI","checksum":"f5a3e7e4b4d5e20ea81855f68e4fa6589e63223a43b5c410c10a0a9e7ba77ac4","readerVersion":"GDAL 3.2.2","processedAt":"2026-08-11T13:43:44.753Z"}}},{"type":"Feature","geometry":{"type":"Point","coordinates":[3.3455,51.6061667]},"properties":{"dolphinKind":"buoy-lateral","rawObjectClass":"BOYLAT","sourceProperties":{"RCID":17456,"PRIM":1,"GRUP":2,"OBJL":17,"RVER":1,"AGEN":7979,"FIDN":1106834684,"FIDS":262,"LNAM":"1F2B41F8F4FC0106","LNAM_REFS":["1F2B41F8F4FC0105","1F2B4873C3C20001"],"FFPT_RIND":[2,2],"BOYSHP":1,"CATLAM":2,"COLOUR":["4"],"OBJNAM":"OG 1","SCAMIN":200000,"SORDAT":"20170530","SORIND":"NL,1R,Reprt,BASS039-2017","sourceCellId":"1R75K8LI","sourceChecksum":"f5a3e7e4b4d5e20ea81855f68e4fa6589e63223a43b5c410c10a0a9e7ba77ac4","rawObjectClass":"BOYLAT","sourceStableId":"1F2B41F8F4FC0106"},"sourceKind":"official","official":true,"sourceCellId":"1R75K8LI","sourceStableId":"1F2B41F8F4FC0106","pipelineFeatureId":"1R75K8LI/BOYLAT/17456","provenance":{"cellId":"1R75K8LI","checksum":"f5a3e7e4b4d5e20ea81855f68e4fa6589e63223a43b5c410c10a0a9e7ba77ac4","readerVersion":"GDAL 3.2.2","processedAt":"2026-08-11T13:43:44.753Z"}}},{"type":"Feature","geometry":{"type":"Point","coordinates":[3.436155,51.58313]},"properties":{"dolphinKind":"buoy-lateral","rawObjectClass":"BOYLAT","sourceProperties":{"RCID":17537,"PRIM":1,"GRUP":2,"OBJL":17,"RVER":1,"AGEN":7979,"FIDN":1106834684,"FIDS":343,"LNAM":"1F2B41F8F4FC0157","LNAM_REFS":["1F2B41F8F4FC0156"],"FFPT_RIND":[2],"BOYSHP":5,"CATLAM":2,"COLOUR":["4"],"NATCON":["8"],"OBJNAM":"DR 1","SCAMIN":200000,"SORDAT":"20150929","SORIND":"NL,1R,reprt,MD 407-15","sourceCellId":"1R75K8LI","sourceChecksum":"f5a3e7e4b4d5e20ea81855f68e4fa6589e63223a43b5c410c10a0a9e7ba77ac4","rawObjectClass":"BOYLAT","sourceStableId":"1F2B41F8F4FC0157"},"sourceKind":"official","official":true,"sourceCellId":"1R75K8LI","sourceStableId":"1F2B41F8F4FC0157","pipelineFeatureId":"1R75K8LI/BOYLAT/17537","provenance":{"cellId":"1R75K8LI","checksum":"f5a3e7e4b4d5e20ea81855f68e4fa6589e63223a43b5c410c10a0a9e7ba77ac4","readerVersion":"GDAL 3.2.2","processedAt":"2026-08-11T13:43:44.753Z"}}},{"type":"Feature","geometry":{"type":"Point","coordinates":[3.4697583,51.586675]},"properties":{"dolphinKind":"buoy-lateral","rawObjectClass":"BOYLAT","sourceProperties":{"RCID":17538,"PRIM":1,"GRUP":2,"OBJL":17,"RVER":1,"AGEN":7979,"FIDN":1106834684,"FIDS":344,"LNAM":"1F2B41F8F4FC0158","BOYSHP":5,"CATLAM":2,"COLOUR":["4"],"NATCON":["8"],"OBJNAM":"DR 3","SCAMIN":200000,"SORDAT":"20150929","SORIND":"NL,1R,reprt,MD 407-15","sourceCellId":"1R75K8LI","sourceChecksum":"f5a3e7e4b4d5e20ea81855f68e4fa6589e63223a43b5c410c10a0a9e7ba77ac4","rawObjectClass":"BOYLAT","sourceStableId":"1F2B41F8F4FC0158"},"sourceKind":"official","official":true,"sourceCellId":"1R75K8LI","sourceStableId":"1F2B41F8F4FC0158","pipelineFeatureId":"1R75K8LI/BOYLAT/17538","provenance":{"cellId":"1R75K8LI","checksum":"f5a3e7e4b4d5e20ea81855f68e4fa6589e63223a43b5c410c10a0a9e7ba77ac4","readerVersion":"GDAL 3.2.2","processedAt":"2026-08-11T13:43:44.753Z"}}},{"type":"Feature","geometry":{"type":"Point","coordinates":[3.5305167,51.6094217]},"properties":{"dolphinKind":"buoy-lateral","rawObjectClass":"BOYLAT","sourceProperties":{"RCID":17722,"PRIM":1,"GRUP":2,"OBJL":17,"RVER":1,"AGEN":7979,"FIDN":1106834685,"FIDS":273,"LNAM":"1F2B41F8F4FD0111","LNAM_REFS":["1F2B43BED68D0001"],"FFPT_RIND":[2],"BOYSHP":5,"CATLAM":1,"COLOUR":["3"],"CONRAD":3,"NATCON":["8"],"OBJNAM":"R 6","SCAMIN":150000,"SORDAT":"20230510","SORIND":"NL,1R,reprt,MD 261-23","sourceCellId":"1R75K8LI","sourceChecksum":"f5a3e7e4b4d5e20ea81855f68e4fa6589e63223a43b5c410c10a0a9e7ba77ac4","rawObjectClass":"BOYLAT","sourceStableId":"1F2B41F8F4FD0111"},"sourceKind":"official","official":true,"sourceCellId":"1R75K8LI","sourceStableId":"1F2B41F8F4FD0111","pipelineFeatureId":"1R75K8LI/BOYLAT/17722","provenance":{"cellId":"1R75K8LI","checksum":"f5a3e7e4b4d5e20ea81855f68e4fa6589e63223a43b5c410c10a0a9e7ba77ac4","readerVersion":"GDAL 3.2.2","processedAt":"2026-08-11T13:43:44.753Z"}}},{"type":"Feature","geometry":{"type":"Point","coordinates":[3.3915,51.6185]},"properties":{"dolphinKind":"buoy-lateral","rawObjectClass":"BOYLAT","sourceProperties":{"RCID":225539577,"PRIM":1,"GRUP":2,"OBJL":17,"RVER":1,"AGEN":7979,"FIDN":225539577,"FIDS":1,"LNAM":"1F2B0D7175F90001","LNAM_REFS":["1F2B0D7178200001","1F2B4873C9D40001"],"FFPT_RIND":[2,2],"BOYSHP":2,"CATLAM":1,"COLOUR":["3"],"CONRAD":3,"OBJNAM":"OG 2","SCAMIN":200000,"SORDAT":"20170530","SORIND":"NL,1R,Reprt,BASS039-2017","sourceCellId":"1R75K8LI","sourceChecksum":"f5a3e7e4b4d5e20ea81855f68e4fa6589e63223a43b5c410c10a0a9e7ba77ac4","rawObjectClass":"BOYLAT","sourceStableId":"1F2B0D7175F90001"},"sourceKind":"official","official":true,"sourceCellId":"1R75K8LI","sourceStableId":"1F2B0D7175F90001","pipelineFeatureId":"1R75K8LI/BOYLAT/225539577","provenance":{"cellId":"1R75K8LI","checksum":"f5a3e7e4b4d5e20ea81855f68e4fa6589e63223a43b5c410c10a0a9e7ba77ac4","readerVersion":"GDAL 3.2.2","processedAt":"2026-08-11T13:43:44.753Z"}}},{"type":"Feature","geometry":{"type":"Point","coordinates":[3.4032333,51.5985117]},"properties":{"dolphinKind":"buoy-lateral","rawObjectClass":"BOYLAT","sourceProperties":{"RCID":225543279,"PRIM":1,"GRUP":2,"OBJL":17,"RVER":1,"AGEN":7979,"FIDN":225543279,"FIDS":1,"LNAM":"1F2B0D71846F0001","LNAM_REFS":["1F2B0D7184700001"],"FFPT_RIND":[2],"BOYSHP":2,"CATLAM":1,"COLOUR":["3"],"CONRAD":3,"OBJNAM":"OG 4","SCAMIN":200000,"SORDAT":"20170530","SORIND":"NL,1R,Reprt,BASS039-2017","sourceCellId":"1R75K8LI","sourceChecksum":"f5a3e7e4b4d5e20ea81855f68e4fa6589e63223a43b5c410c10a0a9e7ba77ac4","rawObjectClass":"BOYLAT","sourceStableId":"1F2B0D71846F0001"},"sourceKind":"official","official":true,"sourceCellId":"1R75K8LI","sourceStableId":"1F2B0D71846F0001","pipelineFeatureId":"1R75K8LI/BOYLAT/225543279","provenance":{"cellId":"1R75K8LI","checksum":"f5a3e7e4b4d5e20ea81855f68e4fa6589e63223a43b5c410c10a0a9e7ba77ac4","readerVersion":"GDAL 3.2.2","processedAt":"2026-08-11T13:43:44.753Z"}}},{"type":"Feature","geometry":{"type":"Point","coordinates":[3.5035717,51.5922367]},"properties":{"dolphinKind":"buoy-lateral","rawObjectClass":"BOYLAT","sourceProperties":{"RCID":506011519,"PRIM":1,"GRUP":2,"OBJL":17,"RVER":1,"AGEN":7979,"FIDN":506011519,"FIDS":1,"LNAM":"1F2B1E291F7F0001","BOYSHP":5,"CATLAM":2,"COLOUR":["4"],"OBJNAM":"DR-5","SCAMIN":200000,"sourceCellId":"1R75K8LI","sourceChecksum":"f5a3e7e4b4d5e20ea81855f68e4fa6589e63223a43b5c410c10a0a9e7ba77ac4","rawObjectClass":"BOYLAT","sourceStableId":"1F2B1E291F7F0001"},"sourceKind":"official","official":true,"sourceCellId":"1R75K8LI","sourceStableId":"1F2B1E291F7F0001","pipelineFeatureId":"1R75K8LI/BOYLAT/506011519","provenance":{"cellId":"1R75K8LI","checksum":"f5a3e7e4b4d5e20ea81855f68e4fa6589e63223a43b5c410c10a0a9e7ba77ac4","readerVersion":"GDAL 3.2.2","processedAt":"2026-08-11T13:43:44.753Z"}}},{"type":"Feature","geometry":{"type":"Point","coordinates":[3.39369,51.61887]},"properties":{"dolphinKind":"buoy-special","rawObjectClass":"BOYSPP","sourceProperties":{"RCID":13019673,"PRIM":1,"GRUP":2,"OBJL":19,"RVER":1,"AGEN":7979,"FIDN":13019673,"FIDS":1,"LNAM":"1F2B00C6AA190001","BOYSHP":3,"CATSPM":["10","9"],"COLOUR":["6"],"NOBJNM":"Golfmeetboei","OBJNAM":"Waverider DORA","INFORM":"Domburger Rassen","SCAMIN":200000,"SORDAT":"20250709","SORIND":"NL,1R,reprt,Topdesk C250702371","sourceCellId":"1R75K8LI","sourceChecksum":"f5a3e7e4b4d5e20ea81855f68e4fa6589e63223a43b5c410c10a0a9e7ba77ac4","rawObjectClass":"BOYSPP","sourceStableId":"1F2B00C6AA190001"},"sourceKind":"official","official":true,"sourceCellId":"1R75K8LI","sourceStableId":"1F2B00C6AA190001","pipelineFeatureId":"1R75K8LI/BOYSPP/13019673","provenance":{"cellId":"1R75K8LI","checksum":"f5a3e7e4b4d5e20ea81855f68e4fa6589e63223a43b5c410c10a0a9e7ba77ac4","readerVersion":"GDAL 3.2.2","processedAt":"2026-08-11T13:43:44.753Z"}}},{"type":"Feature","geometry":{"type":"Point","coordinates":[3.3871666,51.5925166]},"properties":{"dolphinKind":"light","rawObjectClass":"LIGHTS","sourceProperties":{"RCID":17421,"PRIM":1,"GRUP":2,"OBJL":75,"RVER":1,"AGEN":7979,"FIDN":1106834683,"FIDS":482,"LNAM":"1F2B41F8F4FB01E2","COLOUR":["1"],"LITCHR":7,"SIGGRP":"(1)","SIGPER":8,"SCAMIN":200000,"SORDAT":"20030930","sourceCellId":"1R75K8LI","sourceChecksum":"f5a3e7e4b4d5e20ea81855f68e4fa6589e63223a43b5c410c10a0a9e7ba77ac4","rawObjectClass":"LIGHTS","sourceStableId":"1F2B41F8F4FB01E2"},"sourceKind":"official","official":true,"sourceCellId":"1R75K8LI","sourceStableId":"1F2B41F8F4FB01E2","pipelineFeatureId":"1R75K8LI/LIGHTS/17421","provenance":{"cellId":"1R75K8LI","checksum":"f5a3e7e4b4d5e20ea81855f68e4fa6589e63223a43b5c410c10a0a9e7ba77ac4","readerVersion":"GDAL 3.2.2","processedAt":"2026-08-11T13:43:44.753Z"}}},{"type":"Feature","geometry":{"type":"Point","coordinates":[3.37341,51.5873933]},"properties":{"dolphinKind":"light","rawObjectClass":"LIGHTS","sourceProperties":{"RCID":17453,"PRIM":1,"GRUP":2,"OBJL":75,"RVER":1,"AGEN":7979,"FIDN":1106834684,"FIDS":259,"LNAM":"1F2B41F8F4FC0103","COLOUR":["4"],"LITCHR":7,"SIGGRP":"(1)","SIGPER":4,"SCAMIN":200000,"SORDAT":"20030930","sourceCellId":"1R75K8LI","sourceChecksum":"f5a3e7e4b4d5e20ea81855f68e4fa6589e63223a43b5c410c10a0a9e7ba77ac4","rawObjectClass":"LIGHTS","sourceStableId":"1F2B41F8F4FC0103"},"sourceKind":"official","official":true,"sourceCellId":"1R75K8LI","sourceStableId":"1F2B41F8F4FC0103","pipelineFeatureId":"1R75K8LI/LIGHTS/17453","provenance":{"cellId":"1R75K8LI","checksum":"f5a3e7e4b4d5e20ea81855f68e4fa6589e63223a43b5c410c10a0a9e7ba77ac4","readerVersion":"GDAL 3.2.2","processedAt":"2026-08-11T13:43:44.753Z"}}},{"type":"Feature","geometry":{"type":"Point","coordinates":[3.3455,51.6061667]},"properties":{"dolphinKind":"light","rawObjectClass":"LIGHTS","sourceProperties":{"RCID":17455,"PRIM":1,"GRUP":2,"OBJL":75,"RVER":1,"AGEN":7979,"FIDN":1106834684,"FIDS":261,"LNAM":"1F2B41F8F4FC0105","COLOUR":["4"],"LITCHR":4,"SIGGRP":"(1)","SIGPER":0.5,"SCAMIN":200000,"SORDAT":"20030930","sourceCellId":"1R75K8LI","sourceChecksum":"f5a3e7e4b4d5e20ea81855f68e4fa6589e63223a43b5c410c10a0a9e7ba77ac4","rawObjectClass":"LIGHTS","sourceStableId":"1F2B41F8F4FC0105"},"sourceKind":"official","official":true,"sourceCellId":"1R75K8LI","sourceStableId":"1F2B41F8F4FC0105","pipelineFeatureId":"1R75K8LI/LIGHTS/17455","provenance":{"cellId":"1R75K8LI","checksum":"f5a3e7e4b4d5e20ea81855f68e4fa6589e63223a43b5c410c10a0a9e7ba77ac4","readerVersion":"GDAL 3.2.2","processedAt":"2026-08-11T13:43:44.753Z"}}},{"type":"Feature","geometry":{"type":"Point","coordinates":[3.41695,51.5751883]},"properties":{"dolphinKind":"light","rawObjectClass":"LIGHTS","sourceProperties":{"RCID":17533,"PRIM":1,"GRUP":2,"OBJL":75,"RVER":1,"AGEN":7979,"FIDN":1106834684,"FIDS":339,"LNAM":"1F2B41F8F4FC0153","COLOUR":["1"],"LITCHR":4,"SIGGRP":"(9)","SIGPER":15,"SCAMIN":200000,"SORDAT":"20030930","sourceCellId":"1R75K8LI","sourceChecksum":"f5a3e7e4b4d5e20ea81855f68e4fa6589e63223a43b5c410c10a0a9e7ba77ac4","rawObjectClass":"LIGHTS","sourceStableId":"1F2B41F8F4FC0153"},"sourceKind":"official","official":true,"sourceCellId":"1R75K8LI","sourceStableId":"1F2B41F8F4FC0153","pipelineFeatureId":"1R75K8LI/LIGHTS/17533","provenance":{"cellId":"1R75K8LI","checksum":"f5a3e7e4b4d5e20ea81855f68e4fa6589e63223a43b5c410c10a0a9e7ba77ac4","readerVersion":"GDAL 3.2.2","processedAt":"2026-08-11T13:43:44.753Z"}}},{"type":"Feature","geometry":{"type":"Point","coordinates":[3.3915,51.6185]},"properties":{"dolphinKind":"light","rawObjectClass":"LIGHTS","sourceProperties":{"RCID":225540128,"PRIM":1,"GRUP":2,"OBJL":75,"RVER":1,"AGEN":7979,"FIDN":225540128,"FIDS":1,"LNAM":"1F2B0D7178200001","COLOUR":["3"],"LITCHR":4,"SIGGRP":"(1)","SIGPER":0.5,"SCAMIN":200000,"SORDAT":"20170530","SORIND":"NL,1R,Reprt,BASS039-2017","sourceCellId":"1R75K8LI","sourceChecksum":"f5a3e7e4b4d5e20ea81855f68e4fa6589e63223a43b5c410c10a0a9e7ba77ac4","rawObjectClass":"LIGHTS","sourceStableId":"1F2B0D7178200001"},"sourceKind":"official","official":true,"sourceCellId":"1R75K8LI","sourceStableId":"1F2B0D7178200001","pipelineFeatureId":"1R75K8LI/LIGHTS/225540128","provenance":{"cellId":"1R75K8LI","checksum":"f5a3e7e4b4d5e20ea81855f68e4fa6589e63223a43b5c410c10a0a9e7ba77ac4","readerVersion":"GDAL 3.2.2","processedAt":"2026-08-11T13:43:44.753Z"}}},{"type":"Feature","geometry":{"type":"Point","coordinates":[3.4032333,51.5985117]},"properties":{"dolphinKind":"light","rawObjectClass":"LIGHTS","sourceProperties":{"RCID":225543280,"PRIM":1,"GRUP":2,"OBJL":75,"RVER":1,"AGEN":7979,"FIDN":225543280,"FIDS":1,"LNAM":"1F2B0D7184700001","COLOUR":["3"],"LITCHR":7,"SIGGRP":"(1)","SIGPER":4,"SCAMIN":200000,"SORDAT":"20170530","SORIND":"NL,1R,Reprt,BASS039-2017","sourceCellId":"1R75K8LI","sourceChecksum":"f5a3e7e4b4d5e20ea81855f68e4fa6589e63223a43b5c410c10a0a9e7ba77ac4","rawObjectClass":"LIGHTS","sourceStableId":"1F2B0D7184700001"},"sourceKind":"official","official":true,"sourceCellId":"1R75K8LI","sourceStableId":"1F2B0D7184700001","pipelineFeatureId":"1R75K8LI/LIGHTS/225543280","provenance":{"cellId":"1R75K8LI","checksum":"f5a3e7e4b4d5e20ea81855f68e4fa6589e63223a43b5c410c10a0a9e7ba77ac4","readerVersion":"GDAL 3.2.2","processedAt":"2026-08-11T13:43:44.753Z"}}},{"type":"Feature","geometry":{"type":"Point","coordinates":[3.41695,51.5751883]},"properties":{"dolphinKind":"topmark","rawObjectClass":"TOPMAR","sourceProperties":{"RCID":17535,"PRIM":1,"GRUP":2,"OBJL":144,"RVER":1,"AGEN":7979,"FIDN":1106834684,"FIDS":341,"LNAM":"1F2B41F8F4FC0155","COLOUR":["2"],"TOPSHP":10,"SCAMIN":200000,"SORDAT":"20030930","sourceCellId":"1R75K8LI","sourceChecksum":"f5a3e7e4b4d5e20ea81855f68e4fa6589e63223a43b5c410c10a0a9e7ba77ac4","rawObjectClass":"TOPMAR","sourceStableId":"1F2B41F8F4FC0155"},"sourceKind":"official","official":true,"sourceCellId":"1R75K8LI","sourceStableId":"1F2B41F8F4FC0155","pipelineFeatureId":"1R75K8LI/TOPMAR/17535","provenance":{"cellId":"1R75K8LI","checksum":"f5a3e7e4b4d5e20ea81855f68e4fa6589e63223a43b5c410c10a0a9e7ba77ac4","readerVersion":"GDAL 3.2.2","processedAt":"2026-08-11T13:43:44.753Z"},"associationRefsVerifiedInGdalOutput":false}},{"type":"Feature","geometry":{"type":"Point","coordinates":[3.436155,51.58313]},"properties":{"dolphinKind":"topmark","rawObjectClass":"TOPMAR","sourceProperties":{"RCID":17536,"PRIM":1,"GRUP":2,"OBJL":144,"RVER":1,"AGEN":7979,"FIDN":1106834684,"FIDS":342,"LNAM":"1F2B41F8F4FC0156","COLOUR":["4"],"TOPSHP":1,"SCAMIN":200000,"SORDAT":"20030930","sourceCellId":"1R75K8LI","sourceChecksum":"f5a3e7e4b4d5e20ea81855f68e4fa6589e63223a43b5c410c10a0a9e7ba77ac4","rawObjectClass":"TOPMAR","sourceStableId":"1F2B41F8F4FC0156"},"sourceKind":"official","official":true,"sourceCellId":"1R75K8LI","sourceStableId":"1F2B41F8F4FC0156","pipelineFeatureId":"1R75K8LI/TOPMAR/17536","provenance":{"cellId":"1R75K8LI","checksum":"f5a3e7e4b4d5e20ea81855f68e4fa6589e63223a43b5c410c10a0a9e7ba77ac4","readerVersion":"GDAL 3.2.2","processedAt":"2026-08-11T13:43:44.753Z"},"associationRefsVerifiedInGdalOutput":false}},{"type":"Feature","geometry":{"type":"Point","coordinates":[3.5305167,51.6094217]},"properties":{"dolphinKind":"topmark","rawObjectClass":"TOPMAR","sourceProperties":{"RCID":1136580237,"PRIM":1,"GRUP":2,"OBJL":144,"RVER":1,"AGEN":7979,"FIDN":1136580237,"FIDS":1,"LNAM":"1F2B43BED68D0001","COLOUR":["3"],"TOPSHP":5,"SCAMIN":200000,"SORDAT":"20230510","SORIND":"NL,1R,reprt,MD 261-23","sourceCellId":"1R75K8LI","sourceChecksum":"f5a3e7e4b4d5e20ea81855f68e4fa6589e63223a43b5c410c10a0a9e7ba77ac4","rawObjectClass":"TOPMAR","sourceStableId":"1F2B43BED68D0001"},"sourceKind":"official","official":true,"sourceCellId":"1R75K8LI","sourceStableId":"1F2B43BED68D0001","pipelineFeatureId":"1R75K8LI/TOPMAR/1136580237","provenance":{"cellId":"1R75K8LI","checksum":"f5a3e7e4b4d5e20ea81855f68e4fa6589e63223a43b5c410c10a0a9e7ba77ac4","readerVersion":"GDAL 3.2.2","processedAt":"2026-08-11T13:43:44.753Z"},"associationRefsVerifiedInGdalOutput":false}},{"type":"Feature","geometry":{"type":"Point","coordinates":[3.3455,51.6061667]},"properties":{"dolphinKind":"topmark","rawObjectClass":"TOPMAR","sourceProperties":{"RCID":1215546306,"PRIM":1,"GRUP":2,"OBJL":144,"RVER":1,"AGEN":7979,"FIDN":1215546306,"FIDS":1,"LNAM":"1F2B4873C3C20001","COLOUR":["4"],"TOPSHP":1,"SCAMIN":200000,"SORDAT":"20250114","SORIND":"NL,1R,Reprt,MD 026-25","sourceCellId":"1R75K8LI","sourceChecksum":"f5a3e7e4b4d5e20ea81855f68e4fa6589e63223a43b5c410c10a0a9e7ba77ac4","rawObjectClass":"TOPMAR","sourceStableId":"1F2B4873C3C20001"},"sourceKind":"official","official":true,"sourceCellId":"1R75K8LI","sourceStableId":"1F2B4873C3C20001","pipelineFeatureId":"1R75K8LI/TOPMAR/1215546306","provenance":{"cellId":"1R75K8LI","checksum":"f5a3e7e4b4d5e20ea81855f68e4fa6589e63223a43b5c410c10a0a9e7ba77ac4","readerVersion":"GDAL 3.2.2","processedAt":"2026-08-11T13:43:44.753Z"},"associationRefsVerifiedInGdalOutput":false}},{"type":"Feature","geometry":{"type":"Point","coordinates":[3.3915,51.6185]},"properties":{"dolphinKind":"topmark","rawObjectClass":"TOPMAR","sourceProperties":{"RCID":1215547860,"PRIM":1,"GRUP":2,"OBJL":144,"RVER":1,"AGEN":7979,"FIDN":1215547860,"FIDS":1,"LNAM":"1F2B4873C9D40001","COLOUR":["3"],"TOPSHP":5,"SCAMIN":200000,"SORDAT":"20250114","SORIND":"NL,1R,Reprt, MD 026-25","sourceCellId":"1R75K8LI","sourceChecksum":"f5a3e7e4b4d5e20ea81855f68e4fa6589e63223a43b5c410c10a0a9e7ba77ac4","rawObjectClass":"TOPMAR","sourceStableId":"1F2B4873C9D40001"},"sourceKind":"official","official":true,"sourceCellId":"1R75K8LI","sourceStableId":"1F2B4873C9D40001","pipelineFeatureId":"1R75K8LI/TOPMAR/1215547860","provenance":{"cellId":"1R75K8LI","checksum":"f5a3e7e4b4d5e20ea81855f68e4fa6589e63223a43b5c410c10a0a9e7ba77ac4","readerVersion":"GDAL 3.2.2","processedAt":"2026-08-11T13:43:44.753Z"},"associationRefsVerifiedInGdalOutput":false}}]}