{"type":"FeatureCollection","features":[{"type":"Feature","geometry":{"type":"Point","coordinates":[4.3891167,51.6811417]},"properties":{"dolphinKind":"buoy-lateral","rawObjectClass":"BOYLAT","sourceProperties":{"RCID":13506089,"PRIM":1,"GRUP":2,"OBJL":17,"RVER":1,"AGEN":7979,"FIDN":13506089,"FIDS":1,"LNAM":"1F2B00CE16290001","LNAM_REFS":["1F2B41F8F52A01CB"],"FFPT_RIND":[2],"BOYSHP":3,"CATLAM":3,"COLOUR":["3","4"],"COLPAT":["1"],"CONRAD":3,"OBJNAM":"NV 22-OHG 1","SCAMIN":200000,"SORDAT":"20031115","sourceCellId":"1R7788XI","sourceChecksum":"8189f07d2b8a7c723cb678449e7775f49564628f372f49b884f2da00f62721c8","rawObjectClass":"BOYLAT","sourceStableId":"1F2B00CE16290001"},"sourceKind":"official","official":true,"sourceCellId":"1R7788XI","sourceStableId":"1F2B00CE16290001","pipelineFeatureId":"1R7788XI/BOYLAT/13506089","provenance":{"cellId":"1R7788XI","checksum":"8189f07d2b8a7c723cb678449e7775f49564628f372f49b884f2da00f62721c8","readerVersion":"GDAL 3.2.2","processedAt":"2026-08-11T18:29:20.995Z"}}},{"type":"Feature","geometry":{"type":"Point","coordinates":[4.3731125,51.6828322]},"properties":{"dolphinKind":"buoy-lateral","rawObjectClass":"BOYLAT","sourceProperties":{"RCID":323134387,"PRIM":1,"GRUP":2,"OBJL":17,"RVER":1,"AGEN":7979,"FIDN":323134387,"FIDS":1,"LNAM":"1F2B1342A3B30001","LNAM_REFS":["1F2B1342A3B20001"],"FFPT_RIND":[2],"BOYSHP":3,"CATLAM":3,"COLOUR":["3","4"],"COLPAT":["1"],"CONRAD":3,"OBJNAM":"HG 10-OP 1","SCAMIN":200000,"SORDAT":"20090210","sourceCellId":"1R7788XI","sourceChecksum":"8189f07d2b8a7c723cb678449e7775f49564628f372f49b884f2da00f62721c8","rawObjectClass":"BOYLAT","sourceStableId":"1F2B1342A3B30001"},"sourceKind":"official","official":true,"sourceCellId":"1R7788XI","sourceStableId":"1F2B1342A3B30001","pipelineFeatureId":"1R7788XI/BOYLAT/323134387","provenance":{"cellId":"1R7788XI","checksum":"8189f07d2b8a7c723cb678449e7775f49564628f372f49b884f2da00f62721c8","readerVersion":"GDAL 3.2.2","processedAt":"2026-08-11T18:29:20.995Z"}}},{"type":"Feature","geometry":{"type":"Point","coordinates":[4.365875,51.6770733]},"properties":{"dolphinKind":"buoy-lateral","rawObjectClass":"BOYLAT","sourceProperties":{"RCID":1269312620,"PRIM":1,"GRUP":2,"OBJL":17,"RVER":1,"AGEN":7979,"FIDN":1269312620,"FIDS":1,"LNAM":"1F2B4BA82C6C0001","LNAM_REFS":["1F2B4BA82C6B0001"],"FFPT_RIND":[2],"BOYSHP":5,"CATLAM":2,"COLOUR":["3","1","3"],"COLPAT":["1"],"CONRAD":1,"OBJNAM":"R-HG 10","SCAMIN":200000,"SORDAT":"20260402","SORIND":"NL,1R,Reprt,MD182-2026","sourceCellId":"1R7788XI","sourceChecksum":"8189f07d2b8a7c723cb678449e7775f49564628f372f49b884f2da00f62721c8","rawObjectClass":"BOYLAT","sourceStableId":"1F2B4BA82C6C0001"},"sourceKind":"official","official":true,"sourceCellId":"1R7788XI","sourceStableId":"1F2B4BA82C6C0001","pipelineFeatureId":"1R7788XI/BOYLAT/1269312620","provenance":{"cellId":"1R7788XI","checksum":"8189f07d2b8a7c723cb678449e7775f49564628f372f49b884f2da00f62721c8","readerVersion":"GDAL 3.2.2","processedAt":"2026-08-11T18:29:20.995Z"}}},{"type":"Feature","geometry":{"type":"Point","coordinates":[4.3669467,51.6797267]},"properties":{"dolphinKind":"buoy-lateral","rawObjectClass":"BOYLAT","sourceProperties":{"RCID":1269312722,"PRIM":1,"GRUP":2,"OBJL":17,"RVER":1,"AGEN":7979,"FIDN":1269312722,"FIDS":1,"LNAM":"1F2B4BA82CD20001","LNAM_REFS":["1F2B4BA82CD10001"],"FFPT_RIND":[2],"BOYSHP":5,"CATLAM":2,"COLOUR":["3","1","3"],"COLPAT":["1"],"CONRAD":1,"OBJNAM":"R-HG 12","SCAMIN":200000,"SORDAT":"20260402","SORIND":"NL,1R,Reprt,MD182-2026","sourceCellId":"1R7788XI","sourceChecksum":"8189f07d2b8a7c723cb678449e7775f49564628f372f49b884f2da00f62721c8","rawObjectClass":"BOYLAT","sourceStableId":"1F2B4BA82CD20001"},"sourceKind":"official","official":true,"sourceCellId":"1R7788XI","sourceStableId":"1F2B4BA82CD20001","pipelineFeatureId":"1R7788XI/BOYLAT/1269312722","provenance":{"cellId":"1R7788XI","checksum":"8189f07d2b8a7c723cb678449e7775f49564628f372f49b884f2da00f62721c8","readerVersion":"GDAL 3.2.2","processedAt":"2026-08-11T18:29:20.995Z"}}},{"type":"Feature","geometry":{"type":"Point","coordinates":[4.369245,51.68493]},"properties":{"dolphinKind":"buoy-special","rawObjectClass":"BOYSPP","sourceProperties":{"RCID":18929,"PRIM":1,"GRUP":2,"OBJL":19,"RVER":1,"AGEN":7979,"FIDN":1106834730,"FIDS":412,"LNAM":"1F2B41F8F52A019C","LNAM_REFS":["1F2B41F8F52A0106"],"FFPT_RIND":[2],"BOYSHP":5,"CATSPM":["50"],"COLOUR":["6"],"CONRAD":3,"OBJNAM":"HP-OW 2","SCAMIN":200000,"SORDAT":"20260402","SORIND":"NL,1R,reprt,MD181-2026","sourceCellId":"1R7788XI","sourceChecksum":"8189f07d2b8a7c723cb678449e7775f49564628f372f49b884f2da00f62721c8","rawObjectClass":"BOYSPP","sourceStableId":"1F2B41F8F52A019C"},"sourceKind":"official","official":true,"sourceCellId":"1R7788XI","sourceStableId":"1F2B41F8F52A019C","pipelineFeatureId":"1R7788XI/BOYSPP/18929","provenance":{"cellId":"1R7788XI","checksum":"8189f07d2b8a7c723cb678449e7775f49564628f372f49b884f2da00f62721c8","readerVersion":"GDAL 3.2.2","processedAt":"2026-08-11T18:29:20.995Z"}}},{"type":"Feature","geometry":{"type":"Point","coordinates":[4.3770167,51.6902517]},"properties":{"dolphinKind":"buoy-special","rawObjectClass":"BOYSPP","sourceProperties":{"RCID":18930,"PRIM":1,"GRUP":2,"OBJL":19,"RVER":1,"AGEN":7979,"FIDN":1106834730,"FIDS":413,"LNAM":"1F2B41F8F52A019D","LNAM_REFS":["1F2B41F8F52A0108"],"FFPT_RIND":[2],"BOYSHP":5,"CATSPM":["50"],"COLOUR":["6"],"CONRAD":3,"OBJNAM":"HP-OW 6","SCAMIN":200000,"SORDAT":"20260402","SORIND":"NL,1R,reprt,MD181-2026","sourceCellId":"1R7788XI","sourceChecksum":"8189f07d2b8a7c723cb678449e7775f49564628f372f49b884f2da00f62721c8","rawObjectClass":"BOYSPP","sourceStableId":"1F2B41F8F52A019D"},"sourceKind":"official","official":true,"sourceCellId":"1R7788XI","sourceStableId":"1F2B41F8F52A019D","pipelineFeatureId":"1R7788XI/BOYSPP/18930","provenance":{"cellId":"1R7788XI","checksum":"8189f07d2b8a7c723cb678449e7775f49564628f372f49b884f2da00f62721c8","readerVersion":"GDAL 3.2.2","processedAt":"2026-08-11T18:29:20.995Z"}}},{"type":"Feature","geometry":{"type":"Point","coordinates":[4.3821867,51.69173]},"properties":{"dolphinKind":"buoy-special","rawObjectClass":"BOYSPP","sourceProperties":{"RCID":18932,"PRIM":1,"GRUP":2,"OBJL":19,"RVER":1,"AGEN":7979,"FIDN":1106834730,"FIDS":415,"LNAM":"1F2B41F8F52A019F","LNAM_REFS":["1F2B41F8F52A0109"],"FFPT_RIND":[2],"BOYSHP":5,"CATSPM":["50"],"COLOUR":["6"],"CONRAD":3,"OBJNAM":"HP-OW 8","SCAMIN":200000,"SORDAT":"20260402","SORIND":"NL,1R,reprt,MD181-2026","sourceCellId":"1R7788XI","sourceChecksum":"8189f07d2b8a7c723cb678449e7775f49564628f372f49b884f2da00f62721c8","rawObjectClass":"BOYSPP","sourceStableId":"1F2B41F8F52A019F"},"sourceKind":"official","official":true,"sourceCellId":"1R7788XI","sourceStableId":"1F2B41F8F52A019F","pipelineFeatureId":"1R7788XI/BOYSPP/18932","provenance":{"cellId":"1R7788XI","checksum":"8189f07d2b8a7c723cb678449e7775f49564628f372f49b884f2da00f62721c8","readerVersion":"GDAL 3.2.2","processedAt":"2026-08-11T18:29:20.995Z"}}},{"type":"Feature","geometry":{"type":"Point","coordinates":[4.387085,51.6930833]},"properties":{"dolphinKind":"buoy-special","rawObjectClass":"BOYSPP","sourceProperties":{"RCID":18934,"PRIM":1,"GRUP":2,"OBJL":19,"RVER":1,"AGEN":7979,"FIDN":1106834730,"FIDS":417,"LNAM":"1F2B41F8F52A01A1","LNAM_REFS":["1F2B41F8F52A010B"],"FFPT_RIND":[2],"BOYSHP":5,"CATSPM":["50"],"COLOUR":["6"],"CONRAD":3,"OBJNAM":"HP-OW 10","SCAMIN":200000,"SORDAT":"20260402","SORIND":"NL,1R,reprt,MD181-2026","sourceCellId":"1R7788XI","sourceChecksum":"8189f07d2b8a7c723cb678449e7775f49564628f372f49b884f2da00f62721c8","rawObjectClass":"BOYSPP","sourceStableId":"1F2B41F8F52A01A1"},"sourceKind":"official","official":true,"sourceCellId":"1R7788XI","sourceStableId":"1F2B41F8F52A01A1","pipelineFeatureId":"1R7788XI/BOYSPP/18934","provenance":{"cellId":"1R7788XI","checksum":"8189f07d2b8a7c723cb678449e7775f49564628f372f49b884f2da00f62721c8","readerVersion":"GDAL 3.2.2","processedAt":"2026-08-11T18:29:20.995Z"}}},{"type":"Feature","geometry":{"type":"Point","coordinates":[4.3677667,51.682]},"properties":{"dolphinKind":"buoy-special","rawObjectClass":"BOYSPP","sourceProperties":{"RCID":24758490,"PRIM":1,"GRUP":2,"OBJL":19,"RVER":1,"AGEN":7979,"FIDN":24758490,"FIDS":1,"LNAM":"1F2B0179C8DA0001","LNAM_REFS":["1F2B0179C8D90001"],"FFPT_RIND":[2],"BOYSHP":5,"CATSPM":["50"],"COLOUR":["6"],"CONRAD":3,"OBJNAM":"R-108A","PEREND":"--1001","PERSTA":"--0401","SCAMIN":200000,"SORDAT":"20090121","sourceCellId":"1R7788XI","sourceChecksum":"8189f07d2b8a7c723cb678449e7775f49564628f372f49b884f2da00f62721c8","rawObjectClass":"BOYSPP","sourceStableId":"1F2B0179C8DA0001"},"sourceKind":"official","official":true,"sourceCellId":"1R7788XI","sourceStableId":"1F2B0179C8DA0001","pipelineFeatureId":"1R7788XI/BOYSPP/24758490","provenance":{"cellId":"1R7788XI","checksum":"8189f07d2b8a7c723cb678449e7775f49564628f372f49b884f2da00f62721c8","readerVersion":"GDAL 3.2.2","processedAt":"2026-08-11T18:29:20.995Z"}}},{"type":"Feature","geometry":{"type":"Point","coordinates":[4.372415,51.6878517]},"properties":{"dolphinKind":"buoy-special","rawObjectClass":"BOYSPP","sourceProperties":{"RCID":25077128,"PRIM":1,"GRUP":2,"OBJL":19,"RVER":1,"AGEN":7979,"FIDN":25077128,"FIDS":1,"LNAM":"1F2B017EA5880001","LNAM_REFS":["1F2B017EA5870001"],"FFPT_RIND":[2],"BOYSHP":5,"CATSPM":["50"],"COLOUR":["6"],"CONRAD":3,"OBJNAM":"HP-OW 4","SCAMIN":200000,"SORDAT":"20260402","SORIND":"NL,1R,reprt,MD181-2026","sourceCellId":"1R7788XI","sourceChecksum":"8189f07d2b8a7c723cb678449e7775f49564628f372f49b884f2da00f62721c8","rawObjectClass":"BOYSPP","sourceStableId":"1F2B017EA5880001"},"sourceKind":"official","official":true,"sourceCellId":"1R7788XI","sourceStableId":"1F2B017EA5880001","pipelineFeatureId":"1R7788XI/BOYSPP/25077128","provenance":{"cellId":"1R7788XI","checksum":"8189f07d2b8a7c723cb678449e7775f49564628f372f49b884f2da00f62721c8","readerVersion":"GDAL 3.2.2","processedAt":"2026-08-11T18:29:20.995Z"}}},{"type":"Feature","geometry":{"type":"Point","coordinates":[4.3911583,51.684675]},"properties":{"dolphinKind":"buoy-special","rawObjectClass":"BOYSPP","sourceProperties":{"RCID":432550190,"PRIM":1,"GRUP":2,"OBJL":19,"RVER":1,"AGEN":7979,"FIDN":432550190,"FIDS":1,"LNAM":"1F2B19C8312E0001","LNAM_REFS":["1F2B19C8312D0001"],"FFPT_RIND":[2],"BOYSHP":2,"CATSPM":["50"],"COLOUR":["6"],"OBJNAM":"VK-A","SCAMIN":200000,"SORDAT":"20211004","SORIND":"NL,1Q,reprt,MD 543-21","sourceCellId":"1R7788XI","sourceChecksum":"8189f07d2b8a7c723cb678449e7775f49564628f372f49b884f2da00f62721c8","rawObjectClass":"BOYSPP","sourceStableId":"1F2B19C8312E0001"},"sourceKind":"official","official":true,"sourceCellId":"1R7788XI","sourceStableId":"1F2B19C8312E0001","pipelineFeatureId":"1R7788XI/BOYSPP/432550190","provenance":{"cellId":"1R7788XI","checksum":"8189f07d2b8a7c723cb678449e7775f49564628f372f49b884f2da00f62721c8","readerVersion":"GDAL 3.2.2","processedAt":"2026-08-11T18:29:20.995Z"}}},{"type":"Feature","geometry":{"type":"Point","coordinates":[4.39154,51.688655]},"properties":{"dolphinKind":"buoy-special","rawObjectClass":"BOYSPP","sourceProperties":{"RCID":432550192,"PRIM":1,"GRUP":2,"OBJL":19,"RVER":1,"AGEN":7979,"FIDN":432550192,"FIDS":1,"LNAM":"1F2B19C831300001","LNAM_REFS":["1F2B19C8312F0001"],"FFPT_RIND":[2],"BOYSHP":2,"CATSPM":["50"],"COLOUR":["6"],"OBJNAM":"VK-D","SCAMIN":200000,"SORDAT":"20211004","SORIND":"NL,1Q,reprt,MD 543-21","sourceCellId":"1R7788XI","sourceChecksum":"8189f07d2b8a7c723cb678449e7775f49564628f372f49b884f2da00f62721c8","rawObjectClass":"BOYSPP","sourceStableId":"1F2B19C831300001"},"sourceKind":"official","official":true,"sourceCellId":"1R7788XI","sourceStableId":"1F2B19C831300001","pipelineFeatureId":"1R7788XI/BOYSPP/432550192","provenance":{"cellId":"1R7788XI","checksum":"8189f07d2b8a7c723cb678449e7775f49564628f372f49b884f2da00f62721c8","readerVersion":"GDAL 3.2.2","processedAt":"2026-08-11T18:29:20.995Z"}}},{"type":"Feature","geometry":{"type":"Point","coordinates":[4.3910833,51.6857567]},"properties":{"dolphinKind":"buoy-special","rawObjectClass":"BOYSPP","sourceProperties":{"RCID":432550194,"PRIM":1,"GRUP":2,"OBJL":19,"RVER":1,"AGEN":7979,"FIDN":432550194,"FIDS":1,"LNAM":"1F2B19C831320001","LNAM_REFS":["1F2B19C831310001"],"FFPT_RIND":[2],"BOYSHP":2,"CATSPM":["50"],"COLOUR":["6"],"OBJNAM":"VK-B","SCAMIN":200000,"SORDAT":"20211004","SORIND":"NL,1Q,reprt,MD 543-21","sourceCellId":"1R7788XI","sourceChecksum":"8189f07d2b8a7c723cb678449e7775f49564628f372f49b884f2da00f62721c8","rawObjectClass":"BOYSPP","sourceStableId":"1F2B19C831320001"},"sourceKind":"official","official":true,"sourceCellId":"1R7788XI","sourceStableId":"1F2B19C831320001","pipelineFeatureId":"1R7788XI/BOYSPP/432550194","provenance":{"cellId":"1R7788XI","checksum":"8189f07d2b8a7c723cb678449e7775f49564628f372f49b884f2da00f62721c8","readerVersion":"GDAL 3.2.2","processedAt":"2026-08-11T18:29:20.995Z"}}},{"type":"Feature","geometry":{"type":"Point","coordinates":[4.3912833,51.6872417]},"properties":{"dolphinKind":"buoy-special","rawObjectClass":"BOYSPP","sourceProperties":{"RCID":432550196,"PRIM":1,"GRUP":2,"OBJL":19,"RVER":1,"AGEN":7979,"FIDN":432550196,"FIDS":1,"LNAM":"1F2B19C831340001","LNAM_REFS":["1F2B19C831330001"],"FFPT_RIND":[2],"BOYSHP":2,"CATSPM":["50"],"COLOUR":["6"],"OBJNAM":"VK-C","SCAMIN":200000,"SORDAT":"20211004","SORIND":"NL,1Q,reprt,MD 543-21","sourceCellId":"1R7788XI","sourceChecksum":"8189f07d2b8a7c723cb678449e7775f49564628f372f49b884f2da00f62721c8","rawObjectClass":"BOYSPP","sourceStableId":"1F2B19C831340001"},"sourceKind":"official","official":true,"sourceCellId":"1R7788XI","sourceStableId":"1F2B19C831340001","pipelineFeatureId":"1R7788XI/BOYSPP/432550196","provenance":{"cellId":"1R7788XI","checksum":"8189f07d2b8a7c723cb678449e7775f49564628f372f49b884f2da00f62721c8","readerVersion":"GDAL 3.2.2","processedAt":"2026-08-11T18:29:20.995Z"}}},{"type":"Feature","geometry":{"type":"Point","coordinates":[4.3917517,51.6901033]},"properties":{"dolphinKind":"buoy-special","rawObjectClass":"BOYSPP","sourceProperties":{"RCID":432550198,"PRIM":1,"GRUP":2,"OBJL":19,"RVER":1,"AGEN":7979,"FIDN":432550198,"FIDS":1,"LNAM":"1F2B19C831360001","LNAM_REFS":["1F2B19C831350001"],"FFPT_RIND":[2],"BOYSHP":2,"CATSPM":["50"],"COLOUR":["6"],"OBJNAM":"VK-E","SCAMIN":200000,"SORDAT":"20211004","SORIND":"NL,1Q,reprt,MD 543-21","sourceCellId":"1R7788XI","sourceChecksum":"8189f07d2b8a7c723cb678449e7775f49564628f372f49b884f2da00f62721c8","rawObjectClass":"BOYSPP","sourceStableId":"1F2B19C831360001"},"sourceKind":"official","official":true,"sourceCellId":"1R7788XI","sourceStableId":"1F2B19C831360001","pipelineFeatureId":"1R7788XI/BOYSPP/432550198","provenance":{"cellId":"1R7788XI","checksum":"8189f07d2b8a7c723cb678449e7775f49564628f372f49b884f2da00f62721c8","readerVersion":"GDAL 3.2.2","processedAt":"2026-08-11T18:29:20.995Z"}}},{"type":"Feature","geometry":{"type":"Point","coordinates":[4.3995567,51.6857283]},"properties":{"dolphinKind":"buoy-special","rawObjectClass":"BOYSPP","sourceProperties":{"RCID":1216575033,"PRIM":1,"GRUP":2,"OBJL":19,"RVER":1,"AGEN":7979,"FIDN":1216575033,"FIDS":1,"LNAM":"1F2B488376390001","LNAM_REFS":["1F2B4883763A0001","1F2B4883763B0001"],"FFPT_RIND":[2,2],"BOYSHP":5,"CATSPM":["27"],"COLOUR":["6"],"OBJNAM":"VS-A","SCAMIN":200000,"SORDAT":"20250127","SORIND":"NL,1R,reprt,MD049-2025","sourceCellId":"1R7788XI","sourceChecksum":"8189f07d2b8a7c723cb678449e7775f49564628f372f49b884f2da00f62721c8","rawObjectClass":"BOYSPP","sourceStableId":"1F2B488376390001"},"sourceKind":"official","official":true,"sourceCellId":"1R7788XI","sourceStableId":"1F2B488376390001","pipelineFeatureId":"1R7788XI/BOYSPP/1216575033","provenance":{"cellId":"1R7788XI","checksum":"8189f07d2b8a7c723cb678449e7775f49564628f372f49b884f2da00f62721c8","readerVersion":"GDAL 3.2.2","processedAt":"2026-08-11T18:29:20.995Z"}}},{"type":"Feature","geometry":{"type":"Point","coordinates":[4.3998133,51.68588]},"properties":{"dolphinKind":"buoy-special","rawObjectClass":"BOYSPP","sourceProperties":{"RCID":1216575038,"PRIM":1,"GRUP":2,"OBJL":19,"RVER":1,"AGEN":7979,"FIDN":1216575038,"FIDS":1,"LNAM":"1F2B4883763E0001","LNAM_REFS":["1F2B4883763C0001","1F2B4883763D0001"],"FFPT_RIND":[2,2],"BOYSHP":5,"CATSPM":["27"],"COLOUR":["6"],"OBJNAM":"VS-B","SCAMIN":200000,"SORDAT":"20250127","SORIND":"NL,1R,reprt,MD049-2025","sourceCellId":"1R7788XI","sourceChecksum":"8189f07d2b8a7c723cb678449e7775f49564628f372f49b884f2da00f62721c8","rawObjectClass":"BOYSPP","sourceStableId":"1F2B4883763E0001"},"sourceKind":"official","official":true,"sourceCellId":"1R7788XI","sourceStableId":"1F2B4883763E0001","pipelineFeatureId":"1R7788XI/BOYSPP/1216575038","provenance":{"cellId":"1R7788XI","checksum":"8189f07d2b8a7c723cb678449e7775f49564628f372f49b884f2da00f62721c8","readerVersion":"GDAL 3.2.2","processedAt":"2026-08-11T18:29:20.995Z"}}},{"type":"Feature","geometry":{"type":"Point","coordinates":[4.386525,51.675205]},"properties":{"dolphinKind":"light","rawObjectClass":"LIGHTS","sourceProperties":{"RCID":18710,"PRIM":1,"GRUP":2,"OBJL":75,"RVER":1,"AGEN":7979,"FIDN":1106834729,"FIDS":448,"LNAM":"1F2B41F8F52901C0","COLOUR":["4"],"LITCHR":3,"SIGGRP":"(1)","SIGPER":8,"SCAMIN":200000,"SORDAT":"20031115","sourceCellId":"1R7788XI","sourceChecksum":"8189f07d2b8a7c723cb678449e7775f49564628f372f49b884f2da00f62721c8","rawObjectClass":"LIGHTS","sourceStableId":"1F2B41F8F52901C0"},"sourceKind":"official","official":true,"sourceCellId":"1R7788XI","sourceStableId":"1F2B41F8F52901C0","pipelineFeatureId":"1R7788XI/LIGHTS/18710","provenance":{"cellId":"1R7788XI","checksum":"8189f07d2b8a7c723cb678449e7775f49564628f372f49b884f2da00f62721c8","readerVersion":"GDAL 3.2.2","processedAt":"2026-08-11T18:29:20.995Z"}}},{"type":"Feature","geometry":{"type":"Point","coordinates":[4.3839417,51.6762083]},"properties":{"dolphinKind":"light","rawObjectClass":"LIGHTS","sourceProperties":{"RCID":18711,"PRIM":1,"GRUP":2,"OBJL":75,"RVER":1,"AGEN":7979,"FIDN":1106834729,"FIDS":449,"LNAM":"1F2B41F8F52901C1","COLOUR":["3"],"LITCHR":3,"SIGGRP":"(1)","SIGPER":8,"SCAMIN":200000,"SORDAT":"20031115","sourceCellId":"1R7788XI","sourceChecksum":"8189f07d2b8a7c723cb678449e7775f49564628f372f49b884f2da00f62721c8","rawObjectClass":"LIGHTS","sourceStableId":"1F2B41F8F52901C1"},"sourceKind":"official","official":true,"sourceCellId":"1R7788XI","sourceStableId":"1F2B41F8F52901C1","pipelineFeatureId":"1R7788XI/LIGHTS/18711","provenance":{"cellId":"1R7788XI","checksum":"8189f07d2b8a7c723cb678449e7775f49564628f372f49b884f2da00f62721c8","readerVersion":"GDAL 3.2.2","processedAt":"2026-08-11T18:29:20.995Z"}}},{"type":"Feature","geometry":{"type":"Point","coordinates":[4.3694118,51.6785467]},"properties":{"dolphinKind":"light","rawObjectClass":"LIGHTS","sourceProperties":{"RCID":19690,"PRIM":1,"GRUP":2,"OBJL":75,"RVER":1,"AGEN":7979,"FIDN":1106834753,"FIDS":391,"LNAM":"1F2B41F8F5410187","COLOUR":["3"],"LITCHR":3,"SIGGRP":"(1)","SIGPER":8,"SCAMIN":200000,"sourceCellId":"1R7788XI","sourceChecksum":"8189f07d2b8a7c723cb678449e7775f49564628f372f49b884f2da00f62721c8","rawObjectClass":"LIGHTS","sourceStableId":"1F2B41F8F5410187"},"sourceKind":"official","official":true,"sourceCellId":"1R7788XI","sourceStableId":"1F2B41F8F5410187","pipelineFeatureId":"1R7788XI/LIGHTS/19690","provenance":{"cellId":"1R7788XI","checksum":"8189f07d2b8a7c723cb678449e7775f49564628f372f49b884f2da00f62721c8","readerVersion":"GDAL 3.2.2","processedAt":"2026-08-11T18:29:20.995Z"}}},{"type":"Feature","geometry":{"type":"Point","coordinates":[4.3850959,51.6883366]},"properties":{"dolphinKind":"light","rawObjectClass":"LIGHTS","sourceProperties":{"RCID":19693,"PRIM":1,"GRUP":2,"OBJL":75,"RVER":1,"AGEN":7979,"FIDN":1106834753,"FIDS":394,"LNAM":"1F2B41F8F541018A","COLOUR":["4"],"LITCHR":4,"SIGGRP":"(1)","SIGPER":1,"SCAMIN":200000,"sourceCellId":"1R7788XI","sourceChecksum":"8189f07d2b8a7c723cb678449e7775f49564628f372f49b884f2da00f62721c8","rawObjectClass":"LIGHTS","sourceStableId":"1F2B41F8F541018A"},"sourceKind":"official","official":true,"sourceCellId":"1R7788XI","sourceStableId":"1F2B41F8F541018A","pipelineFeatureId":"1R7788XI/LIGHTS/19693","provenance":{"cellId":"1R7788XI","checksum":"8189f07d2b8a7c723cb678449e7775f49564628f372f49b884f2da00f62721c8","readerVersion":"GDAL 3.2.2","processedAt":"2026-08-11T18:29:20.995Z"}}},{"type":"Feature","geometry":{"type":"Point","coordinates":[4.3921037,51.690725]},"properties":{"dolphinKind":"light","rawObjectClass":"LIGHTS","sourceProperties":{"RCID":19694,"PRIM":1,"GRUP":2,"OBJL":75,"RVER":1,"AGEN":7979,"FIDN":1106834753,"FIDS":395,"LNAM":"1F2B41F8F541018B","COLOUR":["4"],"LITCHR":1,"INFORM":"In fog: F.Y.","SCAMIN":200000,"sourceCellId":"1R7788XI","sourceChecksum":"8189f07d2b8a7c723cb678449e7775f49564628f372f49b884f2da00f62721c8","rawObjectClass":"LIGHTS","sourceStableId":"1F2B41F8F541018B"},"sourceKind":"official","official":true,"sourceCellId":"1R7788XI","sourceStableId":"1F2B41F8F541018B","pipelineFeatureId":"1R7788XI/LIGHTS/19694","provenance":{"cellId":"1R7788XI","checksum":"8189f07d2b8a7c723cb678449e7775f49564628f372f49b884f2da00f62721c8","readerVersion":"GDAL 3.2.2","processedAt":"2026-08-11T18:29:20.995Z"}}},{"type":"Feature","geometry":{"type":"Point","coordinates":[4.3935583,51.6921199]},"properties":{"dolphinKind":"light","rawObjectClass":"LIGHTS","sourceProperties":{"RCID":19695,"PRIM":1,"GRUP":2,"OBJL":75,"RVER":1,"AGEN":7979,"FIDN":1106834753,"FIDS":396,"LNAM":"1F2B41F8F541018C","COLOUR":["3"],"LITCHR":1,"INFORM":"In fog: F.Y.","SCAMIN":200000,"sourceCellId":"1R7788XI","sourceChecksum":"8189f07d2b8a7c723cb678449e7775f49564628f372f49b884f2da00f62721c8","rawObjectClass":"LIGHTS","sourceStableId":"1F2B41F8F541018C"},"sourceKind":"official","official":true,"sourceCellId":"1R7788XI","sourceStableId":"1F2B41F8F541018C","pipelineFeatureId":"1R7788XI/LIGHTS/19695","provenance":{"cellId":"1R7788XI","checksum":"8189f07d2b8a7c723cb678449e7775f49564628f372f49b884f2da00f62721c8","readerVersion":"GDAL 3.2.2","processedAt":"2026-08-11T18:29:20.995Z"}}},{"type":"Feature","geometry":{"type":"Point","coordinates":[4.3923657,51.6800086]},"properties":{"dolphinKind":"light","rawObjectClass":"LIGHTS","sourceProperties":{"RCID":19696,"PRIM":1,"GRUP":2,"OBJL":75,"RVER":1,"AGEN":7979,"FIDN":1106834753,"FIDS":397,"LNAM":"1F2B41F8F541018D","COLOUR":["4"],"LITCHR":1,"INFORM":"In fog: F.Y.","SCAMIN":200000,"sourceCellId":"1R7788XI","sourceChecksum":"8189f07d2b8a7c723cb678449e7775f49564628f372f49b884f2da00f62721c8","rawObjectClass":"LIGHTS","sourceStableId":"1F2B41F8F541018D"},"sourceKind":"official","official":true,"sourceCellId":"1R7788XI","sourceStableId":"1F2B41F8F541018D","pipelineFeatureId":"1R7788XI/LIGHTS/19696","provenance":{"cellId":"1R7788XI","checksum":"8189f07d2b8a7c723cb678449e7775f49564628f372f49b884f2da00f62721c8","readerVersion":"GDAL 3.2.2","processedAt":"2026-08-11T18:29:20.995Z"}}},{"type":"Feature","geometry":{"type":"Point","coordinates":[4.3900004,51.6817099]},"properties":{"dolphinKind":"light","rawObjectClass":"LIGHTS","sourceProperties":{"RCID":19697,"PRIM":1,"GRUP":2,"OBJL":75,"RVER":1,"AGEN":7979,"FIDN":1106834753,"FIDS":398,"LNAM":"1F2B41F8F541018E","COLOUR":["3"],"LITCHR":1,"INFORM":"In fog: F.Y.","SCAMIN":200000,"sourceCellId":"1R7788XI","sourceChecksum":"8189f07d2b8a7c723cb678449e7775f49564628f372f49b884f2da00f62721c8","rawObjectClass":"LIGHTS","sourceStableId":"1F2B41F8F541018E"},"sourceKind":"official","official":true,"sourceCellId":"1R7788XI","sourceStableId":"1F2B41F8F541018E","pipelineFeatureId":"1R7788XI/LIGHTS/19697","provenance":{"cellId":"1R7788XI","checksum":"8189f07d2b8a7c723cb678449e7775f49564628f372f49b884f2da00f62721c8","readerVersion":"GDAL 3.2.2","processedAt":"2026-08-11T18:29:20.995Z"}}},{"type":"Feature","geometry":{"type":"Point","coordinates":[4.3730588,51.6774122]},"properties":{"dolphinKind":"light","rawObjectClass":"LIGHTS","sourceProperties":{"RCID":19699,"PRIM":1,"GRUP":2,"OBJL":75,"RVER":1,"AGEN":7979,"FIDN":1106834753,"FIDS":400,"LNAM":"1F2B41F8F5410190","COLOUR":["4"],"LITCHR":3,"SIGGRP":"(1)","SIGPER":8,"SCAMIN":200000,"sourceCellId":"1R7788XI","sourceChecksum":"8189f07d2b8a7c723cb678449e7775f49564628f372f49b884f2da00f62721c8","rawObjectClass":"LIGHTS","sourceStableId":"1F2B41F8F5410190"},"sourceKind":"official","official":true,"sourceCellId":"1R7788XI","sourceStableId":"1F2B41F8F5410190","pipelineFeatureId":"1R7788XI/LIGHTS/19699","provenance":{"cellId":"1R7788XI","checksum":"8189f07d2b8a7c723cb678449e7775f49564628f372f49b884f2da00f62721c8","readerVersion":"GDAL 3.2.2","processedAt":"2026-08-11T18:29:20.995Z"}}},{"type":"Feature","geometry":{"type":"Point","coordinates":[4.3924349,51.6758365]},"properties":{"dolphinKind":"light","rawObjectClass":"LIGHTS","sourceProperties":{"RCID":19700,"PRIM":1,"GRUP":2,"OBJL":75,"RVER":1,"AGEN":7979,"FIDN":1106834753,"FIDS":401,"LNAM":"1F2B41F8F5410191","COLOUR":["1"],"LITCHR":7,"SIGGRP":"(1)","SIGPER":3,"SCAMIN":200000,"sourceCellId":"1R7788XI","sourceChecksum":"8189f07d2b8a7c723cb678449e7775f49564628f372f49b884f2da00f62721c8","rawObjectClass":"LIGHTS","sourceStableId":"1F2B41F8F5410191"},"sourceKind":"official","official":true,"sourceCellId":"1R7788XI","sourceStableId":"1F2B41F8F5410191","pipelineFeatureId":"1R7788XI/LIGHTS/19700","provenance":{"cellId":"1R7788XI","checksum":"8189f07d2b8a7c723cb678449e7775f49564628f372f49b884f2da00f62721c8","readerVersion":"GDAL 3.2.2","processedAt":"2026-08-11T18:29:20.995Z"}}},{"type":"Feature","geometry":{"type":"Point","coordinates":[4.3931937,51.6761431]},"properties":{"dolphinKind":"light","rawObjectClass":"LIGHTS","sourceProperties":{"RCID":20132,"PRIM":1,"GRUP":2,"OBJL":75,"RVER":1,"AGEN":7979,"FIDN":1106834755,"FIDS":323,"LNAM":"1F2B41F8F5430143","COLOUR":["1"],"LITCHR":7,"SIGGRP":"(1)","SIGPER":3,"SCAMIN":200000,"sourceCellId":"1R7788XI","sourceChecksum":"8189f07d2b8a7c723cb678449e7775f49564628f372f49b884f2da00f62721c8","rawObjectClass":"LIGHTS","sourceStableId":"1F2B41F8F5430143"},"sourceKind":"official","official":true,"sourceCellId":"1R7788XI","sourceStableId":"1F2B41F8F5430143","pipelineFeatureId":"1R7788XI/LIGHTS/20132","provenance":{"cellId":"1R7788XI","checksum":"8189f07d2b8a7c723cb678449e7775f49564628f372f49b884f2da00f62721c8","readerVersion":"GDAL 3.2.2","processedAt":"2026-08-11T18:29:20.995Z"}}},{"type":"Feature","geometry":{"type":"Point","coordinates":[4.3995567,51.6857283]},"properties":{"dolphinKind":"light","rawObjectClass":"LIGHTS","sourceProperties":{"RCID":1216575034,"PRIM":1,"GRUP":2,"OBJL":75,"RVER":1,"AGEN":7979,"FIDN":1216575034,"FIDS":1,"LNAM":"1F2B4883763A0001","COLOUR":["6"],"LITCHR":2,"SIGGRP":"(1)","SIGPER":5,"SCAMIN":200000,"sourceCellId":"1R7788XI","sourceChecksum":"8189f07d2b8a7c723cb678449e7775f49564628f372f49b884f2da00f62721c8","rawObjectClass":"LIGHTS","sourceStableId":"1F2B4883763A0001"},"sourceKind":"official","official":true,"sourceCellId":"1R7788XI","sourceStableId":"1F2B4883763A0001","pipelineFeatureId":"1R7788XI/LIGHTS/1216575034","provenance":{"cellId":"1R7788XI","checksum":"8189f07d2b8a7c723cb678449e7775f49564628f372f49b884f2da00f62721c8","readerVersion":"GDAL 3.2.2","processedAt":"2026-08-11T18:29:20.995Z"}}},{"type":"Feature","geometry":{"type":"Point","coordinates":[4.3998133,51.68588]},"properties":{"dolphinKind":"light","rawObjectClass":"LIGHTS","sourceProperties":{"RCID":1216575036,"PRIM":1,"GRUP":2,"OBJL":75,"RVER":1,"AGEN":7979,"FIDN":1216575036,"FIDS":1,"LNAM":"1F2B4883763C0001","COLOUR":["6"],"LITCHR":2,"SIGGRP":"(1)","SIGPER":5,"SCAMIN":200000,"sourceCellId":"1R7788XI","sourceChecksum":"8189f07d2b8a7c723cb678449e7775f49564628f372f49b884f2da00f62721c8","rawObjectClass":"LIGHTS","sourceStableId":"1F2B4883763C0001"},"sourceKind":"official","official":true,"sourceCellId":"1R7788XI","sourceStableId":"1F2B4883763C0001","pipelineFeatureId":"1R7788XI/LIGHTS/1216575036","provenance":{"cellId":"1R7788XI","checksum":"8189f07d2b8a7c723cb678449e7775f49564628f372f49b884f2da00f62721c8","readerVersion":"GDAL 3.2.2","processedAt":"2026-08-11T18:29:20.995Z"}}},{"type":"Feature","geometry":{"type":"Point","coordinates":[4.369245,51.68493]},"properties":{"dolphinKind":"topmark","rawObjectClass":"TOPMAR","sourceProperties":{"RCID":18779,"PRIM":1,"GRUP":2,"OBJL":144,"RVER":1,"AGEN":7979,"FIDN":1106834730,"FIDS":262,"LNAM":"1F2B41F8F52A0106","COLOUR":["3","1","3"],"COLPAT":["1"],"TOPSHP":5,"SCAMIN":200000,"SORDAT":"20031115","sourceCellId":"1R7788XI","sourceChecksum":"8189f07d2b8a7c723cb678449e7775f49564628f372f49b884f2da00f62721c8","rawObjectClass":"TOPMAR","sourceStableId":"1F2B41F8F52A0106"},"sourceKind":"official","official":true,"sourceCellId":"1R7788XI","sourceStableId":"1F2B41F8F52A0106","pipelineFeatureId":"1R7788XI/TOPMAR/18779","provenance":{"cellId":"1R7788XI","checksum":"8189f07d2b8a7c723cb678449e7775f49564628f372f49b884f2da00f62721c8","readerVersion":"GDAL 3.2.2","processedAt":"2026-08-11T18:29:20.995Z"},"associationRefsVerifiedInGdalOutput":false}},{"type":"Feature","geometry":{"type":"Point","coordinates":[4.3770167,51.6902517]},"properties":{"dolphinKind":"topmark","rawObjectClass":"TOPMAR","sourceProperties":{"RCID":18781,"PRIM":1,"GRUP":2,"OBJL":144,"RVER":1,"AGEN":7979,"FIDN":1106834730,"FIDS":264,"LNAM":"1F2B41F8F52A0108","COLOUR":["3","1","3"],"COLPAT":["1"],"TOPSHP":5,"SCAMIN":200000,"SORDAT":"20031115","sourceCellId":"1R7788XI","sourceChecksum":"8189f07d2b8a7c723cb678449e7775f49564628f372f49b884f2da00f62721c8","rawObjectClass":"TOPMAR","sourceStableId":"1F2B41F8F52A0108"},"sourceKind":"official","official":true,"sourceCellId":"1R7788XI","sourceStableId":"1F2B41F8F52A0108","pipelineFeatureId":"1R7788XI/TOPMAR/18781","provenance":{"cellId":"1R7788XI","checksum":"8189f07d2b8a7c723cb678449e7775f49564628f372f49b884f2da00f62721c8","readerVersion":"GDAL 3.2.2","processedAt":"2026-08-11T18:29:20.995Z"},"associationRefsVerifiedInGdalOutput":false}},{"type":"Feature","geometry":{"type":"Point","coordinates":[4.3821867,51.69173]},"properties":{"dolphinKind":"topmark","rawObjectClass":"TOPMAR","sourceProperties":{"RCID":18782,"PRIM":1,"GRUP":2,"OBJL":144,"RVER":1,"AGEN":7979,"FIDN":1106834730,"FIDS":265,"LNAM":"1F2B41F8F52A0109","COLOUR":["3","1","3"],"COLPAT":["1"],"TOPSHP":5,"SCAMIN":200000,"SORDAT":"20031115","sourceCellId":"1R7788XI","sourceChecksum":"8189f07d2b8a7c723cb678449e7775f49564628f372f49b884f2da00f62721c8","rawObjectClass":"TOPMAR","sourceStableId":"1F2B41F8F52A0109"},"sourceKind":"official","official":true,"sourceCellId":"1R7788XI","sourceStableId":"1F2B41F8F52A0109","pipelineFeatureId":"1R7788XI/TOPMAR/18782","provenance":{"cellId":"1R7788XI","checksum":"8189f07d2b8a7c723cb678449e7775f49564628f372f49b884f2da00f62721c8","readerVersion":"GDAL 3.2.2","processedAt":"2026-08-11T18:29:20.995Z"},"associationRefsVerifiedInGdalOutput":false}},{"type":"Feature","geometry":{"type":"Point","coordinates":[4.387085,51.6930833]},"properties":{"dolphinKind":"topmark","rawObjectClass":"TOPMAR","sourceProperties":{"RCID":18784,"PRIM":1,"GRUP":2,"OBJL":144,"RVER":1,"AGEN":7979,"FIDN":1106834730,"FIDS":267,"LNAM":"1F2B41F8F52A010B","COLOUR":["3","1","3"],"COLPAT":["1"],"TOPSHP":5,"SCAMIN":200000,"SORDAT":"20031115","sourceCellId":"1R7788XI","sourceChecksum":"8189f07d2b8a7c723cb678449e7775f49564628f372f49b884f2da00f62721c8","rawObjectClass":"TOPMAR","sourceStableId":"1F2B41F8F52A010B"},"sourceKind":"official","official":true,"sourceCellId":"1R7788XI","sourceStableId":"1F2B41F8F52A010B","pipelineFeatureId":"1R7788XI/TOPMAR/18784","provenance":{"cellId":"1R7788XI","checksum":"8189f07d2b8a7c723cb678449e7775f49564628f372f49b884f2da00f62721c8","readerVersion":"GDAL 3.2.2","processedAt":"2026-08-11T18:29:20.995Z"},"associationRefsVerifiedInGdalOutput":false}},{"type":"Feature","geometry":{"type":"Point","coordinates":[4.3891167,51.6811417]},"properties":{"dolphinKind":"topmark","rawObjectClass":"TOPMAR","sourceProperties":{"RCID":18976,"PRIM":1,"GRUP":2,"OBJL":144,"RVER":1,"AGEN":7979,"FIDN":1106834730,"FIDS":459,"LNAM":"1F2B41F8F52A01CB","COLOUR":["3"],"TOPSHP":5,"SCAMIN":200000,"sourceCellId":"1R7788XI","sourceChecksum":"8189f07d2b8a7c723cb678449e7775f49564628f372f49b884f2da00f62721c8","rawObjectClass":"TOPMAR","sourceStableId":"1F2B41F8F52A01CB"},"sourceKind":"official","official":true,"sourceCellId":"1R7788XI","sourceStableId":"1F2B41F8F52A01CB","pipelineFeatureId":"1R7788XI/TOPMAR/18976","provenance":{"cellId":"1R7788XI","checksum":"8189f07d2b8a7c723cb678449e7775f49564628f372f49b884f2da00f62721c8","readerVersion":"GDAL 3.2.2","processedAt":"2026-08-11T18:29:20.995Z"},"associationRefsVerifiedInGdalOutput":false}},{"type":"Feature","geometry":{"type":"Point","coordinates":[4.3868207,51.6837546]},"properties":{"dolphinKind":"topmark","rawObjectClass":"TOPMAR","sourceProperties":{"RCID":18979,"PRIM":1,"GRUP":2,"OBJL":144,"RVER":1,"AGEN":7979,"FIDN":1106834730,"FIDS":462,"LNAM":"1F2B41F8F52A01CE","COLOUR":["3"],"TOPSHP":5,"SCAMIN":200000,"sourceCellId":"1R7788XI","sourceChecksum":"8189f07d2b8a7c723cb678449e7775f49564628f372f49b884f2da00f62721c8","rawObjectClass":"TOPMAR","sourceStableId":"1F2B41F8F52A01CE"},"sourceKind":"official","official":true,"sourceCellId":"1R7788XI","sourceStableId":"1F2B41F8F52A01CE","pipelineFeatureId":"1R7788XI/TOPMAR/18979","provenance":{"cellId":"1R7788XI","checksum":"8189f07d2b8a7c723cb678449e7775f49564628f372f49b884f2da00f62721c8","readerVersion":"GDAL 3.2.2","processedAt":"2026-08-11T18:29:20.995Z"},"associationRefsVerifiedInGdalOutput":false}},{"type":"Feature","geometry":{"type":"Point","coordinates":[4.3677667,51.682]},"properties":{"dolphinKind":"topmark","rawObjectClass":"TOPMAR","sourceProperties":{"RCID":24758489,"PRIM":1,"GRUP":2,"OBJL":144,"RVER":1,"AGEN":7979,"FIDN":24758489,"FIDS":1,"LNAM":"1F2B0179C8D90001","COLOUR":["3","1","3"],"COLPAT":["1"],"TOPSHP":5,"SCAMIN":200000,"SORDAT":"20090121","sourceCellId":"1R7788XI","sourceChecksum":"8189f07d2b8a7c723cb678449e7775f49564628f372f49b884f2da00f62721c8","rawObjectClass":"TOPMAR","sourceStableId":"1F2B0179C8D90001"},"sourceKind":"official","official":true,"sourceCellId":"1R7788XI","sourceStableId":"1F2B0179C8D90001","pipelineFeatureId":"1R7788XI/TOPMAR/24758489","provenance":{"cellId":"1R7788XI","checksum":"8189f07d2b8a7c723cb678449e7775f49564628f372f49b884f2da00f62721c8","readerVersion":"GDAL 3.2.2","processedAt":"2026-08-11T18:29:20.995Z"},"associationRefsVerifiedInGdalOutput":false}},{"type":"Feature","geometry":{"type":"Point","coordinates":[4.372415,51.6878517]},"properties":{"dolphinKind":"topmark","rawObjectClass":"TOPMAR","sourceProperties":{"RCID":25077127,"PRIM":1,"GRUP":2,"OBJL":144,"RVER":1,"AGEN":7979,"FIDN":25077127,"FIDS":1,"LNAM":"1F2B017EA5870001","COLOUR":["3","1","3"],"COLPAT":["1"],"TOPSHP":5,"SCAMIN":200000,"SORDAT":"20031115","sourceCellId":"1R7788XI","sourceChecksum":"8189f07d2b8a7c723cb678449e7775f49564628f372f49b884f2da00f62721c8","rawObjectClass":"TOPMAR","sourceStableId":"1F2B017EA5870001"},"sourceKind":"official","official":true,"sourceCellId":"1R7788XI","sourceStableId":"1F2B017EA5870001","pipelineFeatureId":"1R7788XI/TOPMAR/25077127","provenance":{"cellId":"1R7788XI","checksum":"8189f07d2b8a7c723cb678449e7775f49564628f372f49b884f2da00f62721c8","readerVersion":"GDAL 3.2.2","processedAt":"2026-08-11T18:29:20.995Z"},"associationRefsVerifiedInGdalOutput":false}},{"type":"Feature","geometry":{"type":"Point","coordinates":[4.3731125,51.6828322]},"properties":{"dolphinKind":"topmark","rawObjectClass":"TOPMAR","sourceProperties":{"RCID":323134386,"PRIM":1,"GRUP":2,"OBJL":144,"RVER":1,"AGEN":7979,"FIDN":323134386,"FIDS":1,"LNAM":"1F2B1342A3B20001","COLOUR":["3"],"TOPSHP":5,"SCAMIN":200000,"sourceCellId":"1R7788XI","sourceChecksum":"8189f07d2b8a7c723cb678449e7775f49564628f372f49b884f2da00f62721c8","rawObjectClass":"TOPMAR","sourceStableId":"1F2B1342A3B20001"},"sourceKind":"official","official":true,"sourceCellId":"1R7788XI","sourceStableId":"1F2B1342A3B20001","pipelineFeatureId":"1R7788XI/TOPMAR/323134386","provenance":{"cellId":"1R7788XI","checksum":"8189f07d2b8a7c723cb678449e7775f49564628f372f49b884f2da00f62721c8","readerVersion":"GDAL 3.2.2","processedAt":"2026-08-11T18:29:20.995Z"},"associationRefsVerifiedInGdalOutput":false}},{"type":"Feature","geometry":{"type":"Point","coordinates":[4.3911583,51.684675]},"properties":{"dolphinKind":"topmark","rawObjectClass":"TOPMAR","sourceProperties":{"RCID":432550189,"PRIM":1,"GRUP":2,"OBJL":144,"RVER":1,"AGEN":7979,"FIDN":432550189,"FIDS":1,"LNAM":"1F2B19C8312D0001","COLOUR":["3","1","3"],"COLPAT":["1"],"TOPSHP":5,"SCAMIN":200000,"sourceCellId":"1R7788XI","sourceChecksum":"8189f07d2b8a7c723cb678449e7775f49564628f372f49b884f2da00f62721c8","rawObjectClass":"TOPMAR","sourceStableId":"1F2B19C8312D0001"},"sourceKind":"official","official":true,"sourceCellId":"1R7788XI","sourceStableId":"1F2B19C8312D0001","pipelineFeatureId":"1R7788XI/TOPMAR/432550189","provenance":{"cellId":"1R7788XI","checksum":"8189f07d2b8a7c723cb678449e7775f49564628f372f49b884f2da00f62721c8","readerVersion":"GDAL 3.2.2","processedAt":"2026-08-11T18:29:20.995Z"},"associationRefsVerifiedInGdalOutput":false}},{"type":"Feature","geometry":{"type":"Point","coordinates":[4.39154,51.688655]},"properties":{"dolphinKind":"topmark","rawObjectClass":"TOPMAR","sourceProperties":{"RCID":432550191,"PRIM":1,"GRUP":2,"OBJL":144,"RVER":1,"AGEN":7979,"FIDN":432550191,"FIDS":1,"LNAM":"1F2B19C8312F0001","COLOUR":["3","1","3"],"COLPAT":["1"],"TOPSHP":5,"SCAMIN":200000,"sourceCellId":"1R7788XI","sourceChecksum":"8189f07d2b8a7c723cb678449e7775f49564628f372f49b884f2da00f62721c8","rawObjectClass":"TOPMAR","sourceStableId":"1F2B19C8312F0001"},"sourceKind":"official","official":true,"sourceCellId":"1R7788XI","sourceStableId":"1F2B19C8312F0001","pipelineFeatureId":"1R7788XI/TOPMAR/432550191","provenance":{"cellId":"1R7788XI","checksum":"8189f07d2b8a7c723cb678449e7775f49564628f372f49b884f2da00f62721c8","readerVersion":"GDAL 3.2.2","processedAt":"2026-08-11T18:29:20.995Z"},"associationRefsVerifiedInGdalOutput":false}},{"type":"Feature","geometry":{"type":"Point","coordinates":[4.3910833,51.6857567]},"properties":{"dolphinKind":"topmark","rawObjectClass":"TOPMAR","sourceProperties":{"RCID":432550193,"PRIM":1,"GRUP":2,"OBJL":144,"RVER":1,"AGEN":7979,"FIDN":432550193,"FIDS":1,"LNAM":"1F2B19C831310001","COLOUR":["3","1","3"],"COLPAT":["1"],"TOPSHP":5,"SCAMIN":200000,"sourceCellId":"1R7788XI","sourceChecksum":"8189f07d2b8a7c723cb678449e7775f49564628f372f49b884f2da00f62721c8","rawObjectClass":"TOPMAR","sourceStableId":"1F2B19C831310001"},"sourceKind":"official","official":true,"sourceCellId":"1R7788XI","sourceStableId":"1F2B19C831310001","pipelineFeatureId":"1R7788XI/TOPMAR/432550193","provenance":{"cellId":"1R7788XI","checksum":"8189f07d2b8a7c723cb678449e7775f49564628f372f49b884f2da00f62721c8","readerVersion":"GDAL 3.2.2","processedAt":"2026-08-11T18:29:20.995Z"},"associationRefsVerifiedInGdalOutput":false}},{"type":"Feature","geometry":{"type":"Point","coordinates":[4.3912833,51.6872417]},"properties":{"dolphinKind":"topmark","rawObjectClass":"TOPMAR","sourceProperties":{"RCID":432550195,"PRIM":1,"GRUP":2,"OBJL":144,"RVER":1,"AGEN":7979,"FIDN":432550195,"FIDS":1,"LNAM":"1F2B19C831330001","COLOUR":["3","1","3"],"COLPAT":["1"],"TOPSHP":5,"SCAMIN":200000,"sourceCellId":"1R7788XI","sourceChecksum":"8189f07d2b8a7c723cb678449e7775f49564628f372f49b884f2da00f62721c8","rawObjectClass":"TOPMAR","sourceStableId":"1F2B19C831330001"},"sourceKind":"official","official":true,"sourceCellId":"1R7788XI","sourceStableId":"1F2B19C831330001","pipelineFeatureId":"1R7788XI/TOPMAR/432550195","provenance":{"cellId":"1R7788XI","checksum":"8189f07d2b8a7c723cb678449e7775f49564628f372f49b884f2da00f62721c8","readerVersion":"GDAL 3.2.2","processedAt":"2026-08-11T18:29:20.995Z"},"associationRefsVerifiedInGdalOutput":false}},{"type":"Feature","geometry":{"type":"Point","coordinates":[4.3917517,51.6901033]},"properties":{"dolphinKind":"topmark","rawObjectClass":"TOPMAR","sourceProperties":{"RCID":432550197,"PRIM":1,"GRUP":2,"OBJL":144,"RVER":1,"AGEN":7979,"FIDN":432550197,"FIDS":1,"LNAM":"1F2B19C831350001","COLOUR":["3","1","3"],"COLPAT":["1"],"TOPSHP":5,"SCAMIN":200000,"sourceCellId":"1R7788XI","sourceChecksum":"8189f07d2b8a7c723cb678449e7775f49564628f372f49b884f2da00f62721c8","rawObjectClass":"TOPMAR","sourceStableId":"1F2B19C831350001"},"sourceKind":"official","official":true,"sourceCellId":"1R7788XI","sourceStableId":"1F2B19C831350001","pipelineFeatureId":"1R7788XI/TOPMAR/432550197","provenance":{"cellId":"1R7788XI","checksum":"8189f07d2b8a7c723cb678449e7775f49564628f372f49b884f2da00f62721c8","readerVersion":"GDAL 3.2.2","processedAt":"2026-08-11T18:29:20.995Z"},"associationRefsVerifiedInGdalOutput":false}},{"type":"Feature","geometry":{"type":"Point","coordinates":[4.3912833,51.6905067]},"properties":{"dolphinKind":"topmark","rawObjectClass":"TOPMAR","sourceProperties":{"RCID":432550210,"PRIM":1,"GRUP":2,"OBJL":144,"RVER":1,"AGEN":7979,"FIDN":432550210,"FIDS":1,"LNAM":"1F2B19C831420001","COLOUR":["4"],"TOPSHP":1,"SCAMIN":200000,"sourceCellId":"1R7788XI","sourceChecksum":"8189f07d2b8a7c723cb678449e7775f49564628f372f49b884f2da00f62721c8","rawObjectClass":"TOPMAR","sourceStableId":"1F2B19C831420001"},"sourceKind":"official","official":true,"sourceCellId":"1R7788XI","sourceStableId":"1F2B19C831420001","pipelineFeatureId":"1R7788XI/TOPMAR/432550210","provenance":{"cellId":"1R7788XI","checksum":"8189f07d2b8a7c723cb678449e7775f49564628f372f49b884f2da00f62721c8","readerVersion":"GDAL 3.2.2","processedAt":"2026-08-11T18:29:20.995Z"},"associationRefsVerifiedInGdalOutput":false}},{"type":"Feature","geometry":{"type":"Point","coordinates":[4.3995567,51.6857283]},"properties":{"dolphinKind":"topmark","rawObjectClass":"TOPMAR","sourceProperties":{"RCID":1216575035,"PRIM":1,"GRUP":2,"OBJL":144,"RVER":1,"AGEN":7979,"FIDN":1216575035,"FIDS":1,"LNAM":"1F2B4883763B0001","COLOUR":["6"],"TOPSHP":7,"SCAMIN":200000,"sourceCellId":"1R7788XI","sourceChecksum":"8189f07d2b8a7c723cb678449e7775f49564628f372f49b884f2da00f62721c8","rawObjectClass":"TOPMAR","sourceStableId":"1F2B4883763B0001"},"sourceKind":"official","official":true,"sourceCellId":"1R7788XI","sourceStableId":"1F2B4883763B0001","pipelineFeatureId":"1R7788XI/TOPMAR/1216575035","provenance":{"cellId":"1R7788XI","checksum":"8189f07d2b8a7c723cb678449e7775f49564628f372f49b884f2da00f62721c8","readerVersion":"GDAL 3.2.2","processedAt":"2026-08-11T18:29:20.995Z"},"associationRefsVerifiedInGdalOutput":false}},{"type":"Feature","geometry":{"type":"Point","coordinates":[4.3998133,51.68588]},"properties":{"dolphinKind":"topmark","rawObjectClass":"TOPMAR","sourceProperties":{"RCID":1216575037,"PRIM":1,"GRUP":2,"OBJL":144,"RVER":1,"AGEN":7979,"FIDN":1216575037,"FIDS":1,"LNAM":"1F2B4883763D0001","COLOUR":["6"],"TOPSHP":7,"SCAMIN":200000,"sourceCellId":"1R7788XI","sourceChecksum":"8189f07d2b8a7c723cb678449e7775f49564628f372f49b884f2da00f62721c8","rawObjectClass":"TOPMAR","sourceStableId":"1F2B4883763D0001"},"sourceKind":"official","official":true,"sourceCellId":"1R7788XI","sourceStableId":"1F2B4883763D0001","pipelineFeatureId":"1R7788XI/TOPMAR/1216575037","provenance":{"cellId":"1R7788XI","checksum":"8189f07d2b8a7c723cb678449e7775f49564628f372f49b884f2da00f62721c8","readerVersion":"GDAL 3.2.2","processedAt":"2026-08-11T18:29:20.995Z"},"associationRefsVerifiedInGdalOutput":false}},{"type":"Feature","geometry":{"type":"Point","coordinates":[4.365875,51.6770733]},"properties":{"dolphinKind":"topmark","rawObjectClass":"TOPMAR","sourceProperties":{"RCID":1269312619,"PRIM":1,"GRUP":2,"OBJL":144,"RVER":1,"AGEN":7979,"FIDN":1269312619,"FIDS":1,"LNAM":"1F2B4BA82C6B0001","COLOUR":["3"],"TOPSHP":5,"SCAMIN":200000,"sourceCellId":"1R7788XI","sourceChecksum":"8189f07d2b8a7c723cb678449e7775f49564628f372f49b884f2da00f62721c8","rawObjectClass":"TOPMAR","sourceStableId":"1F2B4BA82C6B0001"},"sourceKind":"official","official":true,"sourceCellId":"1R7788XI","sourceStableId":"1F2B4BA82C6B0001","pipelineFeatureId":"1R7788XI/TOPMAR/1269312619","provenance":{"cellId":"1R7788XI","checksum":"8189f07d2b8a7c723cb678449e7775f49564628f372f49b884f2da00f62721c8","readerVersion":"GDAL 3.2.2","processedAt":"2026-08-11T18:29:20.995Z"},"associationRefsVerifiedInGdalOutput":false}},{"type":"Feature","geometry":{"type":"Point","coordinates":[4.3669467,51.6797267]},"properties":{"dolphinKind":"topmark","rawObjectClass":"TOPMAR","sourceProperties":{"RCID":1269312721,"PRIM":1,"GRUP":2,"OBJL":144,"RVER":1,"AGEN":7979,"FIDN":1269312721,"FIDS":1,"LNAM":"1F2B4BA82CD10001","COLOUR":["3"],"TOPSHP":5,"SCAMIN":200000,"sourceCellId":"1R7788XI","sourceChecksum":"8189f07d2b8a7c723cb678449e7775f49564628f372f49b884f2da00f62721c8","rawObjectClass":"TOPMAR","sourceStableId":"1F2B4BA82CD10001"},"sourceKind":"official","official":true,"sourceCellId":"1R7788XI","sourceStableId":"1F2B4BA82CD10001","pipelineFeatureId":"1R7788XI/TOPMAR/1269312721","provenance":{"cellId":"1R7788XI","checksum":"8189f07d2b8a7c723cb678449e7775f49564628f372f49b884f2da00f62721c8","readerVersion":"GDAL 3.2.2","processedAt":"2026-08-11T18:29:20.995Z"},"associationRefsVerifiedInGdalOutput":false}}]}