{"type":"FeatureCollection","features":[{"type":"Feature","geometry":{"type":"Point","coordinates":[3.414525,51.5459217]},"properties":{"dolphinKind":"buoy-lateral","rawObjectClass":"BOYLAT","sourceProperties":{"RCID":17450,"PRIM":1,"GRUP":2,"OBJL":17,"RVER":1,"AGEN":7979,"FIDN":1106834683,"FIDS":511,"LNAM":"1F2B41F8F4FB01FF","LNAM_REFS":["1F2B41F8F4FB01FE","1F2B4873C3C30001"],"FFPT_RIND":[2,2],"BOYSHP":1,"CATLAM":2,"COLOUR":["4"],"OBJNAM":"OG 7","SCAMIN":200000,"SORDAT":"20190408","SORIND":"NL,1R,reprt,MD143-19","sourceCellId":"1R75K8FI","sourceChecksum":"2113f14c67e6f57521acd07463ec0ddeae240394a845aed67243681674febf52","rawObjectClass":"BOYLAT","sourceStableId":"1F2B41F8F4FB01FF"},"sourceKind":"official","official":true,"sourceCellId":"1R75K8FI","sourceStableId":"1F2B41F8F4FB01FF","pipelineFeatureId":"1R75K8FI/BOYLAT/17450","provenance":{"cellId":"1R75K8FI","checksum":"2113f14c67e6f57521acd07463ec0ddeae240394a845aed67243681674febf52","readerVersion":"GDAL 3.2.2","processedAt":"2026-08-11T18:29:20.995Z"}}},{"type":"Feature","geometry":{"type":"Point","coordinates":[3.3980567,51.568395]},"properties":{"dolphinKind":"buoy-lateral","rawObjectClass":"BOYLAT","sourceProperties":{"RCID":17452,"PRIM":1,"GRUP":2,"OBJL":17,"RVER":1,"AGEN":7979,"FIDN":1106834684,"FIDS":258,"LNAM":"1F2B41F8F4FC0102","LNAM_REFS":["1F2B41F8F4FC0101"],"FFPT_RIND":[2],"BOYSHP":1,"CATLAM":2,"COLOUR":["4"],"OBJNAM":"OG 5","SCAMIN":200000,"SORDAT":"20170530","SORIND":"NL,1R,Reprt,BASS039-2017","sourceCellId":"1R75K8FI","sourceChecksum":"2113f14c67e6f57521acd07463ec0ddeae240394a845aed67243681674febf52","rawObjectClass":"BOYLAT","sourceStableId":"1F2B41F8F4FC0102"},"sourceKind":"official","official":true,"sourceCellId":"1R75K8FI","sourceStableId":"1F2B41F8F4FC0102","pipelineFeatureId":"1R75K8FI/BOYLAT/17452","provenance":{"cellId":"1R75K8FI","checksum":"2113f14c67e6f57521acd07463ec0ddeae240394a845aed67243681674febf52","readerVersion":"GDAL 3.2.2","processedAt":"2026-08-11T18:29:20.995Z"}}},{"type":"Feature","geometry":{"type":"Point","coordinates":[3.4147383,51.5369483]},"properties":{"dolphinKind":"buoy-lateral","rawObjectClass":"BOYLAT","sourceProperties":{"RCID":17541,"PRIM":1,"GRUP":2,"OBJL":17,"RVER":1,"AGEN":7979,"FIDN":1106834684,"FIDS":347,"LNAM":"1F2B41F8F4FC015B","LNAM_REFS":["1F2B41F8F4FC015A"],"FFPT_RIND":[2],"BOYSHP":5,"CATLAM":2,"COLOUR":["4"],"CONRAD":3,"NATCON":["8"],"OBJNAM":"GR 1","SCAMIN":200000,"SORDAT":"20190408","SORIND":"NL,1R,reprt,MD143-19","sourceCellId":"1R75K8FI","sourceChecksum":"2113f14c67e6f57521acd07463ec0ddeae240394a845aed67243681674febf52","rawObjectClass":"BOYLAT","sourceStableId":"1F2B41F8F4FC015B"},"sourceKind":"official","official":true,"sourceCellId":"1R75K8FI","sourceStableId":"1F2B41F8F4FC015B","pipelineFeatureId":"1R75K8FI/BOYLAT/17541","provenance":{"cellId":"1R75K8FI","checksum":"2113f14c67e6f57521acd07463ec0ddeae240394a845aed67243681674febf52","readerVersion":"GDAL 3.2.2","processedAt":"2026-08-11T18:29:20.995Z"}}},{"type":"Feature","geometry":{"type":"Point","coordinates":[3.4130567,51.5312083]},"properties":{"dolphinKind":"buoy-lateral","rawObjectClass":"BOYLAT","sourceProperties":{"RCID":17542,"PRIM":1,"GRUP":2,"OBJL":17,"RVER":1,"AGEN":7979,"FIDN":1106834684,"FIDS":348,"LNAM":"1F2B41F8F4FC015C","BOYSHP":5,"CATLAM":2,"COLOUR":["4"],"CONRAD":3,"NATCON":["8"],"OBJNAM":"GR 3","SCAMIN":200000,"SORDAT":"20240828","SORIND":"NL,1R,reprt,MD 451-24","sourceCellId":"1R75K8FI","sourceChecksum":"2113f14c67e6f57521acd07463ec0ddeae240394a845aed67243681674febf52","rawObjectClass":"BOYLAT","sourceStableId":"1F2B41F8F4FC015C"},"sourceKind":"official","official":true,"sourceCellId":"1R75K8FI","sourceStableId":"1F2B41F8F4FC015C","pipelineFeatureId":"1R75K8FI/BOYLAT/17542","provenance":{"cellId":"1R75K8FI","checksum":"2113f14c67e6f57521acd07463ec0ddeae240394a845aed67243681674febf52","readerVersion":"GDAL 3.2.2","processedAt":"2026-08-11T18:29:20.995Z"}}},{"type":"Feature","geometry":{"type":"Point","coordinates":[3.4160983,51.5311883]},"properties":{"dolphinKind":"buoy-lateral","rawObjectClass":"BOYLAT","sourceProperties":{"RCID":17544,"PRIM":1,"GRUP":2,"OBJL":17,"RVER":1,"AGEN":7979,"FIDN":1106834684,"FIDS":350,"LNAM":"1F2B41F8F4FC015E","BOYSHP":5,"CATLAM":1,"COLOUR":["3"],"CONRAD":3,"NATCON":["8"],"OBJNAM":"GR 2","SCAMIN":200000,"SORDAT":"20240828","SORIND":"NL,1R,reprt,MD 451-24","sourceCellId":"1R75K8FI","sourceChecksum":"2113f14c67e6f57521acd07463ec0ddeae240394a845aed67243681674febf52","rawObjectClass":"BOYLAT","sourceStableId":"1F2B41F8F4FC015E"},"sourceKind":"official","official":true,"sourceCellId":"1R75K8FI","sourceStableId":"1F2B41F8F4FC015E","pipelineFeatureId":"1R75K8FI/BOYLAT/17544","provenance":{"cellId":"1R75K8FI","checksum":"2113f14c67e6f57521acd07463ec0ddeae240394a845aed67243681674febf52","readerVersion":"GDAL 3.2.2","processedAt":"2026-08-11T18:29:20.995Z"}}},{"type":"Feature","geometry":{"type":"Point","coordinates":[3.4282917,51.5631517]},"properties":{"dolphinKind":"buoy-lateral","rawObjectClass":"BOYLAT","sourceProperties":{"RCID":225551631,"PRIM":1,"GRUP":2,"OBJL":17,"RVER":1,"AGEN":7979,"FIDN":225551631,"FIDS":1,"LNAM":"1F2B0D71A50F0001","LNAM_REFS":["1F2B0D71A5100001"],"FFPT_RIND":[2],"BOYSHP":2,"CATLAM":1,"COLOUR":["3"],"CONRAD":3,"OBJNAM":"OG 6","SCAMIN":200000,"SORDAT":"20160530","SORIND":"NL,1R,Reprt,BASS039-2017","sourceCellId":"1R75K8FI","sourceChecksum":"2113f14c67e6f57521acd07463ec0ddeae240394a845aed67243681674febf52","rawObjectClass":"BOYLAT","sourceStableId":"1F2B0D71A50F0001"},"sourceKind":"official","official":true,"sourceCellId":"1R75K8FI","sourceStableId":"1F2B0D71A50F0001","pipelineFeatureId":"1R75K8FI/BOYLAT/225551631","provenance":{"cellId":"1R75K8FI","checksum":"2113f14c67e6f57521acd07463ec0ddeae240394a845aed67243681674febf52","readerVersion":"GDAL 3.2.2","processedAt":"2026-08-11T18:29:20.995Z"}}},{"type":"Feature","geometry":{"type":"Point","coordinates":[3.4471574,51.529202]},"properties":{"dolphinKind":"light","rawObjectClass":"LIGHTS","sourceProperties":{"RCID":16413,"PRIM":1,"GRUP":2,"OBJL":75,"RVER":1,"AGEN":7979,"FIDN":1106834596,"FIDS":299,"LNAM":"1F2B41F8F4A4012B","CATLIT":["4","15"],"COLOUR":["1"],"HEIGHT":50,"LITCHR":2,"SIGGRP":"(1)","SIGPER":3,"VALNMR":26,"INFORM":"Gemeenschappelijk hoge licht vuurtoren Westkapelle","SCAMIN":200000,"SORDAT":"20030923","sourceCellId":"1R75K8FI","sourceChecksum":"2113f14c67e6f57521acd07463ec0ddeae240394a845aed67243681674febf52","rawObjectClass":"LIGHTS","sourceStableId":"1F2B41F8F4A4012B"},"sourceKind":"official","official":true,"sourceCellId":"1R75K8FI","sourceStableId":"1F2B41F8F4A4012B","pipelineFeatureId":"1R75K8FI/LIGHTS/16413","provenance":{"cellId":"1R75K8FI","checksum":"2113f14c67e6f57521acd07463ec0ddeae240394a845aed67243681674febf52","readerVersion":"GDAL 3.2.2","processedAt":"2026-08-11T18:29:20.995Z"}}},{"type":"Feature","geometry":{"type":"Point","coordinates":[3.4342167,51.5264333]},"properties":{"dolphinKind":"light","rawObjectClass":"LIGHTS","sourceProperties":{"RCID":16415,"PRIM":1,"GRUP":2,"OBJL":75,"RVER":1,"AGEN":7979,"FIDN":1106834596,"FIDS":301,"LNAM":"1F2B41F8F4A4012D","COLOUR":["3"],"DATSTA":"20231107","HEIGHT":10,"LITCHR":8,"SECTR1":311.5,"SECTR2":330.5,"SIGGRP":"(1)","SIGPER":6,"VALNMR":6,"SCAMIN":200000,"SORDAT":"20231107","SORIND":"NL,1R,Reprt,MD 408-23","sourceCellId":"1R75K8FI","sourceChecksum":"2113f14c67e6f57521acd07463ec0ddeae240394a845aed67243681674febf52","rawObjectClass":"LIGHTS","sourceStableId":"1F2B41F8F4A4012D"},"sourceKind":"official","official":true,"sourceCellId":"1R75K8FI","sourceStableId":"1F2B41F8F4A4012D","pipelineFeatureId":"1R75K8FI/LIGHTS/16415","provenance":{"cellId":"1R75K8FI","checksum":"2113f14c67e6f57521acd07463ec0ddeae240394a845aed67243681674febf52","readerVersion":"GDAL 3.2.2","processedAt":"2026-08-11T18:29:20.995Z"}}},{"type":"Feature","geometry":{"type":"Point","coordinates":[3.4342167,51.5264333]},"properties":{"dolphinKind":"light","rawObjectClass":"LIGHTS","sourceProperties":{"RCID":16416,"PRIM":1,"GRUP":2,"OBJL":75,"RVER":1,"AGEN":7979,"FIDN":1106834596,"FIDS":302,"LNAM":"1F2B41F8F4A4012E","COLOUR":["3"],"DATSTA":"20231107","HEIGHT":10,"LITCHR":8,"SECTR1":167.5,"SECTR2":198,"SIGGRP":"(1)","SIGPER":6,"VALNMR":6,"SCAMIN":200000,"SORDAT":"20231107","SORIND":"NL,1R,Reprt,MD 408-23","sourceCellId":"1R75K8FI","sourceChecksum":"2113f14c67e6f57521acd07463ec0ddeae240394a845aed67243681674febf52","rawObjectClass":"LIGHTS","sourceStableId":"1F2B41F8F4A4012E"},"sourceKind":"official","official":true,"sourceCellId":"1R75K8FI","sourceStableId":"1F2B41F8F4A4012E","pipelineFeatureId":"1R75K8FI/LIGHTS/16416","provenance":{"cellId":"1R75K8FI","checksum":"2113f14c67e6f57521acd07463ec0ddeae240394a845aed67243681674febf52","readerVersion":"GDAL 3.2.2","processedAt":"2026-08-11T18:29:20.995Z"}}},{"type":"Feature","geometry":{"type":"Point","coordinates":[3.4342167,51.5264333]},"properties":{"dolphinKind":"light","rawObjectClass":"LIGHTS","sourceProperties":{"RCID":16417,"PRIM":1,"GRUP":2,"OBJL":75,"RVER":1,"AGEN":7979,"FIDN":1106834596,"FIDS":303,"LNAM":"1F2B41F8F4A4012F","COLOUR":["1"],"DATSTA":"20231107","HEIGHT":10,"LITCHR":8,"SECTR1":124,"SECTR2":167.5,"SIGGRP":"(1)","SIGPER":6,"VALNMR":6,"SCAMIN":200000,"SORDAT":"20231107","SORIND":"NL,1R,Reprt,MD 408-23","sourceCellId":"1R75K8FI","sourceChecksum":"2113f14c67e6f57521acd07463ec0ddeae240394a845aed67243681674febf52","rawObjectClass":"LIGHTS","sourceStableId":"1F2B41F8F4A4012F"},"sourceKind":"official","official":true,"sourceCellId":"1R75K8FI","sourceStableId":"1F2B41F8F4A4012F","pipelineFeatureId":"1R75K8FI/LIGHTS/16417","provenance":{"cellId":"1R75K8FI","checksum":"2113f14c67e6f57521acd07463ec0ddeae240394a845aed67243681674febf52","readerVersion":"GDAL 3.2.2","processedAt":"2026-08-11T18:29:20.995Z"}}},{"type":"Feature","geometry":{"type":"Point","coordinates":[3.4342167,51.5264333]},"properties":{"dolphinKind":"light","rawObjectClass":"LIGHTS","sourceProperties":{"RCID":16418,"PRIM":1,"GRUP":2,"OBJL":75,"RVER":1,"AGEN":7979,"FIDN":1106834596,"FIDS":304,"LNAM":"1F2B41F8F4A40130","COLOUR":["4"],"DATSTA":"20231107","HEIGHT":10,"LITCHR":8,"SECTR1":36.5,"SECTR2":124,"SIGGRP":"(1)","SIGPER":6,"VALNMR":6,"SCAMIN":200000,"SORDAT":"20231107","SORIND":"NL,1R,Reprt,MD 408-23","sourceCellId":"1R75K8FI","sourceChecksum":"2113f14c67e6f57521acd07463ec0ddeae240394a845aed67243681674febf52","rawObjectClass":"LIGHTS","sourceStableId":"1F2B41F8F4A40130"},"sourceKind":"official","official":true,"sourceCellId":"1R75K8FI","sourceStableId":"1F2B41F8F4A40130","pipelineFeatureId":"1R75K8FI/LIGHTS/16418","provenance":{"cellId":"1R75K8FI","checksum":"2113f14c67e6f57521acd07463ec0ddeae240394a845aed67243681674febf52","readerVersion":"GDAL 3.2.2","processedAt":"2026-08-11T18:29:20.995Z"}}},{"type":"Feature","geometry":{"type":"Point","coordinates":[3.4342167,51.5264333]},"properties":{"dolphinKind":"light","rawObjectClass":"LIGHTS","sourceProperties":{"RCID":16419,"PRIM":1,"GRUP":2,"OBJL":75,"RVER":1,"AGEN":7979,"FIDN":1106834596,"FIDS":305,"LNAM":"1F2B41F8F4A40131","COLOUR":["1"],"DATSTA":"20231107","HEIGHT":10,"LITCHR":8,"SECTR1":34.5,"SECTR2":36.5,"SIGGRP":"(1)","SIGPER":6,"VALNMR":6,"SCAMIN":200000,"SORDAT":"20231107","SORIND":"NL,1R,Reprt,MD 408-23","sourceCellId":"1R75K8FI","sourceChecksum":"2113f14c67e6f57521acd07463ec0ddeae240394a845aed67243681674febf52","rawObjectClass":"LIGHTS","sourceStableId":"1F2B41F8F4A40131"},"sourceKind":"official","official":true,"sourceCellId":"1R75K8FI","sourceStableId":"1F2B41F8F4A40131","pipelineFeatureId":"1R75K8FI/LIGHTS/16419","provenance":{"cellId":"1R75K8FI","checksum":"2113f14c67e6f57521acd07463ec0ddeae240394a845aed67243681674febf52","readerVersion":"GDAL 3.2.2","processedAt":"2026-08-11T18:29:20.995Z"}}},{"type":"Feature","geometry":{"type":"Point","coordinates":[3.4342167,51.5264333]},"properties":{"dolphinKind":"light","rawObjectClass":"LIGHTS","sourceProperties":{"RCID":16420,"PRIM":1,"GRUP":2,"OBJL":75,"RVER":1,"AGEN":7979,"FIDN":1106834596,"FIDS":306,"LNAM":"1F2B41F8F4A40132","COLOUR":["4"],"DATSTA":"20231107","HEIGHT":10,"LITCHR":8,"SECTR1":0.5,"SECTR2":34.5,"SIGGRP":"(1)","SIGPER":6,"VALNMR":6,"SCAMIN":200000,"SORDAT":"20231107","SORIND":"NL,1R,Reprt,MD 408-23","sourceCellId":"1R75K8FI","sourceChecksum":"2113f14c67e6f57521acd07463ec0ddeae240394a845aed67243681674febf52","rawObjectClass":"LIGHTS","sourceStableId":"1F2B41F8F4A40132"},"sourceKind":"official","official":true,"sourceCellId":"1R75K8FI","sourceStableId":"1F2B41F8F4A40132","pipelineFeatureId":"1R75K8FI/LIGHTS/16420","provenance":{"cellId":"1R75K8FI","checksum":"2113f14c67e6f57521acd07463ec0ddeae240394a845aed67243681674febf52","readerVersion":"GDAL 3.2.2","processedAt":"2026-08-11T18:29:20.995Z"}}},{"type":"Feature","geometry":{"type":"Point","coordinates":[3.4342167,51.5264333]},"properties":{"dolphinKind":"light","rawObjectClass":"LIGHTS","sourceProperties":{"RCID":16421,"PRIM":1,"GRUP":2,"OBJL":75,"RVER":1,"AGEN":7979,"FIDN":1106834596,"FIDS":307,"LNAM":"1F2B41F8F4A40133","COLOUR":["3"],"DATSTA":"20231107","HEIGHT":10,"LITCHR":8,"SECTR1":348.5,"SECTR2":0.5,"SIGGRP":"(1)","SIGPER":6,"VALNMR":6,"SCAMIN":200000,"SORDAT":"20231107","SORIND":"NL,1R,Reprt,MD 408-23","sourceCellId":"1R75K8FI","sourceChecksum":"2113f14c67e6f57521acd07463ec0ddeae240394a845aed67243681674febf52","rawObjectClass":"LIGHTS","sourceStableId":"1F2B41F8F4A40133"},"sourceKind":"official","official":true,"sourceCellId":"1R75K8FI","sourceStableId":"1F2B41F8F4A40133","pipelineFeatureId":"1R75K8FI/LIGHTS/16421","provenance":{"cellId":"1R75K8FI","checksum":"2113f14c67e6f57521acd07463ec0ddeae240394a845aed67243681674febf52","readerVersion":"GDAL 3.2.2","processedAt":"2026-08-11T18:29:20.995Z"}}},{"type":"Feature","geometry":{"type":"Point","coordinates":[3.4342167,51.5264333]},"properties":{"dolphinKind":"light","rawObjectClass":"LIGHTS","sourceProperties":{"RCID":16422,"PRIM":1,"GRUP":2,"OBJL":75,"RVER":1,"AGEN":7979,"FIDN":1106834596,"FIDS":308,"LNAM":"1F2B41F8F4A40134","COLOUR":["1"],"DATSTA":"20231107","HEIGHT":10,"LITCHR":8,"SECTR1":330.5,"SECTR2":348.5,"SIGGRP":"(1)","SIGPER":6,"VALNMR":6,"SCAMIN":200000,"SORDAT":"20231107","SORIND":"NL,1R,Reprt,MD 408-23","sourceCellId":"1R75K8FI","sourceChecksum":"2113f14c67e6f57521acd07463ec0ddeae240394a845aed67243681674febf52","rawObjectClass":"LIGHTS","sourceStableId":"1F2B41F8F4A40134"},"sourceKind":"official","official":true,"sourceCellId":"1R75K8FI","sourceStableId":"1F2B41F8F4A40134","pipelineFeatureId":"1R75K8FI/LIGHTS/16422","provenance":{"cellId":"1R75K8FI","checksum":"2113f14c67e6f57521acd07463ec0ddeae240394a845aed67243681674febf52","readerVersion":"GDAL 3.2.2","processedAt":"2026-08-11T18:29:20.995Z"}}},{"type":"Feature","geometry":{"type":"Point","coordinates":[3.4178017,51.53333]},"properties":{"dolphinKind":"light","rawObjectClass":"LIGHTS","sourceProperties":{"RCID":17429,"PRIM":1,"GRUP":2,"OBJL":75,"RVER":1,"AGEN":7979,"FIDN":1106834683,"FIDS":490,"LNAM":"1F2B41F8F4FB01EA","COLOUR":["1"],"LITCHR":5,"SIGGRP":"(3)","SIGPER":5,"SCAMIN":200000,"SORDAT":"20030930","sourceCellId":"1R75K8FI","sourceChecksum":"2113f14c67e6f57521acd07463ec0ddeae240394a845aed67243681674febf52","rawObjectClass":"LIGHTS","sourceStableId":"1F2B41F8F4FB01EA"},"sourceKind":"official","official":true,"sourceCellId":"1R75K8FI","sourceStableId":"1F2B41F8F4FB01EA","pipelineFeatureId":"1R75K8FI/LIGHTS/17429","provenance":{"cellId":"1R75K8FI","checksum":"2113f14c67e6f57521acd07463ec0ddeae240394a845aed67243681674febf52","readerVersion":"GDAL 3.2.2","processedAt":"2026-08-11T18:29:20.995Z"}}},{"type":"Feature","geometry":{"type":"Point","coordinates":[3.414525,51.5459217]},"properties":{"dolphinKind":"light","rawObjectClass":"LIGHTS","sourceProperties":{"RCID":17449,"PRIM":1,"GRUP":2,"OBJL":75,"RVER":1,"AGEN":7979,"FIDN":1106834683,"FIDS":510,"LNAM":"1F2B41F8F4FB01FE","COLOUR":["4"],"LITCHR":5,"SIGGRP":"(1)","SCAMIN":200000,"SORDAT":"20190408","SORIND":"NL,1R,Reprt,MD143-19","sourceCellId":"1R75K8FI","sourceChecksum":"2113f14c67e6f57521acd07463ec0ddeae240394a845aed67243681674febf52","rawObjectClass":"LIGHTS","sourceStableId":"1F2B41F8F4FB01FE"},"sourceKind":"official","official":true,"sourceCellId":"1R75K8FI","sourceStableId":"1F2B41F8F4FB01FE","pipelineFeatureId":"1R75K8FI/LIGHTS/17449","provenance":{"cellId":"1R75K8FI","checksum":"2113f14c67e6f57521acd07463ec0ddeae240394a845aed67243681674febf52","readerVersion":"GDAL 3.2.2","processedAt":"2026-08-11T18:29:20.995Z"}}},{"type":"Feature","geometry":{"type":"Point","coordinates":[3.3980567,51.568395]},"properties":{"dolphinKind":"light","rawObjectClass":"LIGHTS","sourceProperties":{"RCID":17451,"PRIM":1,"GRUP":2,"OBJL":75,"RVER":1,"AGEN":7979,"FIDN":1106834684,"FIDS":257,"LNAM":"1F2B41F8F4FC0101","COLOUR":["4"],"LITCHR":7,"SIGGRP":"(1)","SIGPER":8,"SCAMIN":200000,"SORDAT":"20030930","sourceCellId":"1R75K8FI","sourceChecksum":"2113f14c67e6f57521acd07463ec0ddeae240394a845aed67243681674febf52","rawObjectClass":"LIGHTS","sourceStableId":"1F2B41F8F4FC0101"},"sourceKind":"official","official":true,"sourceCellId":"1R75K8FI","sourceStableId":"1F2B41F8F4FC0101","pipelineFeatureId":"1R75K8FI/LIGHTS/17451","provenance":{"cellId":"1R75K8FI","checksum":"2113f14c67e6f57521acd07463ec0ddeae240394a845aed67243681674febf52","readerVersion":"GDAL 3.2.2","processedAt":"2026-08-11T18:29:20.995Z"}}},{"type":"Feature","geometry":{"type":"Point","coordinates":[3.4368636,51.5400779]},"properties":{"dolphinKind":"light","rawObjectClass":"LIGHTS","sourceProperties":{"RCID":28132,"PRIM":1,"GRUP":2,"OBJL":75,"RVER":1,"AGEN":7979,"FIDN":1132035775,"FIDS":257,"LNAM":"1F2B43797EBF0101","CATLIT":["4","14"],"COLOUR":["3"],"HEIGHT":20,"LITCHR":8,"SECTR1":353,"SECTR2":8,"SIGGRP":"(1)","SIGPER":10,"VALNMR":10,"INFORM":"Lage licht bij gemeenschappelijk hoge licht Vuurtoren Westkapelle","SCAMIN":200000,"SORDAT":"20030923","sourceCellId":"1R75K8FI","sourceChecksum":"2113f14c67e6f57521acd07463ec0ddeae240394a845aed67243681674febf52","rawObjectClass":"LIGHTS","sourceStableId":"1F2B43797EBF0101"},"sourceKind":"official","official":true,"sourceCellId":"1R75K8FI","sourceStableId":"1F2B43797EBF0101","pipelineFeatureId":"1R75K8FI/LIGHTS/28132","provenance":{"cellId":"1R75K8FI","checksum":"2113f14c67e6f57521acd07463ec0ddeae240394a845aed67243681674febf52","readerVersion":"GDAL 3.2.2","processedAt":"2026-08-11T18:29:20.995Z"}}},{"type":"Feature","geometry":{"type":"Point","coordinates":[3.4368636,51.5400779]},"properties":{"dolphinKind":"light","rawObjectClass":"LIGHTS","sourceProperties":{"RCID":28133,"PRIM":1,"GRUP":2,"OBJL":75,"RVER":1,"AGEN":7979,"FIDN":1132035775,"FIDS":258,"LNAM":"1F2B43797EBF0102","CATLIT":["4","14"],"COLOUR":["1"],"HEIGHT":20,"LITCHR":8,"SECTR1":29,"SECTR2":169,"SIGGRP":"(1)","SIGPER":10,"VALNMR":13,"INFORM":"Lage licht bij gemeenschappelijk hoge licht Vuurtoren Westkapelle","SCAMIN":200000,"SORDAT":"20030923","sourceCellId":"1R75K8FI","sourceChecksum":"2113f14c67e6f57521acd07463ec0ddeae240394a845aed67243681674febf52","rawObjectClass":"LIGHTS","sourceStableId":"1F2B43797EBF0102"},"sourceKind":"official","official":true,"sourceCellId":"1R75K8FI","sourceStableId":"1F2B43797EBF0102","pipelineFeatureId":"1R75K8FI/LIGHTS/28133","provenance":{"cellId":"1R75K8FI","checksum":"2113f14c67e6f57521acd07463ec0ddeae240394a845aed67243681674febf52","readerVersion":"GDAL 3.2.2","processedAt":"2026-08-11T18:29:20.995Z"}}},{"type":"Feature","geometry":{"type":"Point","coordinates":[3.4368636,51.5400779]},"properties":{"dolphinKind":"light","rawObjectClass":"LIGHTS","sourceProperties":{"RCID":28134,"PRIM":1,"GRUP":2,"OBJL":75,"RVER":1,"AGEN":7979,"FIDN":1132035775,"FIDS":259,"LNAM":"1F2B43797EBF0103","CATLIT":["4","14"],"COLOUR":["4"],"HEIGHT":20,"LITCHR":8,"SECTR1":8,"SECTR2":29,"SIGGRP":"(1)","SIGPER":10,"VALNMR":10,"INFORM":"Lage licht bij gemeenschappelijk hoge licht Vuurtoren Westkapelle","SCAMIN":200000,"SORDAT":"20030923","sourceCellId":"1R75K8FI","sourceChecksum":"2113f14c67e6f57521acd07463ec0ddeae240394a845aed67243681674febf52","rawObjectClass":"LIGHTS","sourceStableId":"1F2B43797EBF0103"},"sourceKind":"official","official":true,"sourceCellId":"1R75K8FI","sourceStableId":"1F2B43797EBF0103","pipelineFeatureId":"1R75K8FI/LIGHTS/28134","provenance":{"cellId":"1R75K8FI","checksum":"2113f14c67e6f57521acd07463ec0ddeae240394a845aed67243681674febf52","readerVersion":"GDAL 3.2.2","processedAt":"2026-08-11T18:29:20.995Z"}}},{"type":"Feature","geometry":{"type":"Point","coordinates":[3.4282917,51.5631517]},"properties":{"dolphinKind":"light","rawObjectClass":"LIGHTS","sourceProperties":{"RCID":225551632,"PRIM":1,"GRUP":2,"OBJL":75,"RVER":1,"AGEN":7979,"FIDN":225551632,"FIDS":1,"LNAM":"1F2B0D71A5100001","COLOUR":["3"],"LITCHR":4,"SIGGRP":"(1)","SIGPER":0.5,"SCAMIN":200000,"SORDAT":"20170530","SORIND":"NL,1R,Reprt,BASS039-2017","sourceCellId":"1R75K8FI","sourceChecksum":"2113f14c67e6f57521acd07463ec0ddeae240394a845aed67243681674febf52","rawObjectClass":"LIGHTS","sourceStableId":"1F2B0D71A5100001"},"sourceKind":"official","official":true,"sourceCellId":"1R75K8FI","sourceStableId":"1F2B0D71A5100001","pipelineFeatureId":"1R75K8FI/LIGHTS/225551632","provenance":{"cellId":"1R75K8FI","checksum":"2113f14c67e6f57521acd07463ec0ddeae240394a845aed67243681674febf52","readerVersion":"GDAL 3.2.2","processedAt":"2026-08-11T18:29:20.995Z"}}},{"type":"Feature","geometry":{"type":"Point","coordinates":[3.3895133,51.5675133]},"properties":{"dolphinKind":"topmark","rawObjectClass":"TOPMAR","sourceProperties":{"RCID":17426,"PRIM":1,"GRUP":2,"OBJL":144,"RVER":1,"AGEN":7979,"FIDN":1106834683,"FIDS":487,"LNAM":"1F2B41F8F4FB01E7","COLOUR":["2"],"TOPSHP":11,"SCAMIN":200000,"SORDAT":"20030930","sourceCellId":"1R75K8FI","sourceChecksum":"2113f14c67e6f57521acd07463ec0ddeae240394a845aed67243681674febf52","rawObjectClass":"TOPMAR","sourceStableId":"1F2B41F8F4FB01E7"},"sourceKind":"official","official":true,"sourceCellId":"1R75K8FI","sourceStableId":"1F2B41F8F4FB01E7","pipelineFeatureId":"1R75K8FI/TOPMAR/17426","provenance":{"cellId":"1R75K8FI","checksum":"2113f14c67e6f57521acd07463ec0ddeae240394a845aed67243681674febf52","readerVersion":"GDAL 3.2.2","processedAt":"2026-08-11T18:29:20.995Z"},"associationRefsVerifiedInGdalOutput":false}},{"type":"Feature","geometry":{"type":"Point","coordinates":[3.4178017,51.53333]},"properties":{"dolphinKind":"topmark","rawObjectClass":"TOPMAR","sourceProperties":{"RCID":17428,"PRIM":1,"GRUP":2,"OBJL":144,"RVER":1,"AGEN":7979,"FIDN":1106834683,"FIDS":489,"LNAM":"1F2B41F8F4FB01E9","COLOUR":["2"],"TOPSHP":11,"SCAMIN":200000,"SORDAT":"20030930","sourceCellId":"1R75K8FI","sourceChecksum":"2113f14c67e6f57521acd07463ec0ddeae240394a845aed67243681674febf52","rawObjectClass":"TOPMAR","sourceStableId":"1F2B41F8F4FB01E9"},"sourceKind":"official","official":true,"sourceCellId":"1R75K8FI","sourceStableId":"1F2B41F8F4FB01E9","pipelineFeatureId":"1R75K8FI/TOPMAR/17428","provenance":{"cellId":"1R75K8FI","checksum":"2113f14c67e6f57521acd07463ec0ddeae240394a845aed67243681674febf52","readerVersion":"GDAL 3.2.2","processedAt":"2026-08-11T18:29:20.995Z"},"associationRefsVerifiedInGdalOutput":false}},{"type":"Feature","geometry":{"type":"Point","coordinates":[3.4147383,51.5369483]},"properties":{"dolphinKind":"topmark","rawObjectClass":"TOPMAR","sourceProperties":{"RCID":17540,"PRIM":1,"GRUP":2,"OBJL":144,"RVER":1,"AGEN":7979,"FIDN":1106834684,"FIDS":346,"LNAM":"1F2B41F8F4FC015A","COLOUR":["4"],"TOPSHP":1,"SCAMIN":200000,"SORDAT":"20030930","sourceCellId":"1R75K8FI","sourceChecksum":"2113f14c67e6f57521acd07463ec0ddeae240394a845aed67243681674febf52","rawObjectClass":"TOPMAR","sourceStableId":"1F2B41F8F4FC015A"},"sourceKind":"official","official":true,"sourceCellId":"1R75K8FI","sourceStableId":"1F2B41F8F4FC015A","pipelineFeatureId":"1R75K8FI/TOPMAR/17540","provenance":{"cellId":"1R75K8FI","checksum":"2113f14c67e6f57521acd07463ec0ddeae240394a845aed67243681674febf52","readerVersion":"GDAL 3.2.2","processedAt":"2026-08-11T18:29:20.995Z"},"associationRefsVerifiedInGdalOutput":false}},{"type":"Feature","geometry":{"type":"Point","coordinates":[3.3450834,51.5700167]},"properties":{"dolphinKind":"topmark","rawObjectClass":"TOPMAR","sourceProperties":{"RCID":17577,"PRIM":1,"GRUP":2,"OBJL":144,"RVER":1,"AGEN":7979,"FIDN":1106834684,"FIDS":383,"LNAM":"1F2B41F8F4FC017F","COLOUR":["2"],"TOPSHP":13,"SCAMIN":200000,"SORDAT":"20030930","sourceCellId":"1R75K8FI","sourceChecksum":"2113f14c67e6f57521acd07463ec0ddeae240394a845aed67243681674febf52","rawObjectClass":"TOPMAR","sourceStableId":"1F2B41F8F4FC017F"},"sourceKind":"official","official":true,"sourceCellId":"1R75K8FI","sourceStableId":"1F2B41F8F4FC017F","pipelineFeatureId":"1R75K8FI/TOPMAR/17577","provenance":{"cellId":"1R75K8FI","checksum":"2113f14c67e6f57521acd07463ec0ddeae240394a845aed67243681674febf52","readerVersion":"GDAL 3.2.2","processedAt":"2026-08-11T18:29:20.995Z"},"associationRefsVerifiedInGdalOutput":false}},{"type":"Feature","geometry":{"type":"Point","coordinates":[3.414525,51.5459217]},"properties":{"dolphinKind":"topmark","rawObjectClass":"TOPMAR","sourceProperties":{"RCID":1215546307,"PRIM":1,"GRUP":2,"OBJL":144,"RVER":1,"AGEN":7979,"FIDN":1215546307,"FIDS":1,"LNAM":"1F2B4873C3C30001","COLOUR":["4"],"TOPSHP":1,"SCAMIN":200000,"SORDAT":"20250114","SORIND":"NL,1R,Reprt,MD 026-25","sourceCellId":"1R75K8FI","sourceChecksum":"2113f14c67e6f57521acd07463ec0ddeae240394a845aed67243681674febf52","rawObjectClass":"TOPMAR","sourceStableId":"1F2B4873C3C30001"},"sourceKind":"official","official":true,"sourceCellId":"1R75K8FI","sourceStableId":"1F2B4873C3C30001","pipelineFeatureId":"1R75K8FI/TOPMAR/1215546307","provenance":{"cellId":"1R75K8FI","checksum":"2113f14c67e6f57521acd07463ec0ddeae240394a845aed67243681674febf52","readerVersion":"GDAL 3.2.2","processedAt":"2026-08-11T18:29:20.995Z"},"associationRefsVerifiedInGdalOutput":false}}]}