{"type":"FeatureCollection","features":[{"type":"Feature","geometry":{"type":"Point","coordinates":[3.9355127,51.7972009]},"properties":{"dolphinKind":"light","rawObjectClass":"LIGHTS","sourceProperties":{"RCID":19718,"PRIM":1,"GRUP":2,"OBJL":75,"RVER":1,"AGEN":7979,"FIDN":1106834753,"FIDS":419,"LNAM":"1F2B41F8F54101A3","COLOUR":["3"],"HEIGHT":4,"LITCHR":1,"SCAMIN":200000,"sourceCellId":"1R76K99I","sourceChecksum":"876a63fe55d027918a79c41b300243921c98ed52c8e5fec17d2a4c73e9b52f69","rawObjectClass":"LIGHTS","sourceStableId":"1F2B41F8F54101A3"},"sourceKind":"official","official":true,"sourceCellId":"1R76K99I","sourceStableId":"1F2B41F8F54101A3","pipelineFeatureId":"1R76K99I/LIGHTS/19718","provenance":{"cellId":"1R76K99I","checksum":"876a63fe55d027918a79c41b300243921c98ed52c8e5fec17d2a4c73e9b52f69","readerVersion":"GDAL 3.2.2","processedAt":"2026-08-11T18:29:20.995Z"}}},{"type":"Feature","geometry":{"type":"Point","coordinates":[3.9361325,51.7975356]},"properties":{"dolphinKind":"light","rawObjectClass":"LIGHTS","sourceProperties":{"RCID":19719,"PRIM":1,"GRUP":2,"OBJL":75,"RVER":1,"AGEN":7979,"FIDN":1106834753,"FIDS":420,"LNAM":"1F2B41F8F54101A4","COLOUR":["4"],"HEIGHT":4,"LITCHR":1,"SCAMIN":200000,"sourceCellId":"1R76K99I","sourceChecksum":"876a63fe55d027918a79c41b300243921c98ed52c8e5fec17d2a4c73e9b52f69","rawObjectClass":"LIGHTS","sourceStableId":"1F2B41F8F54101A4"},"sourceKind":"official","official":true,"sourceCellId":"1R76K99I","sourceStableId":"1F2B41F8F54101A4","pipelineFeatureId":"1R76K99I/LIGHTS/19719","provenance":{"cellId":"1R76K99I","checksum":"876a63fe55d027918a79c41b300243921c98ed52c8e5fec17d2a4c73e9b52f69","readerVersion":"GDAL 3.2.2","processedAt":"2026-08-11T18:29:20.995Z"}}},{"type":"Feature","geometry":{"type":"Point","coordinates":[3.9402334,51.7750333]},"properties":{"dolphinKind":"topmark","rawObjectClass":"TOPMAR","sourceProperties":{"RCID":8608894,"PRIM":1,"GRUP":2,"OBJL":144,"RVER":1,"AGEN":7979,"FIDN":8608894,"FIDS":1,"LNAM":"1F2B00835C7E0001","COLOUR":["4"],"TOPSHP":1,"SCAMIN":200000,"sourceCellId":"1R76K99I","sourceChecksum":"876a63fe55d027918a79c41b300243921c98ed52c8e5fec17d2a4c73e9b52f69","rawObjectClass":"TOPMAR","sourceStableId":"1F2B00835C7E0001"},"sourceKind":"official","official":true,"sourceCellId":"1R76K99I","sourceStableId":"1F2B00835C7E0001","pipelineFeatureId":"1R76K99I/TOPMAR/8608894","provenance":{"cellId":"1R76K99I","checksum":"876a63fe55d027918a79c41b300243921c98ed52c8e5fec17d2a4c73e9b52f69","readerVersion":"GDAL 3.2.2","processedAt":"2026-08-11T18:29:20.995Z"},"associationRefsVerifiedInGdalOutput":false}},{"type":"Feature","geometry":{"type":"Point","coordinates":[3.9475334,51.79625]},"properties":{"dolphinKind":"topmark","rawObjectClass":"TOPMAR","sourceProperties":{"RCID":8608895,"PRIM":1,"GRUP":2,"OBJL":144,"RVER":1,"AGEN":7979,"FIDN":8608895,"FIDS":1,"LNAM":"1F2B00835C7F0001","COLOUR":["4"],"TOPSHP":1,"SCAMIN":200000,"sourceCellId":"1R76K99I","sourceChecksum":"876a63fe55d027918a79c41b300243921c98ed52c8e5fec17d2a4c73e9b52f69","rawObjectClass":"TOPMAR","sourceStableId":"1F2B00835C7F0001"},"sourceKind":"official","official":true,"sourceCellId":"1R76K99I","sourceStableId":"1F2B00835C7F0001","pipelineFeatureId":"1R76K99I/TOPMAR/8608895","provenance":{"cellId":"1R76K99I","checksum":"876a63fe55d027918a79c41b300243921c98ed52c8e5fec17d2a4c73e9b52f69","readerVersion":"GDAL 3.2.2","processedAt":"2026-08-11T18:29:20.995Z"},"associationRefsVerifiedInGdalOutput":false}},{"type":"Feature","geometry":{"type":"Point","coordinates":[3.9370667,51.7925333]},"properties":{"dolphinKind":"topmark","rawObjectClass":"TOPMAR","sourceProperties":{"RCID":8608896,"PRIM":1,"GRUP":2,"OBJL":144,"RVER":1,"AGEN":7979,"FIDN":8608896,"FIDS":1,"LNAM":"1F2B00835C800001","COLOUR":["3"],"TOPSHP":5,"SCAMIN":200000,"sourceCellId":"1R76K99I","sourceChecksum":"876a63fe55d027918a79c41b300243921c98ed52c8e5fec17d2a4c73e9b52f69","rawObjectClass":"TOPMAR","sourceStableId":"1F2B00835C800001"},"sourceKind":"official","official":true,"sourceCellId":"1R76K99I","sourceStableId":"1F2B00835C800001","pipelineFeatureId":"1R76K99I/TOPMAR/8608896","provenance":{"cellId":"1R76K99I","checksum":"876a63fe55d027918a79c41b300243921c98ed52c8e5fec17d2a4c73e9b52f69","readerVersion":"GDAL 3.2.2","processedAt":"2026-08-11T18:29:20.995Z"},"associationRefsVerifiedInGdalOutput":false}}]}