{"type":"FeatureCollection","features":[{"type":"Feature","geometry":{"type":"Point","coordinates":[3.8126479,51.6869467]},"properties":{"dolphinKind":"light","rawObjectClass":"LIGHTS","sourceProperties":{"RCID":19772,"PRIM":1,"GRUP":2,"OBJL":75,"RVER":1,"AGEN":7979,"FIDN":1106834753,"FIDS":473,"LNAM":"1F2B41F8F54101D9","COLOUR":["4"],"HEIGHT":4.5,"LITCHR":7,"SIGGRP":"(1)","SIGPER":8,"SCAMIN":200000,"sourceCellId":"1R7688XI","sourceChecksum":"6b2c9a885220b1e38005aa0a0d51d7ea9f21763ef67293da24a090f719701106","rawObjectClass":"LIGHTS","sourceStableId":"1F2B41F8F54101D9"},"sourceKind":"official","official":true,"sourceCellId":"1R7688XI","sourceStableId":"1F2B41F8F54101D9","pipelineFeatureId":"1R7688XI/LIGHTS/19772","provenance":{"cellId":"1R7688XI","checksum":"6b2c9a885220b1e38005aa0a0d51d7ea9f21763ef67293da24a090f719701106","readerVersion":"GDAL 3.2.2","processedAt":"2026-08-11T18:29:20.995Z"}}},{"type":"Feature","geometry":{"type":"Point","coordinates":[3.7582084,51.6754455]},"properties":{"dolphinKind":"light","rawObjectClass":"LIGHTS","sourceProperties":{"RCID":20349,"PRIM":1,"GRUP":2,"OBJL":75,"RVER":1,"AGEN":7979,"FIDN":1106834756,"FIDS":285,"LNAM":"1F2B41F8F544011D","COLOUR":["3"],"HEIGHT":11,"LITCHR":1,"SECTR1":230,"SECTR2":245,"SCAMIN":200000,"sourceCellId":"1R7688XI","sourceChecksum":"6b2c9a885220b1e38005aa0a0d51d7ea9f21763ef67293da24a090f719701106","rawObjectClass":"LIGHTS","sourceStableId":"1F2B41F8F544011D"},"sourceKind":"official","official":true,"sourceCellId":"1R7688XI","sourceStableId":"1F2B41F8F544011D","pipelineFeatureId":"1R7688XI/LIGHTS/20349","provenance":{"cellId":"1R7688XI","checksum":"6b2c9a885220b1e38005aa0a0d51d7ea9f21763ef67293da24a090f719701106","readerVersion":"GDAL 3.2.2","processedAt":"2026-08-11T18:29:20.995Z"}}},{"type":"Feature","geometry":{"type":"Point","coordinates":[3.7582084,51.6754455]},"properties":{"dolphinKind":"light","rawObjectClass":"LIGHTS","sourceProperties":{"RCID":20350,"PRIM":1,"GRUP":2,"OBJL":75,"RVER":1,"AGEN":7979,"FIDN":1106834756,"FIDS":286,"LNAM":"1F2B41F8F544011E","COLOUR":["1"],"HEIGHT":11,"LITCHR":1,"SECTR1":245,"SECTR2":253,"SCAMIN":200000,"sourceCellId":"1R7688XI","sourceChecksum":"6b2c9a885220b1e38005aa0a0d51d7ea9f21763ef67293da24a090f719701106","rawObjectClass":"LIGHTS","sourceStableId":"1F2B41F8F544011E"},"sourceKind":"official","official":true,"sourceCellId":"1R7688XI","sourceStableId":"1F2B41F8F544011E","pipelineFeatureId":"1R7688XI/LIGHTS/20350","provenance":{"cellId":"1R7688XI","checksum":"6b2c9a885220b1e38005aa0a0d51d7ea9f21763ef67293da24a090f719701106","readerVersion":"GDAL 3.2.2","processedAt":"2026-08-11T18:29:20.995Z"}}},{"type":"Feature","geometry":{"type":"Point","coordinates":[3.7582084,51.6754455]},"properties":{"dolphinKind":"light","rawObjectClass":"LIGHTS","sourceProperties":{"RCID":20351,"PRIM":1,"GRUP":2,"OBJL":75,"RVER":1,"AGEN":7979,"FIDN":1106834756,"FIDS":287,"LNAM":"1F2B41F8F544011F","COLOUR":["4"],"HEIGHT":11,"LITCHR":1,"SECTR1":253,"SECTR2":293,"SCAMIN":200000,"sourceCellId":"1R7688XI","sourceChecksum":"6b2c9a885220b1e38005aa0a0d51d7ea9f21763ef67293da24a090f719701106","rawObjectClass":"LIGHTS","sourceStableId":"1F2B41F8F544011F"},"sourceKind":"official","official":true,"sourceCellId":"1R7688XI","sourceStableId":"1F2B41F8F544011F","pipelineFeatureId":"1R7688XI/LIGHTS/20351","provenance":{"cellId":"1R7688XI","checksum":"6b2c9a885220b1e38005aa0a0d51d7ea9f21763ef67293da24a090f719701106","readerVersion":"GDAL 3.2.2","processedAt":"2026-08-11T18:29:20.995Z"}}},{"type":"Feature","geometry":{"type":"Point","coordinates":[3.7582084,51.6754455]},"properties":{"dolphinKind":"light","rawObjectClass":"LIGHTS","sourceProperties":{"RCID":20352,"PRIM":1,"GRUP":2,"OBJL":75,"RVER":1,"AGEN":7979,"FIDN":1106834756,"FIDS":288,"LNAM":"1F2B41F8F5440120","COLOUR":["1"],"HEIGHT":11,"LITCHR":1,"SECTR1":293,"SECTR2":360,"SCAMIN":200000,"sourceCellId":"1R7688XI","sourceChecksum":"6b2c9a885220b1e38005aa0a0d51d7ea9f21763ef67293da24a090f719701106","rawObjectClass":"LIGHTS","sourceStableId":"1F2B41F8F5440120"},"sourceKind":"official","official":true,"sourceCellId":"1R7688XI","sourceStableId":"1F2B41F8F5440120","pipelineFeatureId":"1R7688XI/LIGHTS/20352","provenance":{"cellId":"1R7688XI","checksum":"6b2c9a885220b1e38005aa0a0d51d7ea9f21763ef67293da24a090f719701106","readerVersion":"GDAL 3.2.2","processedAt":"2026-08-11T18:29:20.995Z"}}},{"type":"Feature","geometry":{"type":"Point","coordinates":[3.7582084,51.6754455]},"properties":{"dolphinKind":"light","rawObjectClass":"LIGHTS","sourceProperties":{"RCID":20353,"PRIM":1,"GRUP":2,"OBJL":75,"RVER":1,"AGEN":7979,"FIDN":1106834756,"FIDS":289,"LNAM":"1F2B41F8F5440121","COLOUR":["4"],"HEIGHT":11,"LITCHR":1,"SECTR1":360,"SECTR2":25.5,"SCAMIN":200000,"sourceCellId":"1R7688XI","sourceChecksum":"6b2c9a885220b1e38005aa0a0d51d7ea9f21763ef67293da24a090f719701106","rawObjectClass":"LIGHTS","sourceStableId":"1F2B41F8F5440121"},"sourceKind":"official","official":true,"sourceCellId":"1R7688XI","sourceStableId":"1F2B41F8F5440121","pipelineFeatureId":"1R7688XI/LIGHTS/20353","provenance":{"cellId":"1R7688XI","checksum":"6b2c9a885220b1e38005aa0a0d51d7ea9f21763ef67293da24a090f719701106","readerVersion":"GDAL 3.2.2","processedAt":"2026-08-11T18:29:20.995Z"}}},{"type":"Feature","geometry":{"type":"Point","coordinates":[3.7582084,51.6754455]},"properties":{"dolphinKind":"light","rawObjectClass":"LIGHTS","sourceProperties":{"RCID":20354,"PRIM":1,"GRUP":2,"OBJL":75,"RVER":1,"AGEN":7979,"FIDN":1106834756,"FIDS":290,"LNAM":"1F2B41F8F5440122","COLOUR":["1"],"HEIGHT":11,"LITCHR":1,"SECTR1":25.5,"SECTR2":32,"SCAMIN":200000,"sourceCellId":"1R7688XI","sourceChecksum":"6b2c9a885220b1e38005aa0a0d51d7ea9f21763ef67293da24a090f719701106","rawObjectClass":"LIGHTS","sourceStableId":"1F2B41F8F5440122"},"sourceKind":"official","official":true,"sourceCellId":"1R7688XI","sourceStableId":"1F2B41F8F5440122","pipelineFeatureId":"1R7688XI/LIGHTS/20354","provenance":{"cellId":"1R7688XI","checksum":"6b2c9a885220b1e38005aa0a0d51d7ea9f21763ef67293da24a090f719701106","readerVersion":"GDAL 3.2.2","processedAt":"2026-08-11T18:29:20.995Z"}}},{"type":"Feature","geometry":{"type":"Point","coordinates":[3.7582084,51.6754455]},"properties":{"dolphinKind":"light","rawObjectClass":"LIGHTS","sourceProperties":{"RCID":20355,"PRIM":1,"GRUP":2,"OBJL":75,"RVER":1,"AGEN":7979,"FIDN":1106834756,"FIDS":291,"LNAM":"1F2B41F8F5440123","COLOUR":["4"],"HEIGHT":11,"LITCHR":1,"SECTR1":32,"SECTR2":41,"SCAMIN":200000,"sourceCellId":"1R7688XI","sourceChecksum":"6b2c9a885220b1e38005aa0a0d51d7ea9f21763ef67293da24a090f719701106","rawObjectClass":"LIGHTS","sourceStableId":"1F2B41F8F5440123"},"sourceKind":"official","official":true,"sourceCellId":"1R7688XI","sourceStableId":"1F2B41F8F5440123","pipelineFeatureId":"1R7688XI/LIGHTS/20355","provenance":{"cellId":"1R7688XI","checksum":"6b2c9a885220b1e38005aa0a0d51d7ea9f21763ef67293da24a090f719701106","readerVersion":"GDAL 3.2.2","processedAt":"2026-08-11T18:29:20.995Z"}}},{"type":"Feature","geometry":{"type":"Point","coordinates":[3.7582084,51.6754455]},"properties":{"dolphinKind":"light","rawObjectClass":"LIGHTS","sourceProperties":{"RCID":20356,"PRIM":1,"GRUP":2,"OBJL":75,"RVER":1,"AGEN":7979,"FIDN":1106834756,"FIDS":292,"LNAM":"1F2B41F8F5440124","COLOUR":["3"],"HEIGHT":11,"LITCHR":1,"SECTR1":41,"SECTR2":70,"SCAMIN":200000,"sourceCellId":"1R7688XI","sourceChecksum":"6b2c9a885220b1e38005aa0a0d51d7ea9f21763ef67293da24a090f719701106","rawObjectClass":"LIGHTS","sourceStableId":"1F2B41F8F5440124"},"sourceKind":"official","official":true,"sourceCellId":"1R7688XI","sourceStableId":"1F2B41F8F5440124","pipelineFeatureId":"1R7688XI/LIGHTS/20356","provenance":{"cellId":"1R7688XI","checksum":"6b2c9a885220b1e38005aa0a0d51d7ea9f21763ef67293da24a090f719701106","readerVersion":"GDAL 3.2.2","processedAt":"2026-08-11T18:29:20.995Z"}}},{"type":"Feature","geometry":{"type":"Point","coordinates":[3.8468746,51.6768163]},"properties":{"dolphinKind":"light","rawObjectClass":"LIGHTS","sourceProperties":{"RCID":20359,"PRIM":1,"GRUP":2,"OBJL":75,"RVER":1,"AGEN":7979,"FIDN":1106834756,"FIDS":295,"LNAM":"1F2B41F8F5440127","COLOUR":["3"],"HEIGHT":9,"LITCHR":7,"SECTR1":304,"SECTR2":344,"SIGGRP":"(1)","SIGPER":4,"SCAMIN":200000,"sourceCellId":"1R7688XI","sourceChecksum":"6b2c9a885220b1e38005aa0a0d51d7ea9f21763ef67293da24a090f719701106","rawObjectClass":"LIGHTS","sourceStableId":"1F2B41F8F5440127"},"sourceKind":"official","official":true,"sourceCellId":"1R7688XI","sourceStableId":"1F2B41F8F5440127","pipelineFeatureId":"1R7688XI/LIGHTS/20359","provenance":{"cellId":"1R7688XI","checksum":"6b2c9a885220b1e38005aa0a0d51d7ea9f21763ef67293da24a090f719701106","readerVersion":"GDAL 3.2.2","processedAt":"2026-08-11T18:29:20.995Z"}}},{"type":"Feature","geometry":{"type":"Point","coordinates":[3.8468746,51.6768163]},"properties":{"dolphinKind":"light","rawObjectClass":"LIGHTS","sourceProperties":{"RCID":20360,"PRIM":1,"GRUP":2,"OBJL":75,"RVER":1,"AGEN":7979,"FIDN":1106834756,"FIDS":296,"LNAM":"1F2B41F8F5440128","COLOUR":["1"],"HEIGHT":9,"LITCHR":7,"SECTR1":344,"SECTR2":347,"SIGGRP":"(1)","SIGPER":4,"SCAMIN":200000,"sourceCellId":"1R7688XI","sourceChecksum":"6b2c9a885220b1e38005aa0a0d51d7ea9f21763ef67293da24a090f719701106","rawObjectClass":"LIGHTS","sourceStableId":"1F2B41F8F5440128"},"sourceKind":"official","official":true,"sourceCellId":"1R7688XI","sourceStableId":"1F2B41F8F5440128","pipelineFeatureId":"1R7688XI/LIGHTS/20360","provenance":{"cellId":"1R7688XI","checksum":"6b2c9a885220b1e38005aa0a0d51d7ea9f21763ef67293da24a090f719701106","readerVersion":"GDAL 3.2.2","processedAt":"2026-08-11T18:29:20.995Z"}}},{"type":"Feature","geometry":{"type":"Point","coordinates":[3.8468746,51.6768163]},"properties":{"dolphinKind":"light","rawObjectClass":"LIGHTS","sourceProperties":{"RCID":20361,"PRIM":1,"GRUP":2,"OBJL":75,"RVER":1,"AGEN":7979,"FIDN":1106834756,"FIDS":297,"LNAM":"1F2B41F8F5440129","COLOUR":["4"],"HEIGHT":9,"LITCHR":7,"SECTR1":347,"SECTR2":83,"SIGGRP":"(1)","SIGPER":4,"SCAMIN":200000,"sourceCellId":"1R7688XI","sourceChecksum":"6b2c9a885220b1e38005aa0a0d51d7ea9f21763ef67293da24a090f719701106","rawObjectClass":"LIGHTS","sourceStableId":"1F2B41F8F5440129"},"sourceKind":"official","official":true,"sourceCellId":"1R7688XI","sourceStableId":"1F2B41F8F5440129","pipelineFeatureId":"1R7688XI/LIGHTS/20361","provenance":{"cellId":"1R7688XI","checksum":"6b2c9a885220b1e38005aa0a0d51d7ea9f21763ef67293da24a090f719701106","readerVersion":"GDAL 3.2.2","processedAt":"2026-08-11T18:29:20.995Z"}}},{"type":"Feature","geometry":{"type":"Point","coordinates":[3.8468746,51.6768163]},"properties":{"dolphinKind":"light","rawObjectClass":"LIGHTS","sourceProperties":{"RCID":20362,"PRIM":1,"GRUP":2,"OBJL":75,"RVER":1,"AGEN":7979,"FIDN":1106834756,"FIDS":298,"LNAM":"1F2B41F8F544012A","COLOUR":["1"],"HEIGHT":9,"LITCHR":7,"SECTR1":83,"SECTR2":86,"SIGGRP":"(1)","SIGPER":4,"SCAMIN":200000,"sourceCellId":"1R7688XI","sourceChecksum":"6b2c9a885220b1e38005aa0a0d51d7ea9f21763ef67293da24a090f719701106","rawObjectClass":"LIGHTS","sourceStableId":"1F2B41F8F544012A"},"sourceKind":"official","official":true,"sourceCellId":"1R7688XI","sourceStableId":"1F2B41F8F544012A","pipelineFeatureId":"1R7688XI/LIGHTS/20362","provenance":{"cellId":"1R7688XI","checksum":"6b2c9a885220b1e38005aa0a0d51d7ea9f21763ef67293da24a090f719701106","readerVersion":"GDAL 3.2.2","processedAt":"2026-08-11T18:29:20.995Z"}}},{"type":"Feature","geometry":{"type":"Point","coordinates":[3.8468746,51.6768163]},"properties":{"dolphinKind":"light","rawObjectClass":"LIGHTS","sourceProperties":{"RCID":20363,"PRIM":1,"GRUP":2,"OBJL":75,"RVER":1,"AGEN":7979,"FIDN":1106834756,"FIDS":299,"LNAM":"1F2B41F8F544012B","COLOUR":["4"],"HEIGHT":9,"LITCHR":7,"SECTR1":86,"SECTR2":102.5,"SIGGRP":"(1)","SIGPER":4,"SCAMIN":200000,"sourceCellId":"1R7688XI","sourceChecksum":"6b2c9a885220b1e38005aa0a0d51d7ea9f21763ef67293da24a090f719701106","rawObjectClass":"LIGHTS","sourceStableId":"1F2B41F8F544012B"},"sourceKind":"official","official":true,"sourceCellId":"1R7688XI","sourceStableId":"1F2B41F8F544012B","pipelineFeatureId":"1R7688XI/LIGHTS/20363","provenance":{"cellId":"1R7688XI","checksum":"6b2c9a885220b1e38005aa0a0d51d7ea9f21763ef67293da24a090f719701106","readerVersion":"GDAL 3.2.2","processedAt":"2026-08-11T18:29:20.995Z"}}},{"type":"Feature","geometry":{"type":"Point","coordinates":[3.8468746,51.6768163]},"properties":{"dolphinKind":"light","rawObjectClass":"LIGHTS","sourceProperties":{"RCID":20364,"PRIM":1,"GRUP":2,"OBJL":75,"RVER":1,"AGEN":7979,"FIDN":1106834756,"FIDS":300,"LNAM":"1F2B41F8F544012C","COLOUR":["1"],"HEIGHT":9,"LITCHR":7,"SECTR1":102.5,"SECTR2":111,"SIGGRP":"(1)","SIGPER":4,"SCAMIN":200000,"sourceCellId":"1R7688XI","sourceChecksum":"6b2c9a885220b1e38005aa0a0d51d7ea9f21763ef67293da24a090f719701106","rawObjectClass":"LIGHTS","sourceStableId":"1F2B41F8F544012C"},"sourceKind":"official","official":true,"sourceCellId":"1R7688XI","sourceStableId":"1F2B41F8F544012C","pipelineFeatureId":"1R7688XI/LIGHTS/20364","provenance":{"cellId":"1R7688XI","checksum":"6b2c9a885220b1e38005aa0a0d51d7ea9f21763ef67293da24a090f719701106","readerVersion":"GDAL 3.2.2","processedAt":"2026-08-11T18:29:20.995Z"}}},{"type":"Feature","geometry":{"type":"Point","coordinates":[3.8468746,51.6768163]},"properties":{"dolphinKind":"light","rawObjectClass":"LIGHTS","sourceProperties":{"RCID":20365,"PRIM":1,"GRUP":2,"OBJL":75,"RVER":1,"AGEN":7979,"FIDN":1106834756,"FIDS":301,"LNAM":"1F2B41F8F544012D","COLOUR":["3"],"HEIGHT":9,"LITCHR":7,"SECTR1":111,"SECTR2":128,"SIGGRP":"(1)","SIGPER":4,"SCAMIN":200000,"sourceCellId":"1R7688XI","sourceChecksum":"6b2c9a885220b1e38005aa0a0d51d7ea9f21763ef67293da24a090f719701106","rawObjectClass":"LIGHTS","sourceStableId":"1F2B41F8F544012D"},"sourceKind":"official","official":true,"sourceCellId":"1R7688XI","sourceStableId":"1F2B41F8F544012D","pipelineFeatureId":"1R7688XI/LIGHTS/20365","provenance":{"cellId":"1R7688XI","checksum":"6b2c9a885220b1e38005aa0a0d51d7ea9f21763ef67293da24a090f719701106","readerVersion":"GDAL 3.2.2","processedAt":"2026-08-11T18:29:20.995Z"}}},{"type":"Feature","geometry":{"type":"Point","coordinates":[3.8468746,51.6768163]},"properties":{"dolphinKind":"light","rawObjectClass":"LIGHTS","sourceProperties":{"RCID":20366,"PRIM":1,"GRUP":2,"OBJL":75,"RVER":1,"AGEN":7979,"FIDN":1106834756,"FIDS":302,"LNAM":"1F2B41F8F544012E","COLOUR":["1"],"HEIGHT":9,"LITCHR":7,"SECTR1":128,"SECTR2":304,"SIGGRP":"(1)","SIGPER":4,"SCAMIN":200000,"sourceCellId":"1R7688XI","sourceChecksum":"6b2c9a885220b1e38005aa0a0d51d7ea9f21763ef67293da24a090f719701106","rawObjectClass":"LIGHTS","sourceStableId":"1F2B41F8F544012E"},"sourceKind":"official","official":true,"sourceCellId":"1R7688XI","sourceStableId":"1F2B41F8F544012E","pipelineFeatureId":"1R7688XI/LIGHTS/20366","provenance":{"cellId":"1R7688XI","checksum":"6b2c9a885220b1e38005aa0a0d51d7ea9f21763ef67293da24a090f719701106","readerVersion":"GDAL 3.2.2","processedAt":"2026-08-11T18:29:20.995Z"}}},{"type":"Feature","geometry":{"type":"Point","coordinates":[3.8044484,51.6824966]},"properties":{"dolphinKind":"topmark","rawObjectClass":"TOPMAR","sourceProperties":{"RCID":17793,"PRIM":1,"GRUP":2,"OBJL":144,"RVER":1,"AGEN":7979,"FIDN":1106834726,"FIDS":296,"LNAM":"1F2B41F8F5260128","COLOUR":["3"],"TOPSHP":5,"SCAMIN":200000,"sourceCellId":"1R7688XI","sourceChecksum":"6b2c9a885220b1e38005aa0a0d51d7ea9f21763ef67293da24a090f719701106","rawObjectClass":"TOPMAR","sourceStableId":"1F2B41F8F5260128"},"sourceKind":"official","official":true,"sourceCellId":"1R7688XI","sourceStableId":"1F2B41F8F5260128","pipelineFeatureId":"1R7688XI/TOPMAR/17793","provenance":{"cellId":"1R7688XI","checksum":"6b2c9a885220b1e38005aa0a0d51d7ea9f21763ef67293da24a090f719701106","readerVersion":"GDAL 3.2.2","processedAt":"2026-08-11T18:29:20.995Z"},"associationRefsVerifiedInGdalOutput":false}},{"type":"Feature","geometry":{"type":"Point","coordinates":[3.7593517,51.6758783]},"properties":{"dolphinKind":"topmark","rawObjectClass":"TOPMAR","sourceProperties":{"RCID":48230702,"PRIM":1,"GRUP":2,"OBJL":144,"RVER":1,"AGEN":7979,"FIDN":48230702,"FIDS":1,"LNAM":"1F2B02DFF12E0001","COLOUR":["4"],"TOPSHP":1,"SCAMIN":200000,"SORIND":"NL,1R,Reprt,DZD-BAS 2010/43","sourceCellId":"1R7688XI","sourceChecksum":"6b2c9a885220b1e38005aa0a0d51d7ea9f21763ef67293da24a090f719701106","rawObjectClass":"TOPMAR","sourceStableId":"1F2B02DFF12E0001"},"sourceKind":"official","official":true,"sourceCellId":"1R7688XI","sourceStableId":"1F2B02DFF12E0001","pipelineFeatureId":"1R7688XI/TOPMAR/48230702","provenance":{"cellId":"1R7688XI","checksum":"6b2c9a885220b1e38005aa0a0d51d7ea9f21763ef67293da24a090f719701106","readerVersion":"GDAL 3.2.2","processedAt":"2026-08-11T18:29:20.995Z"},"associationRefsVerifiedInGdalOutput":false}}]}