{"type":"FeatureCollection","features":[{"type":"Feature","geometry":{"type":"Point","coordinates":[3.8903813,51.6381519]},"properties":{"dolphinKind":"beacon-special","rawObjectClass":"BCNSPP","sourceProperties":{"RCID":9301,"PRIM":1,"GRUP":2,"OBJL":9,"RVER":1,"AGEN":7979,"FIDN":1106210626,"FIDS":376,"LNAM":"1F2B41EF6F420178","LNAM_REFS":["1F2B41EF6F420179"],"FFPT_RIND":[2],"BCNSHP":1,"CATSPM":["6"],"COLOUR":["2"],"SCAMIN":200000,"sourceCellId":"1R7688RI","sourceChecksum":"c69828df1cdcb29158d0e6130e566f8fedb849e88f48e97e414abe177db141d8","rawObjectClass":"BCNSPP","sourceStableId":"1F2B41EF6F420178"},"sourceKind":"official","official":true,"sourceCellId":"1R7688RI","sourceStableId":"1F2B41EF6F420178","pipelineFeatureId":"1R7688RI/BCNSPP/9301","provenance":{"cellId":"1R7688RI","checksum":"c69828df1cdcb29158d0e6130e566f8fedb849e88f48e97e414abe177db141d8","readerVersion":"GDAL 3.2.2","processedAt":"2026-08-11T13:43:44.753Z"}}},{"type":"Feature","geometry":{"type":"Point","coordinates":[3.8744283,51.6271283]},"properties":{"dolphinKind":"buoy-lateral","rawObjectClass":"BOYLAT","sourceProperties":{"RCID":1189952601,"PRIM":1,"GRUP":2,"OBJL":17,"RVER":1,"AGEN":7979,"FIDN":1189952601,"FIDS":1,"LNAM":"1F2B46ED3C590001","LNAM_REFS":["1F2B46ED3C5A0001"],"FFPT_RIND":[2],"BOYSHP":5,"CATLAM":1,"COLOUR":["4"],"OBJNAM":"R 27","SCAMIN":200000,"SORDAT":"20240514","SORIND":"MD 302-24","sourceCellId":"1R7688RI","sourceChecksum":"c69828df1cdcb29158d0e6130e566f8fedb849e88f48e97e414abe177db141d8","rawObjectClass":"BOYLAT","sourceStableId":"1F2B46ED3C590001"},"sourceKind":"official","official":true,"sourceCellId":"1R7688RI","sourceStableId":"1F2B46ED3C590001","pipelineFeatureId":"1R7688RI/BOYLAT/1189952601","provenance":{"cellId":"1R7688RI","checksum":"c69828df1cdcb29158d0e6130e566f8fedb849e88f48e97e414abe177db141d8","readerVersion":"GDAL 3.2.2","processedAt":"2026-08-11T13:43:44.753Z"}}},{"type":"Feature","geometry":{"type":"Point","coordinates":[3.8772801,51.6382493]},"properties":{"dolphinKind":"buoy-lateral","rawObjectClass":"BOYLAT","sourceProperties":{"RCID":1189953903,"PRIM":1,"GRUP":2,"OBJL":17,"RVER":1,"AGEN":7979,"FIDN":1189953903,"FIDS":1,"LNAM":"1F2B46ED416F0001","LNAM_REFS":["1F2B46ED4B980001"],"FFPT_RIND":[2],"BOYSHP":5,"CATLAM":2,"COLOUR":["3"],"OBJNAM":"R 38","SCAMIN":200000,"SORDAT":"20240514","SORIND":"MD 302-24","sourceCellId":"1R7688RI","sourceChecksum":"c69828df1cdcb29158d0e6130e566f8fedb849e88f48e97e414abe177db141d8","rawObjectClass":"BOYLAT","sourceStableId":"1F2B46ED416F0001"},"sourceKind":"official","official":true,"sourceCellId":"1R7688RI","sourceStableId":"1F2B46ED416F0001","pipelineFeatureId":"1R7688RI/BOYLAT/1189953903","provenance":{"cellId":"1R7688RI","checksum":"c69828df1cdcb29158d0e6130e566f8fedb849e88f48e97e414abe177db141d8","readerVersion":"GDAL 3.2.2","processedAt":"2026-08-11T13:43:44.753Z"}}},{"type":"Feature","geometry":{"type":"Point","coordinates":[3.74095,51.6579267]},"properties":{"dolphinKind":"buoy-special","rawObjectClass":"BOYSPP","sourceProperties":{"RCID":17756,"PRIM":1,"GRUP":2,"OBJL":19,"RVER":1,"AGEN":7979,"FIDN":1106834726,"FIDS":259,"LNAM":"1F2B41F8F5260103","LNAM_REFS":["1F2B41F8F526011E"],"FFPT_RIND":[2],"BOYSHP":5,"CATSPM":["50"],"COLOUR":["6"],"OBJNAM":"DAM O 17","INFORM":"VMD","SCAMIN":200000,"SORDAT":"20240822","SORIND":"NL,1R,reprt,MD 447-24","sourceCellId":"1R7688RI","sourceChecksum":"c69828df1cdcb29158d0e6130e566f8fedb849e88f48e97e414abe177db141d8","rawObjectClass":"BOYSPP","sourceStableId":"1F2B41F8F5260103"},"sourceKind":"official","official":true,"sourceCellId":"1R7688RI","sourceStableId":"1F2B41F8F5260103","pipelineFeatureId":"1R7688RI/BOYSPP/17756","provenance":{"cellId":"1R7688RI","checksum":"c69828df1cdcb29158d0e6130e566f8fedb849e88f48e97e414abe177db141d8","readerVersion":"GDAL 3.2.2","processedAt":"2026-08-11T13:43:44.753Z"}}},{"type":"Feature","geometry":{"type":"Point","coordinates":[3.74305,51.6618583]},"properties":{"dolphinKind":"buoy-special","rawObjectClass":"BOYSPP","sourceProperties":{"RCID":17757,"PRIM":1,"GRUP":2,"OBJL":19,"RVER":1,"AGEN":7979,"FIDN":1106834726,"FIDS":260,"LNAM":"1F2B41F8F5260104","LNAM_REFS":["1F2B41F8F526011D"],"FFPT_RIND":[2],"BOYSHP":5,"CATSPM":["50"],"COLOUR":["6"],"OBJNAM":"DAM O 19","INFORM":"VMD","SCAMIN":200000,"SORDAT":"20200327","sourceCellId":"1R7688RI","sourceChecksum":"c69828df1cdcb29158d0e6130e566f8fedb849e88f48e97e414abe177db141d8","rawObjectClass":"BOYSPP","sourceStableId":"1F2B41F8F5260104"},"sourceKind":"official","official":true,"sourceCellId":"1R7688RI","sourceStableId":"1F2B41F8F5260104","pipelineFeatureId":"1R7688RI/BOYSPP/17757","provenance":{"cellId":"1R7688RI","checksum":"c69828df1cdcb29158d0e6130e566f8fedb849e88f48e97e414abe177db141d8","readerVersion":"GDAL 3.2.2","processedAt":"2026-08-11T13:43:44.753Z"}}},{"type":"Feature","geometry":{"type":"Point","coordinates":[3.74715,51.66443]},"properties":{"dolphinKind":"buoy-special","rawObjectClass":"BOYSPP","sourceProperties":{"RCID":17758,"PRIM":1,"GRUP":2,"OBJL":19,"RVER":1,"AGEN":7979,"FIDN":1106834726,"FIDS":261,"LNAM":"1F2B41F8F5260105","LNAM_REFS":["1F2B41F8F526011C"],"FFPT_RIND":[2],"BOYSHP":5,"CATSPM":["50"],"COLOUR":["6"],"OBJNAM":"DAM O 21","INFORM":"VMD","SCAMIN":200000,"SORDAT":"20200327","sourceCellId":"1R7688RI","sourceChecksum":"c69828df1cdcb29158d0e6130e566f8fedb849e88f48e97e414abe177db141d8","rawObjectClass":"BOYSPP","sourceStableId":"1F2B41F8F5260105"},"sourceKind":"official","official":true,"sourceCellId":"1R7688RI","sourceStableId":"1F2B41F8F5260105","pipelineFeatureId":"1R7688RI/BOYSPP/17758","provenance":{"cellId":"1R7688RI","checksum":"c69828df1cdcb29158d0e6130e566f8fedb849e88f48e97e414abe177db141d8","readerVersion":"GDAL 3.2.2","processedAt":"2026-08-11T13:43:44.753Z"}}},{"type":"Feature","geometry":{"type":"Point","coordinates":[3.7495,51.6673417]},"properties":{"dolphinKind":"buoy-special","rawObjectClass":"BOYSPP","sourceProperties":{"RCID":17759,"PRIM":1,"GRUP":2,"OBJL":19,"RVER":1,"AGEN":7979,"FIDN":1106834726,"FIDS":262,"LNAM":"1F2B41F8F5260106","LNAM_REFS":["1F2B41F8F526011B"],"FFPT_RIND":[2],"BOYSHP":5,"CATSPM":["50"],"COLOUR":["6"],"OBJNAM":"DAM O 23","INFORM":"VMD","SCAMIN":200000,"SORDAT":"20200327","sourceCellId":"1R7688RI","sourceChecksum":"c69828df1cdcb29158d0e6130e566f8fedb849e88f48e97e414abe177db141d8","rawObjectClass":"BOYSPP","sourceStableId":"1F2B41F8F5260106"},"sourceKind":"official","official":true,"sourceCellId":"1R7688RI","sourceStableId":"1F2B41F8F5260106","pipelineFeatureId":"1R7688RI/BOYSPP/17759","provenance":{"cellId":"1R7688RI","checksum":"c69828df1cdcb29158d0e6130e566f8fedb849e88f48e97e414abe177db141d8","readerVersion":"GDAL 3.2.2","processedAt":"2026-08-11T13:43:44.753Z"}}},{"type":"Feature","geometry":{"type":"Point","coordinates":[3.7494,51.6701283]},"properties":{"dolphinKind":"buoy-special","rawObjectClass":"BOYSPP","sourceProperties":{"RCID":17760,"PRIM":1,"GRUP":2,"OBJL":19,"RVER":1,"AGEN":7979,"FIDN":1106834726,"FIDS":263,"LNAM":"1F2B41F8F5260107","LNAM_REFS":["1F2B41F8F526011A"],"FFPT_RIND":[2],"BOYSHP":5,"CATSPM":["50"],"COLOUR":["6"],"OBJNAM":"DAM O 25","INFORM":"VMD","SCAMIN":200000,"SORDAT":"20200327","sourceCellId":"1R7688RI","sourceChecksum":"c69828df1cdcb29158d0e6130e566f8fedb849e88f48e97e414abe177db141d8","rawObjectClass":"BOYSPP","sourceStableId":"1F2B41F8F5260107"},"sourceKind":"official","official":true,"sourceCellId":"1R7688RI","sourceStableId":"1F2B41F8F5260107","pipelineFeatureId":"1R7688RI/BOYSPP/17760","provenance":{"cellId":"1R7688RI","checksum":"c69828df1cdcb29158d0e6130e566f8fedb849e88f48e97e414abe177db141d8","readerVersion":"GDAL 3.2.2","processedAt":"2026-08-11T13:43:44.753Z"}}},{"type":"Feature","geometry":{"type":"Point","coordinates":[3.734975,51.6553333]},"properties":{"dolphinKind":"buoy-special","rawObjectClass":"BOYSPP","sourceProperties":{"RCID":17761,"PRIM":1,"GRUP":2,"OBJL":19,"RVER":1,"AGEN":7979,"FIDN":1106834726,"FIDS":264,"LNAM":"1F2B41F8F5260108","LNAM_REFS":["1F2B41F8F5260120"],"FFPT_RIND":[2],"BOYSHP":5,"CATSPM":["50"],"COLOUR":["6"],"OBJNAM":"DAM O 14","INFORM":"VMD","SCAMIN":200000,"SORDAT":"20240822","SORIND":"NL,1R,reprt,MD 447-24","sourceCellId":"1R7688RI","sourceChecksum":"c69828df1cdcb29158d0e6130e566f8fedb849e88f48e97e414abe177db141d8","rawObjectClass":"BOYSPP","sourceStableId":"1F2B41F8F5260108"},"sourceKind":"official","official":true,"sourceCellId":"1R7688RI","sourceStableId":"1F2B41F8F5260108","pipelineFeatureId":"1R7688RI/BOYSPP/17761","provenance":{"cellId":"1R7688RI","checksum":"c69828df1cdcb29158d0e6130e566f8fedb849e88f48e97e414abe177db141d8","readerVersion":"GDAL 3.2.2","processedAt":"2026-08-11T13:43:44.753Z"}}},{"type":"Feature","geometry":{"type":"Point","coordinates":[3.7374533,51.652605]},"properties":{"dolphinKind":"buoy-special","rawObjectClass":"BOYSPP","sourceProperties":{"RCID":17762,"PRIM":1,"GRUP":2,"OBJL":19,"RVER":1,"AGEN":7979,"FIDN":1106834726,"FIDS":265,"LNAM":"1F2B41F8F5260109","LNAM_REFS":["1F2B41F8F5260121"],"FFPT_RIND":[2],"BOYSHP":5,"CATSPM":["50"],"COLOUR":["6"],"OBJNAM":"DAM O 12","INFORM":"VMD","SCAMIN":200000,"SORDAT":"20200327","SORIND":"NL,1R,Reprt,DZD-BAS 2011/79","sourceCellId":"1R7688RI","sourceChecksum":"c69828df1cdcb29158d0e6130e566f8fedb849e88f48e97e414abe177db141d8","rawObjectClass":"BOYSPP","sourceStableId":"1F2B41F8F5260109"},"sourceKind":"official","official":true,"sourceCellId":"1R7688RI","sourceStableId":"1F2B41F8F5260109","pipelineFeatureId":"1R7688RI/BOYSPP/17762","provenance":{"cellId":"1R7688RI","checksum":"c69828df1cdcb29158d0e6130e566f8fedb849e88f48e97e414abe177db141d8","readerVersion":"GDAL 3.2.2","processedAt":"2026-08-11T13:43:44.753Z"}}},{"type":"Feature","geometry":{"type":"Point","coordinates":[3.7409383,51.6503633]},"properties":{"dolphinKind":"buoy-special","rawObjectClass":"BOYSPP","sourceProperties":{"RCID":17763,"PRIM":1,"GRUP":2,"OBJL":19,"RVER":1,"AGEN":7979,"FIDN":1106834726,"FIDS":266,"LNAM":"1F2B41F8F526010A","LNAM_REFS":["1F2B41F8F5260122"],"FFPT_RIND":[2],"BOYSHP":5,"CATSPM":["50"],"COLOUR":["6"],"OBJNAM":"DAM O 10","INFORM":"VMD","SCAMIN":200000,"SORDAT":"20200327","SORIND":"NL,1R,Reprt,DZD-BAS 2011/79","sourceCellId":"1R7688RI","sourceChecksum":"c69828df1cdcb29158d0e6130e566f8fedb849e88f48e97e414abe177db141d8","rawObjectClass":"BOYSPP","sourceStableId":"1F2B41F8F526010A"},"sourceKind":"official","official":true,"sourceCellId":"1R7688RI","sourceStableId":"1F2B41F8F526010A","pipelineFeatureId":"1R7688RI/BOYSPP/17763","provenance":{"cellId":"1R7688RI","checksum":"c69828df1cdcb29158d0e6130e566f8fedb849e88f48e97e414abe177db141d8","readerVersion":"GDAL 3.2.2","processedAt":"2026-08-11T13:43:44.753Z"}}},{"type":"Feature","geometry":{"type":"Point","coordinates":[3.7454917,51.6479383]},"properties":{"dolphinKind":"buoy-special","rawObjectClass":"BOYSPP","sourceProperties":{"RCID":17764,"PRIM":1,"GRUP":2,"OBJL":19,"RVER":1,"AGEN":7979,"FIDN":1106834726,"FIDS":267,"LNAM":"1F2B41F8F526010B","LNAM_REFS":["1F2B41F8F5260123"],"FFPT_RIND":[2],"BOYSHP":5,"CATSPM":["50"],"COLOUR":["6"],"OBJNAM":"DAM O 8","INFORM":"VMD","SCAMIN":200000,"SORDAT":"20200327","SORIND":"NL,1R,Reprt,DZD-BAS-2011/79","sourceCellId":"1R7688RI","sourceChecksum":"c69828df1cdcb29158d0e6130e566f8fedb849e88f48e97e414abe177db141d8","rawObjectClass":"BOYSPP","sourceStableId":"1F2B41F8F526010B"},"sourceKind":"official","official":true,"sourceCellId":"1R7688RI","sourceStableId":"1F2B41F8F526010B","pipelineFeatureId":"1R7688RI/BOYSPP/17764","provenance":{"cellId":"1R7688RI","checksum":"c69828df1cdcb29158d0e6130e566f8fedb849e88f48e97e414abe177db141d8","readerVersion":"GDAL 3.2.2","processedAt":"2026-08-11T13:43:44.753Z"}}},{"type":"Feature","geometry":{"type":"Point","coordinates":[3.74412,51.6443417]},"properties":{"dolphinKind":"buoy-special","rawObjectClass":"BOYSPP","sourceProperties":{"RCID":17765,"PRIM":1,"GRUP":2,"OBJL":19,"RVER":1,"AGEN":7979,"FIDN":1106834726,"FIDS":268,"LNAM":"1F2B41F8F526010C","LNAM_REFS":["1F2B41F8F5260124"],"FFPT_RIND":[2],"BOYSHP":1,"CATSPM":["50"],"COLOUR":["6"],"OBJNAM":"DAM O 6","INFORM":"VMD","SCAMIN":200000,"SORDAT":"20200327","sourceCellId":"1R7688RI","sourceChecksum":"c69828df1cdcb29158d0e6130e566f8fedb849e88f48e97e414abe177db141d8","rawObjectClass":"BOYSPP","sourceStableId":"1F2B41F8F526010C"},"sourceKind":"official","official":true,"sourceCellId":"1R7688RI","sourceStableId":"1F2B41F8F526010C","pipelineFeatureId":"1R7688RI/BOYSPP/17765","provenance":{"cellId":"1R7688RI","checksum":"c69828df1cdcb29158d0e6130e566f8fedb849e88f48e97e414abe177db141d8","readerVersion":"GDAL 3.2.2","processedAt":"2026-08-11T13:43:44.753Z"}}},{"type":"Feature","geometry":{"type":"Point","coordinates":[3.7419367,51.6416217]},"properties":{"dolphinKind":"buoy-special","rawObjectClass":"BOYSPP","sourceProperties":{"RCID":17766,"PRIM":1,"GRUP":2,"OBJL":19,"RVER":1,"AGEN":7979,"FIDN":1106834726,"FIDS":269,"LNAM":"1F2B41F8F526010D","LNAM_REFS":["1F2B41F8F5260125"],"FFPT_RIND":[2],"BOYSHP":1,"CATSPM":["50"],"COLOUR":["6"],"OBJNAM":"DAM O 4","INFORM":"VMD","SCAMIN":200000,"SORDAT":"20200327","sourceCellId":"1R7688RI","sourceChecksum":"c69828df1cdcb29158d0e6130e566f8fedb849e88f48e97e414abe177db141d8","rawObjectClass":"BOYSPP","sourceStableId":"1F2B41F8F526010D"},"sourceKind":"official","official":true,"sourceCellId":"1R7688RI","sourceStableId":"1F2B41F8F526010D","pipelineFeatureId":"1R7688RI/BOYSPP/17766","provenance":{"cellId":"1R7688RI","checksum":"c69828df1cdcb29158d0e6130e566f8fedb849e88f48e97e414abe177db141d8","readerVersion":"GDAL 3.2.2","processedAt":"2026-08-11T13:43:44.753Z"}}},{"type":"Feature","geometry":{"type":"Point","coordinates":[3.73992,51.6388883]},"properties":{"dolphinKind":"buoy-special","rawObjectClass":"BOYSPP","sourceProperties":{"RCID":17767,"PRIM":1,"GRUP":2,"OBJL":19,"RVER":1,"AGEN":7979,"FIDN":1106834726,"FIDS":270,"LNAM":"1F2B41F8F526010E","LNAM_REFS":["1F2B41F8F5260126"],"FFPT_RIND":[2],"BOYSHP":1,"CATSPM":["50"],"COLOUR":["6"],"OBJNAM":"DAM O 2","INFORM":"VMD","SCAMIN":200000,"SORDAT":"20200327","sourceCellId":"1R7688RI","sourceChecksum":"c69828df1cdcb29158d0e6130e566f8fedb849e88f48e97e414abe177db141d8","rawObjectClass":"BOYSPP","sourceStableId":"1F2B41F8F526010E"},"sourceKind":"official","official":true,"sourceCellId":"1R7688RI","sourceStableId":"1F2B41F8F526010E","pipelineFeatureId":"1R7688RI/BOYSPP/17767","provenance":{"cellId":"1R7688RI","checksum":"c69828df1cdcb29158d0e6130e566f8fedb849e88f48e97e414abe177db141d8","readerVersion":"GDAL 3.2.2","processedAt":"2026-08-11T13:43:44.753Z"}}},{"type":"Feature","geometry":{"type":"Point","coordinates":[3.737095,51.6635267]},"properties":{"dolphinKind":"buoy-special","rawObjectClass":"BOYSPP","sourceProperties":{"RCID":190739906,"PRIM":1,"GRUP":2,"OBJL":19,"RVER":1,"AGEN":7979,"FIDN":190739906,"FIDS":1,"LNAM":"1F2B0B5E75C20001","BOYSHP":2,"CATSPM":["27"],"COLOUR":["6"],"CONRAD":3,"OBJNAM":"H 8N","INFORM":"VMD","SCAMIN":200000,"SORDAT":"20211228","SORIND":"NL,1R,reprt,MD 710-21 Correctie","sourceCellId":"1R7688RI","sourceChecksum":"c69828df1cdcb29158d0e6130e566f8fedb849e88f48e97e414abe177db141d8","rawObjectClass":"BOYSPP","sourceStableId":"1F2B0B5E75C20001"},"sourceKind":"official","official":true,"sourceCellId":"1R7688RI","sourceStableId":"1F2B0B5E75C20001","pipelineFeatureId":"1R7688RI/BOYSPP/190739906","provenance":{"cellId":"1R7688RI","checksum":"c69828df1cdcb29158d0e6130e566f8fedb849e88f48e97e414abe177db141d8","readerVersion":"GDAL 3.2.2","processedAt":"2026-08-11T13:43:44.753Z"}}},{"type":"Feature","geometry":{"type":"Point","coordinates":[3.7379583,51.6600017]},"properties":{"dolphinKind":"buoy-special","rawObjectClass":"BOYSPP","sourceProperties":{"RCID":190739907,"PRIM":1,"GRUP":2,"OBJL":19,"RVER":1,"AGEN":7979,"FIDN":190739907,"FIDS":1,"LNAM":"1F2B0B5E75C30001","BOYSHP":2,"CATSPM":["27"],"COLOUR":["6"],"CONRAD":3,"OBJNAM":"H 6V","INFORM":"VMD","SCAMIN":200000,"SORDAT":"20211230","SORIND":"NL,1R,reprt,MD 710-21","sourceCellId":"1R7688RI","sourceChecksum":"c69828df1cdcb29158d0e6130e566f8fedb849e88f48e97e414abe177db141d8","rawObjectClass":"BOYSPP","sourceStableId":"1F2B0B5E75C30001"},"sourceKind":"official","official":true,"sourceCellId":"1R7688RI","sourceStableId":"1F2B0B5E75C30001","pipelineFeatureId":"1R7688RI/BOYSPP/190739907","provenance":{"cellId":"1R7688RI","checksum":"c69828df1cdcb29158d0e6130e566f8fedb849e88f48e97e414abe177db141d8","readerVersion":"GDAL 3.2.2","processedAt":"2026-08-11T13:43:44.753Z"}}},{"type":"Feature","geometry":{"type":"Point","coordinates":[3.73798,51.6582617]},"properties":{"dolphinKind":"buoy-special","rawObjectClass":"BOYSPP","sourceProperties":{"RCID":190739908,"PRIM":1,"GRUP":2,"OBJL":19,"RVER":1,"AGEN":7979,"FIDN":190739908,"FIDS":1,"LNAM":"1F2B0B5E75C40001","BOYSHP":2,"CATSPM":["27"],"COLOUR":["6"],"CONRAD":3,"OBJNAM":"H 4N","INFORM":"VMD","SCAMIN":200000,"SORDAT":"20211228","SORIND":"NL,1R,reprt,MD 710-21 Correctie","sourceCellId":"1R7688RI","sourceChecksum":"c69828df1cdcb29158d0e6130e566f8fedb849e88f48e97e414abe177db141d8","rawObjectClass":"BOYSPP","sourceStableId":"1F2B0B5E75C40001"},"sourceKind":"official","official":true,"sourceCellId":"1R7688RI","sourceStableId":"1F2B0B5E75C40001","pipelineFeatureId":"1R7688RI/BOYSPP/190739908","provenance":{"cellId":"1R7688RI","checksum":"c69828df1cdcb29158d0e6130e566f8fedb849e88f48e97e414abe177db141d8","readerVersion":"GDAL 3.2.2","processedAt":"2026-08-11T13:43:44.753Z"}}},{"type":"Feature","geometry":{"type":"Point","coordinates":[3.737755,51.660885]},"properties":{"dolphinKind":"buoy-special","rawObjectClass":"BOYSPP","sourceProperties":{"RCID":190739909,"PRIM":1,"GRUP":2,"OBJL":19,"RVER":1,"AGEN":7979,"FIDN":190739909,"FIDS":1,"LNAM":"1F2B0B5E75C50001","BOYSHP":2,"CATSPM":["27"],"COLOUR":["6"],"CONRAD":3,"OBJNAM":"H 6N","INFORM":"VMD","SCAMIN":200000,"SORDAT":"20211228","SORIND":"NL,1R,reprt,MD 710-21 Correctie","sourceCellId":"1R7688RI","sourceChecksum":"c69828df1cdcb29158d0e6130e566f8fedb849e88f48e97e414abe177db141d8","rawObjectClass":"BOYSPP","sourceStableId":"1F2B0B5E75C50001"},"sourceKind":"official","official":true,"sourceCellId":"1R7688RI","sourceStableId":"1F2B0B5E75C50001","pipelineFeatureId":"1R7688RI/BOYSPP/190739909","provenance":{"cellId":"1R7688RI","checksum":"c69828df1cdcb29158d0e6130e566f8fedb849e88f48e97e414abe177db141d8","readerVersion":"GDAL 3.2.2","processedAt":"2026-08-11T13:43:44.753Z"}}},{"type":"Feature","geometry":{"type":"Point","coordinates":[3.7353139,51.665725]},"properties":{"dolphinKind":"buoy-special","rawObjectClass":"BOYSPP","sourceProperties":{"RCID":190739911,"PRIM":1,"GRUP":2,"OBJL":19,"RVER":1,"AGEN":7979,"FIDN":190739911,"FIDS":1,"LNAM":"1F2B0B5E75C70001","BOYSHP":2,"CATSPM":["27"],"COLOUR":["6"],"CONRAD":3,"OBJNAM":"H 10N","INFORM":"VMD","SCAMIN":200000,"SORDAT":"20160601","sourceCellId":"1R7688RI","sourceChecksum":"c69828df1cdcb29158d0e6130e566f8fedb849e88f48e97e414abe177db141d8","rawObjectClass":"BOYSPP","sourceStableId":"1F2B0B5E75C70001"},"sourceKind":"official","official":true,"sourceCellId":"1R7688RI","sourceStableId":"1F2B0B5E75C70001","pipelineFeatureId":"1R7688RI/BOYSPP/190739911","provenance":{"cellId":"1R7688RI","checksum":"c69828df1cdcb29158d0e6130e566f8fedb849e88f48e97e414abe177db141d8","readerVersion":"GDAL 3.2.2","processedAt":"2026-08-11T13:43:44.753Z"}}},{"type":"Feature","geometry":{"type":"Point","coordinates":[3.7375633,51.6617633]},"properties":{"dolphinKind":"buoy-special","rawObjectClass":"BOYSPP","sourceProperties":{"RCID":190739912,"PRIM":1,"GRUP":2,"OBJL":19,"RVER":1,"AGEN":7979,"FIDN":190739912,"FIDS":1,"LNAM":"1F2B0B5E75C80001","BOYSHP":2,"CATSPM":["27"],"COLOUR":["6"],"CONRAD":3,"OBJNAM":"H 8Z","INFORM":"VMD","SCAMIN":200000,"SORDAT":"20211228","SORIND":"NL,1R,reprt,MD 710-21 Correctie","sourceCellId":"1R7688RI","sourceChecksum":"c69828df1cdcb29158d0e6130e566f8fedb849e88f48e97e414abe177db141d8","rawObjectClass":"BOYSPP","sourceStableId":"1F2B0B5E75C80001"},"sourceKind":"official","official":true,"sourceCellId":"1R7688RI","sourceStableId":"1F2B0B5E75C80001","pipelineFeatureId":"1R7688RI/BOYSPP/190739912","provenance":{"cellId":"1R7688RI","checksum":"c69828df1cdcb29158d0e6130e566f8fedb849e88f48e97e414abe177db141d8","readerVersion":"GDAL 3.2.2","processedAt":"2026-08-11T13:43:44.753Z"}}},{"type":"Feature","geometry":{"type":"Point","coordinates":[3.73394,51.6580517]},"properties":{"dolphinKind":"buoy-special","rawObjectClass":"BOYSPP","sourceProperties":{"RCID":190739913,"PRIM":1,"GRUP":2,"OBJL":19,"RVER":1,"AGEN":7979,"FIDN":190739913,"FIDS":1,"LNAM":"1F2B0B5E75C90001","BOYSHP":2,"CATSPM":["27"],"COLOUR":["6"],"CONRAD":3,"DATEND":"20250110","OBJNAM":"H 2N","INFORM":"VMD","SCAMIN":200000,"SORDAT":"20230929","SORIND":"NL,1R,Reprt,MD451-23","sourceCellId":"1R7688RI","sourceChecksum":"c69828df1cdcb29158d0e6130e566f8fedb849e88f48e97e414abe177db141d8","rawObjectClass":"BOYSPP","sourceStableId":"1F2B0B5E75C90001"},"sourceKind":"official","official":true,"sourceCellId":"1R7688RI","sourceStableId":"1F2B0B5E75C90001","pipelineFeatureId":"1R7688RI/BOYSPP/190739913","provenance":{"cellId":"1R7688RI","checksum":"c69828df1cdcb29158d0e6130e566f8fedb849e88f48e97e414abe177db141d8","readerVersion":"GDAL 3.2.2","processedAt":"2026-08-11T13:43:44.753Z"}}},{"type":"Feature","geometry":{"type":"Point","coordinates":[3.7365639,51.6652889]},"properties":{"dolphinKind":"buoy-special","rawObjectClass":"BOYSPP","sourceProperties":{"RCID":190739914,"PRIM":1,"GRUP":2,"OBJL":19,"RVER":1,"AGEN":7979,"FIDN":190739914,"FIDS":1,"LNAM":"1F2B0B5E75CA0001","BOYSHP":2,"CATSPM":["27"],"COLOUR":["6"],"CONRAD":3,"OBJNAM":"H 10V","INFORM":"VMD","SCAMIN":200000,"SORDAT":"20160601","sourceCellId":"1R7688RI","sourceChecksum":"c69828df1cdcb29158d0e6130e566f8fedb849e88f48e97e414abe177db141d8","rawObjectClass":"BOYSPP","sourceStableId":"1F2B0B5E75CA0001"},"sourceKind":"official","official":true,"sourceCellId":"1R7688RI","sourceStableId":"1F2B0B5E75CA0001","pipelineFeatureId":"1R7688RI/BOYSPP/190739914","provenance":{"cellId":"1R7688RI","checksum":"c69828df1cdcb29158d0e6130e566f8fedb849e88f48e97e414abe177db141d8","readerVersion":"GDAL 3.2.2","processedAt":"2026-08-11T13:43:44.753Z"}}},{"type":"Feature","geometry":{"type":"Point","coordinates":[3.7380017,51.6573933]},"properties":{"dolphinKind":"buoy-special","rawObjectClass":"BOYSPP","sourceProperties":{"RCID":190739915,"PRIM":1,"GRUP":2,"OBJL":19,"RVER":1,"AGEN":7979,"FIDN":190739915,"FIDS":1,"LNAM":"1F2B0B5E75CB0001","BOYSHP":2,"CATSPM":["27"],"COLOUR":["6"],"CONRAD":3,"OBJNAM":"H 4V","INFORM":"VMD","SCAMIN":200000,"SORDAT":"20211230","SORIND":"NL,1R,reprt,MD 710-21","sourceCellId":"1R7688RI","sourceChecksum":"c69828df1cdcb29158d0e6130e566f8fedb849e88f48e97e414abe177db141d8","rawObjectClass":"BOYSPP","sourceStableId":"1F2B0B5E75CB0001"},"sourceKind":"official","official":true,"sourceCellId":"1R7688RI","sourceStableId":"1F2B0B5E75CB0001","pipelineFeatureId":"1R7688RI/BOYSPP/190739915","provenance":{"cellId":"1R7688RI","checksum":"c69828df1cdcb29158d0e6130e566f8fedb849e88f48e97e414abe177db141d8","readerVersion":"GDAL 3.2.2","processedAt":"2026-08-11T13:43:44.753Z"}}},{"type":"Feature","geometry":{"type":"Point","coordinates":[3.7341861,51.6662444]},"properties":{"dolphinKind":"buoy-special","rawObjectClass":"BOYSPP","sourceProperties":{"RCID":190739917,"PRIM":1,"GRUP":2,"OBJL":19,"RVER":1,"AGEN":7979,"FIDN":190739917,"FIDS":1,"LNAM":"1F2B0B5E75CD0001","BOYSHP":2,"CATSPM":["27"],"COLOUR":["6"],"CONRAD":3,"OBJNAM":"H 12Z","INFORM":"VMD","SCAMIN":200000,"SORDAT":"20160601","sourceCellId":"1R7688RI","sourceChecksum":"c69828df1cdcb29158d0e6130e566f8fedb849e88f48e97e414abe177db141d8","rawObjectClass":"BOYSPP","sourceStableId":"1F2B0B5E75CD0001"},"sourceKind":"official","official":true,"sourceCellId":"1R7688RI","sourceStableId":"1F2B0B5E75CD0001","pipelineFeatureId":"1R7688RI/BOYSPP/190739917","provenance":{"cellId":"1R7688RI","checksum":"c69828df1cdcb29158d0e6130e566f8fedb849e88f48e97e414abe177db141d8","readerVersion":"GDAL 3.2.2","processedAt":"2026-08-11T13:43:44.753Z"}}},{"type":"Feature","geometry":{"type":"Point","coordinates":[3.7368317,51.664405]},"properties":{"dolphinKind":"buoy-special","rawObjectClass":"BOYSPP","sourceProperties":{"RCID":190739919,"PRIM":1,"GRUP":2,"OBJL":19,"RVER":1,"AGEN":7979,"FIDN":190739919,"FIDS":1,"LNAM":"1F2B0B5E75CF0001","BOYSHP":2,"CATSPM":["27"],"COLOUR":["6"],"CONRAD":3,"OBJNAM":"H 10Z","INFORM":"VMD","SCAMIN":200000,"SORDAT":"20211228","SORIND":"NL,1R,reprt,MD 710-21 Correctie","sourceCellId":"1R7688RI","sourceChecksum":"c69828df1cdcb29158d0e6130e566f8fedb849e88f48e97e414abe177db141d8","rawObjectClass":"BOYSPP","sourceStableId":"1F2B0B5E75CF0001"},"sourceKind":"official","official":true,"sourceCellId":"1R7688RI","sourceStableId":"1F2B0B5E75CF0001","pipelineFeatureId":"1R7688RI/BOYSPP/190739919","provenance":{"cellId":"1R7688RI","checksum":"c69828df1cdcb29158d0e6130e566f8fedb849e88f48e97e414abe177db141d8","readerVersion":"GDAL 3.2.2","processedAt":"2026-08-11T13:43:44.753Z"}}},{"type":"Feature","geometry":{"type":"Point","coordinates":[3.7337133,51.6571417]},"properties":{"dolphinKind":"buoy-special","rawObjectClass":"BOYSPP","sourceProperties":{"RCID":190739924,"PRIM":1,"GRUP":2,"OBJL":19,"RVER":1,"AGEN":7979,"FIDN":190739924,"FIDS":1,"LNAM":"1F2B0B5E75D40001","BOYSHP":2,"CATSPM":["27"],"COLOUR":["6"],"CONRAD":3,"DATEND":"20250110","OBJNAM":"H 2AZ","INFORM":"VMD","SCAMIN":200000,"SORDAT":"20230929","SORIND":"NL,1R,Reprt,MD451-23","sourceCellId":"1R7688RI","sourceChecksum":"c69828df1cdcb29158d0e6130e566f8fedb849e88f48e97e414abe177db141d8","rawObjectClass":"BOYSPP","sourceStableId":"1F2B0B5E75D40001"},"sourceKind":"official","official":true,"sourceCellId":"1R7688RI","sourceStableId":"1F2B0B5E75D40001","pipelineFeatureId":"1R7688RI/BOYSPP/190739924","provenance":{"cellId":"1R7688RI","checksum":"c69828df1cdcb29158d0e6130e566f8fedb849e88f48e97e414abe177db141d8","readerVersion":"GDAL 3.2.2","processedAt":"2026-08-11T13:43:44.753Z"}}},{"type":"Feature","geometry":{"type":"Point","coordinates":[3.73417,51.65895]},"properties":{"dolphinKind":"buoy-special","rawObjectClass":"BOYSPP","sourceProperties":{"RCID":190739925,"PRIM":1,"GRUP":2,"OBJL":19,"RVER":1,"AGEN":7979,"FIDN":190739925,"FIDS":1,"LNAM":"1F2B0B5E75D50001","BOYSHP":2,"CATSPM":["27"],"COLOUR":["6"],"CONRAD":3,"DATEND":"20250110","OBJNAM":"H 2AV","INFORM":"VMD","SCAMIN":200000,"SORDAT":"20230929","SORIND":"NL,1R,Reprt,MD451-23","sourceCellId":"1R7688RI","sourceChecksum":"c69828df1cdcb29158d0e6130e566f8fedb849e88f48e97e414abe177db141d8","rawObjectClass":"BOYSPP","sourceStableId":"1F2B0B5E75D50001"},"sourceKind":"official","official":true,"sourceCellId":"1R7688RI","sourceStableId":"1F2B0B5E75D50001","pipelineFeatureId":"1R7688RI/BOYSPP/190739925","provenance":{"cellId":"1R7688RI","checksum":"c69828df1cdcb29158d0e6130e566f8fedb849e88f48e97e414abe177db141d8","readerVersion":"GDAL 3.2.2","processedAt":"2026-08-11T13:43:44.753Z"}}},{"type":"Feature","geometry":{"type":"Point","coordinates":[3.7333967,51.6563583]},"properties":{"dolphinKind":"buoy-special","rawObjectClass":"BOYSPP","sourceProperties":{"RCID":190739926,"PRIM":1,"GRUP":2,"OBJL":19,"RVER":1,"AGEN":7979,"FIDN":190739926,"FIDS":1,"LNAM":"1F2B0B5E75D60001","BOYSHP":2,"CATSPM":["27"],"COLOUR":["6"],"CONRAD":3,"DATEND":"20250110","OBJNAM":"H 2V","INFORM":"VMD","SCAMIN":200000,"SORDAT":"20230929","SORIND":"NL,1R,Reprt,MD451-23","sourceCellId":"1R7688RI","sourceChecksum":"c69828df1cdcb29158d0e6130e566f8fedb849e88f48e97e414abe177db141d8","rawObjectClass":"BOYSPP","sourceStableId":"1F2B0B5E75D60001"},"sourceKind":"official","official":true,"sourceCellId":"1R7688RI","sourceStableId":"1F2B0B5E75D60001","pipelineFeatureId":"1R7688RI/BOYSPP/190739926","provenance":{"cellId":"1R7688RI","checksum":"c69828df1cdcb29158d0e6130e566f8fedb849e88f48e97e414abe177db141d8","readerVersion":"GDAL 3.2.2","processedAt":"2026-08-11T13:43:44.753Z"}}},{"type":"Feature","geometry":{"type":"Point","coordinates":[3.7373583,51.6626533]},"properties":{"dolphinKind":"buoy-special","rawObjectClass":"BOYSPP","sourceProperties":{"RCID":190739927,"PRIM":1,"GRUP":2,"OBJL":19,"RVER":1,"AGEN":7979,"FIDN":190739927,"FIDS":1,"LNAM":"1F2B0B5E75D70001","BOYSHP":2,"CATSPM":["27"],"COLOUR":["6"],"CONRAD":3,"OBJNAM":"H 8V","INFORM":"VMD","SCAMIN":200000,"SORDAT":"20211230","SORIND":"NL,1R,reprt,MD 710-21","sourceCellId":"1R7688RI","sourceChecksum":"c69828df1cdcb29158d0e6130e566f8fedb849e88f48e97e414abe177db141d8","rawObjectClass":"BOYSPP","sourceStableId":"1F2B0B5E75D70001"},"sourceKind":"official","official":true,"sourceCellId":"1R7688RI","sourceStableId":"1F2B0B5E75D70001","pipelineFeatureId":"1R7688RI/BOYSPP/190739927","provenance":{"cellId":"1R7688RI","checksum":"c69828df1cdcb29158d0e6130e566f8fedb849e88f48e97e414abe177db141d8","readerVersion":"GDAL 3.2.2","processedAt":"2026-08-11T13:43:44.753Z"}}},{"type":"Feature","geometry":{"type":"Point","coordinates":[3.7379783,51.659125]},"properties":{"dolphinKind":"buoy-special","rawObjectClass":"BOYSPP","sourceProperties":{"RCID":190739928,"PRIM":1,"GRUP":2,"OBJL":19,"RVER":1,"AGEN":7979,"FIDN":190739928,"FIDS":1,"LNAM":"1F2B0B5E75D80001","BOYSHP":2,"CATSPM":["27"],"COLOUR":["6"],"CONRAD":3,"OBJNAM":"H 6Z","INFORM":"VMD","SCAMIN":200000,"SORDAT":"20211228","SORIND":"NL,1R,reprt,MD 710-21 Correctie","sourceCellId":"1R7688RI","sourceChecksum":"c69828df1cdcb29158d0e6130e566f8fedb849e88f48e97e414abe177db141d8","rawObjectClass":"BOYSPP","sourceStableId":"1F2B0B5E75D80001"},"sourceKind":"official","official":true,"sourceCellId":"1R7688RI","sourceStableId":"1F2B0B5E75D80001","pipelineFeatureId":"1R7688RI/BOYSPP/190739928","provenance":{"cellId":"1R7688RI","checksum":"c69828df1cdcb29158d0e6130e566f8fedb849e88f48e97e414abe177db141d8","readerVersion":"GDAL 3.2.2","processedAt":"2026-08-11T13:43:44.753Z"}}},{"type":"Feature","geometry":{"type":"Point","coordinates":[3.80713,51.64]},"properties":{"dolphinKind":"buoy-special","rawObjectClass":"BOYSPP","sourceProperties":{"RCID":1238663208,"PRIM":1,"GRUP":2,"OBJL":19,"RVER":1,"AGEN":7979,"FIDN":1238663208,"FIDS":1,"LNAM":"1F2B49D480280001","LNAM_REFS":["1F2B00C6AA180001"],"FFPT_RIND":[2],"BOYSHP":3,"CATSPM":["10","9"],"COLOUR":["6"],"MARSYS":1,"NOBJNM":"Roggenplaat","OBJNAM":"ROGP","INFORM":"Wave buoy","NINFOM":"Golfmeetboei","SCAMIN":200000,"SORDAT":"20250709","SORIND":"NL,1R,reprt,Topdesk C250702371","sourceCellId":"1R7688RI","sourceChecksum":"c69828df1cdcb29158d0e6130e566f8fedb849e88f48e97e414abe177db141d8","rawObjectClass":"BOYSPP","sourceStableId":"1F2B49D480280001"},"sourceKind":"official","official":true,"sourceCellId":"1R7688RI","sourceStableId":"1F2B49D480280001","pipelineFeatureId":"1R7688RI/BOYSPP/1238663208","provenance":{"cellId":"1R7688RI","checksum":"c69828df1cdcb29158d0e6130e566f8fedb849e88f48e97e414abe177db141d8","readerVersion":"GDAL 3.2.2","processedAt":"2026-08-11T13:43:44.753Z"}}},{"type":"Feature","geometry":{"type":"Point","coordinates":[3.8877333,51.6338167]},"properties":{"dolphinKind":"buoy-special","rawObjectClass":"BOYSPP","sourceProperties":{"RCID":1278389133,"PRIM":1,"GRUP":2,"OBJL":19,"RVER":1,"AGEN":7979,"FIDN":1278389133,"FIDS":1,"LNAM":"1F2B4C32AB8D0001","LNAM_REFS":["1F2B4C32AB8C0001","1F2B4C32AB8E0001"],"FFPT_RIND":[2,2],"BOYSHP":2,"CATSPM":["6"],"COLOUR":["6"],"MARSYS":1,"OBJNAM":"R-Rugvin","SCAMIN":200000,"SORDAT":"20260615","SORIND":"NL,1R,reprt,Topdesk C260602182","sourceCellId":"1R7688RI","sourceChecksum":"c69828df1cdcb29158d0e6130e566f8fedb849e88f48e97e414abe177db141d8","rawObjectClass":"BOYSPP","sourceStableId":"1F2B4C32AB8D0001"},"sourceKind":"official","official":true,"sourceCellId":"1R7688RI","sourceStableId":"1F2B4C32AB8D0001","pipelineFeatureId":"1R7688RI/BOYSPP/1278389133","provenance":{"cellId":"1R7688RI","checksum":"c69828df1cdcb29158d0e6130e566f8fedb849e88f48e97e414abe177db141d8","readerVersion":"GDAL 3.2.2","processedAt":"2026-08-11T13:43:44.753Z"}}},{"type":"Feature","geometry":{"type":"Point","coordinates":[3.858705,51.6426066]},"properties":{"dolphinKind":"light","rawObjectClass":"LIGHTS","sourceProperties":{"RCID":17816,"PRIM":1,"GRUP":2,"OBJL":75,"RVER":1,"AGEN":7979,"FIDN":1106834726,"FIDS":319,"LNAM":"1F2B41F8F526013F","COLOUR":["3"],"LITCHR":3,"SIGGRP":"(1)","SIGPER":5,"SCAMIN":200000,"SORDAT":"20031115","sourceCellId":"1R7688RI","sourceChecksum":"c69828df1cdcb29158d0e6130e566f8fedb849e88f48e97e414abe177db141d8","rawObjectClass":"LIGHTS","sourceStableId":"1F2B41F8F526013F"},"sourceKind":"official","official":true,"sourceCellId":"1R7688RI","sourceStableId":"1F2B41F8F526013F","pipelineFeatureId":"1R7688RI/LIGHTS/17816","provenance":{"cellId":"1R7688RI","checksum":"c69828df1cdcb29158d0e6130e566f8fedb849e88f48e97e414abe177db141d8","readerVersion":"GDAL 3.2.2","processedAt":"2026-08-11T13:43:44.753Z"}}},{"type":"Feature","geometry":{"type":"Point","coordinates":[3.8283317,51.6430967]},"properties":{"dolphinKind":"light","rawObjectClass":"LIGHTS","sourceProperties":{"RCID":17819,"PRIM":1,"GRUP":2,"OBJL":75,"RVER":1,"AGEN":7979,"FIDN":1106834726,"FIDS":322,"LNAM":"1F2B41F8F5260142","COLOUR":["3"],"LITCHR":3,"SIGGRP":"(1)","SIGPER":8,"SCAMIN":200000,"SORDAT":"20031115","sourceCellId":"1R7688RI","sourceChecksum":"c69828df1cdcb29158d0e6130e566f8fedb849e88f48e97e414abe177db141d8","rawObjectClass":"LIGHTS","sourceStableId":"1F2B41F8F5260142"},"sourceKind":"official","official":true,"sourceCellId":"1R7688RI","sourceStableId":"1F2B41F8F5260142","pipelineFeatureId":"1R7688RI/LIGHTS/17819","provenance":{"cellId":"1R7688RI","checksum":"c69828df1cdcb29158d0e6130e566f8fedb849e88f48e97e414abe177db141d8","readerVersion":"GDAL 3.2.2","processedAt":"2026-08-11T13:43:44.753Z"}}},{"type":"Feature","geometry":{"type":"Point","coordinates":[3.7925234,51.632605]},"properties":{"dolphinKind":"light","rawObjectClass":"LIGHTS","sourceProperties":{"RCID":17837,"PRIM":1,"GRUP":2,"OBJL":75,"RVER":1,"AGEN":7979,"FIDN":1106834726,"FIDS":340,"LNAM":"1F2B41F8F5260154","COLOUR":["3"],"LITCHR":3,"SIGGRP":"(1)","SIGPER":5,"SCAMIN":200000,"SORDAT":"20031115","sourceCellId":"1R7688RI","sourceChecksum":"c69828df1cdcb29158d0e6130e566f8fedb849e88f48e97e414abe177db141d8","rawObjectClass":"LIGHTS","sourceStableId":"1F2B41F8F5260154"},"sourceKind":"official","official":true,"sourceCellId":"1R7688RI","sourceStableId":"1F2B41F8F5260154","pipelineFeatureId":"1R7688RI/LIGHTS/17837","provenance":{"cellId":"1R7688RI","checksum":"c69828df1cdcb29158d0e6130e566f8fedb849e88f48e97e414abe177db141d8","readerVersion":"GDAL 3.2.2","processedAt":"2026-08-11T13:43:44.753Z"}}},{"type":"Feature","geometry":{"type":"Point","coordinates":[3.8320383,51.6358567]},"properties":{"dolphinKind":"light","rawObjectClass":"LIGHTS","sourceProperties":{"RCID":17841,"PRIM":1,"GRUP":2,"OBJL":75,"RVER":1,"AGEN":7979,"FIDN":1106834726,"FIDS":344,"LNAM":"1F2B41F8F5260158","COLOUR":["4"],"LITCHR":3,"SIGGRP":"(1)","SIGPER":5,"SCAMIN":200000,"SORDAT":"20220915","SORIND":"NL,1R,Reprt, MD 446-22","sourceCellId":"1R7688RI","sourceChecksum":"c69828df1cdcb29158d0e6130e566f8fedb849e88f48e97e414abe177db141d8","rawObjectClass":"LIGHTS","sourceStableId":"1F2B41F8F5260158"},"sourceKind":"official","official":true,"sourceCellId":"1R7688RI","sourceStableId":"1F2B41F8F5260158","pipelineFeatureId":"1R7688RI/LIGHTS/17841","provenance":{"cellId":"1R7688RI","checksum":"c69828df1cdcb29158d0e6130e566f8fedb849e88f48e97e414abe177db141d8","readerVersion":"GDAL 3.2.2","processedAt":"2026-08-11T13:43:44.753Z"}}},{"type":"Feature","geometry":{"type":"Point","coordinates":[3.8927057,51.6318498]},"properties":{"dolphinKind":"light","rawObjectClass":"LIGHTS","sourceProperties":{"RCID":19773,"PRIM":1,"GRUP":2,"OBJL":75,"RVER":1,"AGEN":7979,"FIDN":1106834753,"FIDS":474,"LNAM":"1F2B41F8F54101DA","COLOUR":["4"],"LITCHR":1,"SCAMIN":200000,"sourceCellId":"1R7688RI","sourceChecksum":"c69828df1cdcb29158d0e6130e566f8fedb849e88f48e97e414abe177db141d8","rawObjectClass":"LIGHTS","sourceStableId":"1F2B41F8F54101DA"},"sourceKind":"official","official":true,"sourceCellId":"1R7688RI","sourceStableId":"1F2B41F8F54101DA","pipelineFeatureId":"1R7688RI/LIGHTS/19773","provenance":{"cellId":"1R7688RI","checksum":"c69828df1cdcb29158d0e6130e566f8fedb849e88f48e97e414abe177db141d8","readerVersion":"GDAL 3.2.2","processedAt":"2026-08-11T13:43:44.753Z"}}},{"type":"Feature","geometry":{"type":"Point","coordinates":[3.9266004,51.6306078]},"properties":{"dolphinKind":"light","rawObjectClass":"LIGHTS","sourceProperties":{"RCID":19839,"PRIM":1,"GRUP":2,"OBJL":75,"RVER":1,"AGEN":7979,"FIDN":1106834754,"FIDS":285,"LNAM":"1F2B41F8F542011D","CATLIT":["4","15"],"COLOUR":["1"],"LITCHR":7,"SIGGRP":"(1)","SIGPER":3,"SCAMIN":200000,"sourceCellId":"1R7688RI","sourceChecksum":"c69828df1cdcb29158d0e6130e566f8fedb849e88f48e97e414abe177db141d8","rawObjectClass":"LIGHTS","sourceStableId":"1F2B41F8F542011D"},"sourceKind":"official","official":true,"sourceCellId":"1R7688RI","sourceStableId":"1F2B41F8F542011D","pipelineFeatureId":"1R7688RI/LIGHTS/19839","provenance":{"cellId":"1R7688RI","checksum":"c69828df1cdcb29158d0e6130e566f8fedb849e88f48e97e414abe177db141d8","readerVersion":"GDAL 3.2.2","processedAt":"2026-08-11T13:43:44.753Z"}}},{"type":"Feature","geometry":{"type":"Point","coordinates":[3.925234,51.6281279]},"properties":{"dolphinKind":"light","rawObjectClass":"LIGHTS","sourceProperties":{"RCID":20237,"PRIM":1,"GRUP":2,"OBJL":75,"RVER":1,"AGEN":7979,"FIDN":1106834755,"FIDS":428,"LNAM":"1F2B41F8F54301AC","CATLIT":["4","14"],"COLOUR":["3"],"HEIGHT":8,"LITCHR":7,"SECTR1":290,"SECTR2":306,"SIGGRP":"(1)","SIGPER":3,"SCAMIN":200000,"sourceCellId":"1R7688RI","sourceChecksum":"c69828df1cdcb29158d0e6130e566f8fedb849e88f48e97e414abe177db141d8","rawObjectClass":"LIGHTS","sourceStableId":"1F2B41F8F54301AC"},"sourceKind":"official","official":true,"sourceCellId":"1R7688RI","sourceStableId":"1F2B41F8F54301AC","pipelineFeatureId":"1R7688RI/LIGHTS/20237","provenance":{"cellId":"1R7688RI","checksum":"c69828df1cdcb29158d0e6130e566f8fedb849e88f48e97e414abe177db141d8","readerVersion":"GDAL 3.2.2","processedAt":"2026-08-11T13:43:44.753Z"}}},{"type":"Feature","geometry":{"type":"Point","coordinates":[3.925234,51.6281279]},"properties":{"dolphinKind":"light","rawObjectClass":"LIGHTS","sourceProperties":{"RCID":20238,"PRIM":1,"GRUP":2,"OBJL":75,"RVER":1,"AGEN":7979,"FIDN":1106834755,"FIDS":429,"LNAM":"1F2B41F8F54301AD","CATLIT":["4","14"],"COLOUR":["1"],"HEIGHT":8,"LITCHR":7,"SECTR1":306,"SECTR2":316.5,"SIGGRP":"(1)","SIGPER":3,"SCAMIN":200000,"SORDAT":"20100402","SORIND":"NL,1R,reprt,DZD-BAS-2010/32","sourceCellId":"1R7688RI","sourceChecksum":"c69828df1cdcb29158d0e6130e566f8fedb849e88f48e97e414abe177db141d8","rawObjectClass":"LIGHTS","sourceStableId":"1F2B41F8F54301AD"},"sourceKind":"official","official":true,"sourceCellId":"1R7688RI","sourceStableId":"1F2B41F8F54301AD","pipelineFeatureId":"1R7688RI/LIGHTS/20238","provenance":{"cellId":"1R7688RI","checksum":"c69828df1cdcb29158d0e6130e566f8fedb849e88f48e97e414abe177db141d8","readerVersion":"GDAL 3.2.2","processedAt":"2026-08-11T13:43:44.753Z"}}},{"type":"Feature","geometry":{"type":"Point","coordinates":[3.925234,51.6281279]},"properties":{"dolphinKind":"light","rawObjectClass":"LIGHTS","sourceProperties":{"RCID":20239,"PRIM":1,"GRUP":2,"OBJL":75,"RVER":1,"AGEN":7979,"FIDN":1106834755,"FIDS":430,"LNAM":"1F2B41F8F54301AE","CATLIT":["4","14"],"COLOUR":["4"],"HEIGHT":8,"LITCHR":7,"SECTR1":316.5,"SECTR2":332,"SIGGRP":"(1)","SIGPER":3,"SCAMIN":200000,"SORDAT":"20100402","SORIND":"NL,1R,reprt,DZD-BAS-2010/32","sourceCellId":"1R7688RI","sourceChecksum":"c69828df1cdcb29158d0e6130e566f8fedb849e88f48e97e414abe177db141d8","rawObjectClass":"LIGHTS","sourceStableId":"1F2B41F8F54301AE"},"sourceKind":"official","official":true,"sourceCellId":"1R7688RI","sourceStableId":"1F2B41F8F54301AE","pipelineFeatureId":"1R7688RI/LIGHTS/20239","provenance":{"cellId":"1R7688RI","checksum":"c69828df1cdcb29158d0e6130e566f8fedb849e88f48e97e414abe177db141d8","readerVersion":"GDAL 3.2.2","processedAt":"2026-08-11T13:43:44.753Z"}}},{"type":"Feature","geometry":{"type":"Point","coordinates":[3.925234,51.6281279]},"properties":{"dolphinKind":"light","rawObjectClass":"LIGHTS","sourceProperties":{"RCID":20240,"PRIM":1,"GRUP":2,"OBJL":75,"RVER":1,"AGEN":7979,"FIDN":1106834755,"FIDS":431,"LNAM":"1F2B41F8F54301AF","CATLIT":["4","14"],"COLOUR":["1"],"HEIGHT":8,"LITCHR":7,"SECTR1":332,"SECTR2":334.5,"SIGGRP":"(1)","SIGPER":3,"SCAMIN":200000,"SORDAT":"20100402","SORIND":"NL,1R,reprt,DZD-BAS-2010/32","sourceCellId":"1R7688RI","sourceChecksum":"c69828df1cdcb29158d0e6130e566f8fedb849e88f48e97e414abe177db141d8","rawObjectClass":"LIGHTS","sourceStableId":"1F2B41F8F54301AF"},"sourceKind":"official","official":true,"sourceCellId":"1R7688RI","sourceStableId":"1F2B41F8F54301AF","pipelineFeatureId":"1R7688RI/LIGHTS/20240","provenance":{"cellId":"1R7688RI","checksum":"c69828df1cdcb29158d0e6130e566f8fedb849e88f48e97e414abe177db141d8","readerVersion":"GDAL 3.2.2","processedAt":"2026-08-11T13:43:44.753Z"}}},{"type":"Feature","geometry":{"type":"Point","coordinates":[3.925234,51.6281279]},"properties":{"dolphinKind":"light","rawObjectClass":"LIGHTS","sourceProperties":{"RCID":20241,"PRIM":1,"GRUP":2,"OBJL":75,"RVER":1,"AGEN":7979,"FIDN":1106834755,"FIDS":432,"LNAM":"1F2B41F8F54301B0","CATLIT":["4","14"],"COLOUR":["4"],"HEIGHT":8,"LITCHR":7,"SECTR1":334.5,"SECTR2":16.5,"SIGGRP":"(1)","SIGPER":3,"SCAMIN":200000,"SORDAT":"20100402","SORIND":"NL,1R,reprt,DZD-BAS-2010/32","sourceCellId":"1R7688RI","sourceChecksum":"c69828df1cdcb29158d0e6130e566f8fedb849e88f48e97e414abe177db141d8","rawObjectClass":"LIGHTS","sourceStableId":"1F2B41F8F54301B0"},"sourceKind":"official","official":true,"sourceCellId":"1R7688RI","sourceStableId":"1F2B41F8F54301B0","pipelineFeatureId":"1R7688RI/LIGHTS/20241","provenance":{"cellId":"1R7688RI","checksum":"c69828df1cdcb29158d0e6130e566f8fedb849e88f48e97e414abe177db141d8","readerVersion":"GDAL 3.2.2","processedAt":"2026-08-11T13:43:44.753Z"}}},{"type":"Feature","geometry":{"type":"Point","coordinates":[3.925234,51.6281279]},"properties":{"dolphinKind":"light","rawObjectClass":"LIGHTS","sourceProperties":{"RCID":20242,"PRIM":1,"GRUP":2,"OBJL":75,"RVER":1,"AGEN":7979,"FIDN":1106834755,"FIDS":433,"LNAM":"1F2B41F8F54301B1","CATLIT":["4","14"],"COLOUR":["1"],"HEIGHT":8,"LITCHR":7,"SECTR1":16.5,"SECTR2":20,"SIGGRP":"(1)","SIGPER":3,"SCAMIN":200000,"SORDAT":"20100402","SORIND":"NL,1R,reprt,DZD-BAS-2010/32","sourceCellId":"1R7688RI","sourceChecksum":"c69828df1cdcb29158d0e6130e566f8fedb849e88f48e97e414abe177db141d8","rawObjectClass":"LIGHTS","sourceStableId":"1F2B41F8F54301B1"},"sourceKind":"official","official":true,"sourceCellId":"1R7688RI","sourceStableId":"1F2B41F8F54301B1","pipelineFeatureId":"1R7688RI/LIGHTS/20242","provenance":{"cellId":"1R7688RI","checksum":"c69828df1cdcb29158d0e6130e566f8fedb849e88f48e97e414abe177db141d8","readerVersion":"GDAL 3.2.2","processedAt":"2026-08-11T13:43:44.753Z"}}},{"type":"Feature","geometry":{"type":"Point","coordinates":[3.925234,51.6281279]},"properties":{"dolphinKind":"light","rawObjectClass":"LIGHTS","sourceProperties":{"RCID":20243,"PRIM":1,"GRUP":2,"OBJL":75,"RVER":1,"AGEN":7979,"FIDN":1106834755,"FIDS":434,"LNAM":"1F2B41F8F54301B2","CATLIT":["4","14"],"COLOUR":["4"],"HEIGHT":8,"LITCHR":7,"SECTR1":20,"SECTR2":91,"SIGGRP":"(1)","SIGPER":3,"SCAMIN":200000,"SORDAT":"20100402","SORIND":"NL,1R,reprt,DZD-BAS-2010/32","sourceCellId":"1R7688RI","sourceChecksum":"c69828df1cdcb29158d0e6130e566f8fedb849e88f48e97e414abe177db141d8","rawObjectClass":"LIGHTS","sourceStableId":"1F2B41F8F54301B2"},"sourceKind":"official","official":true,"sourceCellId":"1R7688RI","sourceStableId":"1F2B41F8F54301B2","pipelineFeatureId":"1R7688RI/LIGHTS/20243","provenance":{"cellId":"1R7688RI","checksum":"c69828df1cdcb29158d0e6130e566f8fedb849e88f48e97e414abe177db141d8","readerVersion":"GDAL 3.2.2","processedAt":"2026-08-11T13:43:44.753Z"}}},{"type":"Feature","geometry":{"type":"Point","coordinates":[3.925234,51.6281279]},"properties":{"dolphinKind":"light","rawObjectClass":"LIGHTS","sourceProperties":{"RCID":20244,"PRIM":1,"GRUP":2,"OBJL":75,"RVER":1,"AGEN":7979,"FIDN":1106834755,"FIDS":435,"LNAM":"1F2B41F8F54301B3","CATLIT":["4","14"],"COLOUR":["3"],"HEIGHT":8,"LITCHR":7,"SECTR1":91,"SECTR2":108,"SIGGRP":"(1)","SIGPER":3,"SCAMIN":200000,"SORDAT":"20100402","SORIND":"NL,1R,reprt,DZD-BAS-2010/32","sourceCellId":"1R7688RI","sourceChecksum":"c69828df1cdcb29158d0e6130e566f8fedb849e88f48e97e414abe177db141d8","rawObjectClass":"LIGHTS","sourceStableId":"1F2B41F8F54301B3"},"sourceKind":"official","official":true,"sourceCellId":"1R7688RI","sourceStableId":"1F2B41F8F54301B3","pipelineFeatureId":"1R7688RI/LIGHTS/20244","provenance":{"cellId":"1R7688RI","checksum":"c69828df1cdcb29158d0e6130e566f8fedb849e88f48e97e414abe177db141d8","readerVersion":"GDAL 3.2.2","processedAt":"2026-08-11T13:43:44.753Z"}}},{"type":"Feature","geometry":{"type":"Point","coordinates":[3.925234,51.6281279]},"properties":{"dolphinKind":"light","rawObjectClass":"LIGHTS","sourceProperties":{"RCID":20245,"PRIM":1,"GRUP":2,"OBJL":75,"RVER":1,"AGEN":7979,"FIDN":1106834755,"FIDS":436,"LNAM":"1F2B41F8F54301B4","CATLIT":["4","14"],"COLOUR":["1"],"HEIGHT":8,"LITCHR":7,"SECTR1":108,"SECTR2":290,"SIGGRP":"(1)","SIGPER":3,"SCAMIN":200000,"sourceCellId":"1R7688RI","sourceChecksum":"c69828df1cdcb29158d0e6130e566f8fedb849e88f48e97e414abe177db141d8","rawObjectClass":"LIGHTS","sourceStableId":"1F2B41F8F54301B4"},"sourceKind":"official","official":true,"sourceCellId":"1R7688RI","sourceStableId":"1F2B41F8F54301B4","pipelineFeatureId":"1R7688RI/LIGHTS/20245","provenance":{"cellId":"1R7688RI","checksum":"c69828df1cdcb29158d0e6130e566f8fedb849e88f48e97e414abe177db141d8","readerVersion":"GDAL 3.2.2","processedAt":"2026-08-11T13:43:44.753Z"}}},{"type":"Feature","geometry":{"type":"Point","coordinates":[3.8899892,51.631439]},"properties":{"dolphinKind":"light","rawObjectClass":"LIGHTS","sourceProperties":{"RCID":20367,"PRIM":1,"GRUP":2,"OBJL":75,"RVER":1,"AGEN":7979,"FIDN":1106834756,"FIDS":303,"LNAM":"1F2B41F8F544012F","CATLIT":["10"],"COLOUR":["3"],"LITCHR":1,"SCAMIN":200000,"sourceCellId":"1R7688RI","sourceChecksum":"c69828df1cdcb29158d0e6130e566f8fedb849e88f48e97e414abe177db141d8","rawObjectClass":"LIGHTS","sourceStableId":"1F2B41F8F544012F"},"sourceKind":"official","official":true,"sourceCellId":"1R7688RI","sourceStableId":"1F2B41F8F544012F","pipelineFeatureId":"1R7688RI/LIGHTS/20367","provenance":{"cellId":"1R7688RI","checksum":"c69828df1cdcb29158d0e6130e566f8fedb849e88f48e97e414abe177db141d8","readerVersion":"GDAL 3.2.2","processedAt":"2026-08-11T13:43:44.753Z"}}},{"type":"Feature","geometry":{"type":"Point","coordinates":[3.8898308,51.6316405]},"properties":{"dolphinKind":"light","rawObjectClass":"LIGHTS","sourceProperties":{"RCID":20370,"PRIM":1,"GRUP":2,"OBJL":75,"RVER":1,"AGEN":7979,"FIDN":1106834756,"FIDS":306,"LNAM":"1F2B41F8F5440132","COLOUR":["3"],"HEIGHT":8.5,"LITCHR":8,"SECTR1":278,"SECTR2":301.5,"SIGGRP":"(1)","SIGPER":6,"SCAMIN":200000,"SORDAT":"20100512","SORIND":"NL,1R,Reprt,NavBer 2010/55","sourceCellId":"1R7688RI","sourceChecksum":"c69828df1cdcb29158d0e6130e566f8fedb849e88f48e97e414abe177db141d8","rawObjectClass":"LIGHTS","sourceStableId":"1F2B41F8F5440132"},"sourceKind":"official","official":true,"sourceCellId":"1R7688RI","sourceStableId":"1F2B41F8F5440132","pipelineFeatureId":"1R7688RI/LIGHTS/20370","provenance":{"cellId":"1R7688RI","checksum":"c69828df1cdcb29158d0e6130e566f8fedb849e88f48e97e414abe177db141d8","readerVersion":"GDAL 3.2.2","processedAt":"2026-08-11T13:43:44.753Z"}}},{"type":"Feature","geometry":{"type":"Point","coordinates":[3.8898308,51.6316405]},"properties":{"dolphinKind":"light","rawObjectClass":"LIGHTS","sourceProperties":{"RCID":20371,"PRIM":1,"GRUP":2,"OBJL":75,"RVER":1,"AGEN":7979,"FIDN":1106834756,"FIDS":307,"LNAM":"1F2B41F8F5440133","COLOUR":["4"],"HEIGHT":8.5,"LITCHR":8,"SECTR1":301.5,"SECTR2":314,"SIGGRP":"(1)","SIGPER":6,"SCAMIN":200000,"SORDAT":"20100512","SORIND":"NL,1R,Reprt,NavBer 2010/55","sourceCellId":"1R7688RI","sourceChecksum":"c69828df1cdcb29158d0e6130e566f8fedb849e88f48e97e414abe177db141d8","rawObjectClass":"LIGHTS","sourceStableId":"1F2B41F8F5440133"},"sourceKind":"official","official":true,"sourceCellId":"1R7688RI","sourceStableId":"1F2B41F8F5440133","pipelineFeatureId":"1R7688RI/LIGHTS/20371","provenance":{"cellId":"1R7688RI","checksum":"c69828df1cdcb29158d0e6130e566f8fedb849e88f48e97e414abe177db141d8","readerVersion":"GDAL 3.2.2","processedAt":"2026-08-11T13:43:44.753Z"}}},{"type":"Feature","geometry":{"type":"Point","coordinates":[3.8898308,51.6316405]},"properties":{"dolphinKind":"light","rawObjectClass":"LIGHTS","sourceProperties":{"RCID":20372,"PRIM":1,"GRUP":2,"OBJL":75,"RVER":1,"AGEN":7979,"FIDN":1106834756,"FIDS":308,"LNAM":"1F2B41F8F5440134","COLOUR":["1"],"HEIGHT":8.5,"LITCHR":8,"SECTR1":314,"SECTR2":333,"SIGGRP":"(1)","SIGPER":6,"SCAMIN":200000,"SORDAT":"20100512","SORIND":"NL,1R,Reprt,NavBer 2010/55","sourceCellId":"1R7688RI","sourceChecksum":"c69828df1cdcb29158d0e6130e566f8fedb849e88f48e97e414abe177db141d8","rawObjectClass":"LIGHTS","sourceStableId":"1F2B41F8F5440134"},"sourceKind":"official","official":true,"sourceCellId":"1R7688RI","sourceStableId":"1F2B41F8F5440134","pipelineFeatureId":"1R7688RI/LIGHTS/20372","provenance":{"cellId":"1R7688RI","checksum":"c69828df1cdcb29158d0e6130e566f8fedb849e88f48e97e414abe177db141d8","readerVersion":"GDAL 3.2.2","processedAt":"2026-08-11T13:43:44.753Z"}}},{"type":"Feature","geometry":{"type":"Point","coordinates":[3.8898308,51.6316405]},"properties":{"dolphinKind":"light","rawObjectClass":"LIGHTS","sourceProperties":{"RCID":20373,"PRIM":1,"GRUP":2,"OBJL":75,"RVER":1,"AGEN":7979,"FIDN":1106834756,"FIDS":309,"LNAM":"1F2B41F8F5440135","COLOUR":["3"],"HEIGHT":8.5,"LITCHR":8,"SECTR1":333,"SECTR2":346,"SIGGRP":"(1)","SIGPER":6,"SCAMIN":200000,"SORDAT":"20100512","SORIND":"NL,1R,Reprt,NavBer 2010/55","sourceCellId":"1R7688RI","sourceChecksum":"c69828df1cdcb29158d0e6130e566f8fedb849e88f48e97e414abe177db141d8","rawObjectClass":"LIGHTS","sourceStableId":"1F2B41F8F5440135"},"sourceKind":"official","official":true,"sourceCellId":"1R7688RI","sourceStableId":"1F2B41F8F5440135","pipelineFeatureId":"1R7688RI/LIGHTS/20373","provenance":{"cellId":"1R7688RI","checksum":"c69828df1cdcb29158d0e6130e566f8fedb849e88f48e97e414abe177db141d8","readerVersion":"GDAL 3.2.2","processedAt":"2026-08-11T13:43:44.753Z"}}},{"type":"Feature","geometry":{"type":"Point","coordinates":[3.8898308,51.6316405]},"properties":{"dolphinKind":"light","rawObjectClass":"LIGHTS","sourceProperties":{"RCID":20374,"PRIM":1,"GRUP":2,"OBJL":75,"RVER":1,"AGEN":7979,"FIDN":1106834756,"FIDS":310,"LNAM":"1F2B41F8F5440136","COLOUR":["4"],"HEIGHT":8.5,"LITCHR":8,"SECTR1":346,"SECTR2":21,"SIGGRP":"(1)","SIGPER":6,"SCAMIN":200000,"SORDAT":"20100512","SORIND":"NL,1R,Reprt,NavBer 2010/55","sourceCellId":"1R7688RI","sourceChecksum":"c69828df1cdcb29158d0e6130e566f8fedb849e88f48e97e414abe177db141d8","rawObjectClass":"LIGHTS","sourceStableId":"1F2B41F8F5440136"},"sourceKind":"official","official":true,"sourceCellId":"1R7688RI","sourceStableId":"1F2B41F8F5440136","pipelineFeatureId":"1R7688RI/LIGHTS/20374","provenance":{"cellId":"1R7688RI","checksum":"c69828df1cdcb29158d0e6130e566f8fedb849e88f48e97e414abe177db141d8","readerVersion":"GDAL 3.2.2","processedAt":"2026-08-11T13:43:44.753Z"}}},{"type":"Feature","geometry":{"type":"Point","coordinates":[3.8898308,51.6316405]},"properties":{"dolphinKind":"light","rawObjectClass":"LIGHTS","sourceProperties":{"RCID":20375,"PRIM":1,"GRUP":2,"OBJL":75,"RVER":1,"AGEN":7979,"FIDN":1106834756,"FIDS":311,"LNAM":"1F2B41F8F5440137","COLOUR":["4"],"HEIGHT":8.5,"LITCHR":8,"SECTR1":24,"SECTR2":97,"SIGGRP":"(1)","SIGPER":6,"SCAMIN":200000,"SORDAT":"20100512","SORIND":"NL,1R,Reprt,NavBer 2010/55","sourceCellId":"1R7688RI","sourceChecksum":"c69828df1cdcb29158d0e6130e566f8fedb849e88f48e97e414abe177db141d8","rawObjectClass":"LIGHTS","sourceStableId":"1F2B41F8F5440137"},"sourceKind":"official","official":true,"sourceCellId":"1R7688RI","sourceStableId":"1F2B41F8F5440137","pipelineFeatureId":"1R7688RI/LIGHTS/20375","provenance":{"cellId":"1R7688RI","checksum":"c69828df1cdcb29158d0e6130e566f8fedb849e88f48e97e414abe177db141d8","readerVersion":"GDAL 3.2.2","processedAt":"2026-08-11T13:43:44.753Z"}}},{"type":"Feature","geometry":{"type":"Point","coordinates":[3.8898308,51.6316405]},"properties":{"dolphinKind":"light","rawObjectClass":"LIGHTS","sourceProperties":{"RCID":20376,"PRIM":1,"GRUP":2,"OBJL":75,"RVER":1,"AGEN":7979,"FIDN":1106834756,"FIDS":312,"LNAM":"1F2B41F8F5440138","COLOUR":["1"],"HEIGHT":8.5,"LITCHR":8,"SECTR1":97,"SECTR2":134,"SIGGRP":"(1)","SIGPER":6,"SCAMIN":200000,"SORDAT":"20100512","SORIND":"NL,1R,Reprt,NavBer 2010/55","sourceCellId":"1R7688RI","sourceChecksum":"c69828df1cdcb29158d0e6130e566f8fedb849e88f48e97e414abe177db141d8","rawObjectClass":"LIGHTS","sourceStableId":"1F2B41F8F5440138"},"sourceKind":"official","official":true,"sourceCellId":"1R7688RI","sourceStableId":"1F2B41F8F5440138","pipelineFeatureId":"1R7688RI/LIGHTS/20376","provenance":{"cellId":"1R7688RI","checksum":"c69828df1cdcb29158d0e6130e566f8fedb849e88f48e97e414abe177db141d8","readerVersion":"GDAL 3.2.2","processedAt":"2026-08-11T13:43:44.753Z"}}},{"type":"Feature","geometry":{"type":"Point","coordinates":[3.8898308,51.6316405]},"properties":{"dolphinKind":"light","rawObjectClass":"LIGHTS","sourceProperties":{"RCID":20377,"PRIM":1,"GRUP":2,"OBJL":75,"RVER":1,"AGEN":7979,"FIDN":1106834756,"FIDS":313,"LNAM":"1F2B41F8F5440139","COLOUR":["3"],"HEIGHT":8.5,"LITCHR":8,"SECTR1":134,"SECTR2":156,"SIGGRP":"(1)","SIGPER":6,"SCAMIN":200000,"SORDAT":"20100512","SORIND":"NL,1R,Reprt,NavBer 2010/55","sourceCellId":"1R7688RI","sourceChecksum":"c69828df1cdcb29158d0e6130e566f8fedb849e88f48e97e414abe177db141d8","rawObjectClass":"LIGHTS","sourceStableId":"1F2B41F8F5440139"},"sourceKind":"official","official":true,"sourceCellId":"1R7688RI","sourceStableId":"1F2B41F8F5440139","pipelineFeatureId":"1R7688RI/LIGHTS/20377","provenance":{"cellId":"1R7688RI","checksum":"c69828df1cdcb29158d0e6130e566f8fedb849e88f48e97e414abe177db141d8","readerVersion":"GDAL 3.2.2","processedAt":"2026-08-11T13:43:44.753Z"}}},{"type":"Feature","geometry":{"type":"Point","coordinates":[3.8898308,51.6316405]},"properties":{"dolphinKind":"light","rawObjectClass":"LIGHTS","sourceProperties":{"RCID":20378,"PRIM":1,"GRUP":2,"OBJL":75,"RVER":1,"AGEN":7979,"FIDN":1106834756,"FIDS":314,"LNAM":"1F2B41F8F544013A","COLOUR":["1"],"HEIGHT":8.5,"LITCHR":8,"SECTR1":156,"SECTR2":278,"SIGGRP":"(1)","SIGPER":6,"SCAMIN":200000,"SORDAT":"20100512","SORIND":"NL,1R,Reprt,NavBer 2010/55","sourceCellId":"1R7688RI","sourceChecksum":"c69828df1cdcb29158d0e6130e566f8fedb849e88f48e97e414abe177db141d8","rawObjectClass":"LIGHTS","sourceStableId":"1F2B41F8F544013A"},"sourceKind":"official","official":true,"sourceCellId":"1R7688RI","sourceStableId":"1F2B41F8F544013A","pipelineFeatureId":"1R7688RI/LIGHTS/20378","provenance":{"cellId":"1R7688RI","checksum":"c69828df1cdcb29158d0e6130e566f8fedb849e88f48e97e414abe177db141d8","readerVersion":"GDAL 3.2.2","processedAt":"2026-08-11T13:43:44.753Z"}}},{"type":"Feature","geometry":{"type":"Point","coordinates":[3.80713,51.64]},"properties":{"dolphinKind":"light","rawObjectClass":"LIGHTS","sourceProperties":{"RCID":13019672,"PRIM":1,"GRUP":2,"OBJL":75,"RVER":1,"AGEN":7979,"FIDN":13019672,"FIDS":1,"LNAM":"1F2B00C6AA180001","COLOUR":["6"],"LITCHR":2,"SIGGRP":"(5)","SIGPER":20,"SCAMIN":300000,"sourceCellId":"1R7688RI","sourceChecksum":"c69828df1cdcb29158d0e6130e566f8fedb849e88f48e97e414abe177db141d8","rawObjectClass":"LIGHTS","sourceStableId":"1F2B00C6AA180001"},"sourceKind":"official","official":true,"sourceCellId":"1R7688RI","sourceStableId":"1F2B00C6AA180001","pipelineFeatureId":"1R7688RI/LIGHTS/13019672","provenance":{"cellId":"1R7688RI","checksum":"c69828df1cdcb29158d0e6130e566f8fedb849e88f48e97e414abe177db141d8","readerVersion":"GDAL 3.2.2","processedAt":"2026-08-11T13:43:44.753Z"}}},{"type":"Feature","geometry":{"type":"Point","coordinates":[3.8898308,51.6316405]},"properties":{"dolphinKind":"light","rawObjectClass":"LIGHTS","sourceProperties":{"RCID":48307445,"PRIM":1,"GRUP":2,"OBJL":75,"RVER":1,"AGEN":7979,"FIDN":48307445,"FIDS":1,"LNAM":"1F2B02E11CF50001","COLOUR":["1"],"HEIGHT":8.5,"LITCHR":8,"SECTR1":21,"SECTR2":24,"SIGGRP":"(1)","SIGPER":6,"SCAMIN":200000,"SORDAT":"20100512","SORIND":"NL,1R,Reprt,NavBer 2010/55","sourceCellId":"1R7688RI","sourceChecksum":"c69828df1cdcb29158d0e6130e566f8fedb849e88f48e97e414abe177db141d8","rawObjectClass":"LIGHTS","sourceStableId":"1F2B02E11CF50001"},"sourceKind":"official","official":true,"sourceCellId":"1R7688RI","sourceStableId":"1F2B02E11CF50001","pipelineFeatureId":"1R7688RI/LIGHTS/48307445","provenance":{"cellId":"1R7688RI","checksum":"c69828df1cdcb29158d0e6130e566f8fedb849e88f48e97e414abe177db141d8","readerVersion":"GDAL 3.2.2","processedAt":"2026-08-11T13:43:44.753Z"}}},{"type":"Feature","geometry":{"type":"Point","coordinates":[3.925234,51.6281279]},"properties":{"dolphinKind":"light","rawObjectClass":"LIGHTS","sourceProperties":{"RCID":195229201,"PRIM":1,"GRUP":2,"OBJL":75,"RVER":1,"AGEN":7979,"FIDN":195229201,"FIDS":1,"LNAM":"1F2B0BA2F6110001","CATLIT":["4","14"],"COLOUR":["1"],"LITCHR":7,"SIGGRP":"(1)","SIGPER":3,"SCAMIN":200000,"SORDAT":"20160717","SORIND":"NL,1R,reprt,Topdesk M-160708759","sourceCellId":"1R7688RI","sourceChecksum":"c69828df1cdcb29158d0e6130e566f8fedb849e88f48e97e414abe177db141d8","rawObjectClass":"LIGHTS","sourceStableId":"1F2B0BA2F6110001"},"sourceKind":"official","official":true,"sourceCellId":"1R7688RI","sourceStableId":"1F2B0BA2F6110001","pipelineFeatureId":"1R7688RI/LIGHTS/195229201","provenance":{"cellId":"1R7688RI","checksum":"c69828df1cdcb29158d0e6130e566f8fedb849e88f48e97e414abe177db141d8","readerVersion":"GDAL 3.2.2","processedAt":"2026-08-11T13:43:44.753Z"}}},{"type":"Feature","geometry":{"type":"Point","coordinates":[3.8972733,51.6284583]},"properties":{"dolphinKind":"light","rawObjectClass":"LIGHTS","sourceProperties":{"RCID":476855534,"PRIM":1,"GRUP":2,"OBJL":75,"RVER":1,"AGEN":7979,"FIDN":476855534,"FIDS":1,"LNAM":"1F2B1C6C3CEE0001","COLOUR":["3"],"LITCHR":7,"SIGGRP":"(1)","SIGPER":4,"SCAMIN":200000,"SORDAT":"20220915","SORIND":"NL,1R,Reprt,MD 446-22","sourceCellId":"1R7688RI","sourceChecksum":"c69828df1cdcb29158d0e6130e566f8fedb849e88f48e97e414abe177db141d8","rawObjectClass":"LIGHTS","sourceStableId":"1F2B1C6C3CEE0001"},"sourceKind":"official","official":true,"sourceCellId":"1R7688RI","sourceStableId":"1F2B1C6C3CEE0001","pipelineFeatureId":"1R7688RI/LIGHTS/476855534","provenance":{"cellId":"1R7688RI","checksum":"c69828df1cdcb29158d0e6130e566f8fedb849e88f48e97e414abe177db141d8","readerVersion":"GDAL 3.2.2","processedAt":"2026-08-11T13:43:44.753Z"}}},{"type":"Feature","geometry":{"type":"Point","coordinates":[3.8560634,51.632825]},"properties":{"dolphinKind":"light","rawObjectClass":"LIGHTS","sourceProperties":{"RCID":476876187,"PRIM":1,"GRUP":2,"OBJL":75,"RVER":1,"AGEN":7979,"FIDN":476876187,"FIDS":1,"LNAM":"1F2B1C6C8D9B0001","COLOUR":["4"],"LITCHR":3,"SIGGRP":"(1)","SIGPER":8,"SCAMIN":200000,"SORDAT":"20230111","SORIND":"NL,1R, Reprt,ENC verbetering","sourceCellId":"1R7688RI","sourceChecksum":"c69828df1cdcb29158d0e6130e566f8fedb849e88f48e97e414abe177db141d8","rawObjectClass":"LIGHTS","sourceStableId":"1F2B1C6C8D9B0001"},"sourceKind":"official","official":true,"sourceCellId":"1R7688RI","sourceStableId":"1F2B1C6C8D9B0001","pipelineFeatureId":"1R7688RI/LIGHTS/476876187","provenance":{"cellId":"1R7688RI","checksum":"c69828df1cdcb29158d0e6130e566f8fedb849e88f48e97e414abe177db141d8","readerVersion":"GDAL 3.2.2","processedAt":"2026-08-11T13:43:44.753Z"}}},{"type":"Feature","geometry":{"type":"Point","coordinates":[3.8021017,51.625635]},"properties":{"dolphinKind":"light","rawObjectClass":"LIGHTS","sourceProperties":{"RCID":476880940,"PRIM":1,"GRUP":2,"OBJL":75,"RVER":1,"AGEN":7979,"FIDN":476880940,"FIDS":1,"LNAM":"1F2B1C6CA02C0001","COLOUR":["4"],"LITCHR":3,"SIGGRP":"(1)","SIGPER":8,"SCAMIN":200000,"SORDAT":"20230111","SORIND":"NL,1R,Reprt,ENC verbetering","sourceCellId":"1R7688RI","sourceChecksum":"c69828df1cdcb29158d0e6130e566f8fedb849e88f48e97e414abe177db141d8","rawObjectClass":"LIGHTS","sourceStableId":"1F2B1C6CA02C0001"},"sourceKind":"official","official":true,"sourceCellId":"1R7688RI","sourceStableId":"1F2B1C6CA02C0001","pipelineFeatureId":"1R7688RI/LIGHTS/476880940","provenance":{"cellId":"1R7688RI","checksum":"c69828df1cdcb29158d0e6130e566f8fedb849e88f48e97e414abe177db141d8","readerVersion":"GDAL 3.2.2","processedAt":"2026-08-11T13:43:44.753Z"}}},{"type":"Feature","geometry":{"type":"Point","coordinates":[3.8744283,51.6271283]},"properties":{"dolphinKind":"light","rawObjectClass":"LIGHTS","sourceProperties":{"RCID":1189952602,"PRIM":1,"GRUP":2,"OBJL":75,"RVER":1,"AGEN":7979,"FIDN":1189952602,"FIDS":1,"LNAM":"1F2B46ED3C5A0001","COLOUR":["4"],"LITCHR":7,"SIGGRP":"(1)","SIGPER":8,"SCAMIN":200000,"sourceCellId":"1R7688RI","sourceChecksum":"c69828df1cdcb29158d0e6130e566f8fedb849e88f48e97e414abe177db141d8","rawObjectClass":"LIGHTS","sourceStableId":"1F2B46ED3C5A0001"},"sourceKind":"official","official":true,"sourceCellId":"1R7688RI","sourceStableId":"1F2B46ED3C5A0001","pipelineFeatureId":"1R7688RI/LIGHTS/1189952602","provenance":{"cellId":"1R7688RI","checksum":"c69828df1cdcb29158d0e6130e566f8fedb849e88f48e97e414abe177db141d8","readerVersion":"GDAL 3.2.2","processedAt":"2026-08-11T13:43:44.753Z"}}},{"type":"Feature","geometry":{"type":"Point","coordinates":[3.8772801,51.6382493]},"properties":{"dolphinKind":"light","rawObjectClass":"LIGHTS","sourceProperties":{"RCID":1189956504,"PRIM":1,"GRUP":2,"OBJL":75,"RVER":1,"AGEN":7979,"FIDN":1189956504,"FIDS":1,"LNAM":"1F2B46ED4B980001","COLOUR":["3"],"LITCHR":7,"SIGGRP":"(1)","SIGPER":8,"SCAMIN":200000,"sourceCellId":"1R7688RI","sourceChecksum":"c69828df1cdcb29158d0e6130e566f8fedb849e88f48e97e414abe177db141d8","rawObjectClass":"LIGHTS","sourceStableId":"1F2B46ED4B980001"},"sourceKind":"official","official":true,"sourceCellId":"1R7688RI","sourceStableId":"1F2B46ED4B980001","pipelineFeatureId":"1R7688RI/LIGHTS/1189956504","provenance":{"cellId":"1R7688RI","checksum":"c69828df1cdcb29158d0e6130e566f8fedb849e88f48e97e414abe177db141d8","readerVersion":"GDAL 3.2.2","processedAt":"2026-08-11T13:43:44.753Z"}}},{"type":"Feature","geometry":{"type":"Point","coordinates":[3.8877333,51.6338167]},"properties":{"dolphinKind":"light","rawObjectClass":"LIGHTS","sourceProperties":{"RCID":1278389132,"PRIM":1,"GRUP":2,"OBJL":75,"RVER":1,"AGEN":7979,"FIDN":1278389132,"FIDS":1,"LNAM":"1F2B4C32AB8C0001","COLOUR":["6"],"LITCHR":2,"SIGGRP":"(5)","SIGPER":20,"SCAMIN":300000,"sourceCellId":"1R7688RI","sourceChecksum":"c69828df1cdcb29158d0e6130e566f8fedb849e88f48e97e414abe177db141d8","rawObjectClass":"LIGHTS","sourceStableId":"1F2B4C32AB8C0001"},"sourceKind":"official","official":true,"sourceCellId":"1R7688RI","sourceStableId":"1F2B4C32AB8C0001","pipelineFeatureId":"1R7688RI/LIGHTS/1278389132","provenance":{"cellId":"1R7688RI","checksum":"c69828df1cdcb29158d0e6130e566f8fedb849e88f48e97e414abe177db141d8","readerVersion":"GDAL 3.2.2","processedAt":"2026-08-11T13:43:44.753Z"}}},{"type":"Feature","geometry":{"type":"Point","coordinates":[3.8903813,51.6381519]},"properties":{"dolphinKind":"topmark","rawObjectClass":"TOPMAR","sourceProperties":{"RCID":9302,"PRIM":1,"GRUP":2,"OBJL":144,"RVER":1,"AGEN":7979,"FIDN":1106210626,"FIDS":377,"LNAM":"1F2B41EF6F420179","COLOUR":["6"],"TOPSHP":20,"SCAMIN":200000,"sourceCellId":"1R7688RI","sourceChecksum":"c69828df1cdcb29158d0e6130e566f8fedb849e88f48e97e414abe177db141d8","rawObjectClass":"TOPMAR","sourceStableId":"1F2B41EF6F420179"},"sourceKind":"official","official":true,"sourceCellId":"1R7688RI","sourceStableId":"1F2B41EF6F420179","pipelineFeatureId":"1R7688RI/TOPMAR/9302","provenance":{"cellId":"1R7688RI","checksum":"c69828df1cdcb29158d0e6130e566f8fedb849e88f48e97e414abe177db141d8","readerVersion":"GDAL 3.2.2","processedAt":"2026-08-11T13:43:44.753Z"},"associationRefsVerifiedInGdalOutput":false}},{"type":"Feature","geometry":{"type":"Point","coordinates":[3.7494,51.6701283]},"properties":{"dolphinKind":"topmark","rawObjectClass":"TOPMAR","sourceProperties":{"RCID":17779,"PRIM":1,"GRUP":2,"OBJL":144,"RVER":1,"AGEN":7979,"FIDN":1106834726,"FIDS":282,"LNAM":"1F2B41F8F526011A","COLOUR":["3","1","3"],"COLPAT":["1"],"TOPSHP":5,"SCAMIN":200000,"sourceCellId":"1R7688RI","sourceChecksum":"c69828df1cdcb29158d0e6130e566f8fedb849e88f48e97e414abe177db141d8","rawObjectClass":"TOPMAR","sourceStableId":"1F2B41F8F526011A"},"sourceKind":"official","official":true,"sourceCellId":"1R7688RI","sourceStableId":"1F2B41F8F526011A","pipelineFeatureId":"1R7688RI/TOPMAR/17779","provenance":{"cellId":"1R7688RI","checksum":"c69828df1cdcb29158d0e6130e566f8fedb849e88f48e97e414abe177db141d8","readerVersion":"GDAL 3.2.2","processedAt":"2026-08-11T13:43:44.753Z"},"associationRefsVerifiedInGdalOutput":false}},{"type":"Feature","geometry":{"type":"Point","coordinates":[3.7495,51.6673417]},"properties":{"dolphinKind":"topmark","rawObjectClass":"TOPMAR","sourceProperties":{"RCID":17780,"PRIM":1,"GRUP":2,"OBJL":144,"RVER":1,"AGEN":7979,"FIDN":1106834726,"FIDS":283,"LNAM":"1F2B41F8F526011B","COLOUR":["3","1","3"],"COLPAT":["1"],"TOPSHP":5,"SCAMIN":200000,"sourceCellId":"1R7688RI","sourceChecksum":"c69828df1cdcb29158d0e6130e566f8fedb849e88f48e97e414abe177db141d8","rawObjectClass":"TOPMAR","sourceStableId":"1F2B41F8F526011B"},"sourceKind":"official","official":true,"sourceCellId":"1R7688RI","sourceStableId":"1F2B41F8F526011B","pipelineFeatureId":"1R7688RI/TOPMAR/17780","provenance":{"cellId":"1R7688RI","checksum":"c69828df1cdcb29158d0e6130e566f8fedb849e88f48e97e414abe177db141d8","readerVersion":"GDAL 3.2.2","processedAt":"2026-08-11T13:43:44.753Z"},"associationRefsVerifiedInGdalOutput":false}},{"type":"Feature","geometry":{"type":"Point","coordinates":[3.74715,51.66443]},"properties":{"dolphinKind":"topmark","rawObjectClass":"TOPMAR","sourceProperties":{"RCID":17781,"PRIM":1,"GRUP":2,"OBJL":144,"RVER":1,"AGEN":7979,"FIDN":1106834726,"FIDS":284,"LNAM":"1F2B41F8F526011C","COLOUR":["3","1","3"],"COLPAT":["1"],"TOPSHP":5,"SCAMIN":200000,"sourceCellId":"1R7688RI","sourceChecksum":"c69828df1cdcb29158d0e6130e566f8fedb849e88f48e97e414abe177db141d8","rawObjectClass":"TOPMAR","sourceStableId":"1F2B41F8F526011C"},"sourceKind":"official","official":true,"sourceCellId":"1R7688RI","sourceStableId":"1F2B41F8F526011C","pipelineFeatureId":"1R7688RI/TOPMAR/17781","provenance":{"cellId":"1R7688RI","checksum":"c69828df1cdcb29158d0e6130e566f8fedb849e88f48e97e414abe177db141d8","readerVersion":"GDAL 3.2.2","processedAt":"2026-08-11T13:43:44.753Z"},"associationRefsVerifiedInGdalOutput":false}},{"type":"Feature","geometry":{"type":"Point","coordinates":[3.74305,51.6618583]},"properties":{"dolphinKind":"topmark","rawObjectClass":"TOPMAR","sourceProperties":{"RCID":17782,"PRIM":1,"GRUP":2,"OBJL":144,"RVER":1,"AGEN":7979,"FIDN":1106834726,"FIDS":285,"LNAM":"1F2B41F8F526011D","COLOUR":["3","1","3"],"COLPAT":["1"],"TOPSHP":5,"SCAMIN":200000,"sourceCellId":"1R7688RI","sourceChecksum":"c69828df1cdcb29158d0e6130e566f8fedb849e88f48e97e414abe177db141d8","rawObjectClass":"TOPMAR","sourceStableId":"1F2B41F8F526011D"},"sourceKind":"official","official":true,"sourceCellId":"1R7688RI","sourceStableId":"1F2B41F8F526011D","pipelineFeatureId":"1R7688RI/TOPMAR/17782","provenance":{"cellId":"1R7688RI","checksum":"c69828df1cdcb29158d0e6130e566f8fedb849e88f48e97e414abe177db141d8","readerVersion":"GDAL 3.2.2","processedAt":"2026-08-11T13:43:44.753Z"},"associationRefsVerifiedInGdalOutput":false}},{"type":"Feature","geometry":{"type":"Point","coordinates":[3.74095,51.6579267]},"properties":{"dolphinKind":"topmark","rawObjectClass":"TOPMAR","sourceProperties":{"RCID":17783,"PRIM":1,"GRUP":2,"OBJL":144,"RVER":1,"AGEN":7979,"FIDN":1106834726,"FIDS":286,"LNAM":"1F2B41F8F526011E","COLOUR":["3","1","3"],"COLPAT":["1"],"TOPSHP":5,"SCAMIN":200000,"sourceCellId":"1R7688RI","sourceChecksum":"c69828df1cdcb29158d0e6130e566f8fedb849e88f48e97e414abe177db141d8","rawObjectClass":"TOPMAR","sourceStableId":"1F2B41F8F526011E"},"sourceKind":"official","official":true,"sourceCellId":"1R7688RI","sourceStableId":"1F2B41F8F526011E","pipelineFeatureId":"1R7688RI/TOPMAR/17783","provenance":{"cellId":"1R7688RI","checksum":"c69828df1cdcb29158d0e6130e566f8fedb849e88f48e97e414abe177db141d8","readerVersion":"GDAL 3.2.2","processedAt":"2026-08-11T13:43:44.753Z"},"associationRefsVerifiedInGdalOutput":false}},{"type":"Feature","geometry":{"type":"Point","coordinates":[3.734975,51.6553333]},"properties":{"dolphinKind":"topmark","rawObjectClass":"TOPMAR","sourceProperties":{"RCID":17785,"PRIM":1,"GRUP":2,"OBJL":144,"RVER":1,"AGEN":7979,"FIDN":1106834726,"FIDS":288,"LNAM":"1F2B41F8F5260120","COLOUR":["3","1","3"],"COLPAT":["1"],"TOPSHP":5,"SCAMIN":200000,"sourceCellId":"1R7688RI","sourceChecksum":"c69828df1cdcb29158d0e6130e566f8fedb849e88f48e97e414abe177db141d8","rawObjectClass":"TOPMAR","sourceStableId":"1F2B41F8F5260120"},"sourceKind":"official","official":true,"sourceCellId":"1R7688RI","sourceStableId":"1F2B41F8F5260120","pipelineFeatureId":"1R7688RI/TOPMAR/17785","provenance":{"cellId":"1R7688RI","checksum":"c69828df1cdcb29158d0e6130e566f8fedb849e88f48e97e414abe177db141d8","readerVersion":"GDAL 3.2.2","processedAt":"2026-08-11T13:43:44.753Z"},"associationRefsVerifiedInGdalOutput":false}},{"type":"Feature","geometry":{"type":"Point","coordinates":[3.7374533,51.652605]},"properties":{"dolphinKind":"topmark","rawObjectClass":"TOPMAR","sourceProperties":{"RCID":17786,"PRIM":1,"GRUP":2,"OBJL":144,"RVER":1,"AGEN":7979,"FIDN":1106834726,"FIDS":289,"LNAM":"1F2B41F8F5260121","COLOUR":["3","1","3"],"COLPAT":["1"],"TOPSHP":5,"SCAMIN":200000,"sourceCellId":"1R7688RI","sourceChecksum":"c69828df1cdcb29158d0e6130e566f8fedb849e88f48e97e414abe177db141d8","rawObjectClass":"TOPMAR","sourceStableId":"1F2B41F8F5260121"},"sourceKind":"official","official":true,"sourceCellId":"1R7688RI","sourceStableId":"1F2B41F8F5260121","pipelineFeatureId":"1R7688RI/TOPMAR/17786","provenance":{"cellId":"1R7688RI","checksum":"c69828df1cdcb29158d0e6130e566f8fedb849e88f48e97e414abe177db141d8","readerVersion":"GDAL 3.2.2","processedAt":"2026-08-11T13:43:44.753Z"},"associationRefsVerifiedInGdalOutput":false}},{"type":"Feature","geometry":{"type":"Point","coordinates":[3.7409383,51.6503633]},"properties":{"dolphinKind":"topmark","rawObjectClass":"TOPMAR","sourceProperties":{"RCID":17787,"PRIM":1,"GRUP":2,"OBJL":144,"RVER":1,"AGEN":7979,"FIDN":1106834726,"FIDS":290,"LNAM":"1F2B41F8F5260122","COLOUR":["3","1","3"],"COLPAT":["1"],"TOPSHP":5,"SCAMIN":200000,"sourceCellId":"1R7688RI","sourceChecksum":"c69828df1cdcb29158d0e6130e566f8fedb849e88f48e97e414abe177db141d8","rawObjectClass":"TOPMAR","sourceStableId":"1F2B41F8F5260122"},"sourceKind":"official","official":true,"sourceCellId":"1R7688RI","sourceStableId":"1F2B41F8F5260122","pipelineFeatureId":"1R7688RI/TOPMAR/17787","provenance":{"cellId":"1R7688RI","checksum":"c69828df1cdcb29158d0e6130e566f8fedb849e88f48e97e414abe177db141d8","readerVersion":"GDAL 3.2.2","processedAt":"2026-08-11T13:43:44.753Z"},"associationRefsVerifiedInGdalOutput":false}},{"type":"Feature","geometry":{"type":"Point","coordinates":[3.7454917,51.6479383]},"properties":{"dolphinKind":"topmark","rawObjectClass":"TOPMAR","sourceProperties":{"RCID":17788,"PRIM":1,"GRUP":2,"OBJL":144,"RVER":1,"AGEN":7979,"FIDN":1106834726,"FIDS":291,"LNAM":"1F2B41F8F5260123","COLOUR":["3","1","3"],"COLPAT":["1"],"TOPSHP":5,"SCAMIN":200000,"sourceCellId":"1R7688RI","sourceChecksum":"c69828df1cdcb29158d0e6130e566f8fedb849e88f48e97e414abe177db141d8","rawObjectClass":"TOPMAR","sourceStableId":"1F2B41F8F5260123"},"sourceKind":"official","official":true,"sourceCellId":"1R7688RI","sourceStableId":"1F2B41F8F5260123","pipelineFeatureId":"1R7688RI/TOPMAR/17788","provenance":{"cellId":"1R7688RI","checksum":"c69828df1cdcb29158d0e6130e566f8fedb849e88f48e97e414abe177db141d8","readerVersion":"GDAL 3.2.2","processedAt":"2026-08-11T13:43:44.753Z"},"associationRefsVerifiedInGdalOutput":false}},{"type":"Feature","geometry":{"type":"Point","coordinates":[3.74412,51.6443417]},"properties":{"dolphinKind":"topmark","rawObjectClass":"TOPMAR","sourceProperties":{"RCID":17789,"PRIM":1,"GRUP":2,"OBJL":144,"RVER":1,"AGEN":7979,"FIDN":1106834726,"FIDS":292,"LNAM":"1F2B41F8F5260124","COLOUR":["3","1","3"],"COLPAT":["1"],"TOPSHP":5,"SCAMIN":200000,"sourceCellId":"1R7688RI","sourceChecksum":"c69828df1cdcb29158d0e6130e566f8fedb849e88f48e97e414abe177db141d8","rawObjectClass":"TOPMAR","sourceStableId":"1F2B41F8F5260124"},"sourceKind":"official","official":true,"sourceCellId":"1R7688RI","sourceStableId":"1F2B41F8F5260124","pipelineFeatureId":"1R7688RI/TOPMAR/17789","provenance":{"cellId":"1R7688RI","checksum":"c69828df1cdcb29158d0e6130e566f8fedb849e88f48e97e414abe177db141d8","readerVersion":"GDAL 3.2.2","processedAt":"2026-08-11T13:43:44.753Z"},"associationRefsVerifiedInGdalOutput":false}},{"type":"Feature","geometry":{"type":"Point","coordinates":[3.7419367,51.6416217]},"properties":{"dolphinKind":"topmark","rawObjectClass":"TOPMAR","sourceProperties":{"RCID":17790,"PRIM":1,"GRUP":2,"OBJL":144,"RVER":1,"AGEN":7979,"FIDN":1106834726,"FIDS":293,"LNAM":"1F2B41F8F5260125","COLOUR":["3","1","3"],"COLPAT":["1"],"TOPSHP":5,"SCAMIN":200000,"sourceCellId":"1R7688RI","sourceChecksum":"c69828df1cdcb29158d0e6130e566f8fedb849e88f48e97e414abe177db141d8","rawObjectClass":"TOPMAR","sourceStableId":"1F2B41F8F5260125"},"sourceKind":"official","official":true,"sourceCellId":"1R7688RI","sourceStableId":"1F2B41F8F5260125","pipelineFeatureId":"1R7688RI/TOPMAR/17790","provenance":{"cellId":"1R7688RI","checksum":"c69828df1cdcb29158d0e6130e566f8fedb849e88f48e97e414abe177db141d8","readerVersion":"GDAL 3.2.2","processedAt":"2026-08-11T13:43:44.753Z"},"associationRefsVerifiedInGdalOutput":false}},{"type":"Feature","geometry":{"type":"Point","coordinates":[3.73992,51.6388883]},"properties":{"dolphinKind":"topmark","rawObjectClass":"TOPMAR","sourceProperties":{"RCID":17791,"PRIM":1,"GRUP":2,"OBJL":144,"RVER":1,"AGEN":7979,"FIDN":1106834726,"FIDS":294,"LNAM":"1F2B41F8F5260126","COLOUR":["3","1","3"],"COLPAT":["1"],"TOPSHP":5,"SCAMIN":200000,"sourceCellId":"1R7688RI","sourceChecksum":"c69828df1cdcb29158d0e6130e566f8fedb849e88f48e97e414abe177db141d8","rawObjectClass":"TOPMAR","sourceStableId":"1F2B41F8F5260126"},"sourceKind":"official","official":true,"sourceCellId":"1R7688RI","sourceStableId":"1F2B41F8F5260126","pipelineFeatureId":"1R7688RI/TOPMAR/17791","provenance":{"cellId":"1R7688RI","checksum":"c69828df1cdcb29158d0e6130e566f8fedb849e88f48e97e414abe177db141d8","readerVersion":"GDAL 3.2.2","processedAt":"2026-08-11T13:43:44.753Z"},"associationRefsVerifiedInGdalOutput":false}},{"type":"Feature","geometry":{"type":"Point","coordinates":[3.7657,51.6736383]},"properties":{"dolphinKind":"topmark","rawObjectClass":"TOPMAR","sourceProperties":{"RCID":17792,"PRIM":1,"GRUP":2,"OBJL":144,"RVER":1,"AGEN":7979,"FIDN":1106834726,"FIDS":295,"LNAM":"1F2B41F8F5260127","COLOUR":["3"],"TOPSHP":5,"SCAMIN":200000,"sourceCellId":"1R7688RI","sourceChecksum":"c69828df1cdcb29158d0e6130e566f8fedb849e88f48e97e414abe177db141d8","rawObjectClass":"TOPMAR","sourceStableId":"1F2B41F8F5260127"},"sourceKind":"official","official":true,"sourceCellId":"1R7688RI","sourceStableId":"1F2B41F8F5260127","pipelineFeatureId":"1R7688RI/TOPMAR/17792","provenance":{"cellId":"1R7688RI","checksum":"c69828df1cdcb29158d0e6130e566f8fedb849e88f48e97e414abe177db141d8","readerVersion":"GDAL 3.2.2","processedAt":"2026-08-11T13:43:44.753Z"},"associationRefsVerifiedInGdalOutput":false}},{"type":"Feature","geometry":{"type":"Point","coordinates":[3.8456966,51.672215]},"properties":{"dolphinKind":"topmark","rawObjectClass":"TOPMAR","sourceProperties":{"RCID":17804,"PRIM":1,"GRUP":2,"OBJL":144,"RVER":1,"AGEN":7979,"FIDN":1106834726,"FIDS":307,"LNAM":"1F2B41F8F5260133","COLOUR":["3"],"TOPSHP":5,"SCAMIN":200000,"sourceCellId":"1R7688RI","sourceChecksum":"c69828df1cdcb29158d0e6130e566f8fedb849e88f48e97e414abe177db141d8","rawObjectClass":"TOPMAR","sourceStableId":"1F2B41F8F5260133"},"sourceKind":"official","official":true,"sourceCellId":"1R7688RI","sourceStableId":"1F2B41F8F5260133","pipelineFeatureId":"1R7688RI/TOPMAR/17804","provenance":{"cellId":"1R7688RI","checksum":"c69828df1cdcb29158d0e6130e566f8fedb849e88f48e97e414abe177db141d8","readerVersion":"GDAL 3.2.2","processedAt":"2026-08-11T13:43:44.753Z"},"associationRefsVerifiedInGdalOutput":false}},{"type":"Feature","geometry":{"type":"Point","coordinates":[3.8653883,51.6460517]},"properties":{"dolphinKind":"topmark","rawObjectClass":"TOPMAR","sourceProperties":{"RCID":17809,"PRIM":1,"GRUP":2,"OBJL":144,"RVER":1,"AGEN":7979,"FIDN":1106834726,"FIDS":312,"LNAM":"1F2B41F8F5260138","COLOUR":["3"],"TOPSHP":5,"SCAMIN":200000,"SORDAT":"20230312","sourceCellId":"1R7688RI","sourceChecksum":"c69828df1cdcb29158d0e6130e566f8fedb849e88f48e97e414abe177db141d8","rawObjectClass":"TOPMAR","sourceStableId":"1F2B41F8F5260138"},"sourceKind":"official","official":true,"sourceCellId":"1R7688RI","sourceStableId":"1F2B41F8F5260138","pipelineFeatureId":"1R7688RI/TOPMAR/17809","provenance":{"cellId":"1R7688RI","checksum":"c69828df1cdcb29158d0e6130e566f8fedb849e88f48e97e414abe177db141d8","readerVersion":"GDAL 3.2.2","processedAt":"2026-08-11T13:43:44.753Z"},"associationRefsVerifiedInGdalOutput":false}},{"type":"Feature","geometry":{"type":"Point","coordinates":[3.8513916,51.674115]},"properties":{"dolphinKind":"topmark","rawObjectClass":"TOPMAR","sourceProperties":{"RCID":17814,"PRIM":1,"GRUP":2,"OBJL":144,"RVER":1,"AGEN":7979,"FIDN":1106834726,"FIDS":317,"LNAM":"1F2B41F8F526013D","COLOUR":["4"],"TOPSHP":1,"SCAMIN":200000,"sourceCellId":"1R7688RI","sourceChecksum":"c69828df1cdcb29158d0e6130e566f8fedb849e88f48e97e414abe177db141d8","rawObjectClass":"TOPMAR","sourceStableId":"1F2B41F8F526013D"},"sourceKind":"official","official":true,"sourceCellId":"1R7688RI","sourceStableId":"1F2B41F8F526013D","pipelineFeatureId":"1R7688RI/TOPMAR/17814","provenance":{"cellId":"1R7688RI","checksum":"c69828df1cdcb29158d0e6130e566f8fedb849e88f48e97e414abe177db141d8","readerVersion":"GDAL 3.2.2","processedAt":"2026-08-11T13:43:44.753Z"},"associationRefsVerifiedInGdalOutput":false}},{"type":"Feature","geometry":{"type":"Point","coordinates":[3.9066517,51.6296434]},"properties":{"dolphinKind":"topmark","rawObjectClass":"TOPMAR","sourceProperties":{"RCID":17850,"PRIM":1,"GRUP":2,"OBJL":144,"RVER":1,"AGEN":7979,"FIDN":1106834726,"FIDS":353,"LNAM":"1F2B41F8F5260161","COLOUR":["3"],"TOPSHP":5,"SCAMIN":200000,"sourceCellId":"1R7688RI","sourceChecksum":"c69828df1cdcb29158d0e6130e566f8fedb849e88f48e97e414abe177db141d8","rawObjectClass":"TOPMAR","sourceStableId":"1F2B41F8F5260161"},"sourceKind":"official","official":true,"sourceCellId":"1R7688RI","sourceStableId":"1F2B41F8F5260161","pipelineFeatureId":"1R7688RI/TOPMAR/17850","provenance":{"cellId":"1R7688RI","checksum":"c69828df1cdcb29158d0e6130e566f8fedb849e88f48e97e414abe177db141d8","readerVersion":"GDAL 3.2.2","processedAt":"2026-08-11T13:43:44.753Z"},"associationRefsVerifiedInGdalOutput":false}},{"type":"Feature","geometry":{"type":"Point","coordinates":[3.8021017,51.625635]},"properties":{"dolphinKind":"topmark","rawObjectClass":"TOPMAR","sourceProperties":{"RCID":17873,"PRIM":1,"GRUP":2,"OBJL":144,"RVER":1,"AGEN":7979,"FIDN":1106834726,"FIDS":376,"LNAM":"1F2B41F8F5260178","COLOUR":["4"],"TOPSHP":1,"SCAMIN":200000,"sourceCellId":"1R7688RI","sourceChecksum":"c69828df1cdcb29158d0e6130e566f8fedb849e88f48e97e414abe177db141d8","rawObjectClass":"TOPMAR","sourceStableId":"1F2B41F8F5260178"},"sourceKind":"official","official":true,"sourceCellId":"1R7688RI","sourceStableId":"1F2B41F8F5260178","pipelineFeatureId":"1R7688RI/TOPMAR/17873","provenance":{"cellId":"1R7688RI","checksum":"c69828df1cdcb29158d0e6130e566f8fedb849e88f48e97e414abe177db141d8","readerVersion":"GDAL 3.2.2","processedAt":"2026-08-11T13:43:44.753Z"},"associationRefsVerifiedInGdalOutput":false}},{"type":"Feature","geometry":{"type":"Point","coordinates":[3.8198083,51.6431367]},"properties":{"dolphinKind":"topmark","rawObjectClass":"TOPMAR","sourceProperties":{"RCID":67423257,"PRIM":1,"GRUP":2,"OBJL":144,"RVER":1,"AGEN":7979,"FIDN":67423257,"FIDS":1,"LNAM":"1F2B0404CC190001","COLOUR":["3"],"TOPSHP":5,"SCAMIN":200000,"SORIND":"NL,1R,reprt,DZD-BAS-2011/19","sourceCellId":"1R7688RI","sourceChecksum":"c69828df1cdcb29158d0e6130e566f8fedb849e88f48e97e414abe177db141d8","rawObjectClass":"TOPMAR","sourceStableId":"1F2B0404CC190001"},"sourceKind":"official","official":true,"sourceCellId":"1R7688RI","sourceStableId":"1F2B0404CC190001","pipelineFeatureId":"1R7688RI/TOPMAR/67423257","provenance":{"cellId":"1R7688RI","checksum":"c69828df1cdcb29158d0e6130e566f8fedb849e88f48e97e414abe177db141d8","readerVersion":"GDAL 3.2.2","processedAt":"2026-08-11T13:43:44.753Z"},"associationRefsVerifiedInGdalOutput":false}},{"type":"Feature","geometry":{"type":"Point","coordinates":[3.8014417,51.6430167]},"properties":{"dolphinKind":"topmark","rawObjectClass":"TOPMAR","sourceProperties":{"RCID":67423261,"PRIM":1,"GRUP":2,"OBJL":144,"RVER":1,"AGEN":7979,"FIDN":67423261,"FIDS":1,"LNAM":"1F2B0404CC1D0001","COLOUR":["3"],"TOPSHP":5,"SCAMIN":200000,"SORIND":"NL,1R,reprt,DZD-BAS-2011/19","sourceCellId":"1R7688RI","sourceChecksum":"c69828df1cdcb29158d0e6130e566f8fedb849e88f48e97e414abe177db141d8","rawObjectClass":"TOPMAR","sourceStableId":"1F2B0404CC1D0001"},"sourceKind":"official","official":true,"sourceCellId":"1R7688RI","sourceStableId":"1F2B0404CC1D0001","pipelineFeatureId":"1R7688RI/TOPMAR/67423261","provenance":{"cellId":"1R7688RI","checksum":"c69828df1cdcb29158d0e6130e566f8fedb849e88f48e97e414abe177db141d8","readerVersion":"GDAL 3.2.2","processedAt":"2026-08-11T13:43:44.753Z"},"associationRefsVerifiedInGdalOutput":false}},{"type":"Feature","geometry":{"type":"Point","coordinates":[3.858705,51.6426066]},"properties":{"dolphinKind":"topmark","rawObjectClass":"TOPMAR","sourceProperties":{"RCID":476861635,"PRIM":1,"GRUP":2,"OBJL":144,"RVER":1,"AGEN":7979,"FIDN":476861635,"FIDS":1,"LNAM":"1F2B1C6C54C30001","COLOUR":["3"],"TOPSHP":5,"SCAMIN":200000,"SORDAT":"20220915","SORIND":"NL,1R,Reprt, MD 466-22","sourceCellId":"1R7688RI","sourceChecksum":"c69828df1cdcb29158d0e6130e566f8fedb849e88f48e97e414abe177db141d8","rawObjectClass":"TOPMAR","sourceStableId":"1F2B1C6C54C30001"},"sourceKind":"official","official":true,"sourceCellId":"1R7688RI","sourceStableId":"1F2B1C6C54C30001","pipelineFeatureId":"1R7688RI/TOPMAR/476861635","provenance":{"cellId":"1R7688RI","checksum":"c69828df1cdcb29158d0e6130e566f8fedb849e88f48e97e414abe177db141d8","readerVersion":"GDAL 3.2.2","processedAt":"2026-08-11T13:43:44.753Z"},"associationRefsVerifiedInGdalOutput":false}},{"type":"Feature","geometry":{"type":"Point","coordinates":[3.8320383,51.6358567]},"properties":{"dolphinKind":"topmark","rawObjectClass":"TOPMAR","sourceProperties":{"RCID":476871986,"PRIM":1,"GRUP":2,"OBJL":144,"RVER":1,"AGEN":7979,"FIDN":476871986,"FIDS":1,"LNAM":"1F2B1C6C7D320001","COLOUR":["4"],"TOPSHP":1,"SCAMIN":200000,"SORDAT":"20230816","SORIND":"NL,1R,Reprt,NDB-verbetering","sourceCellId":"1R7688RI","sourceChecksum":"c69828df1cdcb29158d0e6130e566f8fedb849e88f48e97e414abe177db141d8","rawObjectClass":"TOPMAR","sourceStableId":"1F2B1C6C7D320001"},"sourceKind":"official","official":true,"sourceCellId":"1R7688RI","sourceStableId":"1F2B1C6C7D320001","pipelineFeatureId":"1R7688RI/TOPMAR/476871986","provenance":{"cellId":"1R7688RI","checksum":"c69828df1cdcb29158d0e6130e566f8fedb849e88f48e97e414abe177db141d8","readerVersion":"GDAL 3.2.2","processedAt":"2026-08-11T13:43:44.753Z"},"associationRefsVerifiedInGdalOutput":false}},{"type":"Feature","geometry":{"type":"Point","coordinates":[3.769555,51.6409933]},"properties":{"dolphinKind":"topmark","rawObjectClass":"TOPMAR","sourceProperties":{"RCID":476893491,"PRIM":1,"GRUP":2,"OBJL":144,"RVER":1,"AGEN":7979,"FIDN":476893491,"FIDS":1,"LNAM":"1F2B1C6CD1330001","COLOUR":["3"],"TOPSHP":5,"SCAMIN":200000,"sourceCellId":"1R7688RI","sourceChecksum":"c69828df1cdcb29158d0e6130e566f8fedb849e88f48e97e414abe177db141d8","rawObjectClass":"TOPMAR","sourceStableId":"1F2B1C6CD1330001"},"sourceKind":"official","official":true,"sourceCellId":"1R7688RI","sourceStableId":"1F2B1C6CD1330001","pipelineFeatureId":"1R7688RI/TOPMAR/476893491","provenance":{"cellId":"1R7688RI","checksum":"c69828df1cdcb29158d0e6130e566f8fedb849e88f48e97e414abe177db141d8","readerVersion":"GDAL 3.2.2","processedAt":"2026-08-11T13:43:44.753Z"},"associationRefsVerifiedInGdalOutput":false}},{"type":"Feature","geometry":{"type":"Point","coordinates":[3.8877333,51.6338167]},"properties":{"dolphinKind":"topmark","rawObjectClass":"TOPMAR","sourceProperties":{"RCID":1278389134,"PRIM":1,"GRUP":2,"OBJL":144,"RVER":1,"AGEN":7979,"FIDN":1278389134,"FIDS":1,"LNAM":"1F2B4C32AB8E0001","COLOUR":["6"],"TOPSHP":7,"SCAMIN":200000,"sourceCellId":"1R7688RI","sourceChecksum":"c69828df1cdcb29158d0e6130e566f8fedb849e88f48e97e414abe177db141d8","rawObjectClass":"TOPMAR","sourceStableId":"1F2B4C32AB8E0001"},"sourceKind":"official","official":true,"sourceCellId":"1R7688RI","sourceStableId":"1F2B4C32AB8E0001","pipelineFeatureId":"1R7688RI/TOPMAR/1278389134","provenance":{"cellId":"1R7688RI","checksum":"c69828df1cdcb29158d0e6130e566f8fedb849e88f48e97e414abe177db141d8","readerVersion":"GDAL 3.2.2","processedAt":"2026-08-11T13:43:44.753Z"},"associationRefsVerifiedInGdalOutput":false}}]}