{"type":"FeatureCollection","features":[{"type":"Feature","geometry":{"type":"LineString","coordinates":[[3.3612627,51.375],[3.3611636,51.3749593],[3.3611227,51.3749444],[3.3610648,51.3749235],[3.3609786,51.374898],[3.3608487,51.3748703],[3.3608347,51.3748679],[3.3608217,51.3748623],[3.3606908,51.3748306],[3.3605484,51.3747813],[3.3605467,51.374781],[3.3605451,51.3747804],[3.3604029,51.3747602],[3.3603401,51.3747428],[3.3602588,51.374706],[3.3602141,51.3746925],[3.3601147,51.3746577],[3.3600388,51.3746455],[3.3599708,51.3746303],[3.3599026,51.3746152]]},"properties":{"rawObjectClass":"DEPCNT","VALDCO":6.5,"depthDatum":"Approximate LAT","depthDatumCode":42,"depthDatumStatus":"VERIFIED_FROM_OFFICIAL_DOCUMENTATION","verticalDatum":"Local Datum","verticalDatumCode":24,"napIdentityStatus":"UNVERIFIED","sourceKind":"official","sourceCellId":"1R75K7RI","sourceStableId":"1F2B6A5E355B7534","sourceChecksum":"111af78d456687b11c45a385a8ef53d1309c339e1170d49b90ce9c8518e9a32b","pipelineFeatureId":"1R75K7RI/DEPCNT/1283078449","provenance":{"cellId":"1R75K7RI","checksum":"111af78d456687b11c45a385a8ef53d1309c339e1170d49b90ce9c8518e9a32b","readerVersion":"GDAL 3.2.2","processedAt":"2026-08-11T18:29:20.995Z"},"sourceProperties":{"RCID":1283078449,"PRIM":2,"GRUP":2,"OBJL":43,"RVER":1,"AGEN":7979,"FIDN":1784558939,"FIDS":30004,"LNAM":"1F2B6A5E355B7534","VALDCO":6.5,"SCAMIN":15000,"sourceCellId":"1R75K7RI","sourceChecksum":"111af78d456687b11c45a385a8ef53d1309c339e1170d49b90ce9c8518e9a32b","rawObjectClass":"DEPCNT","sourceStableId":"1F2B6A5E355B7534"}}},{"type":"Feature","geometry":{"type":"LineString","coordinates":[[3.3625756,51.375],[3.3625598,51.3749938],[3.3624622,51.3749553],[3.3624157,51.3749412],[3.3623579,51.3749195],[3.3622717,51.3748957],[3.3622018,51.3748662],[3.3621276,51.374841],[3.3619875,51.3747769],[3.3619834,51.3747754],[3.3619789,51.3747742],[3.3618396,51.3747561],[3.3617735,51.3747363],[3.3616957,51.3747265],[3.3615519,51.3746885],[3.3615517,51.3746885],[3.3614297,51.3747022],[3.3614081,51.3746961],[3.361377,51.3746889],[3.361264,51.3746515],[3.3611597,51.3746244],[3.36112,51.3746074],[3.3610777,51.3745999],[3.3609761,51.3745793],[3.360921,51.374566],[3.3608321,51.3745349],[3.3607737,51.3745109],[3.3606879,51.3744679],[3.3605721,51.3744392],[3.3605439,51.3744307],[3.3605151,51.3744218],[3.3604,51.3743896],[3.3603448,51.3743744]]},"properties":{"rawObjectClass":"DEPCNT","VALDCO":6,"depthDatum":"Approximate LAT","depthDatumCode":42,"depthDatumStatus":"VERIFIED_FROM_OFFICIAL_DOCUMENTATION","verticalDatum":"Local Datum","verticalDatumCode":24,"napIdentityStatus":"UNVERIFIED","sourceKind":"official","sourceCellId":"1R75K7RI","sourceStableId":"1F2B6A5E355B7535","sourceChecksum":"111af78d456687b11c45a385a8ef53d1309c339e1170d49b90ce9c8518e9a32b","pipelineFeatureId":"1R75K7RI/DEPCNT/1283078452","provenance":{"cellId":"1R75K7RI","checksum":"111af78d456687b11c45a385a8ef53d1309c339e1170d49b90ce9c8518e9a32b","readerVersion":"GDAL 3.2.2","processedAt":"2026-08-11T18:29:20.995Z"},"sourceProperties":{"RCID":1283078452,"PRIM":2,"GRUP":2,"OBJL":43,"RVER":1,"AGEN":7979,"FIDN":1784558939,"FIDS":30005,"LNAM":"1F2B6A5E355B7535","VALDCO":6,"SCAMIN":15000,"sourceCellId":"1R75K7RI","sourceChecksum":"111af78d456687b11c45a385a8ef53d1309c339e1170d49b90ce9c8518e9a32b","rawObjectClass":"DEPCNT","sourceStableId":"1F2B6A5E355B7535"}}},{"type":"Feature","geometry":{"type":"LineString","coordinates":[[3.3631316,51.375],[3.3630029,51.3749614],[3.3629905,51.3749564],[3.3629811,51.3749537],[3.3628464,51.3749013],[3.3627186,51.3748646],[3.3627024,51.3748593],[3.3626846,51.3748535],[3.3625583,51.3748017],[3.3624541,51.3747755],[3.3624143,51.3747612],[3.3623658,51.3747454],[3.3622702,51.3747032],[3.3622182,51.3746863],[3.3621261,51.3746496],[3.3620301,51.3746269],[3.3619821,51.3746091],[3.3619482,51.3745972],[3.3618379,51.3745485],[3.3616949,51.3745081],[3.3616939,51.3745077],[3.361693,51.3745075],[3.3615499,51.374459],[3.3614446,51.3744189],[3.3614057,51.3744017],[3.3613631,51.3743925],[3.3612618,51.3743673],[3.3611346,51.3743299],[3.3611178,51.3743243],[3.3610907,51.3743132],[3.3609737,51.3742685],[3.3608789,51.3742408],[3.3607978,51.3742212],[3.3606858,51.3742],[3.360673,51.3741957]]},"properties":{"rawObjectClass":"DEPCNT","VALDCO":5.5,"depthDatum":"Approximate LAT","depthDatumCode":42,"depthDatumStatus":"VERIFIED_FROM_OFFICIAL_DOCUMENTATION","verticalDatum":"Local Datum","verticalDatumCode":24,"napIdentityStatus":"UNVERIFIED","sourceKind":"official","sourceCellId":"1R75K7RI","sourceStableId":"1F2B6A5E355B7536","sourceChecksum":"111af78d456687b11c45a385a8ef53d1309c339e1170d49b90ce9c8518e9a32b","pipelineFeatureId":"1R75K7RI/DEPCNT/1283078454","provenance":{"cellId":"1R75K7RI","checksum":"111af78d456687b11c45a385a8ef53d1309c339e1170d49b90ce9c8518e9a32b","readerVersion":"GDAL 3.2.2","processedAt":"2026-08-11T18:29:20.995Z"},"sourceProperties":{"RCID":1283078454,"PRIM":2,"GRUP":2,"OBJL":43,"RVER":1,"AGEN":7979,"FIDN":1784558939,"FIDS":30006,"LNAM":"1F2B6A5E355B7536","VALDCO":5.5,"SCAMIN":15000,"sourceCellId":"1R75K7RI","sourceChecksum":"111af78d456687b11c45a385a8ef53d1309c339e1170d49b90ce9c8518e9a32b","rawObjectClass":"DEPCNT","sourceStableId":"1F2B6A5E355B7536"}}},{"type":"Feature","geometry":{"type":"LineString","coordinates":[[3.363803,51.375],[3.3637139,51.3749545],[3.3637089,51.3749519],[3.3637071,51.3749514],[3.3635649,51.3749173],[3.3635012,51.3749122],[3.363421,51.3748859],[3.3633589,51.3748626],[3.3632768,51.3748174],[3.3631615,51.3747733],[3.3631326,51.3747556],[3.3631066,51.3747572],[3.3629887,51.3747257],[3.3628469,51.3746843],[3.3628447,51.3746832],[3.36284,51.3746814],[3.3627006,51.3746249],[3.3626187,51.3745951],[3.3625565,51.3745762],[3.362511,51.374567],[3.3624125,51.3745383],[3.3623199,51.3745061],[3.3622684,51.3744819],[3.3622025,51.3744653],[3.3621244,51.3744383],[3.3620716,51.374417],[3.3619803,51.3743849],[3.3618387,51.3743278],[3.3618362,51.3743264],[3.361832,51.3743252],[3.3616921,51.3742809],[3.3615723,51.3742387],[3.3615481,51.3742293],[3.3614794,51.3741961],[3.3614039,51.3741626],[3.3613484,51.3741494],[3.3612599,51.3741299],[3.3612102,51.3741188],[3.361116,51.37409],[3.3610353,51.3740605],[3.3609866,51.374025]]},"properties":{"rawObjectClass":"DEPCNT","VALDCO":5,"depthDatum":"Approximate LAT","depthDatumCode":42,"depthDatumStatus":"VERIFIED_FROM_OFFICIAL_DOCUMENTATION","verticalDatum":"Local Datum","verticalDatumCode":24,"napIdentityStatus":"UNVERIFIED","sourceKind":"official","sourceCellId":"1R75K7RI","sourceStableId":"1F2B6A5E355B7537","sourceChecksum":"111af78d456687b11c45a385a8ef53d1309c339e1170d49b90ce9c8518e9a32b","pipelineFeatureId":"1R75K7RI/DEPCNT/1283078457","provenance":{"cellId":"1R75K7RI","checksum":"111af78d456687b11c45a385a8ef53d1309c339e1170d49b90ce9c8518e9a32b","readerVersion":"GDAL 3.2.2","processedAt":"2026-08-11T18:29:20.995Z"},"sourceProperties":{"RCID":1283078457,"PRIM":2,"GRUP":2,"OBJL":43,"RVER":1,"AGEN":7979,"FIDN":1784558939,"FIDS":30007,"LNAM":"1F2B6A5E355B7537","VALDCO":5,"SCAMIN":300000,"sourceCellId":"1R75K7RI","sourceChecksum":"111af78d456687b11c45a385a8ef53d1309c339e1170d49b90ce9c8518e9a32b","rawObjectClass":"DEPCNT","sourceStableId":"1F2B6A5E355B7537"}}},{"type":"Feature","geometry":{"type":"LineString","coordinates":[[3.3647332,51.375],[3.3647149,51.3749937],[3.3645827,51.3749487],[3.3645708,51.3749447],[3.3645539,51.3749382],[3.3644267,51.3748917],[3.3642827,51.3748444],[3.3642234,51.3748229],[3.3641386,51.3747907],[3.3640793,51.3747704],[3.3639945,51.3747395],[3.3638883,51.3747047],[3.3638505,51.3746917],[3.3638228,51.3746813],[3.3637063,51.3746347],[3.363567,51.3745951],[3.3635623,51.3745936],[3.3635576,51.3745922],[3.3634183,51.3745432],[3.3633025,51.3745031],[3.3632742,51.3744934],[3.3632318,51.3744768],[3.3631301,51.3744355],[3.3630537,51.3744139],[3.3629861,51.3743932],[3.3629096,51.3743666],[3.362842,51.3743391],[3.3627954,51.3743248],[3.3626979,51.3742891],[3.3625783,51.3742508],[3.3625538,51.3742404],[3.3625361,51.3742357],[3.3624098,51.3741875],[3.362289,51.3741465],[3.3622657,51.3741381],[3.3622372,51.3741289],[3.3621216,51.3740817],[3.3620154,51.3740575],[3.3619776,51.3740444],[3.3619367,51.3740322],[3.3618335,51.3739847],[3.3617794,51.3739683],[3.3616894,51.37393],[3.3615775,51.373899],[3.3615454,51.3738873],[3.3615264,51.3738791],[3.3614012,51.3738254],[3.3613699,51.3738163]]},"properties":{"rawObjectClass":"DEPCNT","VALDCO":4.5,"depthDatum":"Approximate LAT","depthDatumCode":42,"depthDatumStatus":"VERIFIED_FROM_OFFICIAL_DOCUMENTATION","verticalDatum":"Local Datum","verticalDatumCode":24,"napIdentityStatus":"UNVERIFIED","sourceKind":"official","sourceCellId":"1R75K7RI","sourceStableId":"1F2B6A5E355B7538","sourceChecksum":"111af78d456687b11c45a385a8ef53d1309c339e1170d49b90ce9c8518e9a32b","pipelineFeatureId":"1R75K7RI/DEPCNT/1283078459","provenance":{"cellId":"1R75K7RI","checksum":"111af78d456687b11c45a385a8ef53d1309c339e1170d49b90ce9c8518e9a32b","readerVersion":"GDAL 3.2.2","processedAt":"2026-08-11T18:29:20.995Z"},"sourceProperties":{"RCID":1283078459,"PRIM":2,"GRUP":2,"OBJL":43,"RVER":1,"AGEN":7979,"FIDN":1784558939,"FIDS":30008,"LNAM":"1F2B6A5E355B7538","VALDCO":4.5,"SCAMIN":15000,"sourceCellId":"1R75K7RI","sourceChecksum":"111af78d456687b11c45a385a8ef53d1309c339e1170d49b90ce9c8518e9a32b","rawObjectClass":"DEPCNT","sourceStableId":"1F2B6A5E355B7538"}}},{"type":"Feature","geometry":{"type":"LineString","coordinates":[[3.3652151,51.375],[3.3651457,51.3749642],[3.3650962,51.3749471],[3.3650015,51.374902],[3.3648844,51.3748746],[3.3648575,51.3748636],[3.3648431,51.374858],[3.3647133,51.3747877],[3.36466,51.3747686],[3.3645691,51.3747229],[3.3644447,51.3746916],[3.3644251,51.3746839],[3.3644126,51.3746795],[3.3642808,51.3746113],[3.3642304,51.3745901],[3.3641367,51.3745465],[3.3640069,51.3745098],[3.3639927,51.3745045],[3.3639806,51.374501],[3.3638485,51.3744371],[3.3637995,51.3744116],[3.3637042,51.3743678],[3.3635635,51.3743245],[3.3635602,51.3743234],[3.3635557,51.3743225],[3.3634161,51.3742669],[3.3633446,51.3742332],[3.3632719,51.3742053],[3.3631338,51.3741439],[3.3631277,51.3741406],[3.3631133,51.374135],[3.3629836,51.374084],[3.3629205,51.3740547],[3.3628395,51.3740239],[3.362707,51.3739654],[3.3626953,51.3739592],[3.3626676,51.3739483],[3.3625512,51.3739],[3.3625018,51.3738761],[3.362407,51.3738407],[3.3622786,51.3737869],[3.3622628,51.3737762],[3.362231,51.3737671],[3.3621188,51.3737249],[3.3620635,51.3736976],[3.3619746,51.3736605],[3.3618467,51.3736184],[3.3618306,51.373616],[3.361804,51.3736085],[3.3617672,51.3736]]},"properties":{"rawObjectClass":"DEPCNT","VALDCO":4,"depthDatum":"Approximate LAT","depthDatumCode":42,"depthDatumStatus":"VERIFIED_FROM_OFFICIAL_DOCUMENTATION","verticalDatum":"Local Datum","verticalDatumCode":24,"napIdentityStatus":"UNVERIFIED","sourceKind":"official","sourceCellId":"1R75K7RI","sourceStableId":"1F2B6A5E355B7539","sourceChecksum":"111af78d456687b11c45a385a8ef53d1309c339e1170d49b90ce9c8518e9a32b","pipelineFeatureId":"1R75K7RI/DEPCNT/1283078461","provenance":{"cellId":"1R75K7RI","checksum":"111af78d456687b11c45a385a8ef53d1309c339e1170d49b90ce9c8518e9a32b","readerVersion":"GDAL 3.2.2","processedAt":"2026-08-11T18:29:20.995Z"},"sourceProperties":{"RCID":1283078461,"PRIM":2,"GRUP":2,"OBJL":43,"RVER":1,"AGEN":7979,"FIDN":1784558939,"FIDS":30009,"LNAM":"1F2B6A5E355B7539","VALDCO":4,"SCAMIN":300000,"sourceCellId":"1R75K7RI","sourceChecksum":"111af78d456687b11c45a385a8ef53d1309c339e1170d49b90ce9c8518e9a32b","rawObjectClass":"DEPCNT","sourceStableId":"1F2B6A5E355B7539"}}},{"type":"Feature","geometry":{"type":"LineString","coordinates":[[3.3658246,51.375],[3.3657774,51.3749806],[3.3657203,51.3749595],[3.3656846,51.3749453],[3.3655762,51.3749062],[3.3654636,51.374856],[3.3654321,51.3748437],[3.3653698,51.3748175],[3.3652879,51.3747863],[3.36524,51.3747668],[3.3651438,51.3747326],[3.3650176,51.3746776],[3.3649997,51.3746704],[3.3649625,51.3746546],[3.3648556,51.3746128],[3.3648041,51.3745883],[3.3647114,51.3745481],[3.3646049,51.374499],[3.3645672,51.3744823],[3.364436,51.3744178],[3.3644189,51.3744097],[3.3642787,51.3743459],[3.3642257,51.3743204],[3.3641346,51.3742817],[3.3640221,51.3742311],[3.3639903,51.3742134],[3.3638777,51.3741613],[3.3638368,51.3741417],[3.363702,51.3740823],[3.3636343,51.3740525],[3.3635577,51.3740055],[3.3634523,51.3739631],[3.3634135,51.3739395],[3.3633032,51.3738947],[3.3632693,51.3738775],[3.3632615,51.3738738],[3.363125,51.3737991],[3.3630882,51.3737844],[3.3629807,51.3737137],[3.3629391,51.3736949],[3.3628365,51.3736523],[3.3627455,51.3736056],[3.3626923,51.3735833],[3.3625824,51.3735162],[3.362548,51.3735021],[3.3624438,51.3734516],[3.3624038,51.3734356],[3.3623886,51.3734269],[3.3622596,51.3733692],[3.3622254,51.3733506]]},"properties":{"rawObjectClass":"DEPCNT","VALDCO":3.5,"depthDatum":"Approximate LAT","depthDatumCode":42,"depthDatumStatus":"VERIFIED_FROM_OFFICIAL_DOCUMENTATION","verticalDatum":"Local Datum","verticalDatumCode":24,"napIdentityStatus":"UNVERIFIED","sourceKind":"official","sourceCellId":"1R75K7RI","sourceStableId":"1F2B6A5E355B753A","sourceChecksum":"111af78d456687b11c45a385a8ef53d1309c339e1170d49b90ce9c8518e9a32b","pipelineFeatureId":"1R75K7RI/DEPCNT/1283078463","provenance":{"cellId":"1R75K7RI","checksum":"111af78d456687b11c45a385a8ef53d1309c339e1170d49b90ce9c8518e9a32b","readerVersion":"GDAL 3.2.2","processedAt":"2026-08-11T18:29:20.995Z"},"sourceProperties":{"RCID":1283078463,"PRIM":2,"GRUP":2,"OBJL":43,"RVER":1,"AGEN":7979,"FIDN":1784558939,"FIDS":30010,"LNAM":"1F2B6A5E355B753A","VALDCO":3.5,"SCAMIN":15000,"sourceCellId":"1R75K7RI","sourceChecksum":"111af78d456687b11c45a385a8ef53d1309c339e1170d49b90ce9c8518e9a32b","rawObjectClass":"DEPCNT","sourceStableId":"1F2B6A5E355B753A"}}},{"type":"Feature","geometry":{"type":"LineString","coordinates":[[3.3664332,51.375],[3.3663045,51.3749433],[3.3662949,51.3749385],[3.3662816,51.3749351],[3.3661509,51.3748999],[3.3660366,51.3748543],[3.3660068,51.3748442],[3.3659357,51.3748103],[3.3658626,51.3747827],[3.3658298,51.374765],[3.3657185,51.3747308],[3.365579,51.3746758],[3.3655744,51.3746742],[3.3655655,51.3746703],[3.3654303,51.3746229],[3.3653651,51.3745866],[3.3652861,51.3745578],[3.3651517,51.3745034],[3.365142,51.3745016],[3.3651336,51.3744974],[3.364998,51.3744546],[3.3649162,51.3744081],[3.3648537,51.3743843],[3.3647134,51.3743212],[3.3647096,51.3743203],[3.3647073,51.3743189],[3.3645654,51.3742639],[3.3645056,51.3742296],[3.3644212,51.3741913],[3.3643127,51.3741403],[3.364277,51.3741225],[3.364187,51.3740845],[3.3641328,51.3740633],[3.3641072,51.374051],[3.3639886,51.3739981],[3.3639174,51.3739617],[3.3638444,51.3739255],[3.3637161,51.3738724],[3.3637002,51.3738651],[3.3636599,51.3738474],[3.3635561,51.3738018],[3.3635135,51.3737831],[3.3634119,51.3737353],[3.3633277,51.3736937],[3.3632676,51.3736639],[3.3631409,51.3736044],[3.3631234,51.3735968],[3.3630676,51.3735698],[3.3629792,51.3735287],[3.3629514,51.3735151],[3.362835,51.3734603],[3.3627649,51.3734257],[3.3626908,51.373393],[3.3625466,51.3733257],[3.3624669,51.373287],[3.3624024,51.3732567],[3.3624,51.3732555]]},"properties":{"rawObjectClass":"DEPCNT","VALDCO":3,"depthDatum":"Approximate LAT","depthDatumCode":42,"depthDatumStatus":"VERIFIED_FROM_OFFICIAL_DOCUMENTATION","verticalDatum":"Local Datum","verticalDatumCode":24,"napIdentityStatus":"UNVERIFIED","sourceKind":"official","sourceCellId":"1R75K7RI","sourceStableId":"1F2B6A5E355B753B","sourceChecksum":"111af78d456687b11c45a385a8ef53d1309c339e1170d49b90ce9c8518e9a32b","pipelineFeatureId":"1R75K7RI/DEPCNT/1283078464","provenance":{"cellId":"1R75K7RI","checksum":"111af78d456687b11c45a385a8ef53d1309c339e1170d49b90ce9c8518e9a32b","readerVersion":"GDAL 3.2.2","processedAt":"2026-08-11T18:29:20.995Z"},"sourceProperties":{"RCID":1283078464,"PRIM":2,"GRUP":2,"OBJL":43,"RVER":1,"AGEN":7979,"FIDN":1784558939,"FIDS":30011,"LNAM":"1F2B6A5E355B753B","VALDCO":3,"SCAMIN":50000,"sourceCellId":"1R75K7RI","sourceChecksum":"111af78d456687b11c45a385a8ef53d1309c339e1170d49b90ce9c8518e9a32b","rawObjectClass":"DEPCNT","sourceStableId":"1F2B6A5E355B753B"}}},{"type":"Feature","geometry":{"type":"LineString","coordinates":[[3.3669607,51.375],[3.3668052,51.3749418],[3.3667257,51.3749109],[3.3666213,51.3748772],[3.3665816,51.3748659],[3.3665516,51.3748526],[3.3664375,51.3748101],[3.3663053,51.3747635],[3.3662934,51.3747591],[3.3662779,51.3747539],[3.3661494,51.3747089],[3.3660511,51.3746744],[3.3660053,51.3746594],[3.3659405,51.3746343],[3.3658612,51.3746049],[3.3658049,51.3745852],[3.3657171,51.3745555],[3.3656025,51.3745143],[3.3655731,51.3745057],[3.3655519,51.3744961],[3.365429,51.3744516],[3.3653043,51.3744069],[3.3652849,51.3744],[3.3652579,51.3743902],[3.3651408,51.3743514],[3.3650572,51.3743178],[3.3649967,51.3742961],[3.3649134,51.3742662],[3.3648526,51.3742451],[3.3648169,51.3742286],[3.3647084,51.3741783],[3.3646275,51.3741393],[3.3645642,51.374111],[3.3644346,51.37405],[3.36442,51.3740433],[3.3643735,51.3740212],[3.3642758,51.3739756],[3.3642434,51.3739606],[3.3641316,51.3739108],[3.3640476,51.3738713],[3.3639874,51.3738447],[3.3638571,51.373782],[3.3638432,51.3737759],[3.3638012,51.373756],[3.363699,51.3737101],[3.363662,51.3736927],[3.3635548,51.3736455],[3.3634669,51.3736034],[3.3634106,51.3735795],[3.3632738,51.3735141],[3.3632463,51.3735016],[3.3631223,51.3734487],[3.3630728,51.3734248],[3.3629781,51.3733828],[3.3628754,51.3733355],[3.3628339,51.3733178],[3.3627258,51.3732685],[3.3626897,51.3732529],[3.3626759,51.3732461],[3.3625455,51.3731876],[3.3625343,51.3731824]]},"properties":{"rawObjectClass":"DEPCNT","VALDCO":2.5,"depthDatum":"Approximate LAT","depthDatumCode":42,"depthDatumStatus":"VERIFIED_FROM_OFFICIAL_DOCUMENTATION","verticalDatum":"Local Datum","verticalDatumCode":24,"napIdentityStatus":"UNVERIFIED","sourceKind":"official","sourceCellId":"1R75K7RI","sourceStableId":"1F2B6A5E355B753C","sourceChecksum":"111af78d456687b11c45a385a8ef53d1309c339e1170d49b90ce9c8518e9a32b","pipelineFeatureId":"1R75K7RI/DEPCNT/1283078465","provenance":{"cellId":"1R75K7RI","checksum":"111af78d456687b11c45a385a8ef53d1309c339e1170d49b90ce9c8518e9a32b","readerVersion":"GDAL 3.2.2","processedAt":"2026-08-11T18:29:20.995Z"},"sourceProperties":{"RCID":1283078465,"PRIM":2,"GRUP":2,"OBJL":43,"RVER":1,"AGEN":7979,"FIDN":1784558939,"FIDS":30012,"LNAM":"1F2B6A5E355B753C","VALDCO":2.5,"SCAMIN":15000,"sourceCellId":"1R75K7RI","sourceChecksum":"111af78d456687b11c45a385a8ef53d1309c339e1170d49b90ce9c8518e9a32b","rawObjectClass":"DEPCNT","sourceStableId":"1F2B6A5E355B753C"}}},{"type":"Feature","geometry":{"type":"LineString","coordinates":[[3.3675037,51.375],[3.3674446,51.374983],[3.3673156,51.3749402],[3.3672818,51.3749286],[3.3671565,51.3748886],[3.3670292,51.3748511],[3.3670125,51.3748466],[3.3669942,51.3748399],[3.3668684,51.3747974],[3.3667769,51.374762],[3.3667243,51.3747441],[3.3666757,51.374732],[3.3665804,51.3747083],[3.366484,51.374673],[3.3664363,51.3746555],[3.3663599,51.3746258],[3.3662922,51.3745983],[3.3662397,51.3745839],[3.3661482,51.374558],[3.3660701,51.3745357],[3.3660041,51.3745143],[3.3659559,51.3744948],[3.36586,51.3744552],[3.3657365,51.3744184],[3.365716,51.3744119],[3.3656985,51.3744057],[3.3655719,51.3743624],[3.3654518,51.3743166],[3.3654278,51.3743071],[3.3653968,51.3742974],[3.3652838,51.374259],[3.3651958,51.3742274],[3.3651397,51.3742073],[3.3650621,51.3741794],[3.3649956,51.3741561],[3.3649496,51.3741383],[3.3648515,51.3741035],[3.364731,51.374049],[3.3647073,51.374038],[3.3646489,51.3740129],[3.3645632,51.3739764],[3.3645285,51.3739598],[3.3644189,51.3739088],[3.3643331,51.3738704],[3.3642748,51.373845],[3.3641306,51.3737795],[3.3641209,51.3737751],[3.3639864,51.3737152],[3.3639344,51.3736918],[3.3638422,51.3736526],[3.363698,51.3735866],[3.3635898,51.3735355],[3.3635538,51.3735188],[3.3635408,51.3735132],[3.3634097,51.3734566],[3.3633366,51.3734239],[3.3632655,51.3733945],[3.3631214,51.3733349],[3.3629772,51.3732662],[3.3629289,51.3732454],[3.362833,51.3732049],[3.36272,51.3731561],[3.3626888,51.3731429],[3.3626442,51.3731226]]},"properties":{"rawObjectClass":"DEPCNT","VALDCO":2,"depthDatum":"Approximate LAT","depthDatumCode":42,"depthDatumStatus":"VERIFIED_FROM_OFFICIAL_DOCUMENTATION","verticalDatum":"Local Datum","verticalDatumCode":24,"napIdentityStatus":"UNVERIFIED","sourceKind":"official","sourceCellId":"1R75K7RI","sourceStableId":"1F2B6A5E355B753D","sourceChecksum":"111af78d456687b11c45a385a8ef53d1309c339e1170d49b90ce9c8518e9a32b","pipelineFeatureId":"1R75K7RI/DEPCNT/1283078466","provenance":{"cellId":"1R75K7RI","checksum":"111af78d456687b11c45a385a8ef53d1309c339e1170d49b90ce9c8518e9a32b","readerVersion":"GDAL 3.2.2","processedAt":"2026-08-11T18:29:20.995Z"},"sourceProperties":{"RCID":1283078466,"PRIM":2,"GRUP":2,"OBJL":43,"RVER":1,"AGEN":7979,"FIDN":1784558939,"FIDS":30013,"LNAM":"1F2B6A5E355B753D","VALDCO":2,"SCAMIN":300000,"sourceCellId":"1R75K7RI","sourceChecksum":"111af78d456687b11c45a385a8ef53d1309c339e1170d49b90ce9c8518e9a32b","rawObjectClass":"DEPCNT","sourceStableId":"1F2B6A5E355B753D"}}},{"type":"Feature","geometry":{"type":"LineString","coordinates":[[3.3679022,51.375],[3.3678757,51.3749872],[3.3677828,51.3749387],[3.3677314,51.3749127],[3.367659,51.3748938],[3.3675874,51.3748752],[3.3674824,51.3748497],[3.3674435,51.3748447],[3.3673414,51.3747866],[3.3672992,51.3747655],[3.3672816,51.3747604],[3.3671552,51.3747261],[3.3670154,51.3746714],[3.3670111,51.3746699],[3.3670055,51.3746679],[3.3668671,51.3746313],[3.3667601,51.3746053],[3.3667231,51.3745924],[3.3666862,51.3745825],[3.366579,51.3745386],[3.3664656,51.3745123],[3.3664351,51.3745014],[3.366414,51.3744934],[3.366291,51.3744508],[3.3661541,51.3744087],[3.366147,51.3744068],[3.3661387,51.3744043],[3.3660029,51.3743599],[3.3658758,51.3743152],[3.3658588,51.3743097],[3.3658439,51.374306],[3.3657148,51.3742689],[3.3655834,51.3742262],[3.3655708,51.3742215],[3.365555,51.3742164],[3.3654267,51.3741711],[3.365325,51.3741371],[3.3652827,51.3741242],[3.365239,51.3741101],[3.3651387,51.3740796],[3.3650511,51.374048],[3.3649946,51.3740289],[3.3649205,51.3740022],[3.3648505,51.3739781],[3.3648078,51.3739589],[3.3647063,51.3739158],[3.364602,51.3738696],[3.3645622,51.3738524],[3.364452,51.3738014],[3.364418,51.3737857],[3.3644052,51.3737803],[3.3642738,51.3737257],[3.3641964,51.373691],[3.3641297,51.3736626],[3.3639964,51.3736017],[3.3639855,51.373596],[3.3639616,51.373587],[3.3638413,51.3735378],[3.3637861,51.3735125],[3.3636971,51.3734729],[3.363589,51.3734232],[3.3635529,51.3734029],[3.3634655,51.373369],[3.3634088,51.3733444],[3.3633838,51.3733339],[3.3632647,51.373286],[3.3631681,51.3732446],[3.3631205,51.3732284],[3.3629942,51.3731664],[3.3629763,51.3731583],[3.3629693,51.3731553],[3.3628322,51.3731034],[3.362748,51.3730661],[3.3627479,51.3730661]]},"properties":{"rawObjectClass":"DEPCNT","VALDCO":1.5,"depthDatum":"Approximate LAT","depthDatumCode":42,"depthDatumStatus":"VERIFIED_FROM_OFFICIAL_DOCUMENTATION","verticalDatum":"Local Datum","verticalDatumCode":24,"napIdentityStatus":"UNVERIFIED","sourceKind":"official","sourceCellId":"1R75K7RI","sourceStableId":"1F2B6A5E355B753E","sourceChecksum":"111af78d456687b11c45a385a8ef53d1309c339e1170d49b90ce9c8518e9a32b","pipelineFeatureId":"1R75K7RI/DEPCNT/1283078467","provenance":{"cellId":"1R75K7RI","checksum":"111af78d456687b11c45a385a8ef53d1309c339e1170d49b90ce9c8518e9a32b","readerVersion":"GDAL 3.2.2","processedAt":"2026-08-11T18:29:20.995Z"},"sourceProperties":{"RCID":1283078467,"PRIM":2,"GRUP":2,"OBJL":43,"RVER":1,"AGEN":7979,"FIDN":1784558939,"FIDS":30014,"LNAM":"1F2B6A5E355B753E","VALDCO":1.5,"SCAMIN":15000,"sourceCellId":"1R75K7RI","sourceChecksum":"111af78d456687b11c45a385a8ef53d1309c339e1170d49b90ce9c8518e9a32b","rawObjectClass":"DEPCNT","sourceStableId":"1F2B6A5E355B753E"}}},{"type":"Feature","geometry":{"type":"LineString","coordinates":[[3.368147,51.375],[3.3680491,51.3749566],[3.368019,51.3749449],[3.3680057,51.374938],[3.3678748,51.374882],[3.3678139,51.3748487],[3.3677306,51.3748139],[3.3676558,51.3748024],[3.3675868,51.3747934],[3.367468,51.3747755],[3.3674429,51.3747723],[3.3674213,51.37476],[3.3673808,51.3747215],[3.367324,51.3746704],[3.3672983,51.3746539],[3.3672268,51.3746261],[3.3671542,51.3746041],[3.3671006,51.3745812],[3.3670101,51.3745507],[3.3668826,51.3745023],[3.366866,51.3744977],[3.3668519,51.374492],[3.366722,51.3744469],[3.3666164,51.3744028],[3.3665318,51.3743744],[3.3664338,51.3743498],[3.3663427,51.3743138],[3.3662897,51.3742958],[3.366185,51.3742489],[3.3661456,51.3742379],[3.3661143,51.3742246],[3.3660016,51.3741911],[3.3658606,51.3741374],[3.3658575,51.3741367],[3.3658545,51.3741355],[3.3657134,51.3740936],[3.3655879,51.3740464],[3.3655694,51.3740408],[3.365545,51.3740313],[3.3654254,51.3740035],[3.3653092,51.3739573],[3.3652813,51.3739494],[3.3652474,51.3739364],[3.3651373,51.3739119],[3.365,51.3738726],[3.3649933,51.3738703],[3.3649792,51.3738684],[3.3648494,51.3738367],[3.3647308,51.3737952],[3.3647053,51.373782],[3.3646989,51.3737794],[3.364561,51.3737083],[3.3645141,51.37369],[3.3644169,51.3736469],[3.3643094,51.3736235],[3.3642729,51.3736092],[3.3642536,51.3736009],[3.3641286,51.3735341],[3.3640846,51.3735115],[3.3639844,51.3734646],[3.3638779,51.3734456],[3.3638405,51.3734349],[3.3638137,51.3734225],[3.3636962,51.3733576],[3.363653,51.373333],[3.363552,51.3732837],[3.3634567,51.3732437],[3.3634079,51.3732331],[3.3633578,51.3732128],[3.3632639,51.3731894],[3.3631528,51.3731548],[3.3631199,51.3731472],[3.362979,51.3730654],[3.3629756,51.373064],[3.3629692,51.3730614],[3.3628316,51.3730221],[3.3628299,51.3730214]]},"properties":{"rawObjectClass":"DEPCNT","VALDCO":1,"depthDatum":"Approximate LAT","depthDatumCode":42,"depthDatumStatus":"VERIFIED_FROM_OFFICIAL_DOCUMENTATION","verticalDatum":"Local Datum","verticalDatumCode":24,"napIdentityStatus":"UNVERIFIED","sourceKind":"official","sourceCellId":"1R75K7RI","sourceStableId":"1F2B6A5E355B753F","sourceChecksum":"111af78d456687b11c45a385a8ef53d1309c339e1170d49b90ce9c8518e9a32b","pipelineFeatureId":"1R75K7RI/DEPCNT/1283078468","provenance":{"cellId":"1R75K7RI","checksum":"111af78d456687b11c45a385a8ef53d1309c339e1170d49b90ce9c8518e9a32b","readerVersion":"GDAL 3.2.2","processedAt":"2026-08-11T18:29:20.995Z"},"sourceProperties":{"RCID":1283078468,"PRIM":2,"GRUP":2,"OBJL":43,"RVER":1,"AGEN":7979,"FIDN":1784558939,"FIDS":30015,"LNAM":"1F2B6A5E355B753F","VALDCO":1,"SCAMIN":50000,"sourceCellId":"1R75K7RI","sourceChecksum":"111af78d456687b11c45a385a8ef53d1309c339e1170d49b90ce9c8518e9a32b","rawObjectClass":"DEPCNT","sourceStableId":"1F2B6A5E355B753F"}}},{"type":"Feature","geometry":{"type":"LineString","coordinates":[[3.3683243,51.375],[3.3683067,51.3749924],[3.3681901,51.3749374],[3.3681625,51.3749235],[3.3681022,51.3749001],[3.3680184,51.374863],[3.3679847,51.3748482],[3.3678741,51.3747924],[3.3677754,51.3747589],[3.36773,51.3747424],[3.3676864,51.3747319],[3.3675861,51.3747085],[3.3674553,51.3746782],[3.3674422,51.3746753],[3.3674363,51.37467],[3.3672977,51.3745812],[3.367296,51.3745806],[3.3671536,51.3745181],[3.3670716,51.3744913],[3.3670095,51.3744676],[3.3669282,51.3744411],[3.3668654,51.3744173],[3.3668277,51.3744022],[3.3667212,51.3743545],[3.3665843,51.374313],[3.3665772,51.3743105],[3.3665683,51.3743075],[3.3664331,51.3742565],[3.3663363,51.3742239],[3.366289,51.3742054],[3.3662163,51.3741789],[3.3661449,51.3741492],[3.3661089,51.3741347],[3.3660007,51.3740868],[3.3658567,51.3740461],[3.3658553,51.3740455],[3.3657126,51.3739871],[3.3656303,51.3739563],[3.3655685,51.3739302],[3.3654866,51.3739056],[3.3654245,51.3738858],[3.3653775,51.3738672],[3.3652803,51.373827],[3.3651395,51.373778],[3.3651362,51.3737767],[3.3651321,51.3737754],[3.3649922,51.3737262],[3.3648774,51.3736889],[3.3648481,51.373678],[3.3648082,51.3736642],[3.3647041,51.3736297],[3.3646176,51.3735998],[3.36456,51.3735814],[3.3645013,51.3735635],[3.364416,51.3735327],[3.3643289,51.3735108],[3.364272,51.3734904],[3.3642025,51.3734678],[3.3641279,51.3734372],[3.3640978,51.3734216],[3.3639837,51.3733752],[3.3638709,51.3733518],[3.3638398,51.3733483],[3.3638123,51.3733325],[3.3636956,51.3732822],[3.363623,51.3732432],[3.3635514,51.3732096],[3.3634728,51.3731946],[3.3634075,51.3731804],[3.3633429,51.3731542],[3.3632633,51.3731137],[3.3631559,51.3730876],[3.3631193,51.3730792],[3.3630949,51.373065],[3.3629752,51.3730163],[3.3628969,51.372985]]},"properties":{"rawObjectClass":"DEPCNT","VALDCO":0.5,"depthDatum":"Approximate LAT","depthDatumCode":42,"depthDatumStatus":"VERIFIED_FROM_OFFICIAL_DOCUMENTATION","verticalDatum":"Local Datum","verticalDatumCode":24,"napIdentityStatus":"UNVERIFIED","sourceKind":"official","sourceCellId":"1R75K7RI","sourceStableId":"1F2B6A5E355B7540","sourceChecksum":"111af78d456687b11c45a385a8ef53d1309c339e1170d49b90ce9c8518e9a32b","pipelineFeatureId":"1R75K7RI/DEPCNT/1283078469","provenance":{"cellId":"1R75K7RI","checksum":"111af78d456687b11c45a385a8ef53d1309c339e1170d49b90ce9c8518e9a32b","readerVersion":"GDAL 3.2.2","processedAt":"2026-08-11T18:29:20.995Z"},"sourceProperties":{"RCID":1283078469,"PRIM":2,"GRUP":2,"OBJL":43,"RVER":1,"AGEN":7979,"FIDN":1784558939,"FIDS":30016,"LNAM":"1F2B6A5E355B7540","VALDCO":0.5,"SCAMIN":15000,"sourceCellId":"1R75K7RI","sourceChecksum":"111af78d456687b11c45a385a8ef53d1309c339e1170d49b90ce9c8518e9a32b","rawObjectClass":"DEPCNT","sourceStableId":"1F2B6A5E355B7540"}}},{"type":"Feature","geometry":{"type":"LineString","coordinates":[[3.3686577,51.375],[3.3685938,51.3749538],[3.3684969,51.3749365],[3.3684499,51.3749254],[3.3683335,51.3748471],[3.3683055,51.3748374],[3.3682627,51.3748206],[3.3681614,51.3747866],[3.3680683,51.374758],[3.3680174,51.3747414],[3.3679154,51.3746949],[3.3678732,51.3746726],[3.3678582,51.3746687],[3.367729,51.3746177],[3.3676528,51.3745794],[3.3675848,51.3745525],[3.3674407,51.374498],[3.3674109,51.3744903],[3.3672967,51.374457],[3.3671738,51.3744143],[3.3671527,51.3744053],[3.3671391,51.3744012],[3.3670085,51.3743482],[3.3668993,51.374312],[3.3668645,51.3743],[3.3668156,51.3742818],[3.3667203,51.3742407],[3.3666564,51.3742229],[3.3665763,51.3741924],[3.3664577,51.3741495],[3.3664322,51.3741385],[3.3664169,51.3741337],[3.3662881,51.3740842],[3.3661633,51.3740446],[3.366144,51.3740374],[3.3661182,51.3740286],[3.3659999,51.3739768],[3.3659273,51.3739554],[3.3658558,51.3739267],[3.3657576,51.3738946],[3.3657117,51.3738758],[3.3656861,51.3738662],[3.3655676,51.3738162],[3.3654402,51.3737771],[3.3654235,51.3737708],[3.3654,51.3737625],[3.3652794,51.3737127],[3.3652066,51.3736879],[3.3651353,51.3736594],[3.3650409,51.3736295],[3.3649913,51.3736111],[3.3649538,51.3735988],[3.3648472,51.3735575],[3.3647093,51.3735096],[3.3647031,51.373507],[3.3646958,51.3735051],[3.3645591,51.3734605],[3.3644178,51.3734206],[3.3644151,51.3734196],[3.3644104,51.3734177],[3.3642709,51.373355],[3.3641643,51.3733315],[3.3641269,51.3733211],[3.3641021,51.3733161],[3.3639829,51.3732795],[3.3638907,51.3732424],[3.3638388,51.3732145],[3.3637797,51.3732058],[3.3636949,51.3731852],[3.3635509,51.3731535],[3.3634068,51.3730902],[3.3633426,51.3730642],[3.3632626,51.3730265],[3.3631904,51.3730196],[3.3631187,51.3729968],[3.3630271,51.3729753],[3.3629747,51.3729545],[3.3629615,51.3729498]]},"properties":{"rawObjectClass":"DEPCNT","VALDCO":0,"depthDatum":"Approximate LAT","depthDatumCode":42,"depthDatumStatus":"VERIFIED_FROM_OFFICIAL_DOCUMENTATION","verticalDatum":"Local Datum","verticalDatumCode":24,"napIdentityStatus":"UNVERIFIED","sourceKind":"official","sourceCellId":"1R75K7RI","sourceStableId":"1F2B6A5E355B7541","sourceChecksum":"111af78d456687b11c45a385a8ef53d1309c339e1170d49b90ce9c8518e9a32b","pipelineFeatureId":"1R75K7RI/DEPCNT/1283078470","provenance":{"cellId":"1R75K7RI","checksum":"111af78d456687b11c45a385a8ef53d1309c339e1170d49b90ce9c8518e9a32b","readerVersion":"GDAL 3.2.2","processedAt":"2026-08-11T18:29:20.995Z"},"sourceProperties":{"RCID":1283078470,"PRIM":2,"GRUP":2,"OBJL":43,"RVER":1,"AGEN":7979,"FIDN":1784558939,"FIDS":30017,"LNAM":"1F2B6A5E355B7541","VALDCO":0,"SCAMIN":300000,"sourceCellId":"1R75K7RI","sourceChecksum":"111af78d456687b11c45a385a8ef53d1309c339e1170d49b90ce9c8518e9a32b","rawObjectClass":"DEPCNT","sourceStableId":"1F2B6A5E355B7541"}}},{"type":"Feature","geometry":{"type":"LineString","coordinates":[[3.3719019,51.375],[3.3718986,51.374998],[3.3717855,51.3749261],[3.3717542,51.3749067],[3.3716444,51.3748366],[3.3716098,51.3748146],[3.3714905,51.3747472],[3.3714655,51.3747335],[3.3713212,51.3746576],[3.3713206,51.3746574],[3.3711771,51.3746111],[3.3711149,51.3745685],[3.3710328,51.3745331],[3.3709564,51.3744791],[3.3708884,51.3744436],[3.3708192,51.3743896],[3.370744,51.3743455],[3.3706761,51.3743001],[3.3705993,51.3742163],[3.3705248,51.3742107],[3.3705715,51.3741933],[3.3704886,51.3741209],[3.3704545,51.3740848],[3.370365,51.3740314],[3.3703102,51.3739987],[3.3702178,51.3739419],[3.3701658,51.3739108],[3.3700456,51.3738525],[3.3700215,51.3738406],[3.3699209,51.3737902],[3.3698773,51.3737687],[3.3697466,51.3738535],[3.3697888,51.3738873],[3.3697344,51.3738675],[3.3697046,51.3738536],[3.3696949,51.3738291],[3.3697342,51.3738435],[3.3698656,51.3737632],[3.3696515,51.3736739],[3.369589,51.3736471],[3.3694593,51.3735937],[3.3694449,51.3735989],[3.3693802,51.3736748],[3.3693021,51.3737082],[3.3691759,51.3736754],[3.3691923,51.373654],[3.3692655,51.3735852],[3.3692265,51.3735419],[3.3692506,51.3734954],[3.3691562,51.3734308],[3.369012,51.3733615],[3.368952,51.3733165],[3.3688675,51.3732527],[3.3688332,51.3732269],[3.368791,51.3731796],[3.3687563,51.3731373],[3.3687226,51.3731029],[3.3686649,51.3730476],[3.3685781,51.3729994],[3.3684795,51.3729583],[3.3684339,51.3729385],[3.3683297,51.3728937],[3.3682899,51.3728877],[3.3682439,51.3728691],[3.3681457,51.3728293],[3.3680899,51.3728696],[3.3680834,51.3729201],[3.3680938,51.3729595],[3.3680037,51.3730381],[3.3679896,51.3730497],[3.3679427,51.3730883],[3.3680039,51.3730615],[3.3681345,51.3730493],[3.3681475,51.373047],[3.3681499,51.3730477],[3.3681485,51.3730492],[3.3682919,51.3731384],[3.3682923,51.3731387],[3.3682919,51.3731391],[3.3681594,51.373229],[3.3682933,51.3733153],[3.3683061,51.3733105],[3.3684366,51.3732712],[3.3685293,51.3732279],[3.3685798,51.3732146],[3.3686035,51.3732277],[3.3687243,51.3733147],[3.3687294,51.3733172],[3.3687243,51.3733205],[3.3686097,51.3734075],[3.3685815,51.3734269],[3.3685081,51.3734078],[3.3684375,51.3733803],[3.3683177,51.3733337],[3.3682933,51.3733235],[3.3682841,51.3733186],[3.368149,51.3732405],[3.3681216,51.3732292],[3.3681488,51.3732189],[3.368291,51.3731387],[3.3681475,51.3730502],[3.3680662,51.3731394],[3.368005,51.3731918],[3.3678924,51.3731596],[3.3678609,51.3731473],[3.367842,51.373152],[3.3677557,51.3731404],[3.3677172,51.3731338],[3.3677008,51.3731304],[3.3675732,51.3730981],[3.367457,51.3730687],[3.3674292,51.3730618],[3.3673896,51.3730516],[3.3674094,51.3729736],[3.3674234,51.3729616],[3.3672841,51.3728764],[3.3672776,51.3728721],[3.3671397,51.3727918],[3.367124,51.3727827],[3.3669954,51.3727034],[3.3669788,51.3726932],[3.366851,51.3726198],[3.3668235,51.3726038],[3.3667067,51.3725322],[3.3666735,51.3725144],[3.3665623,51.372446],[3.3665302,51.3724249],[3.366418,51.3723595],[3.3663334,51.3723356],[3.3662738,51.3722999],[3.3662017,51.3722461],[3.3661294,51.3722069],[3.3660641,51.3721566],[3.365985,51.3721079],[3.3658406,51.3720204],[3.3657754,51.3719776],[3.3656962,51.3719328],[3.3656184,51.3718882],[3.3655519,51.3718475],[3.3654713,51.3717987],[3.3654075,51.3717623],[3.3653144,51.3717093],[3.3652632,51.3716784],[3.3651672,51.3716199],[3.3651189,51.3715921],[3.3650104,51.3715304],[3.3649745,51.3715087],[3.3649227,51.3714983],[3.3648307,51.3714801],[3.3647096,51.3714557],[3.3646867,51.3714459],[3.3646781,51.3714415],[3.3645424,51.3713693],[3.3644297,51.3713584]]},"properties":{"rawObjectClass":"DEPCNT","VALDCO":-2,"depthDatum":"Approximate LAT","depthDatumCode":42,"depthDatumStatus":"VERIFIED_FROM_OFFICIAL_DOCUMENTATION","verticalDatum":"Local Datum","verticalDatumCode":24,"napIdentityStatus":"UNVERIFIED","sourceKind":"official","sourceCellId":"1R75K7RI","sourceStableId":"1F2B6A5E355B7542","sourceChecksum":"111af78d456687b11c45a385a8ef53d1309c339e1170d49b90ce9c8518e9a32b","pipelineFeatureId":"1R75K7RI/DEPCNT/1283078473","provenance":{"cellId":"1R75K7RI","checksum":"111af78d456687b11c45a385a8ef53d1309c339e1170d49b90ce9c8518e9a32b","readerVersion":"GDAL 3.2.2","processedAt":"2026-08-11T18:29:20.995Z"},"sourceProperties":{"RCID":1283078473,"PRIM":2,"GRUP":2,"OBJL":43,"RVER":1,"AGEN":7979,"FIDN":1784558939,"FIDS":30018,"LNAM":"1F2B6A5E355B7542","VALDCO":-2,"SCAMIN":50000,"sourceCellId":"1R75K7RI","sourceChecksum":"111af78d456687b11c45a385a8ef53d1309c339e1170d49b90ce9c8518e9a32b","rawObjectClass":"DEPCNT","sourceStableId":"1F2B6A5E355B7542"}}},{"type":"Feature","geometry":{"type":"LineString","coordinates":[[3.3645849,51.3711685],[3.36459,51.3711721],[3.364685,51.3712345],[3.3647262,51.3712616],[3.3648294,51.3713258],[3.3648677,51.3713271],[3.3649731,51.3713218],[3.3650215,51.3713506],[3.3650055,51.3714207],[3.3650056,51.3714405],[3.3651182,51.3715108],[3.3651508,51.37153],[3.3652626,51.371601],[3.3652973,51.3716195],[3.365407,51.371688],[3.365445,51.3717089],[3.3655513,51.3717771],[3.365603,51.3717983],[3.3656956,51.3718563],[3.3657595,51.3718878],[3.36584,51.3719417],[3.3659203,51.3719772],[3.3659842,51.3720179],[3.366049,51.3719768],[3.3660208,51.3719104],[3.3660105,51.371887],[3.3659829,51.3718472],[3.3659355,51.3717973],[3.3658938,51.3717422],[3.3658673,51.3717076],[3.3658664,51.3716898],[3.3658749,51.3716176],[3.3658783,51.3715919],[3.3659342,51.3715275],[3.3659798,51.3714554],[3.3659887,51.3714375],[3.3660527,51.3713913],[3.3660775,51.3713473],[3.3660647,51.3713113],[3.3660082,51.3712576],[3.365978,51.3712356],[3.3658661,51.3711681],[3.3658335,51.3711241],[3.3657808,51.3710784],[3.3657514,51.3710276],[3.3657099,51.3709887],[3.3656886,51.370973],[3.3655882,51.3708992],[3.3655439,51.3708422],[3.3654885,51.3708096],[3.3653995,51.3707461],[3.3653626,51.3707201],[3.3653522,51.3706908],[3.3652863,51.3706304],[3.3652545,51.3705861],[3.3651994,51.3705407],[3.3651388,51.3704904]]},"properties":{"rawObjectClass":"DEPCNT","VALDCO":-2,"depthDatum":"Approximate LAT","depthDatumCode":42,"depthDatumStatus":"VERIFIED_FROM_OFFICIAL_DOCUMENTATION","verticalDatum":"Local Datum","verticalDatumCode":24,"napIdentityStatus":"UNVERIFIED","sourceKind":"official","sourceCellId":"1R75K7RI","sourceStableId":"1F2B6A5E355B7543","sourceChecksum":"111af78d456687b11c45a385a8ef53d1309c339e1170d49b90ce9c8518e9a32b","pipelineFeatureId":"1R75K7RI/DEPCNT/1283078474","provenance":{"cellId":"1R75K7RI","checksum":"111af78d456687b11c45a385a8ef53d1309c339e1170d49b90ce9c8518e9a32b","readerVersion":"GDAL 3.2.2","processedAt":"2026-08-11T18:29:20.995Z"},"sourceProperties":{"RCID":1283078474,"PRIM":2,"GRUP":2,"OBJL":43,"RVER":1,"AGEN":7979,"FIDN":1784558939,"FIDS":30019,"LNAM":"1F2B6A5E355B7543","VALDCO":-2,"SCAMIN":50000,"sourceCellId":"1R75K7RI","sourceChecksum":"111af78d456687b11c45a385a8ef53d1309c339e1170d49b90ce9c8518e9a32b","rawObjectClass":"DEPCNT","sourceStableId":"1F2B6A5E355B7543"}}},{"type":"Feature","geometry":{"type":"LineString","coordinates":[[3.3672879,51.3728721],[3.3674284,51.3729598],[3.3674321,51.3729616],[3.3675727,51.3730304],[3.367624,51.3730187],[3.3677161,51.3730083],[3.367827,51.3729603],[3.3678142,51.3729322],[3.3677966,51.3728705],[3.3677763,51.3728193],[3.3677913,51.3727806],[3.3677645,51.3727225],[3.3677134,51.3726657],[3.3676203,51.3726013],[3.3675689,51.3725654],[3.3674928,51.3725118],[3.3674245,51.3724642],[3.367355,51.3724223],[3.36728,51.3723697],[3.3672271,51.3723328],[3.3671356,51.3722683],[3.3670853,51.3722433],[3.3669915,51.3722217],[3.3668809,51.372154],[3.3668471,51.3721333],[3.3668081,51.3721543],[3.3667981,51.3721853],[3.3667795,51.3722443],[3.3667048,51.3723009],[3.3665875,51.3723348],[3.3666496,51.3723895],[3.3666888,51.3724244],[3.3667059,51.3724353],[3.3668018,51.3725139],[3.3668504,51.3725453],[3.3668899,51.3726036],[3.3669952,51.3726769],[3.36701,51.3726931],[3.3671396,51.3727738],[3.3671509,51.3727826],[3.367284,51.3728691],[3.3672879,51.3728721]]},"properties":{"rawObjectClass":"DEPCNT","VALDCO":-2,"depthDatum":"Approximate LAT","depthDatumCode":42,"depthDatumStatus":"VERIFIED_FROM_OFFICIAL_DOCUMENTATION","verticalDatum":"Local Datum","verticalDatumCode":24,"napIdentityStatus":"UNVERIFIED","sourceKind":"official","sourceCellId":"1R75K7RI","sourceStableId":"1F2B6A5E355B7544","sourceChecksum":"111af78d456687b11c45a385a8ef53d1309c339e1170d49b90ce9c8518e9a32b","pipelineFeatureId":"1R75K7RI/DEPCNT/1283078476","provenance":{"cellId":"1R75K7RI","checksum":"111af78d456687b11c45a385a8ef53d1309c339e1170d49b90ce9c8518e9a32b","readerVersion":"GDAL 3.2.2","processedAt":"2026-08-11T18:29:20.995Z"},"sourceProperties":{"RCID":1283078476,"PRIM":2,"GRUP":2,"OBJL":43,"RVER":1,"AGEN":7979,"FIDN":1784558939,"FIDS":30020,"LNAM":"1F2B6A5E355B7544","VALDCO":-2,"SCAMIN":50000,"sourceCellId":"1R75K7RI","sourceChecksum":"111af78d456687b11c45a385a8ef53d1309c339e1170d49b90ce9c8518e9a32b","rawObjectClass":"DEPCNT","sourceStableId":"1F2B6A5E355B7544"}}},{"type":"Feature","geometry":{"type":"LineString","coordinates":[[3.3657451,51.3708987],[3.365832,51.370948],[3.365911,51.3709881],[3.3659763,51.3710268],[3.3660813,51.3710532],[3.36612,51.3710323],[3.366205,51.3709872],[3.366263,51.3709411],[3.3663076,51.3708969],[3.3664057,51.3708232],[3.366427,51.3708066],[3.3665486,51.3707261],[3.3665601,51.3707163],[3.3666915,51.3706335],[3.3667033,51.3706259],[3.3668344,51.37054],[3.3668423,51.3705356],[3.3668479,51.3705271],[3.3668341,51.3705018],[3.3667446,51.370446],[3.3666899,51.3704301],[3.3665798,51.3704673],[3.3665464,51.3704579],[3.366531,51.3704563],[3.3664029,51.370467],[3.3662591,51.370457],[3.3662416,51.3704585],[3.3661156,51.3704698],[3.3660438,51.3704482],[3.3659716,51.370438],[3.3659369,51.3704485],[3.3658285,51.3704993],[3.365743,51.370539],[3.3656853,51.3705631],[3.3656182,51.3705815],[3.365542,51.3706018],[3.3655012,51.3706297],[3.3655424,51.3706538],[3.3656112,51.3707193],[3.3656869,51.3707646],[3.3657682,51.3708087],[3.3657557,51.3708561],[3.3657451,51.3708987]]},"properties":{"rawObjectClass":"DEPCNT","VALDCO":-2,"depthDatum":"Approximate LAT","depthDatumCode":42,"depthDatumStatus":"VERIFIED_FROM_OFFICIAL_DOCUMENTATION","verticalDatum":"Local Datum","verticalDatumCode":24,"napIdentityStatus":"UNVERIFIED","sourceKind":"official","sourceCellId":"1R75K7RI","sourceStableId":"1F2B6A5E355B7545","sourceChecksum":"111af78d456687b11c45a385a8ef53d1309c339e1170d49b90ce9c8518e9a32b","pipelineFeatureId":"1R75K7RI/DEPCNT/1283078478","provenance":{"cellId":"1R75K7RI","checksum":"111af78d456687b11c45a385a8ef53d1309c339e1170d49b90ce9c8518e9a32b","readerVersion":"GDAL 3.2.2","processedAt":"2026-08-11T18:29:20.995Z"},"sourceProperties":{"RCID":1283078478,"PRIM":2,"GRUP":2,"OBJL":43,"RVER":1,"AGEN":7979,"FIDN":1784558939,"FIDS":30021,"LNAM":"1F2B6A5E355B7545","VALDCO":-2,"SCAMIN":50000,"sourceCellId":"1R75K7RI","sourceChecksum":"111af78d456687b11c45a385a8ef53d1309c339e1170d49b90ce9c8518e9a32b","rawObjectClass":"DEPCNT","sourceStableId":"1F2B6A5E355B7545"}}},{"type":"Feature","geometry":{"type":"LineString","coordinates":[[3.3736046,51.375],[3.3735894,51.3749895],[3.3734784,51.3749148],[3.3734219,51.3748857],[3.3733341,51.3748435],[3.373312,51.3748313],[3.3731898,51.3747641],[3.3731489,51.3747419],[3.3730455,51.374685],[3.3730004,51.3746525],[3.372901,51.374588],[3.3728659,51.374563],[3.3727565,51.3744852],[3.3727365,51.3744735],[3.3726121,51.3743966],[3.3725907,51.374384],[3.3724678,51.3743117],[3.3724366,51.3742946],[3.3723234,51.3742319],[3.3722776,51.3742052],[3.3721791,51.3741509],[3.3721295,51.3741157],[3.3720346,51.3740488],[3.3720028,51.3740262],[3.3718902,51.3739598],[3.3718404,51.3739368],[3.3717457,51.3738618],[3.3716017,51.3738116],[3.3714903,51.3737581],[3.3714574,51.3737423],[3.3713477,51.3736901],[3.3713132,51.3736731],[3.3713005,51.3736687],[3.3711689,51.3735886],[3.3711537,51.3735793],[3.3710245,51.3735005],[3.3709868,51.3735135],[3.3708812,51.3735498],[3.3707946,51.3735447],[3.3707376,51.3735551],[3.3706467,51.373491],[3.3705931,51.3734536],[3.3705181,51.3734015],[3.3704486,51.3733532],[3.37037,51.373312],[3.3703043,51.3732746],[3.3702039,51.3732226],[3.37016,51.3732002],[3.3700421,51.3731332],[3.3700157,51.3731182],[3.3698842,51.3730438],[3.3698713,51.3730252],[3.3698429,51.372954],[3.3697705,51.3728918],[3.3697497,51.3728644],[3.3697262,51.3728447],[3.369623,51.3727748],[3.3695817,51.3727471],[3.369491,51.3726853],[3.3694372,51.3726363],[3.36937,51.3725958],[3.3692927,51.3725406],[3.3692456,51.3725063],[3.3691482,51.3724369],[3.3691145,51.3724168],[3.3690039,51.3723488],[3.3689675,51.3723273],[3.3688597,51.372287],[3.3687786,51.372238],[3.3687153,51.3721999],[3.3686312,51.3721485],[3.368571,51.3721116],[3.3685023,51.372059],[3.3684264,51.3720021],[3.3683829,51.3719695],[3.3682818,51.3718822],[3.3682795,51.3718799],[3.3681938,51.3717902],[3.3681369,51.3717306],[3.3681082,51.3717006],[3.3680644,51.3716557],[3.36805,51.3716108],[3.3680043,51.371529],[3.3679996,51.3715211],[3.3681346,51.3714446],[3.3681664,51.3714505],[3.3682785,51.3714718],[3.3683447,51.37152],[3.3684231,51.3715875],[3.3684493,51.3716096],[3.3685674,51.3716688],[3.3686152,51.371699],[3.3687118,51.3717592],[3.3687543,51.3717885],[3.3688209,51.3718561],[3.3688415,51.3718781],[3.3688565,51.3718941],[3.3689991,51.3719675],[3.3690008,51.3719746],[3.3690206,51.3720574],[3.3690205,51.3720692],[3.369066,51.3721472],[3.3691464,51.3722141],[3.3691993,51.3722367],[3.3692906,51.3722758],[3.3694081,51.3723259],[3.3694348,51.3723401],[3.3694705,51.3723257],[3.3694655,51.3722555],[3.3694649,51.3722358],[3.3694618,51.3721637],[3.3694535,51.3721459],[3.3694331,51.3721337],[3.3693453,51.3720564],[3.3692884,51.3720064],[3.3692502,51.3719667],[3.3692339,51.371933],[3.3692156,51.3718769],[3.3691987,51.3718218],[3.3691969,51.3717871],[3.369192,51.3717281],[3.3691914,51.3716972],[3.3691878,51.3716361],[3.3692857,51.3716727],[3.3693443,51.3716967],[3.3694299,51.3717321],[3.3695088,51.3717861],[3.3696941,51.3718754],[3.3697185,51.371887],[3.3698428,51.3719649],[3.3698629,51.3719782],[3.3699785,51.3720544],[3.3700073,51.3720736],[3.3701105,51.3721183],[3.3701515,51.3721366],[3.3701677,51.3721437],[3.3702958,51.3722244],[3.3703374,51.3722331],[3.3703504,51.372267],[3.3704221,51.3723227],[3.3704404,51.3723371],[3.3704865,51.3723225],[3.3704994,51.3722698],[3.3704523,51.3722327],[3.3704395,51.3722222],[3.3703428,51.3721431],[3.3703425,51.3721133],[3.3703424,51.3720532],[3.3703415,51.3719931],[3.3703127,51.3719634],[3.3702934,51.3719181],[3.3702526,51.3718737],[3.3701986,51.371815],[3.3701699,51.371784],[3.3701452,51.3716925],[3.3700856,51.3716044],[3.370079,51.371563]]},"properties":{"rawObjectClass":"DEPCNT","VALDCO":-4,"depthDatum":"Approximate LAT","depthDatumCode":42,"depthDatumStatus":"VERIFIED_FROM_OFFICIAL_DOCUMENTATION","verticalDatum":"Local Datum","verticalDatumCode":24,"napIdentityStatus":"UNVERIFIED","sourceKind":"official","sourceCellId":"1R75K7RI","sourceStableId":"1F2B6A5E355B7546","sourceChecksum":"111af78d456687b11c45a385a8ef53d1309c339e1170d49b90ce9c8518e9a32b","pipelineFeatureId":"1R75K7RI/DEPCNT/1283078479","provenance":{"cellId":"1R75K7RI","checksum":"111af78d456687b11c45a385a8ef53d1309c339e1170d49b90ce9c8518e9a32b","readerVersion":"GDAL 3.2.2","processedAt":"2026-08-11T18:29:20.995Z"},"sourceProperties":{"RCID":1283078479,"PRIM":2,"GRUP":2,"OBJL":43,"RVER":1,"AGEN":7979,"FIDN":1784558939,"FIDS":30022,"LNAM":"1F2B6A5E355B7546","VALDCO":-4,"SCAMIN":300000,"sourceCellId":"1R75K7RI","sourceChecksum":"111af78d456687b11c45a385a8ef53d1309c339e1170d49b90ce9c8518e9a32b","rawObjectClass":"DEPCNT","sourceStableId":"1F2B6A5E355B7546"}}}]}