{"type":"FeatureCollection","features":[{"type":"Feature","geometry":{"type":"Point","coordinates":[3.36201,51.37347]},"properties":{"dolphinKind":"buoy-special","rawObjectClass":"BOYSPP","sourceProperties":{"RCID":221350888,"PRIM":1,"GRUP":2,"OBJL":19,"RVER":1,"AGEN":7979,"FIDN":221350888,"FIDS":1,"LNAM":"1F2B0D318BE80001","BOYSHP":5,"CATSPM":["12"],"COLOUR":["6"],"OBJNAM":"CA-A","INFORM":"Kitesurfing area","NINFOM":"Kitesurfgebied","SCAMIN":200000,"SORDAT":"20170418","SORIND":"NL,1R,reprt,MD 143-17","sourceCellId":"1R75K7RI","sourceChecksum":"111af78d456687b11c45a385a8ef53d1309c339e1170d49b90ce9c8518e9a32b","rawObjectClass":"BOYSPP","sourceStableId":"1F2B0D318BE80001"},"sourceKind":"official","official":true,"sourceCellId":"1R75K7RI","sourceStableId":"1F2B0D318BE80001","pipelineFeatureId":"1R75K7RI/BOYSPP/221350888","provenance":{"cellId":"1R75K7RI","checksum":"111af78d456687b11c45a385a8ef53d1309c339e1170d49b90ce9c8518e9a32b","readerVersion":"GDAL 3.2.2","processedAt":"2026-08-11T18:29:20.995Z"}}},{"type":"Feature","geometry":{"type":"Point","coordinates":[3.3640833,51.3749667]},"properties":{"dolphinKind":"buoy-special","rawObjectClass":"BOYSPP","sourceProperties":{"RCID":221354589,"PRIM":1,"GRUP":2,"OBJL":19,"RVER":1,"AGEN":7979,"FIDN":221354589,"FIDS":1,"LNAM":"1F2B0D319A5D0001","BOYSHP":5,"CATSPM":["12"],"COLOUR":["6"],"OBJNAM":"CA-B","INFORM":"Kitesurfing area","NINFOM":"Kitesurfgebied","SCAMIN":200000,"SORDAT":"20230719","SORIND":"NL,1R,reprt,NDB verbetering","sourceCellId":"1R75K7RI","sourceChecksum":"111af78d456687b11c45a385a8ef53d1309c339e1170d49b90ce9c8518e9a32b","rawObjectClass":"BOYSPP","sourceStableId":"1F2B0D319A5D0001"},"sourceKind":"official","official":true,"sourceCellId":"1R75K7RI","sourceStableId":"1F2B0D319A5D0001","pipelineFeatureId":"1R75K7RI/BOYSPP/221354589","provenance":{"cellId":"1R75K7RI","checksum":"111af78d456687b11c45a385a8ef53d1309c339e1170d49b90ce9c8518e9a32b","readerVersion":"GDAL 3.2.2","processedAt":"2026-08-11T18:29:20.995Z"}}}]}