{"type":"FeatureCollection","features":[{"type":"Feature","geometry":{"type":"Point","coordinates":[3.375058,51.3748257]},"properties":{"chartedValueMetres":-20,"chartedValueRelationToDatum":"above","depthDatum":"Approximate LAT","depthDatumCode":42,"depthDatumStatus":"VERIFIED_FROM_OFFICIAL_DOCUMENTATION","verticalDatum":"Local Datum","verticalDatumCode":24,"napIdentityStatus":"UNVERIFIED","sourceFeatureLnam":"1F2B6A5E355B7530","sourceCellId":"1R75K7RI","sourceChecksum":"111af78d456687b11c45a385a8ef53d1309c339e1170d49b90ce9c8518e9a32b","pipelineFeatureId":"1R75K7RI/SOUNDG/1283078441/0","provenance":{"cellId":"1R75K7RI","checksum":"111af78d456687b11c45a385a8ef53d1309c339e1170d49b90ce9c8518e9a32b","readerVersion":"GDAL 3.2.2","processedAt":"2026-08-11T13:43:44.753Z"}}},{"type":"Feature","geometry":{"type":"Point","coordinates":[3.3669867,51.3716142]},"properties":{"chartedValueMetres":-3.1,"chartedValueRelationToDatum":"above","depthDatum":"Approximate LAT","depthDatumCode":42,"depthDatumStatus":"VERIFIED_FROM_OFFICIAL_DOCUMENTATION","verticalDatum":"Local Datum","verticalDatumCode":24,"napIdentityStatus":"UNVERIFIED","sourceFeatureLnam":"1F2B6A5E355B7531","sourceCellId":"1R75K7RI","sourceChecksum":"111af78d456687b11c45a385a8ef53d1309c339e1170d49b90ce9c8518e9a32b","pipelineFeatureId":"1R75K7RI/SOUNDG/1283078443/0","provenance":{"cellId":"1R75K7RI","checksum":"111af78d456687b11c45a385a8ef53d1309c339e1170d49b90ce9c8518e9a32b","readerVersion":"GDAL 3.2.2","processedAt":"2026-08-11T13:43:44.753Z"}}},{"type":"Feature","geometry":{"type":"Point","coordinates":[3.3698794,51.3740329]},"properties":{"chartedValueMetres":-1.9,"chartedValueRelationToDatum":"above","depthDatum":"Approximate LAT","depthDatumCode":42,"depthDatumStatus":"VERIFIED_FROM_OFFICIAL_DOCUMENTATION","verticalDatum":"Local Datum","verticalDatumCode":24,"napIdentityStatus":"UNVERIFIED","sourceFeatureLnam":"1F2B6A5E355B7531","sourceCellId":"1R75K7RI","sourceChecksum":"111af78d456687b11c45a385a8ef53d1309c339e1170d49b90ce9c8518e9a32b","pipelineFeatureId":"1R75K7RI/SOUNDG/1283078443/1","provenance":{"cellId":"1R75K7RI","checksum":"111af78d456687b11c45a385a8ef53d1309c339e1170d49b90ce9c8518e9a32b","readerVersion":"GDAL 3.2.2","processedAt":"2026-08-11T13:43:44.753Z"}}},{"type":"Feature","geometry":{"type":"Point","coordinates":[3.3652842,51.3743171]},"properties":{"chartedValueMetres":2.2,"chartedValueRelationToDatum":"below","depthDatum":"Approximate LAT","depthDatumCode":42,"depthDatumStatus":"VERIFIED_FROM_OFFICIAL_DOCUMENTATION","verticalDatum":"Local Datum","verticalDatumCode":24,"napIdentityStatus":"UNVERIFIED","sourceFeatureLnam":"1F2B6A5E355B7531","sourceCellId":"1R75K7RI","sourceChecksum":"111af78d456687b11c45a385a8ef53d1309c339e1170d49b90ce9c8518e9a32b","pipelineFeatureId":"1R75K7RI/SOUNDG/1283078443/2","provenance":{"cellId":"1R75K7RI","checksum":"111af78d456687b11c45a385a8ef53d1309c339e1170d49b90ce9c8518e9a32b","readerVersion":"GDAL 3.2.2","processedAt":"2026-08-11T13:43:44.753Z"}}},{"type":"Feature","geometry":{"type":"Point","coordinates":[3.361408,51.3746888]},"properties":{"chartedValueMetres":6,"chartedValueRelationToDatum":"below","depthDatum":"Approximate LAT","depthDatumCode":42,"depthDatumStatus":"VERIFIED_FROM_OFFICIAL_DOCUMENTATION","verticalDatum":"Local Datum","verticalDatumCode":24,"napIdentityStatus":"UNVERIFIED","sourceFeatureLnam":"1F2B6A5E355B7531","sourceCellId":"1R75K7RI","sourceChecksum":"111af78d456687b11c45a385a8ef53d1309c339e1170d49b90ce9c8518e9a32b","pipelineFeatureId":"1R75K7RI/SOUNDG/1283078443/3","provenance":{"cellId":"1R75K7RI","checksum":"111af78d456687b11c45a385a8ef53d1309c339e1170d49b90ce9c8518e9a32b","readerVersion":"GDAL 3.2.2","processedAt":"2026-08-11T13:43:44.753Z"}}},{"type":"Feature","geometry":{"type":"Point","coordinates":[3.3736148,51.3740211]},"properties":{"chartedValueMetres":-18,"chartedValueRelationToDatum":"above","depthDatum":"Approximate LAT","depthDatumCode":42,"depthDatumStatus":"VERIFIED_FROM_OFFICIAL_DOCUMENTATION","verticalDatum":"Local Datum","verticalDatumCode":24,"napIdentityStatus":"UNVERIFIED","sourceFeatureLnam":"1F2B6A5E355B7532","sourceCellId":"1R75K7RI","sourceChecksum":"111af78d456687b11c45a385a8ef53d1309c339e1170d49b90ce9c8518e9a32b","pipelineFeatureId":"1R75K7RI/SOUNDG/1283078444/0","provenance":{"cellId":"1R75K7RI","checksum":"111af78d456687b11c45a385a8ef53d1309c339e1170d49b90ce9c8518e9a32b","readerVersion":"GDAL 3.2.2","processedAt":"2026-08-11T13:43:44.753Z"}}},{"type":"Feature","geometry":{"type":"Point","coordinates":[3.370301,51.3728626]},"properties":{"chartedValueMetres":-4.2,"chartedValueRelationToDatum":"above","depthDatum":"Approximate LAT","depthDatumCode":42,"depthDatumStatus":"VERIFIED_FROM_OFFICIAL_DOCUMENTATION","verticalDatum":"Local Datum","verticalDatumCode":24,"napIdentityStatus":"UNVERIFIED","sourceFeatureLnam":"1F2B6A5E355B7532","sourceCellId":"1R75K7RI","sourceChecksum":"111af78d456687b11c45a385a8ef53d1309c339e1170d49b90ce9c8518e9a32b","pipelineFeatureId":"1R75K7RI/SOUNDG/1283078444/1","provenance":{"cellId":"1R75K7RI","checksum":"111af78d456687b11c45a385a8ef53d1309c339e1170d49b90ce9c8518e9a32b","readerVersion":"GDAL 3.2.2","processedAt":"2026-08-11T13:43:44.753Z"}}},{"type":"Feature","geometry":{"type":"Point","coordinates":[3.3684298,51.3724189]},"properties":{"chartedValueMetres":-3.4,"chartedValueRelationToDatum":"above","depthDatum":"Approximate LAT","depthDatumCode":42,"depthDatumStatus":"VERIFIED_FROM_OFFICIAL_DOCUMENTATION","verticalDatum":"Local Datum","verticalDatumCode":24,"napIdentityStatus":"UNVERIFIED","sourceFeatureLnam":"1F2B6A5E355B7532","sourceCellId":"1R75K7RI","sourceChecksum":"111af78d456687b11c45a385a8ef53d1309c339e1170d49b90ce9c8518e9a32b","pipelineFeatureId":"1R75K7RI/SOUNDG/1283078444/2","provenance":{"cellId":"1R75K7RI","checksum":"111af78d456687b11c45a385a8ef53d1309c339e1170d49b90ce9c8518e9a32b","readerVersion":"GDAL 3.2.2","processedAt":"2026-08-11T13:43:44.753Z"}}},{"type":"Feature","geometry":{"type":"Point","coordinates":[3.3721847,51.3748349]},"properties":{"chartedValueMetres":-3,"chartedValueRelationToDatum":"above","depthDatum":"Approximate LAT","depthDatumCode":42,"depthDatumStatus":"VERIFIED_FROM_OFFICIAL_DOCUMENTATION","verticalDatum":"Local Datum","verticalDatumCode":24,"napIdentityStatus":"UNVERIFIED","sourceFeatureLnam":"1F2B6A5E355B7532","sourceCellId":"1R75K7RI","sourceChecksum":"111af78d456687b11c45a385a8ef53d1309c339e1170d49b90ce9c8518e9a32b","pipelineFeatureId":"1R75K7RI/SOUNDG/1283078444/3","provenance":{"cellId":"1R75K7RI","checksum":"111af78d456687b11c45a385a8ef53d1309c339e1170d49b90ce9c8518e9a32b","readerVersion":"GDAL 3.2.2","processedAt":"2026-08-11T13:43:44.753Z"}}},{"type":"Feature","geometry":{"type":"Point","coordinates":[3.3649733,51.3713507]},"properties":{"chartedValueMetres":-2.2,"chartedValueRelationToDatum":"above","depthDatum":"Approximate LAT","depthDatumCode":42,"depthDatumStatus":"VERIFIED_FROM_OFFICIAL_DOCUMENTATION","verticalDatum":"Local Datum","verticalDatumCode":24,"napIdentityStatus":"UNVERIFIED","sourceFeatureLnam":"1F2B6A5E355B7532","sourceCellId":"1R75K7RI","sourceChecksum":"111af78d456687b11c45a385a8ef53d1309c339e1170d49b90ce9c8518e9a32b","pipelineFeatureId":"1R75K7RI/SOUNDG/1283078444/4","provenance":{"cellId":"1R75K7RI","checksum":"111af78d456687b11c45a385a8ef53d1309c339e1170d49b90ce9c8518e9a32b","readerVersion":"GDAL 3.2.2","processedAt":"2026-08-11T13:43:44.753Z"}}},{"type":"Feature","geometry":{"type":"Point","coordinates":[3.365703,51.3727871]},"properties":{"chartedValueMetres":-1.8,"chartedValueRelationToDatum":"above","depthDatum":"Approximate LAT","depthDatumCode":42,"depthDatumStatus":"VERIFIED_FROM_OFFICIAL_DOCUMENTATION","verticalDatum":"Local Datum","verticalDatumCode":24,"napIdentityStatus":"UNVERIFIED","sourceFeatureLnam":"1F2B6A5E355B7532","sourceCellId":"1R75K7RI","sourceChecksum":"111af78d456687b11c45a385a8ef53d1309c339e1170d49b90ce9c8518e9a32b","pipelineFeatureId":"1R75K7RI/SOUNDG/1283078444/5","provenance":{"cellId":"1R75K7RI","checksum":"111af78d456687b11c45a385a8ef53d1309c339e1170d49b90ce9c8518e9a32b","readerVersion":"GDAL 3.2.2","processedAt":"2026-08-11T13:43:44.753Z"}}},{"type":"Feature","geometry":{"type":"Point","coordinates":[3.3680089,51.3736791]},"properties":{"chartedValueMetres":-1.4,"chartedValueRelationToDatum":"above","depthDatum":"Approximate LAT","depthDatumCode":42,"depthDatumStatus":"VERIFIED_FROM_OFFICIAL_DOCUMENTATION","verticalDatum":"Local Datum","verticalDatumCode":24,"napIdentityStatus":"UNVERIFIED","sourceFeatureLnam":"1F2B6A5E355B7532","sourceCellId":"1R75K7RI","sourceChecksum":"111af78d456687b11c45a385a8ef53d1309c339e1170d49b90ce9c8518e9a32b","pipelineFeatureId":"1R75K7RI/SOUNDG/1283078444/6","provenance":{"cellId":"1R75K7RI","checksum":"111af78d456687b11c45a385a8ef53d1309c339e1170d49b90ce9c8518e9a32b","readerVersion":"GDAL 3.2.2","processedAt":"2026-08-11T13:43:44.753Z"}}},{"type":"Feature","geometry":{"type":"Point","coordinates":[3.3639834,51.373332]},"properties":{"chartedValueMetres":0.2,"chartedValueRelationToDatum":"below","depthDatum":"Approximate LAT","depthDatumCode":42,"depthDatumStatus":"VERIFIED_FROM_OFFICIAL_DOCUMENTATION","verticalDatum":"Local Datum","verticalDatumCode":24,"napIdentityStatus":"UNVERIFIED","sourceFeatureLnam":"1F2B6A5E355B7532","sourceCellId":"1R75K7RI","sourceChecksum":"111af78d456687b11c45a385a8ef53d1309c339e1170d49b90ce9c8518e9a32b","pipelineFeatureId":"1R75K7RI/SOUNDG/1283078444/7","provenance":{"cellId":"1R75K7RI","checksum":"111af78d456687b11c45a385a8ef53d1309c339e1170d49b90ce9c8518e9a32b","readerVersion":"GDAL 3.2.2","processedAt":"2026-08-11T13:43:44.753Z"}}},{"type":"Feature","geometry":{"type":"Point","coordinates":[3.3635645,51.3748619]},"properties":{"chartedValueMetres":4.9,"chartedValueRelationToDatum":"below","depthDatum":"Approximate LAT","depthDatumCode":42,"depthDatumStatus":"VERIFIED_FROM_OFFICIAL_DOCUMENTATION","verticalDatum":"Local Datum","verticalDatumCode":24,"napIdentityStatus":"UNVERIFIED","sourceFeatureLnam":"1F2B6A5E355B7532","sourceCellId":"1R75K7RI","sourceChecksum":"111af78d456687b11c45a385a8ef53d1309c339e1170d49b90ce9c8518e9a32b","pipelineFeatureId":"1R75K7RI/SOUNDG/1283078444/8","provenance":{"cellId":"1R75K7RI","checksum":"111af78d456687b11c45a385a8ef53d1309c339e1170d49b90ce9c8518e9a32b","readerVersion":"GDAL 3.2.2","processedAt":"2026-08-11T13:43:44.753Z"}}},{"type":"Feature","geometry":{"type":"Point","coordinates":[3.3747656,51.3741972]},"properties":{"chartedValueMetres":-18.5,"chartedValueRelationToDatum":"above","depthDatum":"Approximate LAT","depthDatumCode":42,"depthDatumStatus":"VERIFIED_FROM_OFFICIAL_DOCUMENTATION","verticalDatum":"Local Datum","verticalDatumCode":24,"napIdentityStatus":"UNVERIFIED","sourceFeatureLnam":"1F2B6A5E355B7533","sourceCellId":"1R75K7RI","sourceChecksum":"111af78d456687b11c45a385a8ef53d1309c339e1170d49b90ce9c8518e9a32b","pipelineFeatureId":"1R75K7RI/SOUNDG/1283078445/0","provenance":{"cellId":"1R75K7RI","checksum":"111af78d456687b11c45a385a8ef53d1309c339e1170d49b90ce9c8518e9a32b","readerVersion":"GDAL 3.2.2","processedAt":"2026-08-11T13:43:44.753Z"}}},{"type":"Feature","geometry":{"type":"Point","coordinates":[3.3728928,51.3735738]},"properties":{"chartedValueMetres":-17.3,"chartedValueRelationToDatum":"above","depthDatum":"Approximate LAT","depthDatumCode":42,"depthDatumStatus":"VERIFIED_FROM_OFFICIAL_DOCUMENTATION","verticalDatum":"Local Datum","verticalDatumCode":24,"napIdentityStatus":"UNVERIFIED","sourceFeatureLnam":"1F2B6A5E355B7533","sourceCellId":"1R75K7RI","sourceChecksum":"111af78d456687b11c45a385a8ef53d1309c339e1170d49b90ce9c8518e9a32b","pipelineFeatureId":"1R75K7RI/SOUNDG/1283078445/1","provenance":{"cellId":"1R75K7RI","checksum":"111af78d456687b11c45a385a8ef53d1309c339e1170d49b90ce9c8518e9a32b","readerVersion":"GDAL 3.2.2","processedAt":"2026-08-11T13:43:44.753Z"}}},{"type":"Feature","geometry":{"type":"Point","coordinates":[3.3721708,51.3731265]},"properties":{"chartedValueMetres":-15,"chartedValueRelationToDatum":"above","depthDatum":"Approximate LAT","depthDatumCode":42,"depthDatumStatus":"VERIFIED_FROM_OFFICIAL_DOCUMENTATION","verticalDatum":"Local Datum","verticalDatumCode":24,"napIdentityStatus":"UNVERIFIED","sourceFeatureLnam":"1F2B6A5E355B7533","sourceCellId":"1R75K7RI","sourceChecksum":"111af78d456687b11c45a385a8ef53d1309c339e1170d49b90ce9c8518e9a32b","pipelineFeatureId":"1R75K7RI/SOUNDG/1283078445/2","provenance":{"cellId":"1R75K7RI","checksum":"111af78d456687b11c45a385a8ef53d1309c339e1170d49b90ce9c8518e9a32b","readerVersion":"GDAL 3.2.2","processedAt":"2026-08-11T13:43:44.753Z"}}},{"type":"Feature","geometry":{"type":"Point","coordinates":[3.3740509,51.3746491]},"properties":{"chartedValueMetres":-9.3,"chartedValueRelationToDatum":"above","depthDatum":"Approximate LAT","depthDatumCode":42,"depthDatumStatus":"VERIFIED_FROM_OFFICIAL_DOCUMENTATION","verticalDatum":"Local Datum","verticalDatumCode":24,"napIdentityStatus":"UNVERIFIED","sourceFeatureLnam":"1F2B6A5E355B7533","sourceCellId":"1R75K7RI","sourceChecksum":"111af78d456687b11c45a385a8ef53d1309c339e1170d49b90ce9c8518e9a32b","pipelineFeatureId":"1R75K7RI/SOUNDG/1283078445/3","provenance":{"cellId":"1R75K7RI","checksum":"111af78d456687b11c45a385a8ef53d1309c339e1170d49b90ce9c8518e9a32b","readerVersion":"GDAL 3.2.2","processedAt":"2026-08-11T13:43:44.753Z"}}},{"type":"Feature","geometry":{"type":"Point","coordinates":[3.3713044,51.3725897]},"properties":{"chartedValueMetres":-7.9,"chartedValueRelationToDatum":"above","depthDatum":"Approximate LAT","depthDatumCode":42,"depthDatumStatus":"VERIFIED_FROM_OFFICIAL_DOCUMENTATION","verticalDatum":"Local Datum","verticalDatumCode":24,"napIdentityStatus":"UNVERIFIED","sourceFeatureLnam":"1F2B6A5E355B7533","sourceCellId":"1R75K7RI","sourceChecksum":"111af78d456687b11c45a385a8ef53d1309c339e1170d49b90ce9c8518e9a32b","pipelineFeatureId":"1R75K7RI/SOUNDG/1283078445/4","provenance":{"cellId":"1R75K7RI","checksum":"111af78d456687b11c45a385a8ef53d1309c339e1170d49b90ce9c8518e9a32b","readerVersion":"GDAL 3.2.2","processedAt":"2026-08-11T13:43:44.753Z"}}},{"type":"Feature","geometry":{"type":"Point","coordinates":[3.3704367,51.3718731]},"properties":{"chartedValueMetres":-4.9,"chartedValueRelationToDatum":"above","depthDatum":"Approximate LAT","depthDatumCode":42,"depthDatumStatus":"VERIFIED_FROM_OFFICIAL_DOCUMENTATION","verticalDatum":"Local Datum","verticalDatumCode":24,"napIdentityStatus":"UNVERIFIED","sourceFeatureLnam":"1F2B6A5E355B7533","sourceCellId":"1R75K7RI","sourceChecksum":"111af78d456687b11c45a385a8ef53d1309c339e1170d49b90ce9c8518e9a32b","pipelineFeatureId":"1R75K7RI/SOUNDG/1283078445/5","provenance":{"cellId":"1R75K7RI","checksum":"111af78d456687b11c45a385a8ef53d1309c339e1170d49b90ce9c8518e9a32b","readerVersion":"GDAL 3.2.2","processedAt":"2026-08-11T13:43:44.753Z"}}},{"type":"Feature","geometry":{"type":"Point","coordinates":[3.3727549,51.3742936]},"properties":{"chartedValueMetres":-4.5,"chartedValueRelationToDatum":"above","depthDatum":"Approximate LAT","depthDatumCode":42,"depthDatumStatus":"VERIFIED_FROM_OFFICIAL_DOCUMENTATION","verticalDatum":"Local Datum","verticalDatumCode":24,"napIdentityStatus":"UNVERIFIED","sourceFeatureLnam":"1F2B6A5E355B7533","sourceCellId":"1R75K7RI","sourceChecksum":"111af78d456687b11c45a385a8ef53d1309c339e1170d49b90ce9c8518e9a32b","pipelineFeatureId":"1R75K7RI/SOUNDG/1283078445/6","provenance":{"cellId":"1R75K7RI","checksum":"111af78d456687b11c45a385a8ef53d1309c339e1170d49b90ce9c8518e9a32b","readerVersion":"GDAL 3.2.2","processedAt":"2026-08-11T13:43:44.753Z"}}},{"type":"Feature","geometry":{"type":"Point","coordinates":[3.3718886,51.3737568]},"properties":{"chartedValueMetres":-4.5,"chartedValueRelationToDatum":"above","depthDatum":"Approximate LAT","depthDatumCode":42,"depthDatumStatus":"VERIFIED_FROM_OFFICIAL_DOCUMENTATION","verticalDatum":"Local Datum","verticalDatumCode":24,"napIdentityStatus":"UNVERIFIED","sourceFeatureLnam":"1F2B6A5E355B7533","sourceCellId":"1R75K7RI","sourceChecksum":"111af78d456687b11c45a385a8ef53d1309c339e1170d49b90ce9c8518e9a32b","pipelineFeatureId":"1R75K7RI/SOUNDG/1283078445/7","provenance":{"cellId":"1R75K7RI","checksum":"111af78d456687b11c45a385a8ef53d1309c339e1170d49b90ce9c8518e9a32b","readerVersion":"GDAL 3.2.2","processedAt":"2026-08-11T13:43:44.753Z"}}},{"type":"Feature","geometry":{"type":"Point","coordinates":[3.3711659,51.3732196]},"properties":{"chartedValueMetres":-4.3,"chartedValueRelationToDatum":"above","depthDatum":"Approximate LAT","depthDatumCode":42,"depthDatumStatus":"VERIFIED_FROM_OFFICIAL_DOCUMENTATION","verticalDatum":"Local Datum","verticalDatumCode":24,"napIdentityStatus":"UNVERIFIED","sourceFeatureLnam":"1F2B6A5E355B7533","sourceCellId":"1R75K7RI","sourceChecksum":"111af78d456687b11c45a385a8ef53d1309c339e1170d49b90ce9c8518e9a32b","pipelineFeatureId":"1R75K7RI/SOUNDG/1283078445/8","provenance":{"cellId":"1R75K7RI","checksum":"111af78d456687b11c45a385a8ef53d1309c339e1170d49b90ce9c8518e9a32b","readerVersion":"GDAL 3.2.2","processedAt":"2026-08-11T13:43:44.753Z"}}},{"type":"Feature","geometry":{"type":"Point","coordinates":[3.3685684,51.371789]},"properties":{"chartedValueMetres":-4.1,"chartedValueRelationToDatum":"above","depthDatum":"Approximate LAT","depthDatumCode":42,"depthDatumStatus":"VERIFIED_FROM_OFFICIAL_DOCUMENTATION","verticalDatum":"Local Datum","verticalDatumCode":24,"napIdentityStatus":"UNVERIFIED","sourceFeatureLnam":"1F2B6A5E355B7533","sourceCellId":"1R75K7RI","sourceChecksum":"111af78d456687b11c45a385a8ef53d1309c339e1170d49b90ce9c8518e9a32b","pipelineFeatureId":"1R75K7RI/SOUNDG/1283078445/9","provenance":{"cellId":"1R75K7RI","checksum":"111af78d456687b11c45a385a8ef53d1309c339e1170d49b90ce9c8518e9a32b","readerVersion":"GDAL 3.2.2","processedAt":"2026-08-11T13:43:44.753Z"}}},{"type":"Feature","geometry":{"type":"Point","coordinates":[3.3694361,51.3725057]},"properties":{"chartedValueMetres":-4.1,"chartedValueRelationToDatum":"above","depthDatum":"Approximate LAT","depthDatumCode":42,"depthDatumStatus":"VERIFIED_FROM_OFFICIAL_DOCUMENTATION","verticalDatum":"Local Datum","verticalDatumCode":24,"napIdentityStatus":"UNVERIFIED","sourceFeatureLnam":"1F2B6A5E355B7533","sourceCellId":"1R75K7RI","sourceChecksum":"111af78d456687b11c45a385a8ef53d1309c339e1170d49b90ce9c8518e9a32b","pipelineFeatureId":"1R75K7RI/SOUNDG/1283078445/10","provenance":{"cellId":"1R75K7RI","checksum":"111af78d456687b11c45a385a8ef53d1309c339e1170d49b90ce9c8518e9a32b","readerVersion":"GDAL 3.2.2","processedAt":"2026-08-11T13:43:44.753Z"}}},{"type":"Feature","geometry":{"type":"Point","coordinates":[3.3678465,51.3713417]},"properties":{"chartedValueMetres":-4,"chartedValueRelationToDatum":"above","depthDatum":"Approximate LAT","depthDatumCode":42,"depthDatumStatus":"VERIFIED_FROM_OFFICIAL_DOCUMENTATION","verticalDatum":"Local Datum","verticalDatumCode":24,"napIdentityStatus":"UNVERIFIED","sourceFeatureLnam":"1F2B6A5E355B7533","sourceCellId":"1R75K7RI","sourceChecksum":"111af78d456687b11c45a385a8ef53d1309c339e1170d49b90ce9c8518e9a32b","pipelineFeatureId":"1R75K7RI/SOUNDG/1283078445/11","provenance":{"cellId":"1R75K7RI","checksum":"111af78d456687b11c45a385a8ef53d1309c339e1170d49b90ce9c8518e9a32b","readerVersion":"GDAL 3.2.2","processedAt":"2026-08-11T13:43:44.753Z"}}},{"type":"Feature","geometry":{"type":"Point","coordinates":[3.3731911,51.3749216]},"properties":{"chartedValueMetres":-3.7,"chartedValueRelationToDatum":"above","depthDatum":"Approximate LAT","depthDatumCode":42,"depthDatumStatus":"VERIFIED_FROM_OFFICIAL_DOCUMENTATION","verticalDatum":"Local Datum","verticalDatumCode":24,"napIdentityStatus":"UNVERIFIED","sourceFeatureLnam":"1F2B6A5E355B7533","sourceCellId":"1R75K7RI","sourceChecksum":"111af78d456687b11c45a385a8ef53d1309c339e1170d49b90ce9c8518e9a32b","pipelineFeatureId":"1R75K7RI/SOUNDG/1283078445/12","provenance":{"cellId":"1R75K7RI","checksum":"111af78d456687b11c45a385a8ef53d1309c339e1170d49b90ce9c8518e9a32b","readerVersion":"GDAL 3.2.2","processedAt":"2026-08-11T13:43:44.753Z"}}},{"type":"Feature","geometry":{"type":"Point","coordinates":[3.3707392,51.3737604]},"properties":{"chartedValueMetres":-3.6,"chartedValueRelationToDatum":"above","depthDatum":"Approximate LAT","depthDatumCode":42,"depthDatumStatus":"VERIFIED_FROM_OFFICIAL_DOCUMENTATION","verticalDatum":"Local Datum","verticalDatumCode":24,"napIdentityStatus":"UNVERIFIED","sourceFeatureLnam":"1F2B6A5E355B7533","sourceCellId":"1R75K7RI","sourceChecksum":"111af78d456687b11c45a385a8ef53d1309c339e1170d49b90ce9c8518e9a32b","pipelineFeatureId":"1R75K7RI/SOUNDG/1283078445/13","provenance":{"cellId":"1R75K7RI","checksum":"111af78d456687b11c45a385a8ef53d1309c339e1170d49b90ce9c8518e9a32b","readerVersion":"GDAL 3.2.2","processedAt":"2026-08-11T13:43:44.753Z"}}},{"type":"Feature","geometry":{"type":"Point","coordinates":[3.3688506,51.3711587]},"properties":{"chartedValueMetres":-3.6,"chartedValueRelationToDatum":"above","depthDatum":"Approximate LAT","depthDatumCode":42,"depthDatumStatus":"VERIFIED_FROM_OFFICIAL_DOCUMENTATION","verticalDatum":"Local Datum","verticalDatumCode":24,"napIdentityStatus":"UNVERIFIED","sourceFeatureLnam":"1F2B6A5E355B7533","sourceCellId":"1R75K7RI","sourceChecksum":"111af78d456687b11c45a385a8ef53d1309c339e1170d49b90ce9c8518e9a32b","pipelineFeatureId":"1R75K7RI/SOUNDG/1283078445/14","provenance":{"cellId":"1R75K7RI","checksum":"111af78d456687b11c45a385a8ef53d1309c339e1170d49b90ce9c8518e9a32b","readerVersion":"GDAL 3.2.2","processedAt":"2026-08-11T13:43:44.753Z"}}},{"type":"Feature","geometry":{"type":"Point","coordinates":[3.3671246,51.3708944]},"properties":{"chartedValueMetres":-3.5,"chartedValueRelationToDatum":"above","depthDatum":"Approximate LAT","depthDatumCode":42,"depthDatumStatus":"VERIFIED_FROM_OFFICIAL_DOCUMENTATION","verticalDatum":"Local Datum","verticalDatumCode":24,"napIdentityStatus":"UNVERIFIED","sourceFeatureLnam":"1F2B6A5E355B7533","sourceCellId":"1R75K7RI","sourceChecksum":"111af78d456687b11c45a385a8ef53d1309c339e1170d49b90ce9c8518e9a32b","pipelineFeatureId":"1R75K7RI/SOUNDG/1283078445/15","provenance":{"cellId":"1R75K7RI","checksum":"111af78d456687b11c45a385a8ef53d1309c339e1170d49b90ce9c8518e9a32b","readerVersion":"GDAL 3.2.2","processedAt":"2026-08-11T13:43:44.753Z"}}},{"type":"Feature","geometry":{"type":"Point","coordinates":[3.3698743,51.3734035]},"properties":{"chartedValueMetres":-3.3,"chartedValueRelationToDatum":"above","depthDatum":"Approximate LAT","depthDatumCode":42,"depthDatumStatus":"VERIFIED_FROM_OFFICIAL_DOCUMENTATION","verticalDatum":"Local Datum","verticalDatumCode":24,"napIdentityStatus":"UNVERIFIED","sourceFeatureLnam":"1F2B6A5E355B7533","sourceCellId":"1R75K7RI","sourceChecksum":"111af78d456687b11c45a385a8ef53d1309c339e1170d49b90ce9c8518e9a32b","pipelineFeatureId":"1R75K7RI/SOUNDG/1283078445/16","provenance":{"cellId":"1R75K7RI","checksum":"111af78d456687b11c45a385a8ef53d1309c339e1170d49b90ce9c8518e9a32b","readerVersion":"GDAL 3.2.2","processedAt":"2026-08-11T13:43:44.753Z"}}},{"type":"Feature","geometry":{"type":"Point","coordinates":[3.3714619,51.3742977]},"properties":{"chartedValueMetres":-3.3,"chartedValueRelationToDatum":"above","depthDatum":"Approximate LAT","depthDatumCode":42,"depthDatumStatus":"VERIFIED_FROM_OFFICIAL_DOCUMENTATION","verticalDatum":"Local Datum","verticalDatumCode":24,"napIdentityStatus":"UNVERIFIED","sourceFeatureLnam":"1F2B6A5E355B7533","sourceCellId":"1R75K7RI","sourceChecksum":"111af78d456687b11c45a385a8ef53d1309c339e1170d49b90ce9c8518e9a32b","pipelineFeatureId":"1R75K7RI/SOUNDG/1283078445/17","provenance":{"cellId":"1R75K7RI","checksum":"111af78d456687b11c45a385a8ef53d1309c339e1170d49b90ce9c8518e9a32b","readerVersion":"GDAL 3.2.2","processedAt":"2026-08-11T13:43:44.753Z"}}},{"type":"Feature","geometry":{"type":"Point","coordinates":[3.3690095,51.3730465]},"properties":{"chartedValueMetres":-2.7,"chartedValueRelationToDatum":"above","depthDatum":"Approximate LAT","depthDatumCode":42,"depthDatumStatus":"VERIFIED_FROM_OFFICIAL_DOCUMENTATION","verticalDatum":"Local Datum","verticalDatumCode":24,"napIdentityStatus":"UNVERIFIED","sourceFeatureLnam":"1F2B6A5E355B7533","sourceCellId":"1R75K7RI","sourceChecksum":"111af78d456687b11c45a385a8ef53d1309c339e1170d49b90ce9c8518e9a32b","pipelineFeatureId":"1R75K7RI/SOUNDG/1283078445/18","provenance":{"cellId":"1R75K7RI","checksum":"111af78d456687b11c45a385a8ef53d1309c339e1170d49b90ce9c8518e9a32b","readerVersion":"GDAL 3.2.2","processedAt":"2026-08-11T13:43:44.753Z"}}},{"type":"Feature","geometry":{"type":"Point","coordinates":[3.3675656,51.3721519]},"properties":{"chartedValueMetres":-2.6,"chartedValueRelationToDatum":"above","depthDatum":"Approximate LAT","depthDatumCode":42,"depthDatumStatus":"VERIFIED_FROM_OFFICIAL_DOCUMENTATION","verticalDatum":"Local Datum","verticalDatumCode":24,"napIdentityStatus":"UNVERIFIED","sourceFeatureLnam":"1F2B6A5E355B7533","sourceCellId":"1R75K7RI","sourceChecksum":"111af78d456687b11c45a385a8ef53d1309c339e1170d49b90ce9c8518e9a32b","pipelineFeatureId":"1R75K7RI/SOUNDG/1283078445/19","provenance":{"cellId":"1R75K7RI","checksum":"111af78d456687b11c45a385a8ef53d1309c339e1170d49b90ce9c8518e9a32b","readerVersion":"GDAL 3.2.2","processedAt":"2026-08-11T13:43:44.753Z"}}},{"type":"Feature","geometry":{"type":"Point","coordinates":[3.3675512,51.3703535]},"properties":{"chartedValueMetres":-2.6,"chartedValueRelationToDatum":"above","depthDatum":"Approximate LAT","depthDatumCode":42,"depthDatumStatus":"VERIFIED_FROM_OFFICIAL_DOCUMENTATION","verticalDatum":"Local Datum","verticalDatumCode":24,"napIdentityStatus":"UNVERIFIED","sourceFeatureLnam":"1F2B6A5E355B7533","sourceCellId":"1R75K7RI","sourceChecksum":"111af78d456687b11c45a385a8ef53d1309c339e1170d49b90ce9c8518e9a32b","pipelineFeatureId":"1R75K7RI/SOUNDG/1283078445/20","provenance":{"cellId":"1R75K7RI","checksum":"111af78d456687b11c45a385a8ef53d1309c339e1170d49b90ce9c8518e9a32b","readerVersion":"GDAL 3.2.2","processedAt":"2026-08-11T13:43:44.753Z"}}},{"type":"Feature","geometry":{"type":"Point","coordinates":[3.3659703,51.3702686]},"properties":{"chartedValueMetres":-2.3,"chartedValueRelationToDatum":"above","depthDatum":"Approximate LAT","depthDatumCode":42,"depthDatumStatus":"VERIFIED_FROM_OFFICIAL_DOCUMENTATION","verticalDatum":"Local Datum","verticalDatumCode":24,"napIdentityStatus":"UNVERIFIED","sourceFeatureLnam":"1F2B6A5E355B7533","sourceCellId":"1R75K7RI","sourceChecksum":"111af78d456687b11c45a385a8ef53d1309c339e1170d49b90ce9c8518e9a32b","pipelineFeatureId":"1R75K7RI/SOUNDG/1283078445/21","provenance":{"cellId":"1R75K7RI","checksum":"111af78d456687b11c45a385a8ef53d1309c339e1170d49b90ce9c8518e9a32b","readerVersion":"GDAL 3.2.2","processedAt":"2026-08-11T13:43:44.753Z"}}},{"type":"Feature","geometry":{"type":"Point","coordinates":[3.36656,51.372155]},"properties":{"chartedValueMetres":-2.2,"chartedValueRelationToDatum":"above","depthDatum":"Approximate LAT","depthDatumCode":42,"depthDatumStatus":"VERIFIED_FROM_OFFICIAL_DOCUMENTATION","verticalDatum":"Local Datum","verticalDatumCode":24,"napIdentityStatus":"UNVERIFIED","sourceFeatureLnam":"1F2B6A5E355B7533","sourceCellId":"1R75K7RI","sourceChecksum":"111af78d456687b11c45a385a8ef53d1309c339e1170d49b90ce9c8518e9a32b","pipelineFeatureId":"1R75K7RI/SOUNDG/1283078445/22","provenance":{"cellId":"1R75K7RI","checksum":"111af78d456687b11c45a385a8ef53d1309c339e1170d49b90ce9c8518e9a32b","readerVersion":"GDAL 3.2.2","processedAt":"2026-08-11T13:43:44.753Z"}}},{"type":"Feature","geometry":{"type":"Point","coordinates":[3.3678602,51.3730501]},"properties":{"chartedValueMetres":-2.2,"chartedValueRelationToDatum":"above","depthDatum":"Approximate LAT","depthDatumCode":42,"depthDatumStatus":"VERIFIED_FROM_OFFICIAL_DOCUMENTATION","verticalDatum":"Local Datum","verticalDatumCode":24,"napIdentityStatus":"UNVERIFIED","sourceFeatureLnam":"1F2B6A5E355B7533","sourceCellId":"1R75K7RI","sourceChecksum":"111af78d456687b11c45a385a8ef53d1309c339e1170d49b90ce9c8518e9a32b","pipelineFeatureId":"1R75K7RI/SOUNDG/1283078445/23","provenance":{"cellId":"1R75K7RI","checksum":"111af78d456687b11c45a385a8ef53d1309c339e1170d49b90ce9c8518e9a32b","readerVersion":"GDAL 3.2.2","processedAt":"2026-08-11T13:43:44.753Z"}}},{"type":"Feature","geometry":{"type":"Point","coordinates":[3.3662648,51.3711668]},"properties":{"chartedValueMetres":-2.1,"chartedValueRelationToDatum":"above","depthDatum":"Approximate LAT","depthDatumCode":42,"depthDatumStatus":"VERIFIED_FROM_OFFICIAL_DOCUMENTATION","verticalDatum":"Local Datum","verticalDatumCode":24,"napIdentityStatus":"UNVERIFIED","sourceFeatureLnam":"1F2B6A5E355B7533","sourceCellId":"1R75K7RI","sourceChecksum":"111af78d456687b11c45a385a8ef53d1309c339e1170d49b90ce9c8518e9a32b","pipelineFeatureId":"1R75K7RI/SOUNDG/1283078445/24","provenance":{"cellId":"1R75K7RI","checksum":"111af78d456687b11c45a385a8ef53d1309c339e1170d49b90ce9c8518e9a32b","readerVersion":"GDAL 3.2.2","processedAt":"2026-08-11T13:43:44.753Z"}}},{"type":"Feature","geometry":{"type":"Point","coordinates":[3.3656959,51.371888]},"properties":{"chartedValueMetres":-2.1,"chartedValueRelationToDatum":"above","depthDatum":"Approximate LAT","depthDatumCode":42,"depthDatumStatus":"VERIFIED_FROM_OFFICIAL_DOCUMENTATION","verticalDatum":"Local Datum","verticalDatumCode":24,"napIdentityStatus":"UNVERIFIED","sourceFeatureLnam":"1F2B6A5E355B7533","sourceCellId":"1R75K7RI","sourceChecksum":"111af78d456687b11c45a385a8ef53d1309c339e1170d49b90ce9c8518e9a32b","pipelineFeatureId":"1R75K7RI/SOUNDG/1283078445/25","provenance":{"cellId":"1R75K7RI","checksum":"111af78d456687b11c45a385a8ef53d1309c339e1170d49b90ce9c8518e9a32b","readerVersion":"GDAL 3.2.2","processedAt":"2026-08-11T13:43:44.753Z"}}},{"type":"Feature","geometry":{"type":"Point","coordinates":[3.3669953,51.3726932]},"properties":{"chartedValueMetres":-2,"chartedValueRelationToDatum":"above","depthDatum":"Approximate LAT","depthDatumCode":42,"depthDatumStatus":"VERIFIED_FROM_OFFICIAL_DOCUMENTATION","verticalDatum":"Local Datum","verticalDatumCode":24,"napIdentityStatus":"UNVERIFIED","sourceFeatureLnam":"1F2B6A5E355B7533","sourceCellId":"1R75K7RI","sourceChecksum":"111af78d456687b11c45a385a8ef53d1309c339e1170d49b90ce9c8518e9a32b","pipelineFeatureId":"1R75K7RI/SOUNDG/1283078445/26","provenance":{"cellId":"1R75K7RI","checksum":"111af78d456687b11c45a385a8ef53d1309c339e1170d49b90ce9c8518e9a32b","readerVersion":"GDAL 3.2.2","processedAt":"2026-08-11T13:43:44.753Z"}}},{"type":"Feature","geometry":{"type":"Point","coordinates":[3.3649811,51.3723398]},"properties":{"chartedValueMetres":-1.9,"chartedValueRelationToDatum":"above","depthDatum":"Approximate LAT","depthDatumCode":42,"depthDatumStatus":"VERIFIED_FROM_OFFICIAL_DOCUMENTATION","verticalDatum":"Local Datum","verticalDatumCode":24,"napIdentityStatus":"UNVERIFIED","sourceFeatureLnam":"1F2B6A5E355B7533","sourceCellId":"1R75K7RI","sourceChecksum":"111af78d456687b11c45a385a8ef53d1309c339e1170d49b90ce9c8518e9a32b","pipelineFeatureId":"1R75K7RI/SOUNDG/1283078445/27","provenance":{"cellId":"1R75K7RI","checksum":"111af78d456687b11c45a385a8ef53d1309c339e1170d49b90ce9c8518e9a32b","readerVersion":"GDAL 3.2.2","processedAt":"2026-08-11T13:43:44.753Z"}}},{"type":"Feature","geometry":{"type":"Point","coordinates":[3.3690145,51.373676]},"properties":{"chartedValueMetres":-1.8,"chartedValueRelationToDatum":"above","depthDatum":"Approximate LAT","depthDatumCode":42,"depthDatumStatus":"VERIFIED_FROM_OFFICIAL_DOCUMENTATION","verticalDatum":"Local Datum","verticalDatumCode":24,"napIdentityStatus":"UNVERIFIED","sourceFeatureLnam":"1F2B6A5E355B7533","sourceCellId":"1R75K7RI","sourceChecksum":"111af78d456687b11c45a385a8ef53d1309c339e1170d49b90ce9c8518e9a32b","pipelineFeatureId":"1R75K7RI/SOUNDG/1283078445/28","provenance":{"cellId":"1R75K7RI","checksum":"111af78d456687b11c45a385a8ef53d1309c339e1170d49b90ce9c8518e9a32b","readerVersion":"GDAL 3.2.2","processedAt":"2026-08-11T13:43:44.753Z"}}},{"type":"Feature","geometry":{"type":"Point","coordinates":[3.3641163,51.3719828]},"properties":{"chartedValueMetres":-1.8,"chartedValueRelationToDatum":"above","depthDatum":"Approximate LAT","depthDatumCode":42,"depthDatumStatus":"VERIFIED_FROM_OFFICIAL_DOCUMENTATION","verticalDatum":"Local Datum","verticalDatumCode":24,"napIdentityStatus":"UNVERIFIED","sourceFeatureLnam":"1F2B6A5E355B7533","sourceCellId":"1R75K7RI","sourceChecksum":"111af78d456687b11c45a385a8ef53d1309c339e1170d49b90ce9c8518e9a32b","pipelineFeatureId":"1R75K7RI/SOUNDG/1283078445/29","provenance":{"cellId":"1R75K7RI","checksum":"111af78d456687b11c45a385a8ef53d1309c339e1170d49b90ce9c8518e9a32b","readerVersion":"GDAL 3.2.2","processedAt":"2026-08-11T13:43:44.753Z"}}},{"type":"Feature","geometry":{"type":"Point","coordinates":[3.3670003,51.3733226]},"properties":{"chartedValueMetres":-1.5,"chartedValueRelationToDatum":"above","depthDatum":"Approximate LAT","depthDatumCode":42,"depthDatumStatus":"VERIFIED_FROM_OFFICIAL_DOCUMENTATION","verticalDatum":"Local Datum","verticalDatumCode":24,"napIdentityStatus":"UNVERIFIED","sourceFeatureLnam":"1F2B6A5E355B7533","sourceCellId":"1R75K7RI","sourceChecksum":"111af78d456687b11c45a385a8ef53d1309c339e1170d49b90ce9c8518e9a32b","pipelineFeatureId":"1R75K7RI/SOUNDG/1283078445/30","provenance":{"cellId":"1R75K7RI","checksum":"111af78d456687b11c45a385a8ef53d1309c339e1170d49b90ce9c8518e9a32b","readerVersion":"GDAL 3.2.2","processedAt":"2026-08-11T13:43:44.753Z"}}},{"type":"Feature","geometry":{"type":"Point","coordinates":[3.3639777,51.3726127]},"properties":{"chartedValueMetres":-1.4,"chartedValueRelationToDatum":"above","depthDatum":"Approximate LAT","depthDatumCode":42,"depthDatumStatus":"VERIFIED_FROM_OFFICIAL_DOCUMENTATION","verticalDatum":"Local Datum","verticalDatumCode":24,"napIdentityStatus":"UNVERIFIED","sourceFeatureLnam":"1F2B6A5E355B7533","sourceCellId":"1R75K7RI","sourceChecksum":"111af78d456687b11c45a385a8ef53d1309c339e1170d49b90ce9c8518e9a32b","pipelineFeatureId":"1R75K7RI/SOUNDG/1283078445/31","provenance":{"cellId":"1R75K7RI","checksum":"111af78d456687b11c45a385a8ef53d1309c339e1170d49b90ce9c8518e9a32b","readerVersion":"GDAL 3.2.2","processedAt":"2026-08-11T13:43:44.753Z"}}},{"type":"Feature","geometry":{"type":"Point","coordinates":[3.3648432,51.3730596]},"properties":{"chartedValueMetres":-1.1,"chartedValueRelationToDatum":"above","depthDatum":"Approximate LAT","depthDatumCode":42,"depthDatumStatus":"VERIFIED_FROM_OFFICIAL_DOCUMENTATION","verticalDatum":"Local Datum","verticalDatumCode":24,"napIdentityStatus":"UNVERIFIED","sourceFeatureLnam":"1F2B6A5E355B7533","sourceCellId":"1R75K7RI","sourceChecksum":"111af78d456687b11c45a385a8ef53d1309c339e1170d49b90ce9c8518e9a32b","pipelineFeatureId":"1R75K7RI/SOUNDG/1283078445/32","provenance":{"cellId":"1R75K7RI","checksum":"111af78d456687b11c45a385a8ef53d1309c339e1170d49b90ce9c8518e9a32b","readerVersion":"GDAL 3.2.2","processedAt":"2026-08-11T13:43:44.753Z"}}},{"type":"Feature","geometry":{"type":"Point","coordinates":[3.3659954,51.3734157]},"properties":{"chartedValueMetres":-1.1,"chartedValueRelationToDatum":"above","depthDatum":"Approximate LAT","depthDatumCode":42,"depthDatumStatus":"VERIFIED_FROM_OFFICIAL_DOCUMENTATION","verticalDatum":"Local Datum","verticalDatumCode":24,"napIdentityStatus":"UNVERIFIED","sourceFeatureLnam":"1F2B6A5E355B7533","sourceCellId":"1R75K7RI","sourceChecksum":"111af78d456687b11c45a385a8ef53d1309c339e1170d49b90ce9c8518e9a32b","pipelineFeatureId":"1R75K7RI/SOUNDG/1283078445/33","provenance":{"cellId":"1R75K7RI","checksum":"111af78d456687b11c45a385a8ef53d1309c339e1170d49b90ce9c8518e9a32b","readerVersion":"GDAL 3.2.2","processedAt":"2026-08-11T13:43:44.753Z"}}},{"type":"Feature","geometry":{"type":"Point","coordinates":[3.3711797,51.374928]},"properties":{"chartedValueMetres":-1.1,"chartedValueRelationToDatum":"above","depthDatum":"Approximate LAT","depthDatumCode":42,"depthDatumStatus":"VERIFIED_FROM_OFFICIAL_DOCUMENTATION","verticalDatum":"Local Datum","verticalDatumCode":24,"napIdentityStatus":"UNVERIFIED","sourceFeatureLnam":"1F2B6A5E355B7533","sourceCellId":"1R75K7RI","sourceChecksum":"111af78d456687b11c45a385a8ef53d1309c339e1170d49b90ce9c8518e9a32b","pipelineFeatureId":"1R75K7RI/SOUNDG/1283078445/34","provenance":{"cellId":"1R75K7RI","checksum":"111af78d456687b11c45a385a8ef53d1309c339e1170d49b90ce9c8518e9a32b","readerVersion":"GDAL 3.2.2","processedAt":"2026-08-11T13:43:44.753Z"}}},{"type":"Feature","geometry":{"type":"Point","coordinates":[3.3688759,51.3743058]},"properties":{"chartedValueMetres":-1,"chartedValueRelationToDatum":"above","depthDatum":"Approximate LAT","depthDatumCode":42,"depthDatumStatus":"VERIFIED_FROM_OFFICIAL_DOCUMENTATION","verticalDatum":"Local Datum","verticalDatumCode":24,"napIdentityStatus":"UNVERIFIED","sourceFeatureLnam":"1F2B6A5E355B7533","sourceCellId":"1R75K7RI","sourceChecksum":"111af78d456687b11c45a385a8ef53d1309c339e1170d49b90ce9c8518e9a32b","pipelineFeatureId":"1R75K7RI/SOUNDG/1283078445/35","provenance":{"cellId":"1R75K7RI","checksum":"111af78d456687b11c45a385a8ef53d1309c339e1170d49b90ce9c8518e9a32b","readerVersion":"GDAL 3.2.2","processedAt":"2026-08-11T13:43:44.753Z"}}},{"type":"Feature","geometry":{"type":"Point","coordinates":[3.367149,51.3739516]},"properties":{"chartedValueMetres":-0.9,"chartedValueRelationToDatum":"above","depthDatum":"Approximate LAT","depthDatumCode":42,"depthDatumStatus":"VERIFIED_FROM_OFFICIAL_DOCUMENTATION","verticalDatum":"Local Datum","verticalDatumCode":24,"napIdentityStatus":"UNVERIFIED","sourceFeatureLnam":"1F2B6A5E355B7533","sourceCellId":"1R75K7RI","sourceChecksum":"111af78d456687b11c45a385a8ef53d1309c339e1170d49b90ce9c8518e9a32b","pipelineFeatureId":"1R75K7RI/SOUNDG/1283078445/36","provenance":{"cellId":"1R75K7RI","checksum":"111af78d456687b11c45a385a8ef53d1309c339e1170d49b90ce9c8518e9a32b","readerVersion":"GDAL 3.2.2","processedAt":"2026-08-11T13:43:44.753Z"}}},{"type":"Feature","geometry":{"type":"Point","coordinates":[3.3698852,51.3747522]},"properties":{"chartedValueMetres":-0.8,"chartedValueRelationToDatum":"above","depthDatum":"Approximate LAT","depthDatumCode":42,"depthDatumStatus":"VERIFIED_FROM_OFFICIAL_DOCUMENTATION","verticalDatum":"Local Datum","verticalDatumCode":24,"napIdentityStatus":"UNVERIFIED","sourceFeatureLnam":"1F2B6A5E355B7533","sourceCellId":"1R75K7RI","sourceChecksum":"111af78d456687b11c45a385a8ef53d1309c339e1170d49b90ce9c8518e9a32b","pipelineFeatureId":"1R75K7RI/SOUNDG/1283078445/37","provenance":{"cellId":"1R75K7RI","checksum":"111af78d456687b11c45a385a8ef53d1309c339e1170d49b90ce9c8518e9a32b","readerVersion":"GDAL 3.2.2","processedAt":"2026-08-11T13:43:44.753Z"}}},{"type":"Feature","geometry":{"type":"Point","coordinates":[3.367871,51.3743989]},"properties":{"chartedValueMetres":-0.7,"chartedValueRelationToDatum":"above","depthDatum":"Approximate LAT","depthDatumCode":42,"depthDatumStatus":"VERIFIED_FROM_OFFICIAL_DOCUMENTATION","verticalDatum":"Local Datum","verticalDatumCode":24,"napIdentityStatus":"UNVERIFIED","sourceFeatureLnam":"1F2B6A5E355B7533","sourceCellId":"1R75K7RI","sourceChecksum":"111af78d456687b11c45a385a8ef53d1309c339e1170d49b90ce9c8518e9a32b","pipelineFeatureId":"1R75K7RI/SOUNDG/1283078445/38","provenance":{"cellId":"1R75K7RI","checksum":"111af78d456687b11c45a385a8ef53d1309c339e1170d49b90ce9c8518e9a32b","readerVersion":"GDAL 3.2.2","processedAt":"2026-08-11T13:43:44.753Z"}}},{"type":"Feature","geometry":{"type":"Point","coordinates":[3.3631178,51.3728851]},"properties":{"chartedValueMetres":-0.3,"chartedValueRelationToDatum":"above","depthDatum":"Approximate LAT","depthDatumCode":42,"depthDatumStatus":"VERIFIED_FROM_OFFICIAL_DOCUMENTATION","verticalDatum":"Local Datum","verticalDatumCode":24,"napIdentityStatus":"UNVERIFIED","sourceFeatureLnam":"1F2B6A5E355B7533","sourceCellId":"1R75K7RI","sourceChecksum":"111af78d456687b11c45a385a8ef53d1309c339e1170d49b90ce9c8518e9a32b","pipelineFeatureId":"1R75K7RI/SOUNDG/1283078445/39","provenance":{"cellId":"1R75K7RI","checksum":"111af78d456687b11c45a385a8ef53d1309c339e1170d49b90ce9c8518e9a32b","readerVersion":"GDAL 3.2.2","processedAt":"2026-08-11T13:43:44.753Z"}}},{"type":"Feature","geometry":{"type":"Point","coordinates":[3.368881,51.3749353]},"properties":{"chartedValueMetres":-0.3,"chartedValueRelationToDatum":"above","depthDatum":"Approximate LAT","depthDatumCode":42,"depthDatumStatus":"VERIFIED_FROM_OFFICIAL_DOCUMENTATION","verticalDatum":"Local Datum","verticalDatumCode":24,"napIdentityStatus":"UNVERIFIED","sourceFeatureLnam":"1F2B6A5E355B7533","sourceCellId":"1R75K7RI","sourceChecksum":"111af78d456687b11c45a385a8ef53d1309c339e1170d49b90ce9c8518e9a32b","pipelineFeatureId":"1R75K7RI/SOUNDG/1283078445/40","provenance":{"cellId":"1R75K7RI","checksum":"111af78d456687b11c45a385a8ef53d1309c339e1170d49b90ce9c8518e9a32b","readerVersion":"GDAL 3.2.2","processedAt":"2026-08-11T13:43:44.753Z"}}},{"type":"Feature","geometry":{"type":"Point","coordinates":[3.3661441,51.3740446]},"properties":{"chartedValueMetres":0,"chartedValueRelationToDatum":"at","depthDatum":"Approximate LAT","depthDatumCode":42,"depthDatumStatus":"VERIFIED_FROM_OFFICIAL_DOCUMENTATION","verticalDatum":"Local Datum","verticalDatumCode":24,"napIdentityStatus":"UNVERIFIED","sourceFeatureLnam":"1F2B6A5E355B7533","sourceCellId":"1R75K7RI","sourceChecksum":"111af78d456687b11c45a385a8ef53d1309c339e1170d49b90ce9c8518e9a32b","pipelineFeatureId":"1R75K7RI/SOUNDG/1283078445/41","provenance":{"cellId":"1R75K7RI","checksum":"111af78d456687b11c45a385a8ef53d1309c339e1170d49b90ce9c8518e9a32b","readerVersion":"GDAL 3.2.2","processedAt":"2026-08-11T13:43:44.753Z"}}},{"type":"Feature","geometry":{"type":"Point","coordinates":[3.3651355,51.3736881]},"properties":{"chartedValueMetres":0.1,"chartedValueRelationToDatum":"below","depthDatum":"Approximate LAT","depthDatumCode":42,"depthDatumStatus":"VERIFIED_FROM_OFFICIAL_DOCUMENTATION","verticalDatum":"Local Datum","verticalDatumCode":24,"napIdentityStatus":"UNVERIFIED","sourceFeatureLnam":"1F2B6A5E355B7533","sourceCellId":"1R75K7RI","sourceChecksum":"111af78d456687b11c45a385a8ef53d1309c339e1170d49b90ce9c8518e9a32b","pipelineFeatureId":"1R75K7RI/SOUNDG/1283078445/42","provenance":{"cellId":"1R75K7RI","checksum":"111af78d456687b11c45a385a8ef53d1309c339e1170d49b90ce9c8518e9a32b","readerVersion":"GDAL 3.2.2","processedAt":"2026-08-11T13:43:44.753Z"}}},{"type":"Feature","geometry":{"type":"Point","coordinates":[3.3668667,51.3745819]},"properties":{"chartedValueMetres":1.4,"chartedValueRelationToDatum":"below","depthDatum":"Approximate LAT","depthDatumCode":42,"depthDatumStatus":"VERIFIED_FROM_OFFICIAL_DOCUMENTATION","verticalDatum":"Local Datum","verticalDatumCode":24,"napIdentityStatus":"UNVERIFIED","sourceFeatureLnam":"1F2B6A5E355B7533","sourceCellId":"1R75K7RI","sourceChecksum":"111af78d456687b11c45a385a8ef53d1309c339e1170d49b90ce9c8518e9a32b","pipelineFeatureId":"1R75K7RI/SOUNDG/1283078445/43","provenance":{"cellId":"1R75K7RI","checksum":"111af78d456687b11c45a385a8ef53d1309c339e1170d49b90ce9c8518e9a32b","readerVersion":"GDAL 3.2.2","processedAt":"2026-08-11T13:43:44.753Z"}}},{"type":"Feature","geometry":{"type":"Point","coordinates":[3.3642757,51.3739605]},"properties":{"chartedValueMetres":2.5,"chartedValueRelationToDatum":"below","depthDatum":"Approximate LAT","depthDatumCode":42,"depthDatumStatus":"VERIFIED_FROM_OFFICIAL_DOCUMENTATION","verticalDatum":"Local Datum","verticalDatumCode":24,"napIdentityStatus":"UNVERIFIED","sourceFeatureLnam":"1F2B6A5E355B7533","sourceCellId":"1R75K7RI","sourceChecksum":"111af78d456687b11c45a385a8ef53d1309c339e1170d49b90ce9c8518e9a32b","pipelineFeatureId":"1R75K7RI/SOUNDG/1283078445/44","provenance":{"cellId":"1R75K7RI","checksum":"111af78d456687b11c45a385a8ef53d1309c339e1170d49b90ce9c8518e9a32b","readerVersion":"GDAL 3.2.2","processedAt":"2026-08-11T13:43:44.753Z"}}},{"type":"Feature","geometry":{"type":"Point","coordinates":[3.3631235,51.3736044]},"properties":{"chartedValueMetres":3,"chartedValueRelationToDatum":"below","depthDatum":"Approximate LAT","depthDatumCode":42,"depthDatumStatus":"VERIFIED_FROM_OFFICIAL_DOCUMENTATION","verticalDatum":"Local Datum","verticalDatumCode":24,"napIdentityStatus":"UNVERIFIED","sourceFeatureLnam":"1F2B6A5E355B7533","sourceCellId":"1R75K7RI","sourceChecksum":"111af78d456687b11c45a385a8ef53d1309c339e1170d49b90ce9c8518e9a32b","pipelineFeatureId":"1R75K7RI/SOUNDG/1283078445/45","provenance":{"cellId":"1R75K7RI","checksum":"111af78d456687b11c45a385a8ef53d1309c339e1170d49b90ce9c8518e9a32b","readerVersion":"GDAL 3.2.2","processedAt":"2026-08-11T13:43:44.753Z"}}},{"type":"Feature","geometry":{"type":"Point","coordinates":[3.3660069,51.3748543]},"properties":{"chartedValueMetres":3,"chartedValueRelationToDatum":"below","depthDatum":"Approximate LAT","depthDatumCode":42,"depthDatumStatus":"VERIFIED_FROM_OFFICIAL_DOCUMENTATION","verticalDatum":"Local Datum","verticalDatumCode":24,"napIdentityStatus":"UNVERIFIED","sourceFeatureLnam":"1F2B6A5E355B7533","sourceCellId":"1R75K7RI","sourceChecksum":"111af78d456687b11c45a385a8ef53d1309c339e1170d49b90ce9c8518e9a32b","pipelineFeatureId":"1R75K7RI/SOUNDG/1283078445/46","provenance":{"cellId":"1R75K7RI","checksum":"111af78d456687b11c45a385a8ef53d1309c339e1170d49b90ce9c8518e9a32b","readerVersion":"GDAL 3.2.2","processedAt":"2026-08-11T13:43:44.753Z"}}},{"type":"Feature","geometry":{"type":"Point","coordinates":[3.3644243,51.3745895]},"properties":{"chartedValueMetres":3.9,"chartedValueRelationToDatum":"below","depthDatum":"Approximate LAT","depthDatumCode":42,"depthDatumStatus":"VERIFIED_FROM_OFFICIAL_DOCUMENTATION","verticalDatum":"Local Datum","verticalDatumCode":24,"napIdentityStatus":"UNVERIFIED","sourceFeatureLnam":"1F2B6A5E355B7533","sourceCellId":"1R75K7RI","sourceChecksum":"111af78d456687b11c45a385a8ef53d1309c339e1170d49b90ce9c8518e9a32b","pipelineFeatureId":"1R75K7RI/SOUNDG/1283078445/47","provenance":{"cellId":"1R75K7RI","checksum":"111af78d456687b11c45a385a8ef53d1309c339e1170d49b90ce9c8518e9a32b","readerVersion":"GDAL 3.2.2","processedAt":"2026-08-11T13:43:44.753Z"}}},{"type":"Feature","geometry":{"type":"Point","coordinates":[3.3634158,51.374233]},"properties":{"chartedValueMetres":4,"chartedValueRelationToDatum":"below","depthDatum":"Approximate LAT","depthDatumCode":42,"depthDatumStatus":"VERIFIED_FROM_OFFICIAL_DOCUMENTATION","verticalDatum":"Local Datum","verticalDatumCode":24,"napIdentityStatus":"UNVERIFIED","sourceFeatureLnam":"1F2B6A5E355B7533","sourceCellId":"1R75K7RI","sourceChecksum":"111af78d456687b11c45a385a8ef53d1309c339e1170d49b90ce9c8518e9a32b","pipelineFeatureId":"1R75K7RI/SOUNDG/1283078445/48","provenance":{"cellId":"1R75K7RI","checksum":"111af78d456687b11c45a385a8ef53d1309c339e1170d49b90ce9c8518e9a32b","readerVersion":"GDAL 3.2.2","processedAt":"2026-08-11T13:43:44.753Z"}}},{"type":"Feature","geometry":{"type":"Point","coordinates":[3.3622636,51.3738769]},"properties":{"chartedValueMetres":4.1,"chartedValueRelationToDatum":"below","depthDatum":"Approximate LAT","depthDatumCode":42,"depthDatumStatus":"VERIFIED_FROM_OFFICIAL_DOCUMENTATION","verticalDatum":"Local Datum","verticalDatumCode":24,"napIdentityStatus":"UNVERIFIED","sourceFeatureLnam":"1F2B6A5E355B7533","sourceCellId":"1R75K7RI","sourceChecksum":"111af78d456687b11c45a385a8ef53d1309c339e1170d49b90ce9c8518e9a32b","pipelineFeatureId":"1R75K7RI/SOUNDG/1283078445/49","provenance":{"cellId":"1R75K7RI","checksum":"111af78d456687b11c45a385a8ef53d1309c339e1170d49b90ce9c8518e9a32b","readerVersion":"GDAL 3.2.2","processedAt":"2026-08-11T13:43:44.753Z"}}},{"type":"Feature","geometry":{"type":"Point","coordinates":[3.3625559,51.3745054]},"properties":{"chartedValueMetres":4.9,"chartedValueRelationToDatum":"below","depthDatum":"Approximate LAT","depthDatumCode":42,"depthDatumStatus":"VERIFIED_FROM_OFFICIAL_DOCUMENTATION","verticalDatum":"Local Datum","verticalDatumCode":24,"napIdentityStatus":"UNVERIFIED","sourceFeatureLnam":"1F2B6A5E355B7533","sourceCellId":"1R75K7RI","sourceChecksum":"111af78d456687b11c45a385a8ef53d1309c339e1170d49b90ce9c8518e9a32b","pipelineFeatureId":"1R75K7RI/SOUNDG/1283078445/50","provenance":{"cellId":"1R75K7RI","checksum":"111af78d456687b11c45a385a8ef53d1309c339e1170d49b90ce9c8518e9a32b","readerVersion":"GDAL 3.2.2","processedAt":"2026-08-11T13:43:44.753Z"}}},{"type":"Feature","geometry":{"type":"Point","coordinates":[3.3612594,51.3740598]},"properties":{"chartedValueMetres":4.9,"chartedValueRelationToDatum":"below","depthDatum":"Approximate LAT","depthDatumCode":42,"depthDatumStatus":"VERIFIED_FROM_OFFICIAL_DOCUMENTATION","verticalDatum":"Local Datum","verticalDatumCode":24,"napIdentityStatus":"UNVERIFIED","sourceFeatureLnam":"1F2B6A5E355B7533","sourceCellId":"1R75K7RI","sourceChecksum":"111af78d456687b11c45a385a8ef53d1309c339e1170d49b90ce9c8518e9a32b","pipelineFeatureId":"1R75K7RI/SOUNDG/1283078445/51","provenance":{"cellId":"1R75K7RI","checksum":"111af78d456687b11c45a385a8ef53d1309c339e1170d49b90ce9c8518e9a32b","readerVersion":"GDAL 3.2.2","processedAt":"2026-08-11T13:43:44.753Z"}}},{"type":"Feature","geometry":{"type":"Point","coordinates":[3.3604009,51.374512]},"properties":{"chartedValueMetres":6.3,"chartedValueRelationToDatum":"below","depthDatum":"Approximate LAT","depthDatumCode":42,"depthDatumStatus":"VERIFIED_FROM_OFFICIAL_DOCUMENTATION","verticalDatum":"Local Datum","verticalDatumCode":24,"napIdentityStatus":"UNVERIFIED","sourceFeatureLnam":"1F2B6A5E355B7533","sourceCellId":"1R75K7RI","sourceChecksum":"111af78d456687b11c45a385a8ef53d1309c339e1170d49b90ce9c8518e9a32b","pipelineFeatureId":"1R75K7RI/SOUNDG/1283078445/52","provenance":{"cellId":"1R75K7RI","checksum":"111af78d456687b11c45a385a8ef53d1309c339e1170d49b90ce9c8518e9a32b","readerVersion":"GDAL 3.2.2","processedAt":"2026-08-11T13:43:44.753Z"}}}]}