{"type":"FeatureCollection","features":[{"type":"Feature","geometry":{"type":"Point","coordinates":[3.4066334,51.4151833]},"properties":{"dolphinKind":"buoy-lateral","rawObjectClass":"BOYLAT","sourceProperties":{"RCID":16966,"PRIM":1,"GRUP":2,"OBJL":17,"RVER":1,"AGEN":7979,"FIDN":1106834682,"FIDS":282,"LNAM":"1F2B41F8F4FA011A","LNAM_REFS":["1F2B41F8F4FA0119"],"FFPT_RIND":[2],"BOYSHP":2,"CATLAM":1,"COLOUR":["3"],"CONRAD":3,"OBJNAM":"W 4","SCAMIN":200000,"SORDAT":"20040109","sourceCellId":"1R75K7XI","sourceChecksum":"488888fa1124825de652cfc77eaf389c8281e2cda796cb89c76a2fae5ae984ec","rawObjectClass":"BOYLAT","sourceStableId":"1F2B41F8F4FA011A"},"sourceKind":"official","official":true,"sourceCellId":"1R75K7XI","sourceStableId":"1F2B41F8F4FA011A","pipelineFeatureId":"1R75K7XI/BOYLAT/16966","provenance":{"cellId":"1R75K7XI","checksum":"488888fa1124825de652cfc77eaf389c8281e2cda796cb89c76a2fae5ae984ec","readerVersion":"GDAL 3.2.2","processedAt":"2026-08-11T18:29:20.995Z"}}},{"type":"Feature","geometry":{"type":"Point","coordinates":[3.40835,51.4051167]},"properties":{"dolphinKind":"buoy-lateral","rawObjectClass":"BOYLAT","sourceProperties":{"RCID":16967,"PRIM":1,"GRUP":2,"OBJL":17,"RVER":1,"AGEN":7979,"FIDN":1106834682,"FIDS":283,"LNAM":"1F2B41F8F4FA011B","LNAM_REFS":["1F2B41F8F4FA011C"],"FFPT_RIND":[2],"BOYSHP":1,"CATLAM":2,"COLOUR":["4"],"CONRAD":3,"OBJNAM":"W 5","SCAMIN":200000,"SORDAT":"20040624","sourceCellId":"1R75K7XI","sourceChecksum":"488888fa1124825de652cfc77eaf389c8281e2cda796cb89c76a2fae5ae984ec","rawObjectClass":"BOYLAT","sourceStableId":"1F2B41F8F4FA011B"},"sourceKind":"official","official":true,"sourceCellId":"1R75K7XI","sourceStableId":"1F2B41F8F4FA011B","pipelineFeatureId":"1R75K7XI/BOYLAT/16967","provenance":{"cellId":"1R75K7XI","checksum":"488888fa1124825de652cfc77eaf389c8281e2cda796cb89c76a2fae5ae984ec","readerVersion":"GDAL 3.2.2","processedAt":"2026-08-11T18:29:20.995Z"}}},{"type":"Feature","geometry":{"type":"Point","coordinates":[3.4530833,51.4183834]},"properties":{"dolphinKind":"buoy-lateral","rawObjectClass":"BOYLAT","sourceProperties":{"RCID":16969,"PRIM":1,"GRUP":2,"OBJL":17,"RVER":1,"AGEN":7979,"FIDN":1106834682,"FIDS":285,"LNAM":"1F2B41F8F4FA011D","LNAM_REFS":["1F2B41F8F4FA011E"],"FFPT_RIND":[2],"BOYSHP":2,"CATLAM":1,"COLOUR":["3"],"CONRAD":3,"OBJNAM":"W 6","SCAMIN":200000,"SORDAT":"20040109","sourceCellId":"1R75K7XI","sourceChecksum":"488888fa1124825de652cfc77eaf389c8281e2cda796cb89c76a2fae5ae984ec","rawObjectClass":"BOYLAT","sourceStableId":"1F2B41F8F4FA011D"},"sourceKind":"official","official":true,"sourceCellId":"1R75K7XI","sourceStableId":"1F2B41F8F4FA011D","pipelineFeatureId":"1R75K7XI/BOYLAT/16969","provenance":{"cellId":"1R75K7XI","checksum":"488888fa1124825de652cfc77eaf389c8281e2cda796cb89c76a2fae5ae984ec","readerVersion":"GDAL 3.2.2","processedAt":"2026-08-11T18:29:20.995Z"}}},{"type":"Feature","geometry":{"type":"Point","coordinates":[3.4545167,51.4101167]},"properties":{"dolphinKind":"buoy-lateral","rawObjectClass":"BOYLAT","sourceProperties":{"RCID":16971,"PRIM":1,"GRUP":2,"OBJL":17,"RVER":1,"AGEN":7979,"FIDN":1106834682,"FIDS":287,"LNAM":"1F2B41F8F4FA011F","LNAM_REFS":["1F2B41F8F4FA0120"],"FFPT_RIND":[2],"BOYSHP":1,"CATLAM":2,"COLOUR":["4"],"CONRAD":3,"OBJNAM":"W 7","SCAMIN":200000,"SORDAT":"20040109","sourceCellId":"1R75K7XI","sourceChecksum":"488888fa1124825de652cfc77eaf389c8281e2cda796cb89c76a2fae5ae984ec","rawObjectClass":"BOYLAT","sourceStableId":"1F2B41F8F4FA011F"},"sourceKind":"official","official":true,"sourceCellId":"1R75K7XI","sourceStableId":"1F2B41F8F4FA011F","pipelineFeatureId":"1R75K7XI/BOYLAT/16971","provenance":{"cellId":"1R75K7XI","checksum":"488888fa1124825de652cfc77eaf389c8281e2cda796cb89c76a2fae5ae984ec","readerVersion":"GDAL 3.2.2","processedAt":"2026-08-11T18:29:20.995Z"}}},{"type":"Feature","geometry":{"type":"Point","coordinates":[3.5045667,51.4247166]},"properties":{"dolphinKind":"buoy-lateral","rawObjectClass":"BOYLAT","sourceProperties":{"RCID":16980,"PRIM":1,"GRUP":2,"OBJL":17,"RVER":1,"AGEN":7979,"FIDN":1106834682,"FIDS":296,"LNAM":"1F2B41F8F4FA0128","LNAM_REFS":["1F2B41F8F4FA0129"],"FFPT_RIND":[2],"BOYSHP":2,"CATLAM":1,"COLOUR":["3"],"CONRAD":3,"OBJNAM":"W 8","SCAMIN":200000,"SORDAT":"20030930","sourceCellId":"1R75K7XI","sourceChecksum":"488888fa1124825de652cfc77eaf389c8281e2cda796cb89c76a2fae5ae984ec","rawObjectClass":"BOYLAT","sourceStableId":"1F2B41F8F4FA0128"},"sourceKind":"official","official":true,"sourceCellId":"1R75K7XI","sourceStableId":"1F2B41F8F4FA0128","pipelineFeatureId":"1R75K7XI/BOYLAT/16980","provenance":{"cellId":"1R75K7XI","checksum":"488888fa1124825de652cfc77eaf389c8281e2cda796cb89c76a2fae5ae984ec","readerVersion":"GDAL 3.2.2","processedAt":"2026-08-11T18:29:20.995Z"}}},{"type":"Feature","geometry":{"type":"Point","coordinates":[3.5072334,51.4159166]},"properties":{"dolphinKind":"buoy-lateral","rawObjectClass":"BOYLAT","sourceProperties":{"RCID":16982,"PRIM":1,"GRUP":2,"OBJL":17,"RVER":1,"AGEN":7979,"FIDN":1106834682,"FIDS":298,"LNAM":"1F2B41F8F4FA012A","LNAM_REFS":["1F2B41F8F4FA012C"],"FFPT_RIND":[2],"BOYSHP":1,"CATLAM":2,"COLOUR":["4"],"CONRAD":3,"OBJNAM":"W 9","SCAMIN":200000,"SORDAT":"20030930","sourceCellId":"1R75K7XI","sourceChecksum":"488888fa1124825de652cfc77eaf389c8281e2cda796cb89c76a2fae5ae984ec","rawObjectClass":"BOYLAT","sourceStableId":"1F2B41F8F4FA012A"},"sourceKind":"official","official":true,"sourceCellId":"1R75K7XI","sourceStableId":"1F2B41F8F4FA012A","pipelineFeatureId":"1R75K7XI/BOYLAT/16982","provenance":{"cellId":"1R75K7XI","checksum":"488888fa1124825de652cfc77eaf389c8281e2cda796cb89c76a2fae5ae984ec","readerVersion":"GDAL 3.2.2","processedAt":"2026-08-11T18:29:20.995Z"}}},{"type":"Feature","geometry":{"type":"Point","coordinates":[3.3593167,51.4119166]},"properties":{"dolphinKind":"buoy-lateral","rawObjectClass":"BOYLAT","sourceProperties":{"RCID":16993,"PRIM":1,"GRUP":2,"OBJL":17,"RVER":1,"AGEN":7979,"FIDN":1106834682,"FIDS":309,"LNAM":"1F2B41F8F4FA0135","LNAM_REFS":["1F2B41F8F4FA0136","1F2B48741B810001"],"FFPT_RIND":[2,2],"BOYSHP":2,"CATLAM":1,"COLOUR":["3"],"CONRAD":3,"OBJNAM":"W 2","SCAMIN":200000,"SORDAT":"20040109","sourceCellId":"1R75K7XI","sourceChecksum":"488888fa1124825de652cfc77eaf389c8281e2cda796cb89c76a2fae5ae984ec","rawObjectClass":"BOYLAT","sourceStableId":"1F2B41F8F4FA0135"},"sourceKind":"official","official":true,"sourceCellId":"1R75K7XI","sourceStableId":"1F2B41F8F4FA0135","pipelineFeatureId":"1R75K7XI/BOYLAT/16993","provenance":{"cellId":"1R75K7XI","checksum":"488888fa1124825de652cfc77eaf389c8281e2cda796cb89c76a2fae5ae984ec","readerVersion":"GDAL 3.2.2","processedAt":"2026-08-11T18:29:20.995Z"}}},{"type":"Feature","geometry":{"type":"Point","coordinates":[3.3581667,51.3995]},"properties":{"dolphinKind":"buoy-lateral","rawObjectClass":"BOYLAT","sourceProperties":{"RCID":16998,"PRIM":1,"GRUP":2,"OBJL":17,"RVER":1,"AGEN":7979,"FIDN":1106834682,"FIDS":314,"LNAM":"1F2B41F8F4FA013A","LNAM_REFS":["1F2B41F8F4FA013B","1F2B48741B800001"],"FFPT_RIND":[2,2],"BOYSHP":1,"CATLAM":2,"COLOUR":["4"],"CONRAD":3,"OBJNAM":"W 3","SCAMIN":200000,"SORDAT":"20040120","sourceCellId":"1R75K7XI","sourceChecksum":"488888fa1124825de652cfc77eaf389c8281e2cda796cb89c76a2fae5ae984ec","rawObjectClass":"BOYLAT","sourceStableId":"1F2B41F8F4FA013A"},"sourceKind":"official","official":true,"sourceCellId":"1R75K7XI","sourceStableId":"1F2B41F8F4FA013A","pipelineFeatureId":"1R75K7XI/BOYLAT/16998","provenance":{"cellId":"1R75K7XI","checksum":"488888fa1124825de652cfc77eaf389c8281e2cda796cb89c76a2fae5ae984ec","readerVersion":"GDAL 3.2.2","processedAt":"2026-08-11T18:29:20.995Z"}}},{"type":"Feature","geometry":{"type":"Point","coordinates":[3.3833767,51.38122]},"properties":{"dolphinKind":"buoy-lateral","rawObjectClass":"BOYLAT","sourceProperties":{"RCID":195052104,"PRIM":1,"GRUP":2,"OBJL":17,"RVER":1,"AGEN":7979,"FIDN":195052104,"FIDS":1,"LNAM":"1F2B0BA042480001","BOYSHP":5,"CATLAM":1,"COLOUR":["3"],"OBJNAM":"CZ 4","SCAMIN":200000,"SORDAT":"20160711","SORIND":"NL,1R,reprt, MD 323-16","sourceCellId":"1R75K7XI","sourceChecksum":"488888fa1124825de652cfc77eaf389c8281e2cda796cb89c76a2fae5ae984ec","rawObjectClass":"BOYLAT","sourceStableId":"1F2B0BA042480001"},"sourceKind":"official","official":true,"sourceCellId":"1R75K7XI","sourceStableId":"1F2B0BA042480001","pipelineFeatureId":"1R75K7XI/BOYLAT/195052104","provenance":{"cellId":"1R75K7XI","checksum":"488888fa1124825de652cfc77eaf389c8281e2cda796cb89c76a2fae5ae984ec","readerVersion":"GDAL 3.2.2","processedAt":"2026-08-11T18:29:20.995Z"}}},{"type":"Feature","geometry":{"type":"Point","coordinates":[3.3840467,51.3823117]},"properties":{"dolphinKind":"buoy-lateral","rawObjectClass":"BOYLAT","sourceProperties":{"RCID":195052105,"PRIM":1,"GRUP":2,"OBJL":17,"RVER":1,"AGEN":7979,"FIDN":195052105,"FIDS":1,"LNAM":"1F2B0BA042490001","LNAM_REFS":["1F2B0BA0424A0001"],"FFPT_RIND":[2],"BOYSHP":5,"CATLAM":1,"COLOUR":["3"],"OBJNAM":"CZ 2","SCAMIN":200000,"SORDAT":"20160711","SORIND":"NL,1R,reprt, MD 323-16","sourceCellId":"1R75K7XI","sourceChecksum":"488888fa1124825de652cfc77eaf389c8281e2cda796cb89c76a2fae5ae984ec","rawObjectClass":"BOYLAT","sourceStableId":"1F2B0BA042490001"},"sourceKind":"official","official":true,"sourceCellId":"1R75K7XI","sourceStableId":"1F2B0BA042490001","pipelineFeatureId":"1R75K7XI/BOYLAT/195052105","provenance":{"cellId":"1R75K7XI","checksum":"488888fa1124825de652cfc77eaf389c8281e2cda796cb89c76a2fae5ae984ec","readerVersion":"GDAL 3.2.2","processedAt":"2026-08-11T18:29:20.995Z"}}},{"type":"Feature","geometry":{"type":"Point","coordinates":[3.36967,51.39167]},"properties":{"dolphinKind":"buoy-special","rawObjectClass":"BOYSPP","sourceProperties":{"RCID":13019666,"PRIM":1,"GRUP":2,"OBJL":19,"RVER":1,"AGEN":7979,"FIDN":13019666,"FIDS":1,"LNAM":"1F2B00C6AA120001","LNAM_REFS":["1F2B00C6AA130001"],"FFPT_RIND":[2],"BOYSHP":3,"CATSPM":["10"],"COLOUR":["6"],"OBJNAM":"Waverider CADW","SCAMIN":200000,"SORDAT":"20170517","SORIND":"NL,1R,reprt, MD 133-17","sourceCellId":"1R75K7XI","sourceChecksum":"488888fa1124825de652cfc77eaf389c8281e2cda796cb89c76a2fae5ae984ec","rawObjectClass":"BOYSPP","sourceStableId":"1F2B00C6AA120001"},"sourceKind":"official","official":true,"sourceCellId":"1R75K7XI","sourceStableId":"1F2B00C6AA120001","pipelineFeatureId":"1R75K7XI/BOYSPP/13019666","provenance":{"cellId":"1R75K7XI","checksum":"488888fa1124825de652cfc77eaf389c8281e2cda796cb89c76a2fae5ae984ec","readerVersion":"GDAL 3.2.2","processedAt":"2026-08-11T18:29:20.995Z"}}},{"type":"Feature","geometry":{"type":"Point","coordinates":[3.4039167,51.3871667]},"properties":{"dolphinKind":"buoy-special","rawObjectClass":"BOYSPP","sourceProperties":{"RCID":223323614,"PRIM":1,"GRUP":2,"OBJL":19,"RVER":1,"AGEN":7979,"FIDN":223323614,"FIDS":1,"LNAM":"1F2B0D4FA5DE0001","BOYSHP":5,"CATSPM":["12"],"COLOUR":["6"],"CONRAD":3,"OBJNAM":"CV-A","INFORM":"Kitesurf Area","NINFOM":"Kitesurf Gebied","SCAMIN":200000,"SORDAT":"20210212","SORIND":"NL,1R,reprt,MD 256-20","sourceCellId":"1R75K7XI","sourceChecksum":"488888fa1124825de652cfc77eaf389c8281e2cda796cb89c76a2fae5ae984ec","rawObjectClass":"BOYSPP","sourceStableId":"1F2B0D4FA5DE0001"},"sourceKind":"official","official":true,"sourceCellId":"1R75K7XI","sourceStableId":"1F2B0D4FA5DE0001","pipelineFeatureId":"1R75K7XI/BOYSPP/223323614","provenance":{"cellId":"1R75K7XI","checksum":"488888fa1124825de652cfc77eaf389c8281e2cda796cb89c76a2fae5ae984ec","readerVersion":"GDAL 3.2.2","processedAt":"2026-08-11T18:29:20.995Z"}}},{"type":"Feature","geometry":{"type":"Point","coordinates":[3.4143,51.3901833]},"properties":{"dolphinKind":"buoy-special","rawObjectClass":"BOYSPP","sourceProperties":{"RCID":223323615,"PRIM":1,"GRUP":2,"OBJL":19,"RVER":1,"AGEN":7979,"FIDN":223323615,"FIDS":1,"LNAM":"1F2B0D4FA5DF0001","BOYSHP":5,"CATSPM":["12"],"COLOUR":["6"],"CONRAD":3,"OBJNAM":"CV-B","INFORM":"Kitesurf Area","NINFOM":"Kitesurf Gebied","SCAMIN":200000,"SORDAT":"20210212","SORIND":"NL,1R,reprt,MD 256-20","sourceCellId":"1R75K7XI","sourceChecksum":"488888fa1124825de652cfc77eaf389c8281e2cda796cb89c76a2fae5ae984ec","rawObjectClass":"BOYSPP","sourceStableId":"1F2B0D4FA5DF0001"},"sourceKind":"official","official":true,"sourceCellId":"1R75K7XI","sourceStableId":"1F2B0D4FA5DF0001","pipelineFeatureId":"1R75K7XI/BOYSPP/223323615","provenance":{"cellId":"1R75K7XI","checksum":"488888fa1124825de652cfc77eaf389c8281e2cda796cb89c76a2fae5ae984ec","readerVersion":"GDAL 3.2.2","processedAt":"2026-08-11T18:29:20.995Z"}}},{"type":"Feature","geometry":{"type":"Point","coordinates":[3.36775,51.4238333]},"properties":{"dolphinKind":"buoy-special","rawObjectClass":"BOYSPP","sourceProperties":{"RCID":1266596798,"PRIM":1,"GRUP":2,"OBJL":19,"RVER":1,"AGEN":7979,"FIDN":1266596798,"FIDS":1,"LNAM":"1F2B4B7EBBBE0001","LNAM_REFS":["1F2B4B7EBBBF0001","1F2B4B7EBBC00001"],"FFPT_RIND":[2,2],"BOYSHP":5,"CATSPM":["9"],"COLOUR":["6"],"DATEND":"20260526","MARSYS":1,"OBJNAM":"MP 1","SCAMIN":200000,"SORDAT":"20260318","SORIND":"NL,1R,Reprt,MD 268-26","sourceCellId":"1R75K7XI","sourceChecksum":"488888fa1124825de652cfc77eaf389c8281e2cda796cb89c76a2fae5ae984ec","rawObjectClass":"BOYSPP","sourceStableId":"1F2B4B7EBBBE0001"},"sourceKind":"official","official":true,"sourceCellId":"1R75K7XI","sourceStableId":"1F2B4B7EBBBE0001","pipelineFeatureId":"1R75K7XI/BOYSPP/1266596798","provenance":{"cellId":"1R75K7XI","checksum":"488888fa1124825de652cfc77eaf389c8281e2cda796cb89c76a2fae5ae984ec","readerVersion":"GDAL 3.2.2","processedAt":"2026-08-11T18:29:20.995Z"}}},{"type":"Feature","geometry":{"type":"Point","coordinates":[3.384,51.42475]},"properties":{"dolphinKind":"buoy-special","rawObjectClass":"BOYSPP","sourceProperties":{"RCID":1266596803,"PRIM":1,"GRUP":2,"OBJL":19,"RVER":1,"AGEN":7979,"FIDN":1266596803,"FIDS":1,"LNAM":"1F2B4B7EBBC30001","LNAM_REFS":["1F2B4B7EBBC10001","1F2B4B7EBBC20001"],"FFPT_RIND":[2,2],"BOYSHP":5,"CATSPM":["9"],"COLOUR":["6"],"DATEND":"20260526","MARSYS":1,"OBJNAM":"MP 2","SCAMIN":200000,"SORDAT":"20260318","SORIND":"NL,1R,Reprt,MD 115-2026,TopDeskC260303810","sourceCellId":"1R75K7XI","sourceChecksum":"488888fa1124825de652cfc77eaf389c8281e2cda796cb89c76a2fae5ae984ec","rawObjectClass":"BOYSPP","sourceStableId":"1F2B4B7EBBC30001"},"sourceKind":"official","official":true,"sourceCellId":"1R75K7XI","sourceStableId":"1F2B4B7EBBC30001","pipelineFeatureId":"1R75K7XI/BOYSPP/1266596803","provenance":{"cellId":"1R75K7XI","checksum":"488888fa1124825de652cfc77eaf389c8281e2cda796cb89c76a2fae5ae984ec","readerVersion":"GDAL 3.2.2","processedAt":"2026-08-11T18:29:20.995Z"}}},{"type":"Feature","geometry":{"type":"Point","coordinates":[3.3791833,51.3799861]},"properties":{"dolphinKind":"light","rawObjectClass":"LIGHTS","sourceProperties":{"RCID":16521,"PRIM":1,"GRUP":2,"OBJL":75,"RVER":1,"AGEN":7979,"FIDN":1106834596,"FIDS":407,"LNAM":"1F2B41F8F4A40197","COLOUR":["6"],"LITCHR":2,"SIGGRP":"(5)","SIGPER":20,"SCAMIN":200000,"SORDAT":"20030923","sourceCellId":"1R75K7XI","sourceChecksum":"488888fa1124825de652cfc77eaf389c8281e2cda796cb89c76a2fae5ae984ec","rawObjectClass":"LIGHTS","sourceStableId":"1F2B41F8F4A40197"},"sourceKind":"official","official":true,"sourceCellId":"1R75K7XI","sourceStableId":"1F2B41F8F4A40197","pipelineFeatureId":"1R75K7XI/LIGHTS/16521","provenance":{"cellId":"1R75K7XI","checksum":"488888fa1124825de652cfc77eaf389c8281e2cda796cb89c76a2fae5ae984ec","readerVersion":"GDAL 3.2.2","processedAt":"2026-08-11T18:29:20.995Z"}}},{"type":"Feature","geometry":{"type":"Point","coordinates":[3.4066334,51.4151833]},"properties":{"dolphinKind":"light","rawObjectClass":"LIGHTS","sourceProperties":{"RCID":16965,"PRIM":1,"GRUP":2,"OBJL":75,"RVER":1,"AGEN":7979,"FIDN":1106834682,"FIDS":281,"LNAM":"1F2B41F8F4FA0119","COLOUR":["3"],"LITCHR":7,"SIGGRP":"(1)","SIGPER":4,"SCAMIN":200000,"SORDAT":"20040109","sourceCellId":"1R75K7XI","sourceChecksum":"488888fa1124825de652cfc77eaf389c8281e2cda796cb89c76a2fae5ae984ec","rawObjectClass":"LIGHTS","sourceStableId":"1F2B41F8F4FA0119"},"sourceKind":"official","official":true,"sourceCellId":"1R75K7XI","sourceStableId":"1F2B41F8F4FA0119","pipelineFeatureId":"1R75K7XI/LIGHTS/16965","provenance":{"cellId":"1R75K7XI","checksum":"488888fa1124825de652cfc77eaf389c8281e2cda796cb89c76a2fae5ae984ec","readerVersion":"GDAL 3.2.2","processedAt":"2026-08-11T18:29:20.995Z"}}},{"type":"Feature","geometry":{"type":"Point","coordinates":[3.40835,51.4051167]},"properties":{"dolphinKind":"light","rawObjectClass":"LIGHTS","sourceProperties":{"RCID":16968,"PRIM":1,"GRUP":2,"OBJL":75,"RVER":1,"AGEN":7979,"FIDN":1106834682,"FIDS":284,"LNAM":"1F2B41F8F4FA011C","COLOUR":["4"],"LITCHR":7,"SIGGRP":"(1)","SIGPER":4,"SCAMIN":200000,"SORDAT":"20040624","sourceCellId":"1R75K7XI","sourceChecksum":"488888fa1124825de652cfc77eaf389c8281e2cda796cb89c76a2fae5ae984ec","rawObjectClass":"LIGHTS","sourceStableId":"1F2B41F8F4FA011C"},"sourceKind":"official","official":true,"sourceCellId":"1R75K7XI","sourceStableId":"1F2B41F8F4FA011C","pipelineFeatureId":"1R75K7XI/LIGHTS/16968","provenance":{"cellId":"1R75K7XI","checksum":"488888fa1124825de652cfc77eaf389c8281e2cda796cb89c76a2fae5ae984ec","readerVersion":"GDAL 3.2.2","processedAt":"2026-08-11T18:29:20.995Z"}}},{"type":"Feature","geometry":{"type":"Point","coordinates":[3.4530833,51.4183834]},"properties":{"dolphinKind":"light","rawObjectClass":"LIGHTS","sourceProperties":{"RCID":16970,"PRIM":1,"GRUP":2,"OBJL":75,"RVER":1,"AGEN":7979,"FIDN":1106834682,"FIDS":286,"LNAM":"1F2B41F8F4FA011E","COLOUR":["3"],"LITCHR":7,"SIGGRP":"(1)","SIGPER":8,"SCAMIN":200000,"SORDAT":"20040109","sourceCellId":"1R75K7XI","sourceChecksum":"488888fa1124825de652cfc77eaf389c8281e2cda796cb89c76a2fae5ae984ec","rawObjectClass":"LIGHTS","sourceStableId":"1F2B41F8F4FA011E"},"sourceKind":"official","official":true,"sourceCellId":"1R75K7XI","sourceStableId":"1F2B41F8F4FA011E","pipelineFeatureId":"1R75K7XI/LIGHTS/16970","provenance":{"cellId":"1R75K7XI","checksum":"488888fa1124825de652cfc77eaf389c8281e2cda796cb89c76a2fae5ae984ec","readerVersion":"GDAL 3.2.2","processedAt":"2026-08-11T18:29:20.995Z"}}},{"type":"Feature","geometry":{"type":"Point","coordinates":[3.4545167,51.4101167]},"properties":{"dolphinKind":"light","rawObjectClass":"LIGHTS","sourceProperties":{"RCID":16972,"PRIM":1,"GRUP":2,"OBJL":75,"RVER":1,"AGEN":7979,"FIDN":1106834682,"FIDS":288,"LNAM":"1F2B41F8F4FA0120","COLOUR":["4"],"LITCHR":7,"SIGGRP":"(1)","SIGPER":8,"SCAMIN":200000,"SORDAT":"20040109","sourceCellId":"1R75K7XI","sourceChecksum":"488888fa1124825de652cfc77eaf389c8281e2cda796cb89c76a2fae5ae984ec","rawObjectClass":"LIGHTS","sourceStableId":"1F2B41F8F4FA0120"},"sourceKind":"official","official":true,"sourceCellId":"1R75K7XI","sourceStableId":"1F2B41F8F4FA0120","pipelineFeatureId":"1R75K7XI/LIGHTS/16972","provenance":{"cellId":"1R75K7XI","checksum":"488888fa1124825de652cfc77eaf389c8281e2cda796cb89c76a2fae5ae984ec","readerVersion":"GDAL 3.2.2","processedAt":"2026-08-11T18:29:20.995Z"}}},{"type":"Feature","geometry":{"type":"Point","coordinates":[3.5045667,51.4247166]},"properties":{"dolphinKind":"light","rawObjectClass":"LIGHTS","sourceProperties":{"RCID":16981,"PRIM":1,"GRUP":2,"OBJL":75,"RVER":1,"AGEN":7979,"FIDN":1106834682,"FIDS":297,"LNAM":"1F2B41F8F4FA0129","COLOUR":["3"],"LITCHR":7,"SIGGRP":"(1)","SIGPER":4,"SCAMIN":200000,"SORDAT":"20030930","sourceCellId":"1R75K7XI","sourceChecksum":"488888fa1124825de652cfc77eaf389c8281e2cda796cb89c76a2fae5ae984ec","rawObjectClass":"LIGHTS","sourceStableId":"1F2B41F8F4FA0129"},"sourceKind":"official","official":true,"sourceCellId":"1R75K7XI","sourceStableId":"1F2B41F8F4FA0129","pipelineFeatureId":"1R75K7XI/LIGHTS/16981","provenance":{"cellId":"1R75K7XI","checksum":"488888fa1124825de652cfc77eaf389c8281e2cda796cb89c76a2fae5ae984ec","readerVersion":"GDAL 3.2.2","processedAt":"2026-08-11T18:29:20.995Z"}}},{"type":"Feature","geometry":{"type":"Point","coordinates":[3.5072334,51.4159166]},"properties":{"dolphinKind":"light","rawObjectClass":"LIGHTS","sourceProperties":{"RCID":16984,"PRIM":1,"GRUP":2,"OBJL":75,"RVER":1,"AGEN":7979,"FIDN":1106834682,"FIDS":300,"LNAM":"1F2B41F8F4FA012C","COLOUR":["4"],"LITCHR":7,"SIGGRP":"(1)","SIGPER":4,"SCAMIN":200000,"SORDAT":"20030930","sourceCellId":"1R75K7XI","sourceChecksum":"488888fa1124825de652cfc77eaf389c8281e2cda796cb89c76a2fae5ae984ec","rawObjectClass":"LIGHTS","sourceStableId":"1F2B41F8F4FA012C"},"sourceKind":"official","official":true,"sourceCellId":"1R75K7XI","sourceStableId":"1F2B41F8F4FA012C","pipelineFeatureId":"1R75K7XI/LIGHTS/16984","provenance":{"cellId":"1R75K7XI","checksum":"488888fa1124825de652cfc77eaf389c8281e2cda796cb89c76a2fae5ae984ec","readerVersion":"GDAL 3.2.2","processedAt":"2026-08-11T18:29:20.995Z"}}},{"type":"Feature","geometry":{"type":"Point","coordinates":[3.3593167,51.4119166]},"properties":{"dolphinKind":"light","rawObjectClass":"LIGHTS","sourceProperties":{"RCID":16994,"PRIM":1,"GRUP":2,"OBJL":75,"RVER":1,"AGEN":7979,"FIDN":1106834682,"FIDS":310,"LNAM":"1F2B41F8F4FA0136","COLOUR":["3"],"LITCHR":7,"SIGGRP":"(1)","SIGPER":8,"SCAMIN":200000,"SORDAT":"20040109","sourceCellId":"1R75K7XI","sourceChecksum":"488888fa1124825de652cfc77eaf389c8281e2cda796cb89c76a2fae5ae984ec","rawObjectClass":"LIGHTS","sourceStableId":"1F2B41F8F4FA0136"},"sourceKind":"official","official":true,"sourceCellId":"1R75K7XI","sourceStableId":"1F2B41F8F4FA0136","pipelineFeatureId":"1R75K7XI/LIGHTS/16994","provenance":{"cellId":"1R75K7XI","checksum":"488888fa1124825de652cfc77eaf389c8281e2cda796cb89c76a2fae5ae984ec","readerVersion":"GDAL 3.2.2","processedAt":"2026-08-11T18:29:20.995Z"}}},{"type":"Feature","geometry":{"type":"Point","coordinates":[3.3582834,51.40335]},"properties":{"dolphinKind":"light","rawObjectClass":"LIGHTS","sourceProperties":{"RCID":16996,"PRIM":1,"GRUP":2,"OBJL":75,"RVER":1,"AGEN":7979,"FIDN":1106834682,"FIDS":312,"LNAM":"1F2B41F8F4FA0138","COLOUR":["1"],"LITCHR":5,"SIGGRP":"(9)","SIGPER":10,"SCAMIN":200000,"SORDAT":"20040109","sourceCellId":"1R75K7XI","sourceChecksum":"488888fa1124825de652cfc77eaf389c8281e2cda796cb89c76a2fae5ae984ec","rawObjectClass":"LIGHTS","sourceStableId":"1F2B41F8F4FA0138"},"sourceKind":"official","official":true,"sourceCellId":"1R75K7XI","sourceStableId":"1F2B41F8F4FA0138","pipelineFeatureId":"1R75K7XI/LIGHTS/16996","provenance":{"cellId":"1R75K7XI","checksum":"488888fa1124825de652cfc77eaf389c8281e2cda796cb89c76a2fae5ae984ec","readerVersion":"GDAL 3.2.2","processedAt":"2026-08-11T18:29:20.995Z"}}},{"type":"Feature","geometry":{"type":"Point","coordinates":[3.3581667,51.3995]},"properties":{"dolphinKind":"light","rawObjectClass":"LIGHTS","sourceProperties":{"RCID":16999,"PRIM":1,"GRUP":2,"OBJL":75,"RVER":1,"AGEN":7979,"FIDN":1106834682,"FIDS":315,"LNAM":"1F2B41F8F4FA013B","COLOUR":["4"],"LITCHR":7,"SIGGRP":"(1)","SIGPER":8,"SCAMIN":200000,"SORDAT":"20040120","sourceCellId":"1R75K7XI","sourceChecksum":"488888fa1124825de652cfc77eaf389c8281e2cda796cb89c76a2fae5ae984ec","rawObjectClass":"LIGHTS","sourceStableId":"1F2B41F8F4FA013B"},"sourceKind":"official","official":true,"sourceCellId":"1R75K7XI","sourceStableId":"1F2B41F8F4FA013B","pipelineFeatureId":"1R75K7XI/LIGHTS/16999","provenance":{"cellId":"1R75K7XI","checksum":"488888fa1124825de652cfc77eaf389c8281e2cda796cb89c76a2fae5ae984ec","readerVersion":"GDAL 3.2.2","processedAt":"2026-08-11T18:29:20.995Z"}}},{"type":"Feature","geometry":{"type":"Point","coordinates":[3.36967,51.39167]},"properties":{"dolphinKind":"light","rawObjectClass":"LIGHTS","sourceProperties":{"RCID":13019667,"PRIM":1,"GRUP":2,"OBJL":75,"RVER":1,"AGEN":7979,"FIDN":13019667,"FIDS":1,"LNAM":"1F2B00C6AA130001","COLOUR":["6"],"LITCHR":2,"SIGGRP":"(5)","SIGPER":20,"SCAMIN":300000,"sourceCellId":"1R75K7XI","sourceChecksum":"488888fa1124825de652cfc77eaf389c8281e2cda796cb89c76a2fae5ae984ec","rawObjectClass":"LIGHTS","sourceStableId":"1F2B00C6AA130001"},"sourceKind":"official","official":true,"sourceCellId":"1R75K7XI","sourceStableId":"1F2B00C6AA130001","pipelineFeatureId":"1R75K7XI/LIGHTS/13019667","provenance":{"cellId":"1R75K7XI","checksum":"488888fa1124825de652cfc77eaf389c8281e2cda796cb89c76a2fae5ae984ec","readerVersion":"GDAL 3.2.2","processedAt":"2026-08-11T18:29:20.995Z"}}},{"type":"Feature","geometry":{"type":"Point","coordinates":[3.3816333,51.381]},"properties":{"dolphinKind":"light","rawObjectClass":"LIGHTS","sourceProperties":{"RCID":186034352,"PRIM":1,"GRUP":2,"OBJL":75,"RVER":1,"AGEN":7979,"FIDN":186034352,"FIDS":1,"LNAM":"1F2B0B16A8B00001","COLOUR":["4"],"HEIGHT":11.9,"LITCHR":1,"SCAMIN":200000,"SORDAT":"20160411","SORIND":"NL,1R,reprt,Bass 028-2016","sourceCellId":"1R75K7XI","sourceChecksum":"488888fa1124825de652cfc77eaf389c8281e2cda796cb89c76a2fae5ae984ec","rawObjectClass":"LIGHTS","sourceStableId":"1F2B0B16A8B00001"},"sourceKind":"official","official":true,"sourceCellId":"1R75K7XI","sourceStableId":"1F2B0B16A8B00001","pipelineFeatureId":"1R75K7XI/LIGHTS/186034352","provenance":{"cellId":"1R75K7XI","checksum":"488888fa1124825de652cfc77eaf389c8281e2cda796cb89c76a2fae5ae984ec","readerVersion":"GDAL 3.2.2","processedAt":"2026-08-11T18:29:20.995Z"}}},{"type":"Feature","geometry":{"type":"Point","coordinates":[3.382,51.3803833]},"properties":{"dolphinKind":"light","rawObjectClass":"LIGHTS","sourceProperties":{"RCID":186048656,"PRIM":1,"GRUP":2,"OBJL":75,"RVER":1,"AGEN":7979,"FIDN":186048656,"FIDS":1,"LNAM":"1F2B0B16E0900001","COLOUR":["3"],"HEIGHT":11.9,"LITCHR":1,"SCAMIN":200000,"SORDAT":"20160411","SORIND":"NL,1R,reprt,Bass 028-2016","sourceCellId":"1R75K7XI","sourceChecksum":"488888fa1124825de652cfc77eaf389c8281e2cda796cb89c76a2fae5ae984ec","rawObjectClass":"LIGHTS","sourceStableId":"1F2B0B16E0900001"},"sourceKind":"official","official":true,"sourceCellId":"1R75K7XI","sourceStableId":"1F2B0B16E0900001","pipelineFeatureId":"1R75K7XI/LIGHTS/186048656","provenance":{"cellId":"1R75K7XI","checksum":"488888fa1124825de652cfc77eaf389c8281e2cda796cb89c76a2fae5ae984ec","readerVersion":"GDAL 3.2.2","processedAt":"2026-08-11T18:29:20.995Z"}}},{"type":"Feature","geometry":{"type":"Point","coordinates":[3.5213667,51.4069167]},"properties":{"dolphinKind":"light","rawObjectClass":"LIGHTS","sourceProperties":{"RCID":186803350,"PRIM":1,"GRUP":2,"OBJL":75,"RVER":1,"AGEN":7979,"FIDN":186803350,"FIDS":1,"LNAM":"1F2B0B2264960001","COLOUR":["1"],"HEIGHT":28,"LITCHR":8,"SIGGRP":"(1)","SIGPER":10,"SCAMIN":200000,"SORDAT":"20150520","SORIND":"NL,1R,reprt,BASS 052-2015","sourceCellId":"1R75K7XI","sourceChecksum":"488888fa1124825de652cfc77eaf389c8281e2cda796cb89c76a2fae5ae984ec","rawObjectClass":"LIGHTS","sourceStableId":"1F2B0B2264960001"},"sourceKind":"official","official":true,"sourceCellId":"1R75K7XI","sourceStableId":"1F2B0B2264960001","pipelineFeatureId":"1R75K7XI/LIGHTS/186803350","provenance":{"cellId":"1R75K7XI","checksum":"488888fa1124825de652cfc77eaf389c8281e2cda796cb89c76a2fae5ae984ec","readerVersion":"GDAL 3.2.2","processedAt":"2026-08-11T18:29:20.995Z"}}},{"type":"Feature","geometry":{"type":"Point","coordinates":[3.384515,51.3847467]},"properties":{"dolphinKind":"light","rawObjectClass":"LIGHTS","sourceProperties":{"RCID":231227551,"PRIM":1,"GRUP":2,"OBJL":75,"RVER":1,"AGEN":7979,"FIDN":231227551,"FIDS":1,"LNAM":"1F2B0DC8409F0001","COLOUR":["1"],"LITCHR":12,"SIGGRP":"(A)","SIGPER":8,"SCAMIN":200000,"SORDAT":"20170724","SORIND":"NL,1R,reprt,MD 253-17","sourceCellId":"1R75K7XI","sourceChecksum":"488888fa1124825de652cfc77eaf389c8281e2cda796cb89c76a2fae5ae984ec","rawObjectClass":"LIGHTS","sourceStableId":"1F2B0DC8409F0001"},"sourceKind":"official","official":true,"sourceCellId":"1R75K7XI","sourceStableId":"1F2B0DC8409F0001","pipelineFeatureId":"1R75K7XI/LIGHTS/231227551","provenance":{"cellId":"1R75K7XI","checksum":"488888fa1124825de652cfc77eaf389c8281e2cda796cb89c76a2fae5ae984ec","readerVersion":"GDAL 3.2.2","processedAt":"2026-08-11T18:29:20.995Z"}}},{"type":"Feature","geometry":{"type":"Point","coordinates":[3.36775,51.4238333]},"properties":{"dolphinKind":"light","rawObjectClass":"LIGHTS","sourceProperties":{"RCID":1266596800,"PRIM":1,"GRUP":2,"OBJL":75,"RVER":1,"AGEN":7979,"FIDN":1266596800,"FIDS":1,"LNAM":"1F2B4B7EBBC00001","CATLIT":["12"],"COLOUR":["6"],"DATEND":"20260526","LITCHR":2,"SIGGRP":"(5)","SIGPER":20,"SCAMIN":300000,"SORDAT":"20260318","SORIND":"NL,1R,Reprt,MD 115-2026,TopdeskC260303810","sourceCellId":"1R75K7XI","sourceChecksum":"488888fa1124825de652cfc77eaf389c8281e2cda796cb89c76a2fae5ae984ec","rawObjectClass":"LIGHTS","sourceStableId":"1F2B4B7EBBC00001"},"sourceKind":"official","official":true,"sourceCellId":"1R75K7XI","sourceStableId":"1F2B4B7EBBC00001","pipelineFeatureId":"1R75K7XI/LIGHTS/1266596800","provenance":{"cellId":"1R75K7XI","checksum":"488888fa1124825de652cfc77eaf389c8281e2cda796cb89c76a2fae5ae984ec","readerVersion":"GDAL 3.2.2","processedAt":"2026-08-11T18:29:20.995Z"}}},{"type":"Feature","geometry":{"type":"Point","coordinates":[3.384,51.42475]},"properties":{"dolphinKind":"light","rawObjectClass":"LIGHTS","sourceProperties":{"RCID":1266596802,"PRIM":1,"GRUP":2,"OBJL":75,"RVER":1,"AGEN":7979,"FIDN":1266596802,"FIDS":1,"LNAM":"1F2B4B7EBBC20001","CATLIT":["12"],"COLOUR":["6"],"DATEND":"20260526","LITCHR":2,"SIGGRP":"(5)","SIGPER":20,"SCAMIN":300000,"SORDAT":"20260318","SORIND":"NL,1R,Reprt,MD 115-2026,TopdeskC260303810","sourceCellId":"1R75K7XI","sourceChecksum":"488888fa1124825de652cfc77eaf389c8281e2cda796cb89c76a2fae5ae984ec","rawObjectClass":"LIGHTS","sourceStableId":"1F2B4B7EBBC20001"},"sourceKind":"official","official":true,"sourceCellId":"1R75K7XI","sourceStableId":"1F2B4B7EBBC20001","pipelineFeatureId":"1R75K7XI/LIGHTS/1266596802","provenance":{"cellId":"1R75K7XI","checksum":"488888fa1124825de652cfc77eaf389c8281e2cda796cb89c76a2fae5ae984ec","readerVersion":"GDAL 3.2.2","processedAt":"2026-08-11T18:29:20.995Z"}}},{"type":"Feature","geometry":{"type":"Point","coordinates":[3.3582834,51.40335]},"properties":{"dolphinKind":"topmark","rawObjectClass":"TOPMAR","sourceProperties":{"RCID":16997,"PRIM":1,"GRUP":2,"OBJL":144,"RVER":1,"AGEN":7979,"FIDN":1106834682,"FIDS":313,"LNAM":"1F2B41F8F4FA0139","COLOUR":["2"],"TOPSHP":10,"SCAMIN":200000,"SORDAT":"20040109","sourceCellId":"1R75K7XI","sourceChecksum":"488888fa1124825de652cfc77eaf389c8281e2cda796cb89c76a2fae5ae984ec","rawObjectClass":"TOPMAR","sourceStableId":"1F2B41F8F4FA0139"},"sourceKind":"official","official":true,"sourceCellId":"1R75K7XI","sourceStableId":"1F2B41F8F4FA0139","pipelineFeatureId":"1R75K7XI/TOPMAR/16997","provenance":{"cellId":"1R75K7XI","checksum":"488888fa1124825de652cfc77eaf389c8281e2cda796cb89c76a2fae5ae984ec","readerVersion":"GDAL 3.2.2","processedAt":"2026-08-11T18:29:20.995Z"},"associationRefsVerifiedInGdalOutput":false}},{"type":"Feature","geometry":{"type":"Point","coordinates":[3.4659132,51.4034152]},"properties":{"dolphinKind":"topmark","rawObjectClass":"TOPMAR","sourceProperties":{"RCID":17133,"PRIM":1,"GRUP":2,"OBJL":144,"RVER":1,"AGEN":7979,"FIDN":1106834682,"FIDS":449,"LNAM":"1F2B41F8F4FA01C1","COLOUR":["2"],"TOPSHP":13,"SCAMIN":200000,"SORDAT":"20030930","sourceCellId":"1R75K7XI","sourceChecksum":"488888fa1124825de652cfc77eaf389c8281e2cda796cb89c76a2fae5ae984ec","rawObjectClass":"TOPMAR","sourceStableId":"1F2B41F8F4FA01C1"},"sourceKind":"official","official":true,"sourceCellId":"1R75K7XI","sourceStableId":"1F2B41F8F4FA01C1","pipelineFeatureId":"1R75K7XI/TOPMAR/17133","provenance":{"cellId":"1R75K7XI","checksum":"488888fa1124825de652cfc77eaf389c8281e2cda796cb89c76a2fae5ae984ec","readerVersion":"GDAL 3.2.2","processedAt":"2026-08-11T18:29:20.995Z"},"associationRefsVerifiedInGdalOutput":false}},{"type":"Feature","geometry":{"type":"Point","coordinates":[3.3398334,51.4108334]},"properties":{"dolphinKind":"topmark","rawObjectClass":"TOPMAR","sourceProperties":{"RCID":17670,"PRIM":1,"GRUP":2,"OBJL":144,"RVER":1,"AGEN":7979,"FIDN":1106834684,"FIDS":476,"LNAM":"1F2B41F8F4FC01DC","COLOUR":["2"],"TOPSHP":14,"SCAMIN":200000,"SORDAT":"20030930","sourceCellId":"1R75K7XI","sourceChecksum":"488888fa1124825de652cfc77eaf389c8281e2cda796cb89c76a2fae5ae984ec","rawObjectClass":"TOPMAR","sourceStableId":"1F2B41F8F4FC01DC"},"sourceKind":"official","official":true,"sourceCellId":"1R75K7XI","sourceStableId":"1F2B41F8F4FC01DC","pipelineFeatureId":"1R75K7XI/TOPMAR/17670","provenance":{"cellId":"1R75K7XI","checksum":"488888fa1124825de652cfc77eaf389c8281e2cda796cb89c76a2fae5ae984ec","readerVersion":"GDAL 3.2.2","processedAt":"2026-08-11T18:29:20.995Z"},"associationRefsVerifiedInGdalOutput":false}},{"type":"Feature","geometry":{"type":"Point","coordinates":[3.3840467,51.3823117]},"properties":{"dolphinKind":"topmark","rawObjectClass":"TOPMAR","sourceProperties":{"RCID":195052106,"PRIM":1,"GRUP":2,"OBJL":144,"RVER":1,"AGEN":7979,"FIDN":195052106,"FIDS":1,"LNAM":"1F2B0BA0424A0001","COLOUR":["3"],"TOPSHP":5,"SCAMIN":200000,"SORDAT":"20160711","SORIND":"NL,1R,reprt, MD 323-16","sourceCellId":"1R75K7XI","sourceChecksum":"488888fa1124825de652cfc77eaf389c8281e2cda796cb89c76a2fae5ae984ec","rawObjectClass":"TOPMAR","sourceStableId":"1F2B0BA0424A0001"},"sourceKind":"official","official":true,"sourceCellId":"1R75K7XI","sourceStableId":"1F2B0BA0424A0001","pipelineFeatureId":"1R75K7XI/TOPMAR/195052106","provenance":{"cellId":"1R75K7XI","checksum":"488888fa1124825de652cfc77eaf389c8281e2cda796cb89c76a2fae5ae984ec","readerVersion":"GDAL 3.2.2","processedAt":"2026-08-11T18:29:20.995Z"},"associationRefsVerifiedInGdalOutput":false}},{"type":"Feature","geometry":{"type":"Point","coordinates":[3.3581667,51.3995]},"properties":{"dolphinKind":"topmark","rawObjectClass":"TOPMAR","sourceProperties":{"RCID":1215568768,"PRIM":1,"GRUP":2,"OBJL":144,"RVER":1,"AGEN":7979,"FIDN":1215568768,"FIDS":1,"LNAM":"1F2B48741B800001","COLOUR":["4"],"TOPSHP":1,"SCAMIN":200000,"SORDAT":"20250114","SORIND":"NL,1R,Reprt,MD 026-25","sourceCellId":"1R75K7XI","sourceChecksum":"488888fa1124825de652cfc77eaf389c8281e2cda796cb89c76a2fae5ae984ec","rawObjectClass":"TOPMAR","sourceStableId":"1F2B48741B800001"},"sourceKind":"official","official":true,"sourceCellId":"1R75K7XI","sourceStableId":"1F2B48741B800001","pipelineFeatureId":"1R75K7XI/TOPMAR/1215568768","provenance":{"cellId":"1R75K7XI","checksum":"488888fa1124825de652cfc77eaf389c8281e2cda796cb89c76a2fae5ae984ec","readerVersion":"GDAL 3.2.2","processedAt":"2026-08-11T18:29:20.995Z"},"associationRefsVerifiedInGdalOutput":false}},{"type":"Feature","geometry":{"type":"Point","coordinates":[3.3593167,51.4119166]},"properties":{"dolphinKind":"topmark","rawObjectClass":"TOPMAR","sourceProperties":{"RCID":1215568769,"PRIM":1,"GRUP":2,"OBJL":144,"RVER":1,"AGEN":7979,"FIDN":1215568769,"FIDS":1,"LNAM":"1F2B48741B810001","COLOUR":["3"],"TOPSHP":5,"SCAMIN":200000,"SORDAT":"20250114","SORIND":"NL,1R,Reprt,MD 026-25","sourceCellId":"1R75K7XI","sourceChecksum":"488888fa1124825de652cfc77eaf389c8281e2cda796cb89c76a2fae5ae984ec","rawObjectClass":"TOPMAR","sourceStableId":"1F2B48741B810001"},"sourceKind":"official","official":true,"sourceCellId":"1R75K7XI","sourceStableId":"1F2B48741B810001","pipelineFeatureId":"1R75K7XI/TOPMAR/1215568769","provenance":{"cellId":"1R75K7XI","checksum":"488888fa1124825de652cfc77eaf389c8281e2cda796cb89c76a2fae5ae984ec","readerVersion":"GDAL 3.2.2","processedAt":"2026-08-11T18:29:20.995Z"},"associationRefsVerifiedInGdalOutput":false}},{"type":"Feature","geometry":{"type":"Point","coordinates":[3.36775,51.4238333]},"properties":{"dolphinKind":"topmark","rawObjectClass":"TOPMAR","sourceProperties":{"RCID":1266596799,"PRIM":1,"GRUP":2,"OBJL":144,"RVER":1,"AGEN":7979,"FIDN":1266596799,"FIDS":1,"LNAM":"1F2B4B7EBBBF0001","COLOUR":["6"],"TOPSHP":7,"SCAMIN":200000,"SORDAT":"20260318","SORIND":"NL,1R,Reprt,MD 268-26","sourceCellId":"1R75K7XI","sourceChecksum":"488888fa1124825de652cfc77eaf389c8281e2cda796cb89c76a2fae5ae984ec","rawObjectClass":"TOPMAR","sourceStableId":"1F2B4B7EBBBF0001"},"sourceKind":"official","official":true,"sourceCellId":"1R75K7XI","sourceStableId":"1F2B4B7EBBBF0001","pipelineFeatureId":"1R75K7XI/TOPMAR/1266596799","provenance":{"cellId":"1R75K7XI","checksum":"488888fa1124825de652cfc77eaf389c8281e2cda796cb89c76a2fae5ae984ec","readerVersion":"GDAL 3.2.2","processedAt":"2026-08-11T18:29:20.995Z"},"associationRefsVerifiedInGdalOutput":false}},{"type":"Feature","geometry":{"type":"Point","coordinates":[3.384,51.42475]},"properties":{"dolphinKind":"topmark","rawObjectClass":"TOPMAR","sourceProperties":{"RCID":1266596801,"PRIM":1,"GRUP":2,"OBJL":144,"RVER":1,"AGEN":7979,"FIDN":1266596801,"FIDS":1,"LNAM":"1F2B4B7EBBC10001","COLOUR":["6"],"TOPSHP":7,"SCAMIN":200000,"SORDAT":"20260318","SORIND":"NL,1R,Reprt,MD 268-26","sourceCellId":"1R75K7XI","sourceChecksum":"488888fa1124825de652cfc77eaf389c8281e2cda796cb89c76a2fae5ae984ec","rawObjectClass":"TOPMAR","sourceStableId":"1F2B4B7EBBC10001"},"sourceKind":"official","official":true,"sourceCellId":"1R75K7XI","sourceStableId":"1F2B4B7EBBC10001","pipelineFeatureId":"1R75K7XI/TOPMAR/1266596801","provenance":{"cellId":"1R75K7XI","checksum":"488888fa1124825de652cfc77eaf389c8281e2cda796cb89c76a2fae5ae984ec","readerVersion":"GDAL 3.2.2","processedAt":"2026-08-11T18:29:20.995Z"},"associationRefsVerifiedInGdalOutput":false}}]}