{"type":"FeatureCollection","features":[{"type":"Feature","geometry":{"type":"Point","coordinates":[3.839535,51.2747283]},"properties":{"dolphinKind":"buoy-lateral","rawObjectClass":"BOYLAT","sourceProperties":{"RCID":3825528,"PRIM":1,"GRUP":2,"OBJL":17,"RVER":1,"AGEN":7979,"FIDN":3825528,"FIDS":1,"LNAM":"1F2B003A5F780001","LNAM_REFS":["1F2B003A5F790001"],"FFPT_RIND":[2],"BOYSHP":1,"CATLAM":2,"COLOUR":["4"],"CONRAD":3,"OBJNAM":"KTG","SCAMIN":200000,"SORDAT":"20060607","sourceCellId":"1R7687FI","sourceChecksum":"b8f6129403d6afc624c3be4a3e60f9ff700bccf589c846992e225f1f4ba92448","rawObjectClass":"BOYLAT","sourceStableId":"1F2B003A5F780001"},"sourceKind":"official","official":true,"sourceCellId":"1R7687FI","sourceStableId":"1F2B003A5F780001","pipelineFeatureId":"1R7687FI/BOYLAT/3825528","provenance":{"cellId":"1R7687FI","checksum":"b8f6129403d6afc624c3be4a3e60f9ff700bccf589c846992e225f1f4ba92448","readerVersion":"GDAL 3.2.2","processedAt":"2026-08-11T13:43:44.753Z"}}},{"type":"Feature","geometry":{"type":"Point","coordinates":[3.8106679,51.2404237]},"properties":{"dolphinKind":"light","rawObjectClass":"LIGHTS","sourceProperties":{"RCID":9650,"PRIM":1,"GRUP":2,"OBJL":75,"RVER":1,"AGEN":7979,"FIDN":1106210627,"FIDS":470,"LNAM":"1F2B41EF6F4301D6","COLOUR":["4"],"LITCHR":8,"SIGGRP":"(1)","SIGPER":5,"SCAMIN":200000,"SORIND":"NL,North Sea Port","sourceCellId":"1R7687FI","sourceChecksum":"b8f6129403d6afc624c3be4a3e60f9ff700bccf589c846992e225f1f4ba92448","rawObjectClass":"LIGHTS","sourceStableId":"1F2B41EF6F4301D6"},"sourceKind":"official","official":true,"sourceCellId":"1R7687FI","sourceStableId":"1F2B41EF6F4301D6","pipelineFeatureId":"1R7687FI/LIGHTS/9650","provenance":{"cellId":"1R7687FI","checksum":"b8f6129403d6afc624c3be4a3e60f9ff700bccf589c846992e225f1f4ba92448","readerVersion":"GDAL 3.2.2","processedAt":"2026-08-11T13:43:44.753Z"}}},{"type":"Feature","geometry":{"type":"Point","coordinates":[3.8079907,51.2350334]},"properties":{"dolphinKind":"light","rawObjectClass":"LIGHTS","sourceProperties":{"RCID":9658,"PRIM":1,"GRUP":2,"OBJL":75,"RVER":1,"AGEN":7979,"FIDN":1106210627,"FIDS":478,"LNAM":"1F2B41EF6F4301DE","COLOUR":["4"],"HEIGHT":6.7,"LITCHR":7,"OBJNAM":"OL 64","SIGGRP":"(1)","SIGPER":4,"VALNMR":3,"SCAMIN":200000,"SORDAT":"20190412","SORIND":"NL,1R,reprt,MD 156-19","sourceCellId":"1R7687FI","sourceChecksum":"b8f6129403d6afc624c3be4a3e60f9ff700bccf589c846992e225f1f4ba92448","rawObjectClass":"LIGHTS","sourceStableId":"1F2B41EF6F4301DE"},"sourceKind":"official","official":true,"sourceCellId":"1R7687FI","sourceStableId":"1F2B41EF6F4301DE","pipelineFeatureId":"1R7687FI/LIGHTS/9658","provenance":{"cellId":"1R7687FI","checksum":"b8f6129403d6afc624c3be4a3e60f9ff700bccf589c846992e225f1f4ba92448","readerVersion":"GDAL 3.2.2","processedAt":"2026-08-11T13:43:44.753Z"}}},{"type":"Feature","geometry":{"type":"Point","coordinates":[3.8069115,51.2352768]},"properties":{"dolphinKind":"light","rawObjectClass":"LIGHTS","sourceProperties":{"RCID":9706,"PRIM":1,"GRUP":2,"OBJL":75,"RVER":1,"AGEN":7979,"FIDN":1106210628,"FIDS":271,"LNAM":"1F2B41EF6F44010F","COLOUR":["4"],"LITCHR":8,"OBJNAM":"LL 212,5 GR. LAAG","SIGGRP":"(1)","SIGPER":10,"SCAMIN":200000,"sourceCellId":"1R7687FI","sourceChecksum":"b8f6129403d6afc624c3be4a3e60f9ff700bccf589c846992e225f1f4ba92448","rawObjectClass":"LIGHTS","sourceStableId":"1F2B41EF6F44010F"},"sourceKind":"official","official":true,"sourceCellId":"1R7687FI","sourceStableId":"1F2B41EF6F44010F","pipelineFeatureId":"1R7687FI/LIGHTS/9706","provenance":{"cellId":"1R7687FI","checksum":"b8f6129403d6afc624c3be4a3e60f9ff700bccf589c846992e225f1f4ba92448","readerVersion":"GDAL 3.2.2","processedAt":"2026-08-11T13:43:44.753Z"}}},{"type":"Feature","geometry":{"type":"Point","coordinates":[3.8053454,51.2337157]},"properties":{"dolphinKind":"light","rawObjectClass":"LIGHTS","sourceProperties":{"RCID":9708,"PRIM":1,"GRUP":2,"OBJL":75,"RVER":1,"AGEN":7979,"FIDN":1106210628,"FIDS":273,"LNAM":"1F2B41EF6F440111","COLOUR":["4"],"LITCHR":8,"OBJNAM":"LL 212,5 GR.HOOG","SIGGRP":"(1)","SIGPER":10,"SCAMIN":200000,"sourceCellId":"1R7687FI","sourceChecksum":"b8f6129403d6afc624c3be4a3e60f9ff700bccf589c846992e225f1f4ba92448","rawObjectClass":"LIGHTS","sourceStableId":"1F2B41EF6F440111"},"sourceKind":"official","official":true,"sourceCellId":"1R7687FI","sourceStableId":"1F2B41EF6F440111","pipelineFeatureId":"1R7687FI/LIGHTS/9708","provenance":{"cellId":"1R7687FI","checksum":"b8f6129403d6afc624c3be4a3e60f9ff700bccf589c846992e225f1f4ba92448","readerVersion":"GDAL 3.2.2","processedAt":"2026-08-11T13:43:44.753Z"}}},{"type":"Feature","geometry":{"type":"Point","coordinates":[3.8305914,51.2605256]},"properties":{"dolphinKind":"light","rawObjectClass":"LIGHTS","sourceProperties":{"RCID":16624,"PRIM":1,"GRUP":2,"OBJL":75,"RVER":1,"AGEN":7979,"FIDN":1106834596,"FIDS":510,"LNAM":"1F2B41F8F4A401FE","COLOUR":["4"],"HEIGHT":6.7,"LITCHR":7,"OBJNAM":"OL 86","SIGGRP":"(1)","SIGPER":4,"VALNMR":2.4,"SCAMIN":200000,"SORDAT":"20211215","SORIND":"NL,1R,reprt,MD 691-21","sourceCellId":"1R7687FI","sourceChecksum":"b8f6129403d6afc624c3be4a3e60f9ff700bccf589c846992e225f1f4ba92448","rawObjectClass":"LIGHTS","sourceStableId":"1F2B41F8F4A401FE"},"sourceKind":"official","official":true,"sourceCellId":"1R7687FI","sourceStableId":"1F2B41F8F4A401FE","pipelineFeatureId":"1R7687FI/LIGHTS/16624","provenance":{"cellId":"1R7687FI","checksum":"b8f6129403d6afc624c3be4a3e60f9ff700bccf589c846992e225f1f4ba92448","readerVersion":"GDAL 3.2.2","processedAt":"2026-08-11T13:43:44.753Z"}}},{"type":"Feature","geometry":{"type":"Point","coordinates":[3.839535,51.2747283]},"properties":{"dolphinKind":"light","rawObjectClass":"LIGHTS","sourceProperties":{"RCID":3825529,"PRIM":1,"GRUP":2,"OBJL":75,"RVER":1,"AGEN":7979,"FIDN":3825529,"FIDS":1,"LNAM":"1F2B003A5F790001","COLOUR":["4"],"LITCHR":7,"SIGGRP":"(1)","SIGPER":4,"SCAMIN":200000,"sourceCellId":"1R7687FI","sourceChecksum":"b8f6129403d6afc624c3be4a3e60f9ff700bccf589c846992e225f1f4ba92448","rawObjectClass":"LIGHTS","sourceStableId":"1F2B003A5F790001"},"sourceKind":"official","official":true,"sourceCellId":"1R7687FI","sourceStableId":"1F2B003A5F790001","pipelineFeatureId":"1R7687FI/LIGHTS/3825529","provenance":{"cellId":"1R7687FI","checksum":"b8f6129403d6afc624c3be4a3e60f9ff700bccf589c846992e225f1f4ba92448","readerVersion":"GDAL 3.2.2","processedAt":"2026-08-11T13:43:44.753Z"}}},{"type":"Feature","geometry":{"type":"Point","coordinates":[3.8110372,51.2418132]},"properties":{"dolphinKind":"light","rawObjectClass":"LIGHTS","sourceProperties":{"RCID":40083235,"PRIM":1,"GRUP":2,"OBJL":75,"RVER":1,"AGEN":7979,"FIDN":40083235,"FIDS":1,"LNAM":"1F2B02639F230001","CATLIT":["4","15"],"COLOUR":["4"],"LITCHR":8,"SIGGRP":"(1)","SIGPER":5,"SCAMIN":200000,"SORDAT":"20030923","SORIND":"NL,North Sea Port","sourceCellId":"1R7687FI","sourceChecksum":"b8f6129403d6afc624c3be4a3e60f9ff700bccf589c846992e225f1f4ba92448","rawObjectClass":"LIGHTS","sourceStableId":"1F2B02639F230001"},"sourceKind":"official","official":true,"sourceCellId":"1R7687FI","sourceStableId":"1F2B02639F230001","pipelineFeatureId":"1R7687FI/LIGHTS/40083235","provenance":{"cellId":"1R7687FI","checksum":"b8f6129403d6afc624c3be4a3e60f9ff700bccf589c846992e225f1f4ba92448","readerVersion":"GDAL 3.2.2","processedAt":"2026-08-11T13:43:44.753Z"}}},{"type":"Feature","geometry":{"type":"Point","coordinates":[3.8105867,51.2350467]},"properties":{"dolphinKind":"light","rawObjectClass":"LIGHTS","sourceProperties":{"RCID":167280956,"PRIM":1,"GRUP":2,"OBJL":75,"RVER":1,"AGEN":7979,"FIDN":167280956,"FIDS":1,"LNAM":"1F2B09F8813C0001","COLOUR":["3"],"HEIGHT":6.7,"LITCHR":7,"OBJNAM":"OL 41","SIGGRP":"(1)","SIGPER":4,"VALNMR":3,"SCAMIN":200000,"SORDAT":"20190412","SORIND":"NL,1R,reprt,MD 156-19","sourceCellId":"1R7687FI","sourceChecksum":"b8f6129403d6afc624c3be4a3e60f9ff700bccf589c846992e225f1f4ba92448","rawObjectClass":"LIGHTS","sourceStableId":"1F2B09F8813C0001"},"sourceKind":"official","official":true,"sourceCellId":"1R7687FI","sourceStableId":"1F2B09F8813C0001","pipelineFeatureId":"1R7687FI/LIGHTS/167280956","provenance":{"cellId":"1R7687FI","checksum":"b8f6129403d6afc624c3be4a3e60f9ff700bccf589c846992e225f1f4ba92448","readerVersion":"GDAL 3.2.2","processedAt":"2026-08-11T13:43:44.753Z"}}},{"type":"Feature","geometry":{"type":"Point","coordinates":[3.8141321,51.2409295]},"properties":{"dolphinKind":"light","rawObjectClass":"LIGHTS","sourceProperties":{"RCID":167280957,"PRIM":1,"GRUP":2,"OBJL":75,"RVER":1,"AGEN":7979,"FIDN":167280957,"FIDS":1,"LNAM":"1F2B09F8813D0001","COLOUR":["3"],"HEIGHT":6.7,"LITCHR":7,"OBJNAM":"OL 55","SIGGRP":"(1)","SIGPER":4,"VALNMR":2.4,"SCAMIN":200000,"SORDAT":"20211215","SORIND":"NL,1R,reprt,MD 691-21","sourceCellId":"1R7687FI","sourceChecksum":"b8f6129403d6afc624c3be4a3e60f9ff700bccf589c846992e225f1f4ba92448","rawObjectClass":"LIGHTS","sourceStableId":"1F2B09F8813D0001"},"sourceKind":"official","official":true,"sourceCellId":"1R7687FI","sourceStableId":"1F2B09F8813D0001","pipelineFeatureId":"1R7687FI/LIGHTS/167280957","provenance":{"cellId":"1R7687FI","checksum":"b8f6129403d6afc624c3be4a3e60f9ff700bccf589c846992e225f1f4ba92448","readerVersion":"GDAL 3.2.2","processedAt":"2026-08-11T13:43:44.753Z"}}},{"type":"Feature","geometry":{"type":"Point","coordinates":[3.8277033,51.2546883]},"properties":{"dolphinKind":"light","rawObjectClass":"LIGHTS","sourceProperties":{"RCID":167280959,"PRIM":1,"GRUP":2,"OBJL":75,"RVER":1,"AGEN":7979,"FIDN":167280959,"FIDS":1,"LNAM":"1F2B09F8813F0001","COLOUR":["3"],"HEIGHT":6.7,"LITCHR":7,"OBJNAM":"OL 73","SIGGRP":"(1)","SIGPER":4,"VALNMR":2.4,"SCAMIN":200000,"SORDAT":"20211215","SORIND":"NL,1R,reprt,MD 691-21","sourceCellId":"1R7687FI","sourceChecksum":"b8f6129403d6afc624c3be4a3e60f9ff700bccf589c846992e225f1f4ba92448","rawObjectClass":"LIGHTS","sourceStableId":"1F2B09F8813F0001"},"sourceKind":"official","official":true,"sourceCellId":"1R7687FI","sourceStableId":"1F2B09F8813F0001","pipelineFeatureId":"1R7687FI/LIGHTS/167280959","provenance":{"cellId":"1R7687FI","checksum":"b8f6129403d6afc624c3be4a3e60f9ff700bccf589c846992e225f1f4ba92448","readerVersion":"GDAL 3.2.2","processedAt":"2026-08-11T13:43:44.753Z"}}},{"type":"Feature","geometry":{"type":"Point","coordinates":[3.832694,51.2597175]},"properties":{"dolphinKind":"light","rawObjectClass":"LIGHTS","sourceProperties":{"RCID":167280961,"PRIM":1,"GRUP":2,"OBJL":75,"RVER":1,"AGEN":7979,"FIDN":167280961,"FIDS":1,"LNAM":"1F2B09F881410001","COLOUR":["3"],"HEIGHT":6.7,"LITCHR":7,"OBJNAM":"OL 81","SIGGRP":"(1)","SIGPER":4,"VALNMR":2.4,"SCAMIN":200000,"SORDAT":"20211215","SORIND":"NL,1R,reprt,MD 691-21","sourceCellId":"1R7687FI","sourceChecksum":"b8f6129403d6afc624c3be4a3e60f9ff700bccf589c846992e225f1f4ba92448","rawObjectClass":"LIGHTS","sourceStableId":"1F2B09F881410001"},"sourceKind":"official","official":true,"sourceCellId":"1R7687FI","sourceStableId":"1F2B09F881410001","pipelineFeatureId":"1R7687FI/LIGHTS/167280961","provenance":{"cellId":"1R7687FI","checksum":"b8f6129403d6afc624c3be4a3e60f9ff700bccf589c846992e225f1f4ba92448","readerVersion":"GDAL 3.2.2","processedAt":"2026-08-11T13:43:44.753Z"}}},{"type":"Feature","geometry":{"type":"Point","coordinates":[3.8382584,51.2658942]},"properties":{"dolphinKind":"light","rawObjectClass":"LIGHTS","sourceProperties":{"RCID":167280964,"PRIM":1,"GRUP":2,"OBJL":75,"RVER":1,"AGEN":7979,"FIDN":167280964,"FIDS":1,"LNAM":"1F2B09F881440001","COLOUR":["3"],"HEIGHT":6.7,"LITCHR":7,"SIGGRP":"(1)","SIGPER":4,"VALNMR":2.4,"SCAMIN":200000,"SORDAT":"20211215","SORIND":"NL,1R,reprt,MD 691-21","sourceCellId":"1R7687FI","sourceChecksum":"b8f6129403d6afc624c3be4a3e60f9ff700bccf589c846992e225f1f4ba92448","rawObjectClass":"LIGHTS","sourceStableId":"1F2B09F881440001"},"sourceKind":"official","official":true,"sourceCellId":"1R7687FI","sourceStableId":"1F2B09F881440001","pipelineFeatureId":"1R7687FI/LIGHTS/167280964","provenance":{"cellId":"1R7687FI","checksum":"b8f6129403d6afc624c3be4a3e60f9ff700bccf589c846992e225f1f4ba92448","readerVersion":"GDAL 3.2.2","processedAt":"2026-08-11T13:43:44.753Z"}}},{"type":"Feature","geometry":{"type":"Point","coordinates":[3.8403967,51.2699517]},"properties":{"dolphinKind":"light","rawObjectClass":"LIGHTS","sourceProperties":{"RCID":167280965,"PRIM":1,"GRUP":2,"OBJL":75,"RVER":1,"AGEN":7979,"FIDN":167280965,"FIDS":1,"LNAM":"1F2B09F881450001","COLOUR":["9"],"HEIGHT":6.7,"LITCHR":1,"OBJNAM":"BVL 107","VALNMR":2.4,"SCAMIN":200000,"SORDAT":"20230927","SORIND":"NL,1R,reprt,MD 446-23","sourceCellId":"1R7687FI","sourceChecksum":"b8f6129403d6afc624c3be4a3e60f9ff700bccf589c846992e225f1f4ba92448","rawObjectClass":"LIGHTS","sourceStableId":"1F2B09F881450001"},"sourceKind":"official","official":true,"sourceCellId":"1R7687FI","sourceStableId":"1F2B09F881450001","pipelineFeatureId":"1R7687FI/LIGHTS/167280965","provenance":{"cellId":"1R7687FI","checksum":"b8f6129403d6afc624c3be4a3e60f9ff700bccf589c846992e225f1f4ba92448","readerVersion":"GDAL 3.2.2","processedAt":"2026-08-11T13:43:44.753Z"}}},{"type":"Feature","geometry":{"type":"Point","coordinates":[3.8416033,51.2745533]},"properties":{"dolphinKind":"light","rawObjectClass":"LIGHTS","sourceProperties":{"RCID":167280967,"PRIM":1,"GRUP":2,"OBJL":75,"RVER":1,"AGEN":7979,"FIDN":167280967,"FIDS":1,"LNAM":"1F2B09F881470001","COLOUR":["3"],"HEIGHT":7.7,"LITCHR":7,"OBJNAM":"OL 121","SIGGRP":"(1)","SIGPER":4,"VALNMR":2.4,"SCAMIN":200000,"SORDAT":"20211215","SORIND":"NL,1R,reprt,MD 691-21","sourceCellId":"1R7687FI","sourceChecksum":"b8f6129403d6afc624c3be4a3e60f9ff700bccf589c846992e225f1f4ba92448","rawObjectClass":"LIGHTS","sourceStableId":"1F2B09F881470001"},"sourceKind":"official","official":true,"sourceCellId":"1R7687FI","sourceStableId":"1F2B09F881470001","pipelineFeatureId":"1R7687FI/LIGHTS/167280967","provenance":{"cellId":"1R7687FI","checksum":"b8f6129403d6afc624c3be4a3e60f9ff700bccf589c846992e225f1f4ba92448","readerVersion":"GDAL 3.2.2","processedAt":"2026-08-11T13:43:44.753Z"}}},{"type":"Feature","geometry":{"type":"Point","coordinates":[3.8120776,51.241833]},"properties":{"dolphinKind":"light","rawObjectClass":"LIGHTS","sourceProperties":{"RCID":167280979,"PRIM":1,"GRUP":2,"OBJL":75,"RVER":1,"AGEN":7979,"FIDN":167280979,"FIDS":1,"LNAM":"1F2B09F881530001","COLOUR":["4"],"HEIGHT":6.7,"LITCHR":7,"OBJNAM":"OL 66","SIGGRP":"(1)","SIGPER":4,"VALNMR":3,"INFORM":"Nominal range of 2,4 NM","NINFOM":"Lampzichtbaarheid afgesteld op 2,4 NM","SCAMIN":200000,"SORDAT":"20220210","SORIND":"NL,1R,reptr,MD 375-20","sourceCellId":"1R7687FI","sourceChecksum":"b8f6129403d6afc624c3be4a3e60f9ff700bccf589c846992e225f1f4ba92448","rawObjectClass":"LIGHTS","sourceStableId":"1F2B09F881530001"},"sourceKind":"official","official":true,"sourceCellId":"1R7687FI","sourceStableId":"1F2B09F881530001","pipelineFeatureId":"1R7687FI/LIGHTS/167280979","provenance":{"cellId":"1R7687FI","checksum":"b8f6129403d6afc624c3be4a3e60f9ff700bccf589c846992e225f1f4ba92448","readerVersion":"GDAL 3.2.2","processedAt":"2026-08-11T13:43:44.753Z"}}},{"type":"Feature","geometry":{"type":"Point","coordinates":[3.8255144,51.2555183]},"properties":{"dolphinKind":"light","rawObjectClass":"LIGHTS","sourceProperties":{"RCID":167280981,"PRIM":1,"GRUP":2,"OBJL":75,"RVER":1,"AGEN":7979,"FIDN":167280981,"FIDS":1,"LNAM":"1F2B09F881550001","COLOUR":["4"],"HEIGHT":6.7,"LITCHR":7,"OBJNAM":"OL 84","SIGGRP":"(1)","SIGPER":4,"VALNMR":3,"INFORM":"Nominal range of 2,4 NM","NINFOM":"Lampzichtbaarheid afgesteld op 2,4 NM","SCAMIN":200000,"SORDAT":"20220210","SORIND":"NL,1R,reptr,MD 375-20","sourceCellId":"1R7687FI","sourceChecksum":"b8f6129403d6afc624c3be4a3e60f9ff700bccf589c846992e225f1f4ba92448","rawObjectClass":"LIGHTS","sourceStableId":"1F2B09F881550001"},"sourceKind":"official","official":true,"sourceCellId":"1R7687FI","sourceStableId":"1F2B09F881550001","pipelineFeatureId":"1R7687FI/LIGHTS/167280981","provenance":{"cellId":"1R7687FI","checksum":"b8f6129403d6afc624c3be4a3e60f9ff700bccf589c846992e225f1f4ba92448","readerVersion":"GDAL 3.2.2","processedAt":"2026-08-11T13:43:44.753Z"}}},{"type":"Feature","geometry":{"type":"Point","coordinates":[3.835812,51.2663138]},"properties":{"dolphinKind":"light","rawObjectClass":"LIGHTS","sourceProperties":{"RCID":167280983,"PRIM":1,"GRUP":2,"OBJL":75,"RVER":1,"AGEN":7979,"FIDN":167280983,"FIDS":1,"LNAM":"1F2B09F881570001","COLOUR":["4"],"HEIGHT":6.7,"LITCHR":7,"OBJNAM":"OL 102","SIGGRP":"(1)","SIGPER":4,"VALNMR":2.4,"SCAMIN":200000,"SORDAT":"20211215","SORIND":"NL,1R,reprt,MD 691-21","sourceCellId":"1R7687FI","sourceChecksum":"b8f6129403d6afc624c3be4a3e60f9ff700bccf589c846992e225f1f4ba92448","rawObjectClass":"LIGHTS","sourceStableId":"1F2B09F881570001"},"sourceKind":"official","official":true,"sourceCellId":"1R7687FI","sourceStableId":"1F2B09F881570001","pipelineFeatureId":"1R7687FI/LIGHTS/167280983","provenance":{"cellId":"1R7687FI","checksum":"b8f6129403d6afc624c3be4a3e60f9ff700bccf589c846992e225f1f4ba92448","readerVersion":"GDAL 3.2.2","processedAt":"2026-08-11T13:43:44.753Z"}}},{"type":"Feature","geometry":{"type":"Point","coordinates":[3.8380033,51.2703783]},"properties":{"dolphinKind":"light","rawObjectClass":"LIGHTS","sourceProperties":{"RCID":167280985,"PRIM":1,"GRUP":2,"OBJL":75,"RVER":1,"AGEN":7979,"FIDN":167280985,"FIDS":1,"LNAM":"1F2B09F881590001","COLOUR":["4"],"HEIGHT":6.7,"LITCHR":7,"OBJNAM":"OL 110","SIGGRP":"(1)","SIGPER":4,"VALNMR":2.4,"SCAMIN":200000,"SORDAT":"20211215","SORIND":"NL,1R,reprt,MD 691-21","sourceCellId":"1R7687FI","sourceChecksum":"b8f6129403d6afc624c3be4a3e60f9ff700bccf589c846992e225f1f4ba92448","rawObjectClass":"LIGHTS","sourceStableId":"1F2B09F881590001"},"sourceKind":"official","official":true,"sourceCellId":"1R7687FI","sourceStableId":"1F2B09F881590001","pipelineFeatureId":"1R7687FI/LIGHTS/167280985","provenance":{"cellId":"1R7687FI","checksum":"b8f6129403d6afc624c3be4a3e60f9ff700bccf589c846992e225f1f4ba92448","readerVersion":"GDAL 3.2.2","processedAt":"2026-08-11T13:43:44.753Z"}}},{"type":"Feature","geometry":{"type":"Point","coordinates":[3.8059064,51.2356431]},"properties":{"dolphinKind":"light","rawObjectClass":"LIGHTS","sourceProperties":{"RCID":505777973,"PRIM":1,"GRUP":2,"OBJL":75,"RVER":1,"AGEN":7979,"FIDN":505777973,"FIDS":1,"LNAM":"1F2B1E258F350001","COLOUR":["1"],"LITCHR":7,"SIGGRP":"(1)","SCAMIN":200000,"SORDAT":"20230313","SORIND":"NL,1R,Reprt,NSP","sourceCellId":"1R7687FI","sourceChecksum":"b8f6129403d6afc624c3be4a3e60f9ff700bccf589c846992e225f1f4ba92448","rawObjectClass":"LIGHTS","sourceStableId":"1F2B1E258F350001"},"sourceKind":"official","official":true,"sourceCellId":"1R7687FI","sourceStableId":"1F2B1E258F350001","pipelineFeatureId":"1R7687FI/LIGHTS/505777973","provenance":{"cellId":"1R7687FI","checksum":"b8f6129403d6afc624c3be4a3e60f9ff700bccf589c846992e225f1f4ba92448","readerVersion":"GDAL 3.2.2","processedAt":"2026-08-11T13:43:44.753Z"}}},{"type":"Feature","geometry":{"type":"Point","coordinates":[3.8065296,51.235315]},"properties":{"dolphinKind":"light","rawObjectClass":"LIGHTS","sourceProperties":{"RCID":505777974,"PRIM":1,"GRUP":2,"OBJL":75,"RVER":1,"AGEN":7979,"FIDN":505777974,"FIDS":1,"LNAM":"1F2B1E258F360001","COLOUR":["3"],"LITCHR":7,"SIGGRP":"(1)","SCAMIN":200000,"SORDAT":"20230313","SORIND":"NL,1R,Reprt,NSP","sourceCellId":"1R7687FI","sourceChecksum":"b8f6129403d6afc624c3be4a3e60f9ff700bccf589c846992e225f1f4ba92448","rawObjectClass":"LIGHTS","sourceStableId":"1F2B1E258F360001"},"sourceKind":"official","official":true,"sourceCellId":"1R7687FI","sourceStableId":"1F2B1E258F360001","pipelineFeatureId":"1R7687FI/LIGHTS/505777974","provenance":{"cellId":"1R7687FI","checksum":"b8f6129403d6afc624c3be4a3e60f9ff700bccf589c846992e225f1f4ba92448","readerVersion":"GDAL 3.2.2","processedAt":"2026-08-11T13:43:44.753Z"}}},{"type":"Feature","geometry":{"type":"Point","coordinates":[3.8288906,51.2609601]},"properties":{"dolphinKind":"light","rawObjectClass":"LIGHTS","sourceProperties":{"RCID":505777977,"PRIM":1,"GRUP":2,"OBJL":75,"RVER":1,"AGEN":7979,"FIDN":505777977,"FIDS":1,"LNAM":"1F2B1E258F390001","COLOUR":["3"],"LITCHR":7,"SIGGRP":"(1)","SCAMIN":200000,"SORDAT":"20230313","SORIND":"NL,1R,Reprt,NSP","sourceCellId":"1R7687FI","sourceChecksum":"b8f6129403d6afc624c3be4a3e60f9ff700bccf589c846992e225f1f4ba92448","rawObjectClass":"LIGHTS","sourceStableId":"1F2B1E258F390001"},"sourceKind":"official","official":true,"sourceCellId":"1R7687FI","sourceStableId":"1F2B1E258F390001","pipelineFeatureId":"1R7687FI/LIGHTS/505777977","provenance":{"cellId":"1R7687FI","checksum":"b8f6129403d6afc624c3be4a3e60f9ff700bccf589c846992e225f1f4ba92448","readerVersion":"GDAL 3.2.2","processedAt":"2026-08-11T13:43:44.753Z"}}},{"type":"Feature","geometry":{"type":"Point","coordinates":[3.8295511,51.2607989]},"properties":{"dolphinKind":"light","rawObjectClass":"LIGHTS","sourceProperties":{"RCID":505777978,"PRIM":1,"GRUP":2,"OBJL":75,"RVER":1,"AGEN":7979,"FIDN":505777978,"FIDS":1,"LNAM":"1F2B1E258F3A0001","COLOUR":["4"],"LITCHR":7,"SIGGRP":"(1)","SCAMIN":200000,"SORDAT":"20230313","SORIND":"NL,1R,Reprt,NSP","sourceCellId":"1R7687FI","sourceChecksum":"b8f6129403d6afc624c3be4a3e60f9ff700bccf589c846992e225f1f4ba92448","rawObjectClass":"LIGHTS","sourceStableId":"1F2B1E258F3A0001"},"sourceKind":"official","official":true,"sourceCellId":"1R7687FI","sourceStableId":"1F2B1E258F3A0001","pipelineFeatureId":"1R7687FI/LIGHTS/505777978","provenance":{"cellId":"1R7687FI","checksum":"b8f6129403d6afc624c3be4a3e60f9ff700bccf589c846992e225f1f4ba92448","readerVersion":"GDAL 3.2.2","processedAt":"2026-08-11T13:43:44.753Z"}}},{"type":"Feature","geometry":{"type":"Point","coordinates":[3.8363384,51.2613074]},"properties":{"dolphinKind":"light","rawObjectClass":"LIGHTS","sourceProperties":{"RCID":505778457,"PRIM":1,"GRUP":2,"OBJL":75,"RVER":1,"AGEN":7979,"FIDN":505778457,"FIDS":1,"LNAM":"1F2B1E2591190001","COLOUR":["4"],"LITCHR":7,"SIGGRP":"(1)","SCAMIN":200000,"SORDAT":"20230313","SORIND":"NL,1R,Reprt,NSP","sourceCellId":"1R7687FI","sourceChecksum":"b8f6129403d6afc624c3be4a3e60f9ff700bccf589c846992e225f1f4ba92448","rawObjectClass":"LIGHTS","sourceStableId":"1F2B1E2591190001"},"sourceKind":"official","official":true,"sourceCellId":"1R7687FI","sourceStableId":"1F2B1E2591190001","pipelineFeatureId":"1R7687FI/LIGHTS/505778457","provenance":{"cellId":"1R7687FI","checksum":"b8f6129403d6afc624c3be4a3e60f9ff700bccf589c846992e225f1f4ba92448","readerVersion":"GDAL 3.2.2","processedAt":"2026-08-11T13:43:44.753Z"}}},{"type":"Feature","geometry":{"type":"Point","coordinates":[3.8382117,51.2639294]},"properties":{"dolphinKind":"light","rawObjectClass":"LIGHTS","sourceProperties":{"RCID":505778458,"PRIM":1,"GRUP":2,"OBJL":75,"RVER":1,"AGEN":7979,"FIDN":505778458,"FIDS":1,"LNAM":"1F2B1E25911A0001","COLOUR":["3"],"LITCHR":7,"SIGGRP":"(1)","SCAMIN":200000,"SORDAT":"20230313","SORIND":"NL,1R,Reprt,NSP","sourceCellId":"1R7687FI","sourceChecksum":"b8f6129403d6afc624c3be4a3e60f9ff700bccf589c846992e225f1f4ba92448","rawObjectClass":"LIGHTS","sourceStableId":"1F2B1E25911A0001"},"sourceKind":"official","official":true,"sourceCellId":"1R7687FI","sourceStableId":"1F2B1E25911A0001","pipelineFeatureId":"1R7687FI/LIGHTS/505778458","provenance":{"cellId":"1R7687FI","checksum":"b8f6129403d6afc624c3be4a3e60f9ff700bccf589c846992e225f1f4ba92448","readerVersion":"GDAL 3.2.2","processedAt":"2026-08-11T13:43:44.753Z"}}},{"type":"Feature","geometry":{"type":"Point","coordinates":[3.84202,51.2747356]},"properties":{"dolphinKind":"light","rawObjectClass":"LIGHTS","sourceProperties":{"RCID":505779564,"PRIM":1,"GRUP":2,"OBJL":75,"RVER":1,"AGEN":7979,"FIDN":505779564,"FIDS":1,"LNAM":"1F2B1E25956C0001","COLOUR":["4"],"LITCHR":7,"SIGGRP":"(1)","SCAMIN":200000,"SORDAT":"20230313","SORIND":"NL,1R,Reprt,NSP","sourceCellId":"1R7687FI","sourceChecksum":"b8f6129403d6afc624c3be4a3e60f9ff700bccf589c846992e225f1f4ba92448","rawObjectClass":"LIGHTS","sourceStableId":"1F2B1E25956C0001"},"sourceKind":"official","official":true,"sourceCellId":"1R7687FI","sourceStableId":"1F2B1E25956C0001","pipelineFeatureId":"1R7687FI/LIGHTS/505779564","provenance":{"cellId":"1R7687FI","checksum":"b8f6129403d6afc624c3be4a3e60f9ff700bccf589c846992e225f1f4ba92448","readerVersion":"GDAL 3.2.2","processedAt":"2026-08-11T13:43:44.753Z"}}}]}