{"type":"FeatureCollection","features":[{"type":"Feature","geometry":{"type":"Point","coordinates":[3.2614333,51.6098667]},"properties":{"dolphinKind":"light","rawObjectClass":"LIGHTS","sourceProperties":{"RCID":17638,"PRIM":1,"GRUP":2,"OBJL":75,"RVER":1,"AGEN":7979,"FIDN":1106834684,"FIDS":444,"LNAM":"1F2B41F8F4FC01BC","COLOUR":["1"],"LITCHR":5,"SIGGRP":"(9)","SIGPER":10,"SCAMIN":200000,"SORDAT":"20030930","sourceCellId":"1R7588LI","sourceChecksum":"fcefec7e07170c4b859138c34376143c7aa4e9f8e653fc723d6bbe65dbf3c0a2","rawObjectClass":"LIGHTS","sourceStableId":"1F2B41F8F4FC01BC"},"sourceKind":"official","official":true,"sourceCellId":"1R7588LI","sourceStableId":"1F2B41F8F4FC01BC","pipelineFeatureId":"1R7588LI/LIGHTS/17638","provenance":{"cellId":"1R7588LI","checksum":"fcefec7e07170c4b859138c34376143c7aa4e9f8e653fc723d6bbe65dbf3c0a2","readerVersion":"GDAL 3.2.2","processedAt":"2026-08-11T13:43:44.753Z"}}},{"type":"Feature","geometry":{"type":"Point","coordinates":[3.27423,51.6180717]},"properties":{"dolphinKind":"topmark","rawObjectClass":"TOPMAR","sourceProperties":{"RCID":17575,"PRIM":1,"GRUP":2,"OBJL":144,"RVER":1,"AGEN":7979,"FIDN":1106834684,"FIDS":381,"LNAM":"1F2B41F8F4FC017D","COLOUR":["2"],"TOPSHP":10,"SCAMIN":200000,"SORDAT":"20030930","sourceCellId":"1R7588LI","sourceChecksum":"fcefec7e07170c4b859138c34376143c7aa4e9f8e653fc723d6bbe65dbf3c0a2","rawObjectClass":"TOPMAR","sourceStableId":"1F2B41F8F4FC017D"},"sourceKind":"official","official":true,"sourceCellId":"1R7588LI","sourceStableId":"1F2B41F8F4FC017D","pipelineFeatureId":"1R7588LI/TOPMAR/17575","provenance":{"cellId":"1R7588LI","checksum":"fcefec7e07170c4b859138c34376143c7aa4e9f8e653fc723d6bbe65dbf3c0a2","readerVersion":"GDAL 3.2.2","processedAt":"2026-08-11T13:43:44.753Z"},"associationRefsVerifiedInGdalOutput":false}},{"type":"Feature","geometry":{"type":"Point","coordinates":[3.2614333,51.6098667]},"properties":{"dolphinKind":"topmark","rawObjectClass":"TOPMAR","sourceProperties":{"RCID":17640,"PRIM":1,"GRUP":2,"OBJL":144,"RVER":1,"AGEN":7979,"FIDN":1106834684,"FIDS":446,"LNAM":"1F2B41F8F4FC01BE","COLOUR":["2"],"TOPSHP":10,"SCAMIN":200000,"SORDAT":"20030930","sourceCellId":"1R7588LI","sourceChecksum":"fcefec7e07170c4b859138c34376143c7aa4e9f8e653fc723d6bbe65dbf3c0a2","rawObjectClass":"TOPMAR","sourceStableId":"1F2B41F8F4FC01BE"},"sourceKind":"official","official":true,"sourceCellId":"1R7588LI","sourceStableId":"1F2B41F8F4FC01BE","pipelineFeatureId":"1R7588LI/TOPMAR/17640","provenance":{"cellId":"1R7588LI","checksum":"fcefec7e07170c4b859138c34376143c7aa4e9f8e653fc723d6bbe65dbf3c0a2","readerVersion":"GDAL 3.2.2","processedAt":"2026-08-11T13:43:44.753Z"},"associationRefsVerifiedInGdalOutput":false}}]}