{"type":"FeatureCollection","features":[{"type":"Feature","geometry":{"type":"Point","coordinates":[3.8746544,51.5898048]},"properties":{"dolphinKind":"beacon-special","rawObjectClass":"BCNSPP","sourceProperties":{"RCID":9291,"PRIM":1,"GRUP":2,"OBJL":9,"RVER":1,"AGEN":7979,"FIDN":1106210626,"FIDS":366,"LNAM":"1F2B41EF6F42016E","LNAM_REFS":["1F2B41EF6F42016F"],"FFPT_RIND":[2],"BCNSHP":1,"CATSPM":["6"],"COLOUR":["2"],"SCAMIN":200000,"sourceCellId":"1R7688LI","sourceChecksum":"672acec83e524ca04a9a2de7e13f1fce552b707be2da6728589cce327092d54e","rawObjectClass":"BCNSPP","sourceStableId":"1F2B41EF6F42016E"},"sourceKind":"official","official":true,"sourceCellId":"1R7688LI","sourceStableId":"1F2B41EF6F42016E","pipelineFeatureId":"1R7688LI/BCNSPP/9291","provenance":{"cellId":"1R7688LI","checksum":"672acec83e524ca04a9a2de7e13f1fce552b707be2da6728589cce327092d54e","readerVersion":"GDAL 3.2.2","processedAt":"2026-08-11T13:43:44.753Z"}}},{"type":"Feature","geometry":{"type":"Point","coordinates":[3.8766546,51.5871014]},"properties":{"dolphinKind":"beacon-special","rawObjectClass":"BCNSPP","sourceProperties":{"RCID":9293,"PRIM":1,"GRUP":2,"OBJL":9,"RVER":1,"AGEN":7979,"FIDN":1106210626,"FIDS":368,"LNAM":"1F2B41EF6F420170","LNAM_REFS":["1F2B41EF6F420171"],"FFPT_RIND":[2],"BCNSHP":1,"CATSPM":["6"],"COLOUR":["2"],"SCAMIN":200000,"sourceCellId":"1R7688LI","sourceChecksum":"672acec83e524ca04a9a2de7e13f1fce552b707be2da6728589cce327092d54e","rawObjectClass":"BCNSPP","sourceStableId":"1F2B41EF6F420170"},"sourceKind":"official","official":true,"sourceCellId":"1R7688LI","sourceStableId":"1F2B41EF6F420170","pipelineFeatureId":"1R7688LI/BCNSPP/9293","provenance":{"cellId":"1R7688LI","checksum":"672acec83e524ca04a9a2de7e13f1fce552b707be2da6728589cce327092d54e","readerVersion":"GDAL 3.2.2","processedAt":"2026-08-11T13:43:44.753Z"}}},{"type":"Feature","geometry":{"type":"Point","coordinates":[3.902995,51.6227717]},"properties":{"dolphinKind":"buoy-special","rawObjectClass":"BOYSPP","sourceProperties":{"RCID":17851,"PRIM":1,"GRUP":2,"OBJL":19,"RVER":1,"AGEN":7979,"FIDN":1106834726,"FIDS":354,"LNAM":"1F2B41F8F5260162","LNAM_REFS":["1F2B1A12A2D10001"],"FFPT_RIND":[2],"BOYSHP":5,"CATSPM":["27"],"COLOUR":["6"],"CONRAD":3,"OBJNAM":"ZB 2","INFORM":"VMD","SCAMIN":200000,"SORDAT":"20031115","sourceCellId":"1R7688LI","sourceChecksum":"672acec83e524ca04a9a2de7e13f1fce552b707be2da6728589cce327092d54e","rawObjectClass":"BOYSPP","sourceStableId":"1F2B41F8F5260162"},"sourceKind":"official","official":true,"sourceCellId":"1R7688LI","sourceStableId":"1F2B41F8F5260162","pipelineFeatureId":"1R7688LI/BOYSPP/17851","provenance":{"cellId":"1R7688LI","checksum":"672acec83e524ca04a9a2de7e13f1fce552b707be2da6728589cce327092d54e","readerVersion":"GDAL 3.2.2","processedAt":"2026-08-11T13:43:44.753Z"}}},{"type":"Feature","geometry":{"type":"Point","coordinates":[3.9022183,51.6221333]},"properties":{"dolphinKind":"buoy-special","rawObjectClass":"BOYSPP","sourceProperties":{"RCID":17852,"PRIM":1,"GRUP":2,"OBJL":19,"RVER":1,"AGEN":7979,"FIDN":1106834726,"FIDS":355,"LNAM":"1F2B41F8F5260163","LNAM_REFS":["1F2B1A12A3360001"],"FFPT_RIND":[2],"BOYSHP":5,"CATSPM":["27"],"COLOUR":["6"],"OBJNAM":"ZB 1","INFORM":"VMD","SCAMIN":200000,"SORDAT":"20031115","sourceCellId":"1R7688LI","sourceChecksum":"672acec83e524ca04a9a2de7e13f1fce552b707be2da6728589cce327092d54e","rawObjectClass":"BOYSPP","sourceStableId":"1F2B41F8F5260163"},"sourceKind":"official","official":true,"sourceCellId":"1R7688LI","sourceStableId":"1F2B41F8F5260163","pipelineFeatureId":"1R7688LI/BOYSPP/17852","provenance":{"cellId":"1R7688LI","checksum":"672acec83e524ca04a9a2de7e13f1fce552b707be2da6728589cce327092d54e","readerVersion":"GDAL 3.2.2","processedAt":"2026-08-11T13:43:44.753Z"}}},{"type":"Feature","geometry":{"type":"Point","coordinates":[3.9077683,51.62259]},"properties":{"dolphinKind":"buoy-special","rawObjectClass":"BOYSPP","sourceProperties":{"RCID":17939,"PRIM":1,"GRUP":2,"OBJL":19,"RVER":1,"AGEN":7979,"FIDN":1106834726,"FIDS":442,"LNAM":"1F2B41F8F52601BA","LNAM_REFS":["1F2B06299FE00001"],"FFPT_RIND":[2],"BOYSHP":5,"CATSPM":["27"],"COLOUR":["6"],"CONRAD":3,"OBJNAM":"ZB 4","INFORM":"VMD","SCAMIN":200000,"SORDAT":"20120912","SORIND":"NL,1R,reprt,MZ114-2012","sourceCellId":"1R7688LI","sourceChecksum":"672acec83e524ca04a9a2de7e13f1fce552b707be2da6728589cce327092d54e","rawObjectClass":"BOYSPP","sourceStableId":"1F2B41F8F52601BA"},"sourceKind":"official","official":true,"sourceCellId":"1R7688LI","sourceStableId":"1F2B41F8F52601BA","pipelineFeatureId":"1R7688LI/BOYSPP/17939","provenance":{"cellId":"1R7688LI","checksum":"672acec83e524ca04a9a2de7e13f1fce552b707be2da6728589cce327092d54e","readerVersion":"GDAL 3.2.2","processedAt":"2026-08-11T13:43:44.753Z"}}},{"type":"Feature","geometry":{"type":"Point","coordinates":[3.9068883,51.6219067]},"properties":{"dolphinKind":"buoy-special","rawObjectClass":"BOYSPP","sourceProperties":{"RCID":17940,"PRIM":1,"GRUP":2,"OBJL":19,"RVER":1,"AGEN":7979,"FIDN":1106834726,"FIDS":443,"LNAM":"1F2B41F8F52601BB","LNAM_REFS":["1F2B06299FE10001"],"FFPT_RIND":[2],"BOYSHP":5,"CATSPM":["27"],"COLOUR":["6"],"CONRAD":3,"OBJNAM":"ZB 3","INFORM":"VMD","SCAMIN":200000,"SORDAT":"20120912","SORIND":"NL,1R,reprt,MZ114-2012","sourceCellId":"1R7688LI","sourceChecksum":"672acec83e524ca04a9a2de7e13f1fce552b707be2da6728589cce327092d54e","rawObjectClass":"BOYSPP","sourceStableId":"1F2B41F8F52601BB"},"sourceKind":"official","official":true,"sourceCellId":"1R7688LI","sourceStableId":"1F2B41F8F52601BB","pipelineFeatureId":"1R7688LI/BOYSPP/17940","provenance":{"cellId":"1R7688LI","checksum":"672acec83e524ca04a9a2de7e13f1fce552b707be2da6728589cce327092d54e","readerVersion":"GDAL 3.2.2","processedAt":"2026-08-11T13:43:44.753Z"}}},{"type":"Feature","geometry":{"type":"Point","coordinates":[3.7341,51.5976167]},"properties":{"dolphinKind":"buoy-special","rawObjectClass":"BOYSPP","sourceProperties":{"RCID":21987845,"PRIM":1,"GRUP":2,"OBJL":19,"RVER":1,"AGEN":7979,"FIDN":21987845,"FIDS":1,"LNAM":"1F2B014F82050001","BOYSHP":5,"CATSPM":["12"],"COLOUR":["6"],"OBJNAM":"RP D","SCAMIN":200000,"SORDAT":"20170517","SORIND":"NL,1R,reprt,MD 195-17","sourceCellId":"1R7688LI","sourceChecksum":"672acec83e524ca04a9a2de7e13f1fce552b707be2da6728589cce327092d54e","rawObjectClass":"BOYSPP","sourceStableId":"1F2B014F82050001"},"sourceKind":"official","official":true,"sourceCellId":"1R7688LI","sourceStableId":"1F2B014F82050001","pipelineFeatureId":"1R7688LI/BOYSPP/21987845","provenance":{"cellId":"1R7688LI","checksum":"672acec83e524ca04a9a2de7e13f1fce552b707be2da6728589cce327092d54e","readerVersion":"GDAL 3.2.2","processedAt":"2026-08-11T13:43:44.753Z"}}},{"type":"Feature","geometry":{"type":"Point","coordinates":[3.7356667,51.5957833]},"properties":{"dolphinKind":"buoy-special","rawObjectClass":"BOYSPP","sourceProperties":{"RCID":21987846,"PRIM":1,"GRUP":2,"OBJL":19,"RVER":1,"AGEN":7979,"FIDN":21987846,"FIDS":1,"LNAM":"1F2B014F82060001","BOYSHP":5,"CATSPM":["12"],"COLOUR":["6"],"OBJNAM":"RP E","SCAMIN":200000,"SORDAT":"20170517","SORIND":"NL,1R,reprt,MD 195-17","sourceCellId":"1R7688LI","sourceChecksum":"672acec83e524ca04a9a2de7e13f1fce552b707be2da6728589cce327092d54e","rawObjectClass":"BOYSPP","sourceStableId":"1F2B014F82060001"},"sourceKind":"official","official":true,"sourceCellId":"1R7688LI","sourceStableId":"1F2B014F82060001","pipelineFeatureId":"1R7688LI/BOYSPP/21987846","provenance":{"cellId":"1R7688LI","checksum":"672acec83e524ca04a9a2de7e13f1fce552b707be2da6728589cce327092d54e","readerVersion":"GDAL 3.2.2","processedAt":"2026-08-11T13:43:44.753Z"}}},{"type":"Feature","geometry":{"type":"Point","coordinates":[3.7369733,51.6187483]},"properties":{"dolphinKind":"buoy-special","rawObjectClass":"BOYSPP","sourceProperties":{"RCID":44711947,"PRIM":1,"GRUP":2,"OBJL":19,"RVER":1,"AGEN":7979,"FIDN":44711947,"FIDS":1,"LNAM":"1F2B02AA400B0001","LNAM_REFS":["1F2B02AA400A0001"],"FFPT_RIND":[2],"BOYSHP":5,"CATSPM":["50"],"COLOUR":["6"],"CONRAD":3,"OBJNAM":"NJ-B","INFORM":"Mussel seed installation","NINFOM":"Mosselzaadinvanginstallatie","SCAMIN":200000,"SORDAT":"20240201","SORIND":"NL,1R,reprt,MD 049-24","sourceCellId":"1R7688LI","sourceChecksum":"672acec83e524ca04a9a2de7e13f1fce552b707be2da6728589cce327092d54e","rawObjectClass":"BOYSPP","sourceStableId":"1F2B02AA400B0001"},"sourceKind":"official","official":true,"sourceCellId":"1R7688LI","sourceStableId":"1F2B02AA400B0001","pipelineFeatureId":"1R7688LI/BOYSPP/44711947","provenance":{"cellId":"1R7688LI","checksum":"672acec83e524ca04a9a2de7e13f1fce552b707be2da6728589cce327092d54e","readerVersion":"GDAL 3.2.2","processedAt":"2026-08-11T13:43:44.753Z"}}},{"type":"Feature","geometry":{"type":"Point","coordinates":[3.7540283,51.6211217]},"properties":{"dolphinKind":"buoy-special","rawObjectClass":"BOYSPP","sourceProperties":{"RCID":44711949,"PRIM":1,"GRUP":2,"OBJL":19,"RVER":1,"AGEN":7979,"FIDN":44711949,"FIDS":1,"LNAM":"1F2B02AA400D0001","LNAM_REFS":["1F2B02AA400C0001"],"FFPT_RIND":[2],"BOYSHP":5,"CATSPM":["50"],"COLOUR":["6"],"CONRAD":3,"OBJNAM":"NJ-C","INFORM":"Mussel seed installation","NINFOM":"Mosselzaadinvanginstallatie","SCAMIN":200000,"SORDAT":"20240201","SORIND":"NL,1R,reprt,MD 049-24","sourceCellId":"1R7688LI","sourceChecksum":"672acec83e524ca04a9a2de7e13f1fce552b707be2da6728589cce327092d54e","rawObjectClass":"BOYSPP","sourceStableId":"1F2B02AA400D0001"},"sourceKind":"official","official":true,"sourceCellId":"1R7688LI","sourceStableId":"1F2B02AA400D0001","pipelineFeatureId":"1R7688LI/BOYSPP/44711949","provenance":{"cellId":"1R7688LI","checksum":"672acec83e524ca04a9a2de7e13f1fce552b707be2da6728589cce327092d54e","readerVersion":"GDAL 3.2.2","processedAt":"2026-08-11T13:43:44.753Z"}}},{"type":"Feature","geometry":{"type":"Point","coordinates":[3.7548667,51.61939]},"properties":{"dolphinKind":"buoy-special","rawObjectClass":"BOYSPP","sourceProperties":{"RCID":44711951,"PRIM":1,"GRUP":2,"OBJL":19,"RVER":1,"AGEN":7979,"FIDN":44711951,"FIDS":1,"LNAM":"1F2B02AA400F0001","LNAM_REFS":["1F2B02AA400E0001"],"FFPT_RIND":[2],"BOYSHP":5,"CATSPM":["50"],"COLOUR":["6"],"CONRAD":3,"OBJNAM":"NJ-D","INFORM":"Mussel seed installation","NINFOM":"Mosselzaadinvanginstallatie","SCAMIN":200000,"SORDAT":"20240201","SORIND":"NL,1R,reprt,MD 049-24","sourceCellId":"1R7688LI","sourceChecksum":"672acec83e524ca04a9a2de7e13f1fce552b707be2da6728589cce327092d54e","rawObjectClass":"BOYSPP","sourceStableId":"1F2B02AA400F0001"},"sourceKind":"official","official":true,"sourceCellId":"1R7688LI","sourceStableId":"1F2B02AA400F0001","pipelineFeatureId":"1R7688LI/BOYSPP/44711951","provenance":{"cellId":"1R7688LI","checksum":"672acec83e524ca04a9a2de7e13f1fce552b707be2da6728589cce327092d54e","readerVersion":"GDAL 3.2.2","processedAt":"2026-08-11T13:43:44.753Z"}}},{"type":"Feature","geometry":{"type":"Point","coordinates":[3.7405533,51.6150133]},"properties":{"dolphinKind":"buoy-special","rawObjectClass":"BOYSPP","sourceProperties":{"RCID":44711953,"PRIM":1,"GRUP":2,"OBJL":19,"RVER":1,"AGEN":7979,"FIDN":44711953,"FIDS":1,"LNAM":"1F2B02AA40110001","LNAM_REFS":["1F2B02AA40100001"],"FFPT_RIND":[2],"BOYSHP":5,"CATSPM":["50"],"COLOUR":["6"],"CONRAD":3,"OBJNAM":"NJ-E","INFORM":"Mussel seed installation","NINFOM":"Mosselzaadinvanginstallatie","SCAMIN":200000,"SORDAT":"20240201","SORIND":"NL,1R,reprt,MD 049-24","sourceCellId":"1R7688LI","sourceChecksum":"672acec83e524ca04a9a2de7e13f1fce552b707be2da6728589cce327092d54e","rawObjectClass":"BOYSPP","sourceStableId":"1F2B02AA40110001"},"sourceKind":"official","official":true,"sourceCellId":"1R7688LI","sourceStableId":"1F2B02AA40110001","pipelineFeatureId":"1R7688LI/BOYSPP/44711953","provenance":{"cellId":"1R7688LI","checksum":"672acec83e524ca04a9a2de7e13f1fce552b707be2da6728589cce327092d54e","readerVersion":"GDAL 3.2.2","processedAt":"2026-08-11T13:43:44.753Z"}}},{"type":"Feature","geometry":{"type":"Point","coordinates":[3.8726083,51.62485]},"properties":{"dolphinKind":"buoy-special","rawObjectClass":"BOYSPP","sourceProperties":{"RCID":44711956,"PRIM":1,"GRUP":2,"OBJL":19,"RVER":1,"AGEN":7979,"FIDN":44711956,"FIDS":1,"LNAM":"1F2B02AA40140001","LNAM_REFS":["1F2B02AA40130001"],"FFPT_RIND":[2],"BOYSHP":5,"CATSPM":["50"],"COLOUR":["6"],"CONRAD":3,"OBJNAM":"VB-A","INFORM":"Mussel seed installation","NINFOM":"Mosselzaadinvanginstallatie","SCAMIN":200000,"SORDAT":"20240202","SORIND":"NL,1R,Reprt,MD053-24","sourceCellId":"1R7688LI","sourceChecksum":"672acec83e524ca04a9a2de7e13f1fce552b707be2da6728589cce327092d54e","rawObjectClass":"BOYSPP","sourceStableId":"1F2B02AA40140001"},"sourceKind":"official","official":true,"sourceCellId":"1R7688LI","sourceStableId":"1F2B02AA40140001","pipelineFeatureId":"1R7688LI/BOYSPP/44711956","provenance":{"cellId":"1R7688LI","checksum":"672acec83e524ca04a9a2de7e13f1fce552b707be2da6728589cce327092d54e","readerVersion":"GDAL 3.2.2","processedAt":"2026-08-11T13:43:44.753Z"}}},{"type":"Feature","geometry":{"type":"Point","coordinates":[3.8751733,51.6192117]},"properties":{"dolphinKind":"buoy-special","rawObjectClass":"BOYSPP","sourceProperties":{"RCID":44711958,"PRIM":1,"GRUP":2,"OBJL":19,"RVER":1,"AGEN":7979,"FIDN":44711958,"FIDS":1,"LNAM":"1F2B02AA40160001","LNAM_REFS":["1F2B02AA40150001"],"FFPT_RIND":[2],"BOYSHP":5,"CATSPM":["50"],"COLOUR":["6"],"CONRAD":3,"OBJNAM":"VB-E","INFORM":"Mussel seed installation","NINFOM":"Mosselzaadinvanginstallatie","SCAMIN":200000,"SORDAT":"20240202","SORIND":"NL,1R,Reprt,MD053-24","sourceCellId":"1R7688LI","sourceChecksum":"672acec83e524ca04a9a2de7e13f1fce552b707be2da6728589cce327092d54e","rawObjectClass":"BOYSPP","sourceStableId":"1F2B02AA40160001"},"sourceKind":"official","official":true,"sourceCellId":"1R7688LI","sourceStableId":"1F2B02AA40160001","pipelineFeatureId":"1R7688LI/BOYSPP/44711958","provenance":{"cellId":"1R7688LI","checksum":"672acec83e524ca04a9a2de7e13f1fce552b707be2da6728589cce327092d54e","readerVersion":"GDAL 3.2.2","processedAt":"2026-08-11T13:43:44.753Z"}}},{"type":"Feature","geometry":{"type":"Point","coordinates":[3.8786933,51.6212533]},"properties":{"dolphinKind":"buoy-special","rawObjectClass":"BOYSPP","sourceProperties":{"RCID":44711960,"PRIM":1,"GRUP":2,"OBJL":19,"RVER":1,"AGEN":7979,"FIDN":44711960,"FIDS":1,"LNAM":"1F2B02AA40180001","LNAM_REFS":["1F2B02AA40170001"],"FFPT_RIND":[2],"BOYSHP":5,"CATSPM":["50"],"COLOUR":["6"],"CONRAD":3,"OBJNAM":"VB-B","INFORM":"Mussel seed installation","NINFOM":"Mosselzaadinvanginstallatie","SCAMIN":200000,"SORDAT":"20240202","SORIND":"NL,1R,Reprt,MD053-24","sourceCellId":"1R7688LI","sourceChecksum":"672acec83e524ca04a9a2de7e13f1fce552b707be2da6728589cce327092d54e","rawObjectClass":"BOYSPP","sourceStableId":"1F2B02AA40180001"},"sourceKind":"official","official":true,"sourceCellId":"1R7688LI","sourceStableId":"1F2B02AA40180001","pipelineFeatureId":"1R7688LI/BOYSPP/44711960","provenance":{"cellId":"1R7688LI","checksum":"672acec83e524ca04a9a2de7e13f1fce552b707be2da6728589cce327092d54e","readerVersion":"GDAL 3.2.2","processedAt":"2026-08-11T13:43:44.753Z"}}},{"type":"Feature","geometry":{"type":"Point","coordinates":[3.8843983,51.61747]},"properties":{"dolphinKind":"buoy-special","rawObjectClass":"BOYSPP","sourceProperties":{"RCID":44711962,"PRIM":1,"GRUP":2,"OBJL":19,"RVER":1,"AGEN":7979,"FIDN":44711962,"FIDS":1,"LNAM":"1F2B02AA401A0001","LNAM_REFS":["1F2B02AA40190001"],"FFPT_RIND":[2],"BOYSHP":5,"CATSPM":["50"],"COLOUR":["6"],"CONRAD":3,"OBJNAM":"VB-C","INFORM":"Mussel seed installation","NINFOM":"Mosselzaadinvanginstallatie","SCAMIN":200000,"SORDAT":"20240202","SORIND":"NL,1R,Reprt,MD053-24","sourceCellId":"1R7688LI","sourceChecksum":"672acec83e524ca04a9a2de7e13f1fce552b707be2da6728589cce327092d54e","rawObjectClass":"BOYSPP","sourceStableId":"1F2B02AA401A0001"},"sourceKind":"official","official":true,"sourceCellId":"1R7688LI","sourceStableId":"1F2B02AA401A0001","pipelineFeatureId":"1R7688LI/BOYSPP/44711962","provenance":{"cellId":"1R7688LI","checksum":"672acec83e524ca04a9a2de7e13f1fce552b707be2da6728589cce327092d54e","readerVersion":"GDAL 3.2.2","processedAt":"2026-08-11T13:43:44.753Z"}}},{"type":"Feature","geometry":{"type":"Point","coordinates":[3.8809483,51.6153917]},"properties":{"dolphinKind":"buoy-special","rawObjectClass":"BOYSPP","sourceProperties":{"RCID":44711964,"PRIM":1,"GRUP":2,"OBJL":19,"RVER":1,"AGEN":7979,"FIDN":44711964,"FIDS":1,"LNAM":"1F2B02AA401C0001","LNAM_REFS":["1F2B02AA401B0001"],"FFPT_RIND":[2],"BOYSHP":5,"CATSPM":["50"],"COLOUR":["6"],"CONRAD":3,"OBJNAM":"VB-D","INFORM":"Mussel seed installation","NINFOM":"Mosselzaadinvanginstallatie","SCAMIN":200000,"SORDAT":"20240202","SORIND":"NL,1R,Reprt,MD053-24","sourceCellId":"1R7688LI","sourceChecksum":"672acec83e524ca04a9a2de7e13f1fce552b707be2da6728589cce327092d54e","rawObjectClass":"BOYSPP","sourceStableId":"1F2B02AA401C0001"},"sourceKind":"official","official":true,"sourceCellId":"1R7688LI","sourceStableId":"1F2B02AA401C0001","pipelineFeatureId":"1R7688LI/BOYSPP/44711964","provenance":{"cellId":"1R7688LI","checksum":"672acec83e524ca04a9a2de7e13f1fce552b707be2da6728589cce327092d54e","readerVersion":"GDAL 3.2.2","processedAt":"2026-08-11T13:43:44.753Z"}}},{"type":"Feature","geometry":{"type":"Point","coordinates":[3.8694283,51.6230317]},"properties":{"dolphinKind":"buoy-special","rawObjectClass":"BOYSPP","sourceProperties":{"RCID":44711966,"PRIM":1,"GRUP":2,"OBJL":19,"RVER":1,"AGEN":7979,"FIDN":44711966,"FIDS":1,"LNAM":"1F2B02AA401E0001","LNAM_REFS":["1F2B02AA401D0001"],"FFPT_RIND":[2],"BOYSHP":5,"CATSPM":["50"],"COLOUR":["6"],"CONRAD":3,"OBJNAM":"VB-F","INFORM":"Mussel seed installation","NINFOM":"Mosselzaadinvanginstallatie","SCAMIN":200000,"SORDAT":"20240202","SORIND":"NL,1R,Reprt,MD053-24","sourceCellId":"1R7688LI","sourceChecksum":"672acec83e524ca04a9a2de7e13f1fce552b707be2da6728589cce327092d54e","rawObjectClass":"BOYSPP","sourceStableId":"1F2B02AA401E0001"},"sourceKind":"official","official":true,"sourceCellId":"1R7688LI","sourceStableId":"1F2B02AA401E0001","pipelineFeatureId":"1R7688LI/BOYSPP/44711966","provenance":{"cellId":"1R7688LI","checksum":"672acec83e524ca04a9a2de7e13f1fce552b707be2da6728589cce327092d54e","readerVersion":"GDAL 3.2.2","processedAt":"2026-08-11T13:43:44.753Z"}}},{"type":"Feature","geometry":{"type":"Point","coordinates":[3.8285283,51.6214383]},"properties":{"dolphinKind":"buoy-special","rawObjectClass":"BOYSPP","sourceProperties":{"RCID":173179305,"PRIM":1,"GRUP":2,"OBJL":19,"RVER":1,"AGEN":7979,"FIDN":173179305,"FIDS":1,"LNAM":"1F2B0A5281A90001","LNAM_REFS":["1F2B0A5281A80001"],"FFPT_RIND":[2],"BOYSHP":5,"CATSPM":["50"],"COLOUR":["6"],"CONRAD":3,"OBJNAM":"SC-A","INFORM":"Mussel seed installation","NINFOM":"Mosselzaadinvanginstallatie","SCAMIN":200000,"SORDAT":"20240201","SORIND":"NL,1R,Reprt,MD050-24","sourceCellId":"1R7688LI","sourceChecksum":"672acec83e524ca04a9a2de7e13f1fce552b707be2da6728589cce327092d54e","rawObjectClass":"BOYSPP","sourceStableId":"1F2B0A5281A90001"},"sourceKind":"official","official":true,"sourceCellId":"1R7688LI","sourceStableId":"1F2B0A5281A90001","pipelineFeatureId":"1R7688LI/BOYSPP/173179305","provenance":{"cellId":"1R7688LI","checksum":"672acec83e524ca04a9a2de7e13f1fce552b707be2da6728589cce327092d54e","readerVersion":"GDAL 3.2.2","processedAt":"2026-08-11T13:43:44.753Z"}}},{"type":"Feature","geometry":{"type":"Point","coordinates":[3.84303,51.6213533]},"properties":{"dolphinKind":"buoy-special","rawObjectClass":"BOYSPP","sourceProperties":{"RCID":173179370,"PRIM":1,"GRUP":2,"OBJL":19,"RVER":1,"AGEN":7979,"FIDN":173179370,"FIDS":1,"LNAM":"1F2B0A5281EA0001","LNAM_REFS":["1F2B0A5281E90001"],"FFPT_RIND":[2],"BOYSHP":5,"CATSPM":["50"],"COLOUR":["6"],"CONRAD":3,"OBJNAM":"SC-B","INFORM":"Mussel seed installation","NINFOM":"Mosselzaadinvanginstallatie","SCAMIN":200000,"SORDAT":"20240201","SORIND":"NL,1R,Reprt,MD050-24","sourceCellId":"1R7688LI","sourceChecksum":"672acec83e524ca04a9a2de7e13f1fce552b707be2da6728589cce327092d54e","rawObjectClass":"BOYSPP","sourceStableId":"1F2B0A5281EA0001"},"sourceKind":"official","official":true,"sourceCellId":"1R7688LI","sourceStableId":"1F2B0A5281EA0001","pipelineFeatureId":"1R7688LI/BOYSPP/173179370","provenance":{"cellId":"1R7688LI","checksum":"672acec83e524ca04a9a2de7e13f1fce552b707be2da6728589cce327092d54e","readerVersion":"GDAL 3.2.2","processedAt":"2026-08-11T13:43:44.753Z"}}},{"type":"Feature","geometry":{"type":"Point","coordinates":[3.8578333,51.6197]},"properties":{"dolphinKind":"buoy-special","rawObjectClass":"BOYSPP","sourceProperties":{"RCID":173179372,"PRIM":1,"GRUP":2,"OBJL":19,"RVER":1,"AGEN":7979,"FIDN":173179372,"FIDS":1,"LNAM":"1F2B0A5281EC0001","LNAM_REFS":["1F2B0A5281EB0001"],"FFPT_RIND":[2],"BOYSHP":5,"CATSPM":["50"],"COLOUR":["6"],"CONRAD":3,"OBJNAM":"SC-C","INFORM":"Mussel seed installation","NINFOM":"Mosselzaadinvanginstallatie","SCAMIN":200000,"SORDAT":"20240201","SORIND":"NL,1R,Reprt,MD050-24","sourceCellId":"1R7688LI","sourceChecksum":"672acec83e524ca04a9a2de7e13f1fce552b707be2da6728589cce327092d54e","rawObjectClass":"BOYSPP","sourceStableId":"1F2B0A5281EC0001"},"sourceKind":"official","official":true,"sourceCellId":"1R7688LI","sourceStableId":"1F2B0A5281EC0001","pipelineFeatureId":"1R7688LI/BOYSPP/173179372","provenance":{"cellId":"1R7688LI","checksum":"672acec83e524ca04a9a2de7e13f1fce552b707be2da6728589cce327092d54e","readerVersion":"GDAL 3.2.2","processedAt":"2026-08-11T13:43:44.753Z"}}},{"type":"Feature","geometry":{"type":"Point","coordinates":[3.8724833,51.6175767]},"properties":{"dolphinKind":"buoy-special","rawObjectClass":"BOYSPP","sourceProperties":{"RCID":173179374,"PRIM":1,"GRUP":2,"OBJL":19,"RVER":1,"AGEN":7979,"FIDN":173179374,"FIDS":1,"LNAM":"1F2B0A5281EE0001","LNAM_REFS":["1F2B0A5281ED0001"],"FFPT_RIND":[2],"BOYSHP":5,"CATSPM":["50"],"COLOUR":["6"],"CONRAD":3,"OBJNAM":"SC-D","INFORM":"Mussel seed installation","NINFOM":"Mosselzaadinvanginstallatie","SCAMIN":200000,"SORDAT":"20240201","SORIND":"NL,1R,Reprt,MD050-24","sourceCellId":"1R7688LI","sourceChecksum":"672acec83e524ca04a9a2de7e13f1fce552b707be2da6728589cce327092d54e","rawObjectClass":"BOYSPP","sourceStableId":"1F2B0A5281EE0001"},"sourceKind":"official","official":true,"sourceCellId":"1R7688LI","sourceStableId":"1F2B0A5281EE0001","pipelineFeatureId":"1R7688LI/BOYSPP/173179374","provenance":{"cellId":"1R7688LI","checksum":"672acec83e524ca04a9a2de7e13f1fce552b707be2da6728589cce327092d54e","readerVersion":"GDAL 3.2.2","processedAt":"2026-08-11T13:43:44.753Z"}}},{"type":"Feature","geometry":{"type":"Point","coordinates":[3.9172783,51.6060067]},"properties":{"dolphinKind":"buoy-special","rawObjectClass":"BOYSPP","sourceProperties":{"RCID":173183151,"PRIM":1,"GRUP":2,"OBJL":19,"RVER":1,"AGEN":7979,"FIDN":173183151,"FIDS":1,"LNAM":"1F2B0A5290AF0001","LNAM_REFS":["1F2B0A5290AE0001"],"FFPT_RIND":[2],"BOYSHP":5,"CATSPM":["50"],"COLOUR":["6"],"CONRAD":3,"OBJNAM":"VN-A","INFORM":"Mussel seed installation","NINFOM":"Mosselzaadinvanginstallatie","SCAMIN":200000,"SORDAT":"20220208","SORIND":"NL,1R,reprt,MD 061-22","sourceCellId":"1R7688LI","sourceChecksum":"672acec83e524ca04a9a2de7e13f1fce552b707be2da6728589cce327092d54e","rawObjectClass":"BOYSPP","sourceStableId":"1F2B0A5290AF0001"},"sourceKind":"official","official":true,"sourceCellId":"1R7688LI","sourceStableId":"1F2B0A5290AF0001","pipelineFeatureId":"1R7688LI/BOYSPP/173183151","provenance":{"cellId":"1R7688LI","checksum":"672acec83e524ca04a9a2de7e13f1fce552b707be2da6728589cce327092d54e","readerVersion":"GDAL 3.2.2","processedAt":"2026-08-11T13:43:44.753Z"}}},{"type":"Feature","geometry":{"type":"Point","coordinates":[3.92996,51.6106167]},"properties":{"dolphinKind":"buoy-special","rawObjectClass":"BOYSPP","sourceProperties":{"RCID":173183153,"PRIM":1,"GRUP":2,"OBJL":19,"RVER":1,"AGEN":7979,"FIDN":173183153,"FIDS":1,"LNAM":"1F2B0A5290B10001","LNAM_REFS":["1F2B0A5290B00001"],"FFPT_RIND":[2],"BOYSHP":5,"CATSPM":["50"],"COLOUR":["6"],"CONRAD":3,"OBJNAM":"VN-B","INFORM":"Mussel seed installation","NINFOM":"Mosselzaadinvanginstallatie","SCAMIN":200000,"SORDAT":"20240131","SORIND":"NL,1R,reprt,MD 046-24","sourceCellId":"1R7688LI","sourceChecksum":"672acec83e524ca04a9a2de7e13f1fce552b707be2da6728589cce327092d54e","rawObjectClass":"BOYSPP","sourceStableId":"1F2B0A5290B10001"},"sourceKind":"official","official":true,"sourceCellId":"1R7688LI","sourceStableId":"1F2B0A5290B10001","pipelineFeatureId":"1R7688LI/BOYSPP/173183153","provenance":{"cellId":"1R7688LI","checksum":"672acec83e524ca04a9a2de7e13f1fce552b707be2da6728589cce327092d54e","readerVersion":"GDAL 3.2.2","processedAt":"2026-08-11T13:43:44.753Z"}}},{"type":"Feature","geometry":{"type":"Point","coordinates":[3.9216683,51.60183]},"properties":{"dolphinKind":"buoy-special","rawObjectClass":"BOYSPP","sourceProperties":{"RCID":173183157,"PRIM":1,"GRUP":2,"OBJL":19,"RVER":1,"AGEN":7979,"FIDN":173183157,"FIDS":1,"LNAM":"1F2B0A5290B50001","LNAM_REFS":["1F2B0A5290B40001"],"FFPT_RIND":[2],"BOYSHP":5,"CATSPM":["50"],"COLOUR":["6"],"CONRAD":3,"OBJNAM":"VN-D","INFORM":"Mussel seed installation","NINFOM":"Mosselzaadinvanginstallatie","SCAMIN":200000,"SORDAT":"20220208","SORIND":"NL,1R,reprt,MD 061-22","sourceCellId":"1R7688LI","sourceChecksum":"672acec83e524ca04a9a2de7e13f1fce552b707be2da6728589cce327092d54e","rawObjectClass":"BOYSPP","sourceStableId":"1F2B0A5290B50001"},"sourceKind":"official","official":true,"sourceCellId":"1R7688LI","sourceStableId":"1F2B0A5290B50001","pipelineFeatureId":"1R7688LI/BOYSPP/173183157","provenance":{"cellId":"1R7688LI","checksum":"672acec83e524ca04a9a2de7e13f1fce552b707be2da6728589cce327092d54e","readerVersion":"GDAL 3.2.2","processedAt":"2026-08-11T13:43:44.753Z"}}},{"type":"Feature","geometry":{"type":"Point","coordinates":[3.8713867,51.615355]},"properties":{"dolphinKind":"buoy-special","rawObjectClass":"BOYSPP","sourceProperties":{"RCID":447281936,"PRIM":1,"GRUP":2,"OBJL":19,"RVER":1,"AGEN":7979,"FIDN":447281936,"FIDS":1,"LNAM":"1F2B1AA8FB100001","LNAM_REFS":["1F2B1AA8FB0F0001"],"FFPT_RIND":[2],"BOYSHP":5,"CATSPM":["50"],"COLOUR":["6"],"CONRAD":3,"OBJNAM":"SC-E","INFORM":"Mussel seed installation","NINFOM":"Mosselzaadinvanginstallatie","SCAMIN":200000,"SORDAT":"20240201","SORIND":"NL,1R,Reprt,MD050-24","sourceCellId":"1R7688LI","sourceChecksum":"672acec83e524ca04a9a2de7e13f1fce552b707be2da6728589cce327092d54e","rawObjectClass":"BOYSPP","sourceStableId":"1F2B1AA8FB100001"},"sourceKind":"official","official":true,"sourceCellId":"1R7688LI","sourceStableId":"1F2B1AA8FB100001","pipelineFeatureId":"1R7688LI/BOYSPP/447281936","provenance":{"cellId":"1R7688LI","checksum":"672acec83e524ca04a9a2de7e13f1fce552b707be2da6728589cce327092d54e","readerVersion":"GDAL 3.2.2","processedAt":"2026-08-11T13:43:44.753Z"}}},{"type":"Feature","geometry":{"type":"Point","coordinates":[3.85602,51.6169617]},"properties":{"dolphinKind":"buoy-special","rawObjectClass":"BOYSPP","sourceProperties":{"RCID":447281938,"PRIM":1,"GRUP":2,"OBJL":19,"RVER":1,"AGEN":7979,"FIDN":447281938,"FIDS":1,"LNAM":"1F2B1AA8FB120001","LNAM_REFS":["1F2B1AA8FB110001"],"FFPT_RIND":[2],"BOYSHP":5,"CATSPM":["50"],"COLOUR":["6"],"CONRAD":3,"OBJNAM":"SC-F","INFORM":"Mussel seed installation","NINFOM":"Mosselzaadinvanginstallatie","SCAMIN":200000,"SORDAT":"20240201","SORIND":"NL,1R,Reprt,MD050-24","sourceCellId":"1R7688LI","sourceChecksum":"672acec83e524ca04a9a2de7e13f1fce552b707be2da6728589cce327092d54e","rawObjectClass":"BOYSPP","sourceStableId":"1F2B1AA8FB120001"},"sourceKind":"official","official":true,"sourceCellId":"1R7688LI","sourceStableId":"1F2B1AA8FB120001","pipelineFeatureId":"1R7688LI/BOYSPP/447281938","provenance":{"cellId":"1R7688LI","checksum":"672acec83e524ca04a9a2de7e13f1fce552b707be2da6728589cce327092d54e","readerVersion":"GDAL 3.2.2","processedAt":"2026-08-11T13:43:44.753Z"}}},{"type":"Feature","geometry":{"type":"Point","coordinates":[3.8405283,51.6180717]},"properties":{"dolphinKind":"buoy-special","rawObjectClass":"BOYSPP","sourceProperties":{"RCID":1176793938,"PRIM":1,"GRUP":2,"OBJL":19,"RVER":1,"AGEN":7979,"FIDN":1176793938,"FIDS":1,"LNAM":"1F2B462473520001","LNAM_REFS":["1F2B462484840001"],"FFPT_RIND":[2],"BOYSHP":5,"CATSPM":["50"],"COLOUR":["6"],"OBJNAM":"SC-G","SCAMIN":200000,"SORDAT":"20240201","SORIND":"NL,1R,reprt,MD 050-24","sourceCellId":"1R7688LI","sourceChecksum":"672acec83e524ca04a9a2de7e13f1fce552b707be2da6728589cce327092d54e","rawObjectClass":"BOYSPP","sourceStableId":"1F2B462473520001"},"sourceKind":"official","official":true,"sourceCellId":"1R7688LI","sourceStableId":"1F2B462473520001","pipelineFeatureId":"1R7688LI/BOYSPP/1176793938","provenance":{"cellId":"1R7688LI","checksum":"672acec83e524ca04a9a2de7e13f1fce552b707be2da6728589cce327092d54e","readerVersion":"GDAL 3.2.2","processedAt":"2026-08-11T13:43:44.753Z"}}},{"type":"Feature","geometry":{"type":"Point","coordinates":[3.8289767,51.6175233]},"properties":{"dolphinKind":"buoy-special","rawObjectClass":"BOYSPP","sourceProperties":{"RCID":1176793939,"PRIM":1,"GRUP":2,"OBJL":19,"RVER":1,"AGEN":7979,"FIDN":1176793939,"FIDS":1,"LNAM":"1F2B462473530001","LNAM_REFS":["1F2B462484850001"],"FFPT_RIND":[2],"BOYSHP":5,"CATSPM":["50"],"COLOUR":["6"],"OBJNAM":"SC-H","SCAMIN":200000,"SORDAT":"20240201","SORIND":"NL,1R,reprt,MD 050-24","sourceCellId":"1R7688LI","sourceChecksum":"672acec83e524ca04a9a2de7e13f1fce552b707be2da6728589cce327092d54e","rawObjectClass":"BOYSPP","sourceStableId":"1F2B462473530001"},"sourceKind":"official","official":true,"sourceCellId":"1R7688LI","sourceStableId":"1F2B462473530001","pipelineFeatureId":"1R7688LI/BOYSPP/1176793939","provenance":{"cellId":"1R7688LI","checksum":"672acec83e524ca04a9a2de7e13f1fce552b707be2da6728589cce327092d54e","readerVersion":"GDAL 3.2.2","processedAt":"2026-08-11T13:43:44.753Z"}}},{"type":"Feature","geometry":{"type":"Point","coordinates":[3.7581667,51.6168333]},"properties":{"dolphinKind":"light","rawObjectClass":"LIGHTS","sourceProperties":{"RCID":17881,"PRIM":1,"GRUP":2,"OBJL":75,"RVER":1,"AGEN":7979,"FIDN":1106834726,"FIDS":384,"LNAM":"1F2B41F8F5260180","COLOUR":["3"],"LITCHR":3,"SIGGRP":"(1)","SIGPER":8,"SCAMIN":200000,"SORDAT":"20031115","sourceCellId":"1R7688LI","sourceChecksum":"672acec83e524ca04a9a2de7e13f1fce552b707be2da6728589cce327092d54e","rawObjectClass":"LIGHTS","sourceStableId":"1F2B41F8F5260180"},"sourceKind":"official","official":true,"sourceCellId":"1R7688LI","sourceStableId":"1F2B41F8F5260180","pipelineFeatureId":"1R7688LI/LIGHTS/17881","provenance":{"cellId":"1R7688LI","checksum":"672acec83e524ca04a9a2de7e13f1fce552b707be2da6728589cce327092d54e","readerVersion":"GDAL 3.2.2","processedAt":"2026-08-11T13:43:44.753Z"}}},{"type":"Feature","geometry":{"type":"Point","coordinates":[3.7626166,51.6130966]},"properties":{"dolphinKind":"light","rawObjectClass":"LIGHTS","sourceProperties":{"RCID":17883,"PRIM":1,"GRUP":2,"OBJL":75,"RVER":1,"AGEN":7979,"FIDN":1106834726,"FIDS":386,"LNAM":"1F2B41F8F5260182","COLOUR":["4"],"LITCHR":4,"SIGGRP":"(1)","SIGPER":1,"SCAMIN":200000,"SORDAT":"20230223","SORIND":"NL,1R,Reprt,NDB verbetering","sourceCellId":"1R7688LI","sourceChecksum":"672acec83e524ca04a9a2de7e13f1fce552b707be2da6728589cce327092d54e","rawObjectClass":"LIGHTS","sourceStableId":"1F2B41F8F5260182"},"sourceKind":"official","official":true,"sourceCellId":"1R7688LI","sourceStableId":"1F2B41F8F5260182","pipelineFeatureId":"1R7688LI/LIGHTS/17883","provenance":{"cellId":"1R7688LI","checksum":"672acec83e524ca04a9a2de7e13f1fce552b707be2da6728589cce327092d54e","readerVersion":"GDAL 3.2.2","processedAt":"2026-08-11T13:43:44.753Z"}}},{"type":"Feature","geometry":{"type":"Point","coordinates":[3.739385,51.6131533]},"properties":{"dolphinKind":"light","rawObjectClass":"LIGHTS","sourceProperties":{"RCID":17888,"PRIM":1,"GRUP":2,"OBJL":75,"RVER":1,"AGEN":7979,"FIDN":1106834726,"FIDS":391,"LNAM":"1F2B41F8F5260187","COLOUR":["3"],"LITCHR":3,"SIGGRP":"(1)","SIGPER":5,"SCAMIN":200000,"SORDAT":"20031115","sourceCellId":"1R7688LI","sourceChecksum":"672acec83e524ca04a9a2de7e13f1fce552b707be2da6728589cce327092d54e","rawObjectClass":"LIGHTS","sourceStableId":"1F2B41F8F5260187"},"sourceKind":"official","official":true,"sourceCellId":"1R7688LI","sourceStableId":"1F2B41F8F5260187","pipelineFeatureId":"1R7688LI/LIGHTS/17888","provenance":{"cellId":"1R7688LI","checksum":"672acec83e524ca04a9a2de7e13f1fce552b707be2da6728589cce327092d54e","readerVersion":"GDAL 3.2.2","processedAt":"2026-08-11T13:43:44.753Z"}}},{"type":"Feature","geometry":{"type":"Point","coordinates":[3.9198183,51.6182166]},"properties":{"dolphinKind":"light","rawObjectClass":"LIGHTS","sourceProperties":{"RCID":17941,"PRIM":1,"GRUP":2,"OBJL":75,"RVER":1,"AGEN":7979,"FIDN":1106834726,"FIDS":444,"LNAM":"1F2B41F8F52601BC","COLOUR":["1"],"LITCHR":12,"SIGGRP":"(A)","SIGPER":8,"SCAMIN":200000,"SORDAT":"20031115","sourceCellId":"1R7688LI","sourceChecksum":"672acec83e524ca04a9a2de7e13f1fce552b707be2da6728589cce327092d54e","rawObjectClass":"LIGHTS","sourceStableId":"1F2B41F8F52601BC"},"sourceKind":"official","official":true,"sourceCellId":"1R7688LI","sourceStableId":"1F2B41F8F52601BC","pipelineFeatureId":"1R7688LI/LIGHTS/17941","provenance":{"cellId":"1R7688LI","checksum":"672acec83e524ca04a9a2de7e13f1fce552b707be2da6728589cce327092d54e","readerVersion":"GDAL 3.2.2","processedAt":"2026-08-11T13:43:44.753Z"}}},{"type":"Feature","geometry":{"type":"Point","coordinates":[3.90922,51.6068533]},"properties":{"dolphinKind":"light","rawObjectClass":"LIGHTS","sourceProperties":{"RCID":17946,"PRIM":1,"GRUP":2,"OBJL":75,"RVER":1,"AGEN":7979,"FIDN":1106834726,"FIDS":449,"LNAM":"1F2B41F8F52601C1","COLOUR":["4"],"LITCHR":3,"SIGGRP":"(1)","SIGPER":5,"SCAMIN":200000,"SORDAT":"20031115","sourceCellId":"1R7688LI","sourceChecksum":"672acec83e524ca04a9a2de7e13f1fce552b707be2da6728589cce327092d54e","rawObjectClass":"LIGHTS","sourceStableId":"1F2B41F8F52601C1"},"sourceKind":"official","official":true,"sourceCellId":"1R7688LI","sourceStableId":"1F2B41F8F52601C1","pipelineFeatureId":"1R7688LI/LIGHTS/17946","provenance":{"cellId":"1R7688LI","checksum":"672acec83e524ca04a9a2de7e13f1fce552b707be2da6728589cce327092d54e","readerVersion":"GDAL 3.2.2","processedAt":"2026-08-11T13:43:44.753Z"}}},{"type":"Feature","geometry":{"type":"Point","coordinates":[3.91453,51.6055716]},"properties":{"dolphinKind":"light","rawObjectClass":"LIGHTS","sourceProperties":{"RCID":17955,"PRIM":1,"GRUP":2,"OBJL":75,"RVER":1,"AGEN":7979,"FIDN":1106834726,"FIDS":458,"LNAM":"1F2B41F8F52601CA","COLOUR":["3"],"LITCHR":3,"SIGGRP":"(1)","SIGPER":5,"SCAMIN":200000,"SORDAT":"20031115","sourceCellId":"1R7688LI","sourceChecksum":"672acec83e524ca04a9a2de7e13f1fce552b707be2da6728589cce327092d54e","rawObjectClass":"LIGHTS","sourceStableId":"1F2B41F8F52601CA"},"sourceKind":"official","official":true,"sourceCellId":"1R7688LI","sourceStableId":"1F2B41F8F52601CA","pipelineFeatureId":"1R7688LI/LIGHTS/17955","provenance":{"cellId":"1R7688LI","checksum":"672acec83e524ca04a9a2de7e13f1fce552b707be2da6728589cce327092d54e","readerVersion":"GDAL 3.2.2","processedAt":"2026-08-11T13:43:44.753Z"}}},{"type":"Feature","geometry":{"type":"Point","coordinates":[3.932585,51.612045]},"properties":{"dolphinKind":"light","rawObjectClass":"LIGHTS","sourceProperties":{"RCID":17958,"PRIM":1,"GRUP":2,"OBJL":75,"RVER":1,"AGEN":7979,"FIDN":1106834726,"FIDS":461,"LNAM":"1F2B41F8F52601CD","COLOUR":["4"],"LITCHR":2,"SIGGRP":"(2+1)","SIGPER":1,"SCAMIN":200000,"SORDAT":"20031115","sourceCellId":"1R7688LI","sourceChecksum":"672acec83e524ca04a9a2de7e13f1fce552b707be2da6728589cce327092d54e","rawObjectClass":"LIGHTS","sourceStableId":"1F2B41F8F52601CD"},"sourceKind":"official","official":true,"sourceCellId":"1R7688LI","sourceStableId":"1F2B41F8F52601CD","pipelineFeatureId":"1R7688LI/LIGHTS/17958","provenance":{"cellId":"1R7688LI","checksum":"672acec83e524ca04a9a2de7e13f1fce552b707be2da6728589cce327092d54e","readerVersion":"GDAL 3.2.2","processedAt":"2026-08-11T13:43:44.753Z"}}},{"type":"Feature","geometry":{"type":"Point","coordinates":[3.93205,51.61977]},"properties":{"dolphinKind":"light","rawObjectClass":"LIGHTS","sourceProperties":{"RCID":17960,"PRIM":1,"GRUP":2,"OBJL":75,"RVER":1,"AGEN":7979,"FIDN":1106834726,"FIDS":463,"LNAM":"1F2B41F8F52601CF","COLOUR":["3"],"LITCHR":3,"SIGGRP":"(1)","SIGPER":8,"SCAMIN":200000,"SORDAT":"20031115","sourceCellId":"1R7688LI","sourceChecksum":"672acec83e524ca04a9a2de7e13f1fce552b707be2da6728589cce327092d54e","rawObjectClass":"LIGHTS","sourceStableId":"1F2B41F8F52601CF"},"sourceKind":"official","official":true,"sourceCellId":"1R7688LI","sourceStableId":"1F2B41F8F52601CF","pipelineFeatureId":"1R7688LI/LIGHTS/17960","provenance":{"cellId":"1R7688LI","checksum":"672acec83e524ca04a9a2de7e13f1fce552b707be2da6728589cce327092d54e","readerVersion":"GDAL 3.2.2","processedAt":"2026-08-11T13:43:44.753Z"}}},{"type":"Feature","geometry":{"type":"Point","coordinates":[3.9053683,51.5943534]},"properties":{"dolphinKind":"light","rawObjectClass":"LIGHTS","sourceProperties":{"RCID":17964,"PRIM":1,"GRUP":2,"OBJL":75,"RVER":1,"AGEN":7979,"FIDN":1106834726,"FIDS":467,"LNAM":"1F2B41F8F52601D3","COLOUR":["4"],"LITCHR":2,"SIGGRP":"(2+1)","SIGPER":1,"SCAMIN":200000,"SORDAT":"20031115","sourceCellId":"1R7688LI","sourceChecksum":"672acec83e524ca04a9a2de7e13f1fce552b707be2da6728589cce327092d54e","rawObjectClass":"LIGHTS","sourceStableId":"1F2B41F8F52601D3"},"sourceKind":"official","official":true,"sourceCellId":"1R7688LI","sourceStableId":"1F2B41F8F52601D3","pipelineFeatureId":"1R7688LI/LIGHTS/17964","provenance":{"cellId":"1R7688LI","checksum":"672acec83e524ca04a9a2de7e13f1fce552b707be2da6728589cce327092d54e","readerVersion":"GDAL 3.2.2","processedAt":"2026-08-11T13:43:44.753Z"}}},{"type":"Feature","geometry":{"type":"Point","coordinates":[3.9128583,51.59256]},"properties":{"dolphinKind":"light","rawObjectClass":"LIGHTS","sourceProperties":{"RCID":17971,"PRIM":1,"GRUP":2,"OBJL":75,"RVER":1,"AGEN":7979,"FIDN":1106834726,"FIDS":474,"LNAM":"1F2B41F8F52601DA","COLOUR":["3"],"LITCHR":3,"SIGGRP":"(1)","SIGPER":8,"SCAMIN":200000,"SORDAT":"20031115","sourceCellId":"1R7688LI","sourceChecksum":"672acec83e524ca04a9a2de7e13f1fce552b707be2da6728589cce327092d54e","rawObjectClass":"LIGHTS","sourceStableId":"1F2B41F8F52601DA"},"sourceKind":"official","official":true,"sourceCellId":"1R7688LI","sourceStableId":"1F2B41F8F52601DA","pipelineFeatureId":"1R7688LI/LIGHTS/17971","provenance":{"cellId":"1R7688LI","checksum":"672acec83e524ca04a9a2de7e13f1fce552b707be2da6728589cce327092d54e","readerVersion":"GDAL 3.2.2","processedAt":"2026-08-11T13:43:44.753Z"}}},{"type":"Feature","geometry":{"type":"Point","coordinates":[3.9175267,51.57591]},"properties":{"dolphinKind":"light","rawObjectClass":"LIGHTS","sourceProperties":{"RCID":18055,"PRIM":1,"GRUP":2,"OBJL":75,"RVER":1,"AGEN":7979,"FIDN":1106834727,"FIDS":303,"LNAM":"1F2B41F8F527012F","COLOUR":["3"],"LITCHR":3,"SIGGRP":"(1)","SIGPER":5,"SCAMIN":200000,"SORDAT":"20031115","sourceCellId":"1R7688LI","sourceChecksum":"672acec83e524ca04a9a2de7e13f1fce552b707be2da6728589cce327092d54e","rawObjectClass":"LIGHTS","sourceStableId":"1F2B41F8F527012F"},"sourceKind":"official","official":true,"sourceCellId":"1R7688LI","sourceStableId":"1F2B41F8F527012F","pipelineFeatureId":"1R7688LI/LIGHTS/18055","provenance":{"cellId":"1R7688LI","checksum":"672acec83e524ca04a9a2de7e13f1fce552b707be2da6728589cce327092d54e","readerVersion":"GDAL 3.2.2","processedAt":"2026-08-11T13:43:44.753Z"}}},{"type":"Feature","geometry":{"type":"Point","coordinates":[3.8506428,51.6038519]},"properties":{"dolphinKind":"light","rawObjectClass":"LIGHTS","sourceProperties":{"RCID":19761,"PRIM":1,"GRUP":2,"OBJL":75,"RVER":1,"AGEN":7979,"FIDN":1106834753,"FIDS":462,"LNAM":"1F2B41F8F54101CE","COLOUR":["4"],"LITCHR":1,"SCAMIN":200000,"SORDAT":"20151007","SORIND":"NL,1R,Reprt,Topdesk M151003817","sourceCellId":"1R7688LI","sourceChecksum":"672acec83e524ca04a9a2de7e13f1fce552b707be2da6728589cce327092d54e","rawObjectClass":"LIGHTS","sourceStableId":"1F2B41F8F54101CE"},"sourceKind":"official","official":true,"sourceCellId":"1R7688LI","sourceStableId":"1F2B41F8F54101CE","pipelineFeatureId":"1R7688LI/LIGHTS/19761","provenance":{"cellId":"1R7688LI","checksum":"672acec83e524ca04a9a2de7e13f1fce552b707be2da6728589cce327092d54e","readerVersion":"GDAL 3.2.2","processedAt":"2026-08-11T13:43:44.753Z"}}},{"type":"Feature","geometry":{"type":"Point","coordinates":[3.8510466,51.6036918]},"properties":{"dolphinKind":"light","rawObjectClass":"LIGHTS","sourceProperties":{"RCID":19762,"PRIM":1,"GRUP":2,"OBJL":75,"RVER":1,"AGEN":7979,"FIDN":1106834753,"FIDS":463,"LNAM":"1F2B41F8F54101CF","COLOUR":["3"],"LITCHR":1,"SCAMIN":200000,"SORDAT":"20151007","SORIND":"NL,1R,Reprt,Topdesk M151003817","sourceCellId":"1R7688LI","sourceChecksum":"672acec83e524ca04a9a2de7e13f1fce552b707be2da6728589cce327092d54e","rawObjectClass":"LIGHTS","sourceStableId":"1F2B41F8F54101CF"},"sourceKind":"official","official":true,"sourceCellId":"1R7688LI","sourceStableId":"1F2B41F8F54101CF","pipelineFeatureId":"1R7688LI/LIGHTS/19762","provenance":{"cellId":"1R7688LI","checksum":"672acec83e524ca04a9a2de7e13f1fce552b707be2da6728589cce327092d54e","readerVersion":"GDAL 3.2.2","processedAt":"2026-08-11T13:43:44.753Z"}}},{"type":"Feature","geometry":{"type":"Point","coordinates":[3.905793,51.6230289]},"properties":{"dolphinKind":"light","rawObjectClass":"LIGHTS","sourceProperties":{"RCID":20248,"PRIM":1,"GRUP":2,"OBJL":75,"RVER":1,"AGEN":7979,"FIDN":1106834755,"FIDS":439,"LNAM":"1F2B41F8F54301B7","CATLIT":["1"],"COLOUR":["6"],"HEIGHT":16,"LITCHR":1,"ORIENT":310,"SCAMIN":200000,"sourceCellId":"1R7688LI","sourceChecksum":"672acec83e524ca04a9a2de7e13f1fce552b707be2da6728589cce327092d54e","rawObjectClass":"LIGHTS","sourceStableId":"1F2B41F8F54301B7"},"sourceKind":"official","official":true,"sourceCellId":"1R7688LI","sourceStableId":"1F2B41F8F54301B7","pipelineFeatureId":"1R7688LI/LIGHTS/20248","provenance":{"cellId":"1R7688LI","checksum":"672acec83e524ca04a9a2de7e13f1fce552b707be2da6728589cce327092d54e","readerVersion":"GDAL 3.2.2","processedAt":"2026-08-11T13:43:44.753Z"}}},{"type":"Feature","geometry":{"type":"Point","coordinates":[3.9039552,51.6217949]},"properties":{"dolphinKind":"light","rawObjectClass":"LIGHTS","sourceProperties":{"RCID":20249,"PRIM":1,"GRUP":2,"OBJL":75,"RVER":1,"AGEN":7979,"FIDN":1106834755,"FIDS":440,"LNAM":"1F2B41F8F54301B8","CATLIT":["1"],"COLOUR":["6"],"HEIGHT":16,"LITCHR":1,"ORIENT":130,"SCAMIN":200000,"sourceCellId":"1R7688LI","sourceChecksum":"672acec83e524ca04a9a2de7e13f1fce552b707be2da6728589cce327092d54e","rawObjectClass":"LIGHTS","sourceStableId":"1F2B41F8F54301B8"},"sourceKind":"official","official":true,"sourceCellId":"1R7688LI","sourceStableId":"1F2B41F8F54301B8","pipelineFeatureId":"1R7688LI/LIGHTS/20249","provenance":{"cellId":"1R7688LI","checksum":"672acec83e524ca04a9a2de7e13f1fce552b707be2da6728589cce327092d54e","readerVersion":"GDAL 3.2.2","processedAt":"2026-08-11T13:43:44.753Z"}}},{"type":"Feature","geometry":{"type":"Point","coordinates":[3.8809934,51.6047803]},"properties":{"dolphinKind":"light","rawObjectClass":"LIGHTS","sourceProperties":{"RCID":20250,"PRIM":1,"GRUP":2,"OBJL":75,"RVER":1,"AGEN":7979,"FIDN":1106834755,"FIDS":441,"LNAM":"1F2B41F8F54301B9","COLOUR":["6"],"HEIGHT":16,"LITCHR":1,"SCAMIN":200000,"sourceCellId":"1R7688LI","sourceChecksum":"672acec83e524ca04a9a2de7e13f1fce552b707be2da6728589cce327092d54e","rawObjectClass":"LIGHTS","sourceStableId":"1F2B41F8F54301B9"},"sourceKind":"official","official":true,"sourceCellId":"1R7688LI","sourceStableId":"1F2B41F8F54301B9","pipelineFeatureId":"1R7688LI/LIGHTS/20250","provenance":{"cellId":"1R7688LI","checksum":"672acec83e524ca04a9a2de7e13f1fce552b707be2da6728589cce327092d54e","readerVersion":"GDAL 3.2.2","processedAt":"2026-08-11T13:43:44.753Z"}}},{"type":"Feature","geometry":{"type":"Point","coordinates":[3.8829238,51.60603]},"properties":{"dolphinKind":"light","rawObjectClass":"LIGHTS","sourceProperties":{"RCID":20255,"PRIM":1,"GRUP":2,"OBJL":75,"RVER":1,"AGEN":7979,"FIDN":1106834755,"FIDS":446,"LNAM":"1F2B41F8F54301BE","COLOUR":["6"],"HEIGHT":16,"LITCHR":1,"SCAMIN":200000,"sourceCellId":"1R7688LI","sourceChecksum":"672acec83e524ca04a9a2de7e13f1fce552b707be2da6728589cce327092d54e","rawObjectClass":"LIGHTS","sourceStableId":"1F2B41F8F54301BE"},"sourceKind":"official","official":true,"sourceCellId":"1R7688LI","sourceStableId":"1F2B41F8F54301BE","pipelineFeatureId":"1R7688LI/LIGHTS/20255","provenance":{"cellId":"1R7688LI","checksum":"672acec83e524ca04a9a2de7e13f1fce552b707be2da6728589cce327092d54e","readerVersion":"GDAL 3.2.2","processedAt":"2026-08-11T13:43:44.753Z"}}},{"type":"Feature","geometry":{"type":"Point","coordinates":[3.8746544,51.5898048]},"properties":{"dolphinKind":"topmark","rawObjectClass":"TOPMAR","sourceProperties":{"RCID":9292,"PRIM":1,"GRUP":2,"OBJL":144,"RVER":1,"AGEN":7979,"FIDN":1106210626,"FIDS":367,"LNAM":"1F2B41EF6F42016F","COLOUR":["6"],"TOPSHP":20,"SCAMIN":200000,"sourceCellId":"1R7688LI","sourceChecksum":"672acec83e524ca04a9a2de7e13f1fce552b707be2da6728589cce327092d54e","rawObjectClass":"TOPMAR","sourceStableId":"1F2B41EF6F42016F"},"sourceKind":"official","official":true,"sourceCellId":"1R7688LI","sourceStableId":"1F2B41EF6F42016F","pipelineFeatureId":"1R7688LI/TOPMAR/9292","provenance":{"cellId":"1R7688LI","checksum":"672acec83e524ca04a9a2de7e13f1fce552b707be2da6728589cce327092d54e","readerVersion":"GDAL 3.2.2","processedAt":"2026-08-11T13:43:44.753Z"},"associationRefsVerifiedInGdalOutput":false}},{"type":"Feature","geometry":{"type":"Point","coordinates":[3.8766546,51.5871014]},"properties":{"dolphinKind":"topmark","rawObjectClass":"TOPMAR","sourceProperties":{"RCID":9294,"PRIM":1,"GRUP":2,"OBJL":144,"RVER":1,"AGEN":7979,"FIDN":1106210626,"FIDS":369,"LNAM":"1F2B41EF6F420171","COLOUR":["6"],"TOPSHP":20,"SCAMIN":200000,"sourceCellId":"1R7688LI","sourceChecksum":"672acec83e524ca04a9a2de7e13f1fce552b707be2da6728589cce327092d54e","rawObjectClass":"TOPMAR","sourceStableId":"1F2B41EF6F420171"},"sourceKind":"official","official":true,"sourceCellId":"1R7688LI","sourceStableId":"1F2B41EF6F420171","pipelineFeatureId":"1R7688LI/TOPMAR/9294","provenance":{"cellId":"1R7688LI","checksum":"672acec83e524ca04a9a2de7e13f1fce552b707be2da6728589cce327092d54e","readerVersion":"GDAL 3.2.2","processedAt":"2026-08-11T13:43:44.753Z"},"associationRefsVerifiedInGdalOutput":false}},{"type":"Feature","geometry":{"type":"Point","coordinates":[3.889,51.6206667]},"properties":{"dolphinKind":"topmark","rawObjectClass":"TOPMAR","sourceProperties":{"RCID":17847,"PRIM":1,"GRUP":2,"OBJL":144,"RVER":1,"AGEN":7979,"FIDN":1106834726,"FIDS":350,"LNAM":"1F2B41F8F526015E","COLOUR":["4"],"TOPSHP":1,"SCAMIN":200000,"SORIND":"NL,1R,reprt,DZD-BAS-2010/31","sourceCellId":"1R7688LI","sourceChecksum":"672acec83e524ca04a9a2de7e13f1fce552b707be2da6728589cce327092d54e","rawObjectClass":"TOPMAR","sourceStableId":"1F2B41F8F526015E"},"sourceKind":"official","official":true,"sourceCellId":"1R7688LI","sourceStableId":"1F2B41F8F526015E","pipelineFeatureId":"1R7688LI/TOPMAR/17847","provenance":{"cellId":"1R7688LI","checksum":"672acec83e524ca04a9a2de7e13f1fce552b707be2da6728589cce327092d54e","readerVersion":"GDAL 3.2.2","processedAt":"2026-08-11T13:43:44.753Z"},"associationRefsVerifiedInGdalOutput":false}},{"type":"Feature","geometry":{"type":"Point","coordinates":[3.8943667,51.619475]},"properties":{"dolphinKind":"topmark","rawObjectClass":"TOPMAR","sourceProperties":{"RCID":17855,"PRIM":1,"GRUP":2,"OBJL":144,"RVER":1,"AGEN":7979,"FIDN":1106834726,"FIDS":358,"LNAM":"1F2B41F8F5260166","COLOUR":["4"],"TOPSHP":33,"INFORM":"Cone above sphere","NINFOM":"kegel boven bol","SCAMIN":200000,"SORDAT":"20240814","SORIND":"NL,1R,reprt,Topdesk","sourceCellId":"1R7688LI","sourceChecksum":"672acec83e524ca04a9a2de7e13f1fce552b707be2da6728589cce327092d54e","rawObjectClass":"TOPMAR","sourceStableId":"1F2B41F8F5260166"},"sourceKind":"official","official":true,"sourceCellId":"1R7688LI","sourceStableId":"1F2B41F8F5260166","pipelineFeatureId":"1R7688LI/TOPMAR/17855","provenance":{"cellId":"1R7688LI","checksum":"672acec83e524ca04a9a2de7e13f1fce552b707be2da6728589cce327092d54e","readerVersion":"GDAL 3.2.2","processedAt":"2026-08-11T13:43:44.753Z"},"associationRefsVerifiedInGdalOutput":false}},{"type":"Feature","geometry":{"type":"Point","coordinates":[3.8865,51.6133333]},"properties":{"dolphinKind":"topmark","rawObjectClass":"TOPMAR","sourceProperties":{"RCID":17858,"PRIM":1,"GRUP":2,"OBJL":144,"RVER":1,"AGEN":7979,"FIDN":1106834726,"FIDS":361,"LNAM":"1F2B41F8F5260169","COLOUR":["3"],"TOPSHP":5,"SCAMIN":200000,"SORIND":"NL,1R,reprt,DZD-BAS-2010/31","sourceCellId":"1R7688LI","sourceChecksum":"672acec83e524ca04a9a2de7e13f1fce552b707be2da6728589cce327092d54e","rawObjectClass":"TOPMAR","sourceStableId":"1F2B41F8F5260169"},"sourceKind":"official","official":true,"sourceCellId":"1R7688LI","sourceStableId":"1F2B41F8F5260169","pipelineFeatureId":"1R7688LI/TOPMAR/17858","provenance":{"cellId":"1R7688LI","checksum":"672acec83e524ca04a9a2de7e13f1fce552b707be2da6728589cce327092d54e","readerVersion":"GDAL 3.2.2","processedAt":"2026-08-11T13:43:44.753Z"},"associationRefsVerifiedInGdalOutput":false}},{"type":"Feature","geometry":{"type":"Point","coordinates":[3.8778333,51.6108333]},"properties":{"dolphinKind":"topmark","rawObjectClass":"TOPMAR","sourceProperties":{"RCID":17863,"PRIM":1,"GRUP":2,"OBJL":144,"RVER":1,"AGEN":7979,"FIDN":1106834726,"FIDS":366,"LNAM":"1F2B41F8F526016E","COLOUR":["3"],"TOPSHP":5,"SCAMIN":200000,"SORIND":"NL,1R,reprt,NavBer 2012/MZ64","sourceCellId":"1R7688LI","sourceChecksum":"672acec83e524ca04a9a2de7e13f1fce552b707be2da6728589cce327092d54e","rawObjectClass":"TOPMAR","sourceStableId":"1F2B41F8F526016E"},"sourceKind":"official","official":true,"sourceCellId":"1R7688LI","sourceStableId":"1F2B41F8F526016E","pipelineFeatureId":"1R7688LI/TOPMAR/17863","provenance":{"cellId":"1R7688LI","checksum":"672acec83e524ca04a9a2de7e13f1fce552b707be2da6728589cce327092d54e","readerVersion":"GDAL 3.2.2","processedAt":"2026-08-11T13:43:44.753Z"},"associationRefsVerifiedInGdalOutput":false}},{"type":"Feature","geometry":{"type":"Point","coordinates":[3.82208,51.6166067]},"properties":{"dolphinKind":"topmark","rawObjectClass":"TOPMAR","sourceProperties":{"RCID":17870,"PRIM":1,"GRUP":2,"OBJL":144,"RVER":1,"AGEN":7979,"FIDN":1106834726,"FIDS":373,"LNAM":"1F2B41F8F5260175","COLOUR":["3"],"TOPSHP":5,"SCAMIN":200000,"SORIND":"NL,1R,Reprt,NavBer 2012/MZ64","sourceCellId":"1R7688LI","sourceChecksum":"672acec83e524ca04a9a2de7e13f1fce552b707be2da6728589cce327092d54e","rawObjectClass":"TOPMAR","sourceStableId":"1F2B41F8F5260175"},"sourceKind":"official","official":true,"sourceCellId":"1R7688LI","sourceStableId":"1F2B41F8F5260175","pipelineFeatureId":"1R7688LI/TOPMAR/17870","provenance":{"cellId":"1R7688LI","checksum":"672acec83e524ca04a9a2de7e13f1fce552b707be2da6728589cce327092d54e","readerVersion":"GDAL 3.2.2","processedAt":"2026-08-11T13:43:44.753Z"},"associationRefsVerifiedInGdalOutput":false}},{"type":"Feature","geometry":{"type":"Point","coordinates":[3.73678,51.598945]},"properties":{"dolphinKind":"topmark","rawObjectClass":"TOPMAR","sourceProperties":{"RCID":17876,"PRIM":1,"GRUP":2,"OBJL":144,"RVER":1,"AGEN":7979,"FIDN":1106834726,"FIDS":379,"LNAM":"1F2B41F8F526017B","COLOUR":["4"],"TOPSHP":1,"SCAMIN":200000,"SORDAT":"20230223","SORIND":"NL,1R,reprt,melding Erik de Ruijter","sourceCellId":"1R7688LI","sourceChecksum":"672acec83e524ca04a9a2de7e13f1fce552b707be2da6728589cce327092d54e","rawObjectClass":"TOPMAR","sourceStableId":"1F2B41F8F526017B"},"sourceKind":"official","official":true,"sourceCellId":"1R7688LI","sourceStableId":"1F2B41F8F526017B","pipelineFeatureId":"1R7688LI/TOPMAR/17876","provenance":{"cellId":"1R7688LI","checksum":"672acec83e524ca04a9a2de7e13f1fce552b707be2da6728589cce327092d54e","readerVersion":"GDAL 3.2.2","processedAt":"2026-08-11T13:43:44.753Z"},"associationRefsVerifiedInGdalOutput":false}},{"type":"Feature","geometry":{"type":"Point","coordinates":[3.7626166,51.6130966]},"properties":{"dolphinKind":"topmark","rawObjectClass":"TOPMAR","sourceProperties":{"RCID":17884,"PRIM":1,"GRUP":2,"OBJL":144,"RVER":1,"AGEN":7979,"FIDN":1106834726,"FIDS":387,"LNAM":"1F2B41F8F5260183","COLOUR":["4"],"TOPSHP":29,"SCAMIN":200000,"SORDAT":"20230223","SORIND":"NL,1R,Reprt,NDB verbetering","sourceCellId":"1R7688LI","sourceChecksum":"672acec83e524ca04a9a2de7e13f1fce552b707be2da6728589cce327092d54e","rawObjectClass":"TOPMAR","sourceStableId":"1F2B41F8F5260183"},"sourceKind":"official","official":true,"sourceCellId":"1R7688LI","sourceStableId":"1F2B41F8F5260183","pipelineFeatureId":"1R7688LI/TOPMAR/17884","provenance":{"cellId":"1R7688LI","checksum":"672acec83e524ca04a9a2de7e13f1fce552b707be2da6728589cce327092d54e","readerVersion":"GDAL 3.2.2","processedAt":"2026-08-11T13:43:44.753Z"},"associationRefsVerifiedInGdalOutput":false}},{"type":"Feature","geometry":{"type":"Point","coordinates":[3.90988,51.613155]},"properties":{"dolphinKind":"topmark","rawObjectClass":"TOPMAR","sourceProperties":{"RCID":17944,"PRIM":1,"GRUP":2,"OBJL":144,"RVER":1,"AGEN":7979,"FIDN":1106834726,"FIDS":447,"LNAM":"1F2B41F8F52601BF","COLOUR":["4"],"TOPSHP":1,"SCAMIN":200000,"sourceCellId":"1R7688LI","sourceChecksum":"672acec83e524ca04a9a2de7e13f1fce552b707be2da6728589cce327092d54e","rawObjectClass":"TOPMAR","sourceStableId":"1F2B41F8F52601BF"},"sourceKind":"official","official":true,"sourceCellId":"1R7688LI","sourceStableId":"1F2B41F8F52601BF","pipelineFeatureId":"1R7688LI/TOPMAR/17944","provenance":{"cellId":"1R7688LI","checksum":"672acec83e524ca04a9a2de7e13f1fce552b707be2da6728589cce327092d54e","readerVersion":"GDAL 3.2.2","processedAt":"2026-08-11T13:43:44.753Z"},"associationRefsVerifiedInGdalOutput":false}},{"type":"Feature","geometry":{"type":"Point","coordinates":[3.8902617,51.59506]},"properties":{"dolphinKind":"topmark","rawObjectClass":"TOPMAR","sourceProperties":{"RCID":17949,"PRIM":1,"GRUP":2,"OBJL":144,"RVER":1,"AGEN":7979,"FIDN":1106834726,"FIDS":452,"LNAM":"1F2B41F8F52601C4","COLOUR":["4"],"TOPSHP":1,"SCAMIN":200000,"sourceCellId":"1R7688LI","sourceChecksum":"672acec83e524ca04a9a2de7e13f1fce552b707be2da6728589cce327092d54e","rawObjectClass":"TOPMAR","sourceStableId":"1F2B41F8F52601C4"},"sourceKind":"official","official":true,"sourceCellId":"1R7688LI","sourceStableId":"1F2B41F8F52601C4","pipelineFeatureId":"1R7688LI/TOPMAR/17949","provenance":{"cellId":"1R7688LI","checksum":"672acec83e524ca04a9a2de7e13f1fce552b707be2da6728589cce327092d54e","readerVersion":"GDAL 3.2.2","processedAt":"2026-08-11T13:43:44.753Z"},"associationRefsVerifiedInGdalOutput":false}},{"type":"Feature","geometry":{"type":"Point","coordinates":[3.9053683,51.5943534]},"properties":{"dolphinKind":"topmark","rawObjectClass":"TOPMAR","sourceProperties":{"RCID":17965,"PRIM":1,"GRUP":2,"OBJL":144,"RVER":1,"AGEN":7979,"FIDN":1106834726,"FIDS":468,"LNAM":"1F2B41F8F52601D4","COLOUR":["4"],"TOPSHP":1,"SCAMIN":200000,"sourceCellId":"1R7688LI","sourceChecksum":"672acec83e524ca04a9a2de7e13f1fce552b707be2da6728589cce327092d54e","rawObjectClass":"TOPMAR","sourceStableId":"1F2B41F8F52601D4"},"sourceKind":"official","official":true,"sourceCellId":"1R7688LI","sourceStableId":"1F2B41F8F52601D4","pipelineFeatureId":"1R7688LI/TOPMAR/17965","provenance":{"cellId":"1R7688LI","checksum":"672acec83e524ca04a9a2de7e13f1fce552b707be2da6728589cce327092d54e","readerVersion":"GDAL 3.2.2","processedAt":"2026-08-11T13:43:44.753Z"},"associationRefsVerifiedInGdalOutput":false}},{"type":"Feature","geometry":{"type":"Point","coordinates":[3.932585,51.612045]},"properties":{"dolphinKind":"topmark","rawObjectClass":"TOPMAR","sourceProperties":{"RCID":18083,"PRIM":1,"GRUP":2,"OBJL":144,"RVER":1,"AGEN":7979,"FIDN":1106834727,"FIDS":331,"LNAM":"1F2B41F8F527014B","COLOUR":["4"],"TOPSHP":1,"SCAMIN":200000,"sourceCellId":"1R7688LI","sourceChecksum":"672acec83e524ca04a9a2de7e13f1fce552b707be2da6728589cce327092d54e","rawObjectClass":"TOPMAR","sourceStableId":"1F2B41F8F527014B"},"sourceKind":"official","official":true,"sourceCellId":"1R7688LI","sourceStableId":"1F2B41F8F527014B","pipelineFeatureId":"1R7688LI/TOPMAR/18083","provenance":{"cellId":"1R7688LI","checksum":"672acec83e524ca04a9a2de7e13f1fce552b707be2da6728589cce327092d54e","readerVersion":"GDAL 3.2.2","processedAt":"2026-08-11T13:43:44.753Z"},"associationRefsVerifiedInGdalOutput":false}},{"type":"Feature","geometry":{"type":"Point","coordinates":[3.8949267,51.6002433]},"properties":{"dolphinKind":"topmark","rawObjectClass":"TOPMAR","sourceProperties":{"RCID":18084,"PRIM":1,"GRUP":2,"OBJL":144,"RVER":1,"AGEN":7979,"FIDN":1106834727,"FIDS":332,"LNAM":"1F2B41F8F527014C","COLOUR":["3"],"TOPSHP":5,"SCAMIN":200000,"SORIND":"NL,1R,Reprt,MZ 114","sourceCellId":"1R7688LI","sourceChecksum":"672acec83e524ca04a9a2de7e13f1fce552b707be2da6728589cce327092d54e","rawObjectClass":"TOPMAR","sourceStableId":"1F2B41F8F527014C"},"sourceKind":"official","official":true,"sourceCellId":"1R7688LI","sourceStableId":"1F2B41F8F527014C","pipelineFeatureId":"1R7688LI/TOPMAR/18084","provenance":{"cellId":"1R7688LI","checksum":"672acec83e524ca04a9a2de7e13f1fce552b707be2da6728589cce327092d54e","readerVersion":"GDAL 3.2.2","processedAt":"2026-08-11T13:43:44.753Z"},"associationRefsVerifiedInGdalOutput":false}},{"type":"Feature","geometry":{"type":"Point","coordinates":[3.7369733,51.6187483]},"properties":{"dolphinKind":"topmark","rawObjectClass":"TOPMAR","sourceProperties":{"RCID":44711946,"PRIM":1,"GRUP":2,"OBJL":144,"RVER":1,"AGEN":7979,"FIDN":44711946,"FIDS":1,"LNAM":"1F2B02AA400A0001","COLOUR":["3","1","3"],"COLPAT":["1"],"TOPSHP":5,"INFORM":"Musselseed Installation","NINFOM":"Mosselzaadinvanginstallatie","SCAMIN":200000,"SORDAT":"20160108","SORIND":"NL,1R,reprt,MZI 2016","sourceCellId":"1R7688LI","sourceChecksum":"672acec83e524ca04a9a2de7e13f1fce552b707be2da6728589cce327092d54e","rawObjectClass":"TOPMAR","sourceStableId":"1F2B02AA400A0001"},"sourceKind":"official","official":true,"sourceCellId":"1R7688LI","sourceStableId":"1F2B02AA400A0001","pipelineFeatureId":"1R7688LI/TOPMAR/44711946","provenance":{"cellId":"1R7688LI","checksum":"672acec83e524ca04a9a2de7e13f1fce552b707be2da6728589cce327092d54e","readerVersion":"GDAL 3.2.2","processedAt":"2026-08-11T13:43:44.753Z"},"associationRefsVerifiedInGdalOutput":false}},{"type":"Feature","geometry":{"type":"Point","coordinates":[3.7540283,51.6211217]},"properties":{"dolphinKind":"topmark","rawObjectClass":"TOPMAR","sourceProperties":{"RCID":44711948,"PRIM":1,"GRUP":2,"OBJL":144,"RVER":1,"AGEN":7979,"FIDN":44711948,"FIDS":1,"LNAM":"1F2B02AA400C0001","COLOUR":["3","1","3"],"COLPAT":["1"],"TOPSHP":5,"INFORM":"Musselseed Installation","NINFOM":"Mosselzaadinvanginstallatie","SCAMIN":200000,"SORDAT":"20160108","SORIND":"NL,1R,reprt,MZI 2016","sourceCellId":"1R7688LI","sourceChecksum":"672acec83e524ca04a9a2de7e13f1fce552b707be2da6728589cce327092d54e","rawObjectClass":"TOPMAR","sourceStableId":"1F2B02AA400C0001"},"sourceKind":"official","official":true,"sourceCellId":"1R7688LI","sourceStableId":"1F2B02AA400C0001","pipelineFeatureId":"1R7688LI/TOPMAR/44711948","provenance":{"cellId":"1R7688LI","checksum":"672acec83e524ca04a9a2de7e13f1fce552b707be2da6728589cce327092d54e","readerVersion":"GDAL 3.2.2","processedAt":"2026-08-11T13:43:44.753Z"},"associationRefsVerifiedInGdalOutput":false}},{"type":"Feature","geometry":{"type":"Point","coordinates":[3.7548667,51.61939]},"properties":{"dolphinKind":"topmark","rawObjectClass":"TOPMAR","sourceProperties":{"RCID":44711950,"PRIM":1,"GRUP":2,"OBJL":144,"RVER":1,"AGEN":7979,"FIDN":44711950,"FIDS":1,"LNAM":"1F2B02AA400E0001","COLOUR":["3","1","3"],"COLPAT":["1"],"TOPSHP":5,"INFORM":"Musselseed Installation","NINFOM":"Mosselzaadinvanginstallatie","SCAMIN":200000,"SORDAT":"20160108","SORIND":"NL,1R,reprt,MZI 2016","sourceCellId":"1R7688LI","sourceChecksum":"672acec83e524ca04a9a2de7e13f1fce552b707be2da6728589cce327092d54e","rawObjectClass":"TOPMAR","sourceStableId":"1F2B02AA400E0001"},"sourceKind":"official","official":true,"sourceCellId":"1R7688LI","sourceStableId":"1F2B02AA400E0001","pipelineFeatureId":"1R7688LI/TOPMAR/44711950","provenance":{"cellId":"1R7688LI","checksum":"672acec83e524ca04a9a2de7e13f1fce552b707be2da6728589cce327092d54e","readerVersion":"GDAL 3.2.2","processedAt":"2026-08-11T13:43:44.753Z"},"associationRefsVerifiedInGdalOutput":false}},{"type":"Feature","geometry":{"type":"Point","coordinates":[3.7405533,51.6150133]},"properties":{"dolphinKind":"topmark","rawObjectClass":"TOPMAR","sourceProperties":{"RCID":44711952,"PRIM":1,"GRUP":2,"OBJL":144,"RVER":1,"AGEN":7979,"FIDN":44711952,"FIDS":1,"LNAM":"1F2B02AA40100001","COLOUR":["3","1","3"],"COLPAT":["1"],"TOPSHP":5,"INFORM":"Musselseed Installation","NINFOM":"Mosselzaadinvanginstallatie","SCAMIN":200000,"SORDAT":"20160108","SORIND":"NL,1R,reprt,MZI 2016","sourceCellId":"1R7688LI","sourceChecksum":"672acec83e524ca04a9a2de7e13f1fce552b707be2da6728589cce327092d54e","rawObjectClass":"TOPMAR","sourceStableId":"1F2B02AA40100001"},"sourceKind":"official","official":true,"sourceCellId":"1R7688LI","sourceStableId":"1F2B02AA40100001","pipelineFeatureId":"1R7688LI/TOPMAR/44711952","provenance":{"cellId":"1R7688LI","checksum":"672acec83e524ca04a9a2de7e13f1fce552b707be2da6728589cce327092d54e","readerVersion":"GDAL 3.2.2","processedAt":"2026-08-11T13:43:44.753Z"},"associationRefsVerifiedInGdalOutput":false}},{"type":"Feature","geometry":{"type":"Point","coordinates":[3.8726083,51.62485]},"properties":{"dolphinKind":"topmark","rawObjectClass":"TOPMAR","sourceProperties":{"RCID":44711955,"PRIM":1,"GRUP":2,"OBJL":144,"RVER":1,"AGEN":7979,"FIDN":44711955,"FIDS":1,"LNAM":"1F2B02AA40130001","COLOUR":["3","1","3"],"COLPAT":["1"],"TOPSHP":5,"INFORM":"Musselseed installation","NINFOM":"Mosselzaadinvanginstallatie","SCAMIN":200000,"SORIND":"NL,1R,reprt,DZD-BAS-2010/16","sourceCellId":"1R7688LI","sourceChecksum":"672acec83e524ca04a9a2de7e13f1fce552b707be2da6728589cce327092d54e","rawObjectClass":"TOPMAR","sourceStableId":"1F2B02AA40130001"},"sourceKind":"official","official":true,"sourceCellId":"1R7688LI","sourceStableId":"1F2B02AA40130001","pipelineFeatureId":"1R7688LI/TOPMAR/44711955","provenance":{"cellId":"1R7688LI","checksum":"672acec83e524ca04a9a2de7e13f1fce552b707be2da6728589cce327092d54e","readerVersion":"GDAL 3.2.2","processedAt":"2026-08-11T13:43:44.753Z"},"associationRefsVerifiedInGdalOutput":false}},{"type":"Feature","geometry":{"type":"Point","coordinates":[3.8751733,51.6192117]},"properties":{"dolphinKind":"topmark","rawObjectClass":"TOPMAR","sourceProperties":{"RCID":44711957,"PRIM":1,"GRUP":2,"OBJL":144,"RVER":1,"AGEN":7979,"FIDN":44711957,"FIDS":1,"LNAM":"1F2B02AA40150001","COLOUR":["3","1","3"],"COLPAT":["1"],"TOPSHP":5,"INFORM":"Musselseedinstallation","NINFOM":"Mosselzaadinvanginstallatie","SCAMIN":200000,"SORIND":"NL,1R,Reprt,NavBer 2012/MZ41","sourceCellId":"1R7688LI","sourceChecksum":"672acec83e524ca04a9a2de7e13f1fce552b707be2da6728589cce327092d54e","rawObjectClass":"TOPMAR","sourceStableId":"1F2B02AA40150001"},"sourceKind":"official","official":true,"sourceCellId":"1R7688LI","sourceStableId":"1F2B02AA40150001","pipelineFeatureId":"1R7688LI/TOPMAR/44711957","provenance":{"cellId":"1R7688LI","checksum":"672acec83e524ca04a9a2de7e13f1fce552b707be2da6728589cce327092d54e","readerVersion":"GDAL 3.2.2","processedAt":"2026-08-11T13:43:44.753Z"},"associationRefsVerifiedInGdalOutput":false}},{"type":"Feature","geometry":{"type":"Point","coordinates":[3.8786933,51.6212533]},"properties":{"dolphinKind":"topmark","rawObjectClass":"TOPMAR","sourceProperties":{"RCID":44711959,"PRIM":1,"GRUP":2,"OBJL":144,"RVER":1,"AGEN":7979,"FIDN":44711959,"FIDS":1,"LNAM":"1F2B02AA40170001","COLOUR":["3","1","3"],"COLPAT":["1"],"TOPSHP":5,"INFORM":"Musselseed installation","NINFOM":"Mosselzaadinvanginstallatie","SCAMIN":200000,"SORIND":"NL,1R,reprt,DZD-BAS-2010/16","sourceCellId":"1R7688LI","sourceChecksum":"672acec83e524ca04a9a2de7e13f1fce552b707be2da6728589cce327092d54e","rawObjectClass":"TOPMAR","sourceStableId":"1F2B02AA40170001"},"sourceKind":"official","official":true,"sourceCellId":"1R7688LI","sourceStableId":"1F2B02AA40170001","pipelineFeatureId":"1R7688LI/TOPMAR/44711959","provenance":{"cellId":"1R7688LI","checksum":"672acec83e524ca04a9a2de7e13f1fce552b707be2da6728589cce327092d54e","readerVersion":"GDAL 3.2.2","processedAt":"2026-08-11T13:43:44.753Z"},"associationRefsVerifiedInGdalOutput":false}},{"type":"Feature","geometry":{"type":"Point","coordinates":[3.8843983,51.61747]},"properties":{"dolphinKind":"topmark","rawObjectClass":"TOPMAR","sourceProperties":{"RCID":44711961,"PRIM":1,"GRUP":2,"OBJL":144,"RVER":1,"AGEN":7979,"FIDN":44711961,"FIDS":1,"LNAM":"1F2B02AA40190001","COLOUR":["3","1","3"],"COLPAT":["1"],"TOPSHP":5,"INFORM":"Musselseed installation","NINFOM":"Mosselzaadinvanginstallatie","SCAMIN":200000,"SORIND":"NL,1R,reprt,DZD-BAS-2010/16","sourceCellId":"1R7688LI","sourceChecksum":"672acec83e524ca04a9a2de7e13f1fce552b707be2da6728589cce327092d54e","rawObjectClass":"TOPMAR","sourceStableId":"1F2B02AA40190001"},"sourceKind":"official","official":true,"sourceCellId":"1R7688LI","sourceStableId":"1F2B02AA40190001","pipelineFeatureId":"1R7688LI/TOPMAR/44711961","provenance":{"cellId":"1R7688LI","checksum":"672acec83e524ca04a9a2de7e13f1fce552b707be2da6728589cce327092d54e","readerVersion":"GDAL 3.2.2","processedAt":"2026-08-11T13:43:44.753Z"},"associationRefsVerifiedInGdalOutput":false}},{"type":"Feature","geometry":{"type":"Point","coordinates":[3.8809483,51.6153917]},"properties":{"dolphinKind":"topmark","rawObjectClass":"TOPMAR","sourceProperties":{"RCID":44711963,"PRIM":1,"GRUP":2,"OBJL":144,"RVER":1,"AGEN":7979,"FIDN":44711963,"FIDS":1,"LNAM":"1F2B02AA401B0001","COLOUR":["3","1","3"],"COLPAT":["1"],"TOPSHP":5,"INFORM":"Musselseed installation","NINFOM":"Mosselzaadinvanginstallatie","SCAMIN":200000,"SORIND":"NL,1R,reprt,NavBer 2012/MZ41","sourceCellId":"1R7688LI","sourceChecksum":"672acec83e524ca04a9a2de7e13f1fce552b707be2da6728589cce327092d54e","rawObjectClass":"TOPMAR","sourceStableId":"1F2B02AA401B0001"},"sourceKind":"official","official":true,"sourceCellId":"1R7688LI","sourceStableId":"1F2B02AA401B0001","pipelineFeatureId":"1R7688LI/TOPMAR/44711963","provenance":{"cellId":"1R7688LI","checksum":"672acec83e524ca04a9a2de7e13f1fce552b707be2da6728589cce327092d54e","readerVersion":"GDAL 3.2.2","processedAt":"2026-08-11T13:43:44.753Z"},"associationRefsVerifiedInGdalOutput":false}},{"type":"Feature","geometry":{"type":"Point","coordinates":[3.8694283,51.6230317]},"properties":{"dolphinKind":"topmark","rawObjectClass":"TOPMAR","sourceProperties":{"RCID":44711965,"PRIM":1,"GRUP":2,"OBJL":144,"RVER":1,"AGEN":7979,"FIDN":44711965,"FIDS":1,"LNAM":"1F2B02AA401D0001","COLOUR":["3","1","3"],"COLPAT":["1"],"TOPSHP":5,"INFORM":"Musselseedinstallation","NINFOM":"Mosselzaadinvanginstallatie","SCAMIN":200000,"SORIND":"NL,1R,Reprt,DZD-BAS 2010/16","sourceCellId":"1R7688LI","sourceChecksum":"672acec83e524ca04a9a2de7e13f1fce552b707be2da6728589cce327092d54e","rawObjectClass":"TOPMAR","sourceStableId":"1F2B02AA401D0001"},"sourceKind":"official","official":true,"sourceCellId":"1R7688LI","sourceStableId":"1F2B02AA401D0001","pipelineFeatureId":"1R7688LI/TOPMAR/44711965","provenance":{"cellId":"1R7688LI","checksum":"672acec83e524ca04a9a2de7e13f1fce552b707be2da6728589cce327092d54e","readerVersion":"GDAL 3.2.2","processedAt":"2026-08-11T13:43:44.753Z"},"associationRefsVerifiedInGdalOutput":false}},{"type":"Feature","geometry":{"type":"Point","coordinates":[3.9077683,51.62259]},"properties":{"dolphinKind":"topmark","rawObjectClass":"TOPMAR","sourceProperties":{"RCID":103391200,"PRIM":1,"GRUP":2,"OBJL":144,"RVER":1,"AGEN":7979,"FIDN":103391200,"FIDS":1,"LNAM":"1F2B06299FE00001","COLOUR":["6"],"TOPSHP":7,"SCAMIN":200000,"SORIND":"NL,1R,reprt,MZ114-2012","sourceCellId":"1R7688LI","sourceChecksum":"672acec83e524ca04a9a2de7e13f1fce552b707be2da6728589cce327092d54e","rawObjectClass":"TOPMAR","sourceStableId":"1F2B06299FE00001"},"sourceKind":"official","official":true,"sourceCellId":"1R7688LI","sourceStableId":"1F2B06299FE00001","pipelineFeatureId":"1R7688LI/TOPMAR/103391200","provenance":{"cellId":"1R7688LI","checksum":"672acec83e524ca04a9a2de7e13f1fce552b707be2da6728589cce327092d54e","readerVersion":"GDAL 3.2.2","processedAt":"2026-08-11T13:43:44.753Z"},"associationRefsVerifiedInGdalOutput":false}},{"type":"Feature","geometry":{"type":"Point","coordinates":[3.9068883,51.6219067]},"properties":{"dolphinKind":"topmark","rawObjectClass":"TOPMAR","sourceProperties":{"RCID":103391201,"PRIM":1,"GRUP":2,"OBJL":144,"RVER":1,"AGEN":7979,"FIDN":103391201,"FIDS":1,"LNAM":"1F2B06299FE10001","COLOUR":["6"],"TOPSHP":7,"SCAMIN":200000,"SORIND":"NL,1R,reprt,MZ114-2012","sourceCellId":"1R7688LI","sourceChecksum":"672acec83e524ca04a9a2de7e13f1fce552b707be2da6728589cce327092d54e","rawObjectClass":"TOPMAR","sourceStableId":"1F2B06299FE10001"},"sourceKind":"official","official":true,"sourceCellId":"1R7688LI","sourceStableId":"1F2B06299FE10001","pipelineFeatureId":"1R7688LI/TOPMAR/103391201","provenance":{"cellId":"1R7688LI","checksum":"672acec83e524ca04a9a2de7e13f1fce552b707be2da6728589cce327092d54e","readerVersion":"GDAL 3.2.2","processedAt":"2026-08-11T13:43:44.753Z"},"associationRefsVerifiedInGdalOutput":false}},{"type":"Feature","geometry":{"type":"Point","coordinates":[3.8717617,51.5969533]},"properties":{"dolphinKind":"topmark","rawObjectClass":"TOPMAR","sourceProperties":{"RCID":103391202,"PRIM":1,"GRUP":2,"OBJL":144,"RVER":1,"AGEN":7979,"FIDN":103391202,"FIDS":1,"LNAM":"1F2B06299FE20001","COLOUR":["2"],"TOPSHP":13,"SCAMIN":200000,"SORDAT":"20201020","SORIND":"NL,1R,reprt,MD460-20","sourceCellId":"1R7688LI","sourceChecksum":"672acec83e524ca04a9a2de7e13f1fce552b707be2da6728589cce327092d54e","rawObjectClass":"TOPMAR","sourceStableId":"1F2B06299FE20001"},"sourceKind":"official","official":true,"sourceCellId":"1R7688LI","sourceStableId":"1F2B06299FE20001","pipelineFeatureId":"1R7688LI/TOPMAR/103391202","provenance":{"cellId":"1R7688LI","checksum":"672acec83e524ca04a9a2de7e13f1fce552b707be2da6728589cce327092d54e","readerVersion":"GDAL 3.2.2","processedAt":"2026-08-11T13:43:44.753Z"},"associationRefsVerifiedInGdalOutput":false}},{"type":"Feature","geometry":{"type":"Point","coordinates":[3.8285283,51.6214383]},"properties":{"dolphinKind":"topmark","rawObjectClass":"TOPMAR","sourceProperties":{"RCID":173179304,"PRIM":1,"GRUP":2,"OBJL":144,"RVER":1,"AGEN":7979,"FIDN":173179304,"FIDS":1,"LNAM":"1F2B0A5281A80001","COLOUR":["3","1","3"],"COLPAT":["1"],"TOPSHP":20,"INFORM":"Musselseedinstallation","NINFOM":"Mosselzaadinvanginstallatie","SCAMIN":200000,"SORDAT":"20180226","SORIND":"NL,1R,reprt,MD 062-18","sourceCellId":"1R7688LI","sourceChecksum":"672acec83e524ca04a9a2de7e13f1fce552b707be2da6728589cce327092d54e","rawObjectClass":"TOPMAR","sourceStableId":"1F2B0A5281A80001"},"sourceKind":"official","official":true,"sourceCellId":"1R7688LI","sourceStableId":"1F2B0A5281A80001","pipelineFeatureId":"1R7688LI/TOPMAR/173179304","provenance":{"cellId":"1R7688LI","checksum":"672acec83e524ca04a9a2de7e13f1fce552b707be2da6728589cce327092d54e","readerVersion":"GDAL 3.2.2","processedAt":"2026-08-11T13:43:44.753Z"},"associationRefsVerifiedInGdalOutput":false}},{"type":"Feature","geometry":{"type":"Point","coordinates":[3.84303,51.6213533]},"properties":{"dolphinKind":"topmark","rawObjectClass":"TOPMAR","sourceProperties":{"RCID":173179369,"PRIM":1,"GRUP":2,"OBJL":144,"RVER":1,"AGEN":7979,"FIDN":173179369,"FIDS":1,"LNAM":"1F2B0A5281E90001","COLOUR":["3","1","3"],"COLPAT":["1"],"TOPSHP":20,"INFORM":"Musselseedinstallation","NINFOM":"Mosselzaadinvanginstallatie","SCAMIN":200000,"SORDAT":"20180226","SORIND":"NL,1R,reprt,MD 062-18","sourceCellId":"1R7688LI","sourceChecksum":"672acec83e524ca04a9a2de7e13f1fce552b707be2da6728589cce327092d54e","rawObjectClass":"TOPMAR","sourceStableId":"1F2B0A5281E90001"},"sourceKind":"official","official":true,"sourceCellId":"1R7688LI","sourceStableId":"1F2B0A5281E90001","pipelineFeatureId":"1R7688LI/TOPMAR/173179369","provenance":{"cellId":"1R7688LI","checksum":"672acec83e524ca04a9a2de7e13f1fce552b707be2da6728589cce327092d54e","readerVersion":"GDAL 3.2.2","processedAt":"2026-08-11T13:43:44.753Z"},"associationRefsVerifiedInGdalOutput":false}},{"type":"Feature","geometry":{"type":"Point","coordinates":[3.8578333,51.6197]},"properties":{"dolphinKind":"topmark","rawObjectClass":"TOPMAR","sourceProperties":{"RCID":173179371,"PRIM":1,"GRUP":2,"OBJL":144,"RVER":1,"AGEN":7979,"FIDN":173179371,"FIDS":1,"LNAM":"1F2B0A5281EB0001","COLOUR":["3","1","3"],"COLPAT":["1"],"TOPSHP":20,"INFORM":"Musselseedinstallation","NINFOM":"Mosselzaadinvanginstallatie","SCAMIN":200000,"SORDAT":"20180226","SORIND":"NL,1R,reprt,MD 062-18","sourceCellId":"1R7688LI","sourceChecksum":"672acec83e524ca04a9a2de7e13f1fce552b707be2da6728589cce327092d54e","rawObjectClass":"TOPMAR","sourceStableId":"1F2B0A5281EB0001"},"sourceKind":"official","official":true,"sourceCellId":"1R7688LI","sourceStableId":"1F2B0A5281EB0001","pipelineFeatureId":"1R7688LI/TOPMAR/173179371","provenance":{"cellId":"1R7688LI","checksum":"672acec83e524ca04a9a2de7e13f1fce552b707be2da6728589cce327092d54e","readerVersion":"GDAL 3.2.2","processedAt":"2026-08-11T13:43:44.753Z"},"associationRefsVerifiedInGdalOutput":false}},{"type":"Feature","geometry":{"type":"Point","coordinates":[3.8724833,51.6175767]},"properties":{"dolphinKind":"topmark","rawObjectClass":"TOPMAR","sourceProperties":{"RCID":173179373,"PRIM":1,"GRUP":2,"OBJL":144,"RVER":1,"AGEN":7979,"FIDN":173179373,"FIDS":1,"LNAM":"1F2B0A5281ED0001","COLOUR":["3","1","3"],"COLPAT":["1"],"TOPSHP":20,"INFORM":"Musselseedinstallation","NINFOM":"Mosselzaadinvanginstallatie","SCAMIN":200000,"SORDAT":"20180226","SORIND":"NL,1R,reprt,MD 062-18","sourceCellId":"1R7688LI","sourceChecksum":"672acec83e524ca04a9a2de7e13f1fce552b707be2da6728589cce327092d54e","rawObjectClass":"TOPMAR","sourceStableId":"1F2B0A5281ED0001"},"sourceKind":"official","official":true,"sourceCellId":"1R7688LI","sourceStableId":"1F2B0A5281ED0001","pipelineFeatureId":"1R7688LI/TOPMAR/173179373","provenance":{"cellId":"1R7688LI","checksum":"672acec83e524ca04a9a2de7e13f1fce552b707be2da6728589cce327092d54e","readerVersion":"GDAL 3.2.2","processedAt":"2026-08-11T13:43:44.753Z"},"associationRefsVerifiedInGdalOutput":false}},{"type":"Feature","geometry":{"type":"Point","coordinates":[3.9172783,51.6060067]},"properties":{"dolphinKind":"topmark","rawObjectClass":"TOPMAR","sourceProperties":{"RCID":173183150,"PRIM":1,"GRUP":2,"OBJL":144,"RVER":1,"AGEN":7979,"FIDN":173183150,"FIDS":1,"LNAM":"1F2B0A5290AE0001","COLOUR":["3","1","3"],"COLPAT":["1"],"TOPSHP":5,"INFORM":"Musselseed Installation","NINFOM":"Mosselzaadinvanginstallatie","SCAMIN":200000,"SORDAT":"20160108","SORIND":"NL,1R,reprt,MZI 2016","sourceCellId":"1R7688LI","sourceChecksum":"672acec83e524ca04a9a2de7e13f1fce552b707be2da6728589cce327092d54e","rawObjectClass":"TOPMAR","sourceStableId":"1F2B0A5290AE0001"},"sourceKind":"official","official":true,"sourceCellId":"1R7688LI","sourceStableId":"1F2B0A5290AE0001","pipelineFeatureId":"1R7688LI/TOPMAR/173183150","provenance":{"cellId":"1R7688LI","checksum":"672acec83e524ca04a9a2de7e13f1fce552b707be2da6728589cce327092d54e","readerVersion":"GDAL 3.2.2","processedAt":"2026-08-11T13:43:44.753Z"},"associationRefsVerifiedInGdalOutput":false}},{"type":"Feature","geometry":{"type":"Point","coordinates":[3.92996,51.6106167]},"properties":{"dolphinKind":"topmark","rawObjectClass":"TOPMAR","sourceProperties":{"RCID":173183152,"PRIM":1,"GRUP":2,"OBJL":144,"RVER":1,"AGEN":7979,"FIDN":173183152,"FIDS":1,"LNAM":"1F2B0A5290B00001","COLOUR":["3","1","3"],"COLPAT":["1"],"TOPSHP":5,"INFORM":"Musselseed Installation","NINFOM":"Mosselzaadinvanginstallatie","SCAMIN":200000,"SORDAT":"20160108","SORIND":"NL,1R,reprt,MZI 2016","sourceCellId":"1R7688LI","sourceChecksum":"672acec83e524ca04a9a2de7e13f1fce552b707be2da6728589cce327092d54e","rawObjectClass":"TOPMAR","sourceStableId":"1F2B0A5290B00001"},"sourceKind":"official","official":true,"sourceCellId":"1R7688LI","sourceStableId":"1F2B0A5290B00001","pipelineFeatureId":"1R7688LI/TOPMAR/173183152","provenance":{"cellId":"1R7688LI","checksum":"672acec83e524ca04a9a2de7e13f1fce552b707be2da6728589cce327092d54e","readerVersion":"GDAL 3.2.2","processedAt":"2026-08-11T13:43:44.753Z"},"associationRefsVerifiedInGdalOutput":false}},{"type":"Feature","geometry":{"type":"Point","coordinates":[3.9216683,51.60183]},"properties":{"dolphinKind":"topmark","rawObjectClass":"TOPMAR","sourceProperties":{"RCID":173183156,"PRIM":1,"GRUP":2,"OBJL":144,"RVER":1,"AGEN":7979,"FIDN":173183156,"FIDS":1,"LNAM":"1F2B0A5290B40001","COLOUR":["3","1","3"],"COLPAT":["1"],"TOPSHP":5,"INFORM":"Musselseed Installation","NINFOM":"Mosselzaadinvanginstallatie","SCAMIN":200000,"SORDAT":"20160108","SORIND":"NL,1R,reprt,MZI 2016","sourceCellId":"1R7688LI","sourceChecksum":"672acec83e524ca04a9a2de7e13f1fce552b707be2da6728589cce327092d54e","rawObjectClass":"TOPMAR","sourceStableId":"1F2B0A5290B40001"},"sourceKind":"official","official":true,"sourceCellId":"1R7688LI","sourceStableId":"1F2B0A5290B40001","pipelineFeatureId":"1R7688LI/TOPMAR/173183156","provenance":{"cellId":"1R7688LI","checksum":"672acec83e524ca04a9a2de7e13f1fce552b707be2da6728589cce327092d54e","readerVersion":"GDAL 3.2.2","processedAt":"2026-08-11T13:43:44.753Z"},"associationRefsVerifiedInGdalOutput":false}},{"type":"Feature","geometry":{"type":"Point","coordinates":[3.902995,51.6227717]},"properties":{"dolphinKind":"topmark","rawObjectClass":"TOPMAR","sourceProperties":{"RCID":437428945,"PRIM":1,"GRUP":2,"OBJL":144,"RVER":1,"AGEN":7979,"FIDN":437428945,"FIDS":1,"LNAM":"1F2B1A12A2D10001","COLOUR":["6"],"TOPSHP":7,"SCAMIN":200000,"SORDAT":"20220409","SORIND":"NL,1R,reprt,MD 231-22","sourceCellId":"1R7688LI","sourceChecksum":"672acec83e524ca04a9a2de7e13f1fce552b707be2da6728589cce327092d54e","rawObjectClass":"TOPMAR","sourceStableId":"1F2B1A12A2D10001"},"sourceKind":"official","official":true,"sourceCellId":"1R7688LI","sourceStableId":"1F2B1A12A2D10001","pipelineFeatureId":"1R7688LI/TOPMAR/437428945","provenance":{"cellId":"1R7688LI","checksum":"672acec83e524ca04a9a2de7e13f1fce552b707be2da6728589cce327092d54e","readerVersion":"GDAL 3.2.2","processedAt":"2026-08-11T13:43:44.753Z"},"associationRefsVerifiedInGdalOutput":false}},{"type":"Feature","geometry":{"type":"Point","coordinates":[3.9022183,51.6221333]},"properties":{"dolphinKind":"topmark","rawObjectClass":"TOPMAR","sourceProperties":{"RCID":437429046,"PRIM":1,"GRUP":2,"OBJL":144,"RVER":1,"AGEN":7979,"FIDN":437429046,"FIDS":1,"LNAM":"1F2B1A12A3360001","COLOUR":["6"],"TOPSHP":7,"SCAMIN":200000,"SORDAT":"20220409","SORIND":"NL,1R,reprt,MD 231-22","sourceCellId":"1R7688LI","sourceChecksum":"672acec83e524ca04a9a2de7e13f1fce552b707be2da6728589cce327092d54e","rawObjectClass":"TOPMAR","sourceStableId":"1F2B1A12A3360001"},"sourceKind":"official","official":true,"sourceCellId":"1R7688LI","sourceStableId":"1F2B1A12A3360001","pipelineFeatureId":"1R7688LI/TOPMAR/437429046","provenance":{"cellId":"1R7688LI","checksum":"672acec83e524ca04a9a2de7e13f1fce552b707be2da6728589cce327092d54e","readerVersion":"GDAL 3.2.2","processedAt":"2026-08-11T13:43:44.753Z"},"associationRefsVerifiedInGdalOutput":false}},{"type":"Feature","geometry":{"type":"Point","coordinates":[3.8713867,51.615355]},"properties":{"dolphinKind":"topmark","rawObjectClass":"TOPMAR","sourceProperties":{"RCID":447281935,"PRIM":1,"GRUP":2,"OBJL":144,"RVER":1,"AGEN":7979,"FIDN":447281935,"FIDS":1,"LNAM":"1F2B1AA8FB0F0001","COLOUR":["3","1","3"],"COLPAT":["1"],"TOPSHP":20,"INFORM":"Musselseedinstallation","NINFOM":"Mosselzaadinvanginstallatie","SCAMIN":200000,"SORDAT":"20180226","SORIND":"NL,1R,reprt,MD 062-18","sourceCellId":"1R7688LI","sourceChecksum":"672acec83e524ca04a9a2de7e13f1fce552b707be2da6728589cce327092d54e","rawObjectClass":"TOPMAR","sourceStableId":"1F2B1AA8FB0F0001"},"sourceKind":"official","official":true,"sourceCellId":"1R7688LI","sourceStableId":"1F2B1AA8FB0F0001","pipelineFeatureId":"1R7688LI/TOPMAR/447281935","provenance":{"cellId":"1R7688LI","checksum":"672acec83e524ca04a9a2de7e13f1fce552b707be2da6728589cce327092d54e","readerVersion":"GDAL 3.2.2","processedAt":"2026-08-11T13:43:44.753Z"},"associationRefsVerifiedInGdalOutput":false}},{"type":"Feature","geometry":{"type":"Point","coordinates":[3.85602,51.6169617]},"properties":{"dolphinKind":"topmark","rawObjectClass":"TOPMAR","sourceProperties":{"RCID":447281937,"PRIM":1,"GRUP":2,"OBJL":144,"RVER":1,"AGEN":7979,"FIDN":447281937,"FIDS":1,"LNAM":"1F2B1AA8FB110001","COLOUR":["3","1","3"],"COLPAT":["1"],"TOPSHP":20,"INFORM":"Musselseedinstallation","NINFOM":"Mosselzaadinvanginstallatie","SCAMIN":200000,"SORDAT":"20180226","SORIND":"NL,1R,reprt,MD 062-18","sourceCellId":"1R7688LI","sourceChecksum":"672acec83e524ca04a9a2de7e13f1fce552b707be2da6728589cce327092d54e","rawObjectClass":"TOPMAR","sourceStableId":"1F2B1AA8FB110001"},"sourceKind":"official","official":true,"sourceCellId":"1R7688LI","sourceStableId":"1F2B1AA8FB110001","pipelineFeatureId":"1R7688LI/TOPMAR/447281937","provenance":{"cellId":"1R7688LI","checksum":"672acec83e524ca04a9a2de7e13f1fce552b707be2da6728589cce327092d54e","readerVersion":"GDAL 3.2.2","processedAt":"2026-08-11T13:43:44.753Z"},"associationRefsVerifiedInGdalOutput":false}},{"type":"Feature","geometry":{"type":"Point","coordinates":[3.7771933,51.603665]},"properties":{"dolphinKind":"topmark","rawObjectClass":"TOPMAR","sourceProperties":{"RCID":476902944,"PRIM":1,"GRUP":2,"OBJL":144,"RVER":1,"AGEN":7979,"FIDN":476902944,"FIDS":1,"LNAM":"1F2B1C6CF6200001","COLOUR":["4"],"TOPSHP":1,"SCAMIN":200000,"SORIND":"NL,1R,Reprt,NavBer 2012/MZ64","sourceCellId":"1R7688LI","sourceChecksum":"672acec83e524ca04a9a2de7e13f1fce552b707be2da6728589cce327092d54e","rawObjectClass":"TOPMAR","sourceStableId":"1F2B1C6CF6200001"},"sourceKind":"official","official":true,"sourceCellId":"1R7688LI","sourceStableId":"1F2B1C6CF6200001","pipelineFeatureId":"1R7688LI/TOPMAR/476902944","provenance":{"cellId":"1R7688LI","checksum":"672acec83e524ca04a9a2de7e13f1fce552b707be2da6728589cce327092d54e","readerVersion":"GDAL 3.2.2","processedAt":"2026-08-11T13:43:44.753Z"},"associationRefsVerifiedInGdalOutput":false}},{"type":"Feature","geometry":{"type":"Point","coordinates":[3.8405283,51.6180717]},"properties":{"dolphinKind":"topmark","rawObjectClass":"TOPMAR","sourceProperties":{"RCID":1176798340,"PRIM":1,"GRUP":2,"OBJL":144,"RVER":1,"AGEN":7979,"FIDN":1176798340,"FIDS":1,"LNAM":"1F2B462484840001","COLOUR":["3","1","3"],"COLPAT":["1"],"TOPSHP":20,"SCAMIN":200000,"SORDAT":"20240201","SORIND":"NL,1R,reprt,MD 050-24","sourceCellId":"1R7688LI","sourceChecksum":"672acec83e524ca04a9a2de7e13f1fce552b707be2da6728589cce327092d54e","rawObjectClass":"TOPMAR","sourceStableId":"1F2B462484840001"},"sourceKind":"official","official":true,"sourceCellId":"1R7688LI","sourceStableId":"1F2B462484840001","pipelineFeatureId":"1R7688LI/TOPMAR/1176798340","provenance":{"cellId":"1R7688LI","checksum":"672acec83e524ca04a9a2de7e13f1fce552b707be2da6728589cce327092d54e","readerVersion":"GDAL 3.2.2","processedAt":"2026-08-11T13:43:44.753Z"},"associationRefsVerifiedInGdalOutput":false}},{"type":"Feature","geometry":{"type":"Point","coordinates":[3.8289767,51.6175233]},"properties":{"dolphinKind":"topmark","rawObjectClass":"TOPMAR","sourceProperties":{"RCID":1176798341,"PRIM":1,"GRUP":2,"OBJL":144,"RVER":1,"AGEN":7979,"FIDN":1176798341,"FIDS":1,"LNAM":"1F2B462484850001","COLOUR":["3","1","3"],"COLPAT":["1"],"TOPSHP":20,"SCAMIN":200000,"SORDAT":"20240201","SORIND":"NL,1R,reprt,MD 050-24","sourceCellId":"1R7688LI","sourceChecksum":"672acec83e524ca04a9a2de7e13f1fce552b707be2da6728589cce327092d54e","rawObjectClass":"TOPMAR","sourceStableId":"1F2B462484850001"},"sourceKind":"official","official":true,"sourceCellId":"1R7688LI","sourceStableId":"1F2B462484850001","pipelineFeatureId":"1R7688LI/TOPMAR/1176798341","provenance":{"cellId":"1R7688LI","checksum":"672acec83e524ca04a9a2de7e13f1fce552b707be2da6728589cce327092d54e","readerVersion":"GDAL 3.2.2","processedAt":"2026-08-11T13:43:44.753Z"},"associationRefsVerifiedInGdalOutput":false}}]}