{"type":"FeatureCollection","features":[{"type":"Feature","geometry":{"type":"Point","coordinates":[3.7242667,51.3745333]},"properties":{"dolphinKind":"buoy-lateral","rawObjectClass":"BOYLAT","sourceProperties":{"RCID":17022,"PRIM":1,"GRUP":2,"OBJL":17,"RVER":1,"AGEN":7979,"FIDN":1106834682,"FIDS":338,"LNAM":"1F2B41F8F4FA0152","BOYSHP":5,"CATLAM":2,"COLOUR":["4"],"CONRAD":3,"OBJNAM":"17","SCAMIN":200000,"SORDAT":"20120127","SORIND":"NL,1R,reprt,MZ 8","sourceCellId":"1R75W7RI","sourceChecksum":"b5289e4746f79c059a05acf9633c75fd68168eb2e505e2085580524aa988dd00","rawObjectClass":"BOYLAT","sourceStableId":"1F2B41F8F4FA0152"},"sourceKind":"official","official":true,"sourceCellId":"1R75W7RI","sourceStableId":"1F2B41F8F4FA0152","pipelineFeatureId":"1R75W7RI/BOYLAT/17022","provenance":{"cellId":"1R75W7RI","checksum":"b5289e4746f79c059a05acf9633c75fd68168eb2e505e2085580524aa988dd00","readerVersion":"GDAL 3.2.2","processedAt":"2026-08-11T18:29:20.995Z"}}},{"type":"Feature","geometry":{"type":"Point","coordinates":[3.6864333,51.3740833]},"properties":{"dolphinKind":"buoy-lateral","rawObjectClass":"BOYLAT","sourceProperties":{"RCID":27546637,"PRIM":1,"GRUP":2,"OBJL":17,"RVER":1,"AGEN":7979,"FIDN":27546637,"FIDS":1,"LNAM":"1F2B01A4540D0001","BOYSHP":5,"CATLAM":2,"COLOUR":["4"],"CONRAD":3,"NATCON":["8"],"OBJNAM":"PP 1","SCAMIN":200000,"SORDAT":"20150929","SORIND":"NL,1R,reprt,MD 407-15","sourceCellId":"1R75W7RI","sourceChecksum":"b5289e4746f79c059a05acf9633c75fd68168eb2e505e2085580524aa988dd00","rawObjectClass":"BOYLAT","sourceStableId":"1F2B01A4540D0001"},"sourceKind":"official","official":true,"sourceCellId":"1R75W7RI","sourceStableId":"1F2B01A4540D0001","pipelineFeatureId":"1R75W7RI/BOYLAT/27546637","provenance":{"cellId":"1R75W7RI","checksum":"b5289e4746f79c059a05acf9633c75fd68168eb2e505e2085580524aa988dd00","readerVersion":"GDAL 3.2.2","processedAt":"2026-08-11T18:29:20.995Z"}}},{"type":"Feature","geometry":{"type":"Point","coordinates":[3.69415,51.3675333]},"properties":{"dolphinKind":"buoy-lateral","rawObjectClass":"BOYLAT","sourceProperties":{"RCID":27546638,"PRIM":1,"GRUP":2,"OBJL":17,"RVER":1,"AGEN":7979,"FIDN":27546638,"FIDS":1,"LNAM":"1F2B01A4540E0001","BOYSHP":5,"CATLAM":2,"COLOUR":["4"],"CONRAD":3,"NATCON":["8"],"OBJNAM":"PP 3","SCAMIN":200000,"SORDAT":"20150929","SORIND":"NL,1R,reprt,MD 407-15","sourceCellId":"1R75W7RI","sourceChecksum":"b5289e4746f79c059a05acf9633c75fd68168eb2e505e2085580524aa988dd00","rawObjectClass":"BOYLAT","sourceStableId":"1F2B01A4540E0001"},"sourceKind":"official","official":true,"sourceCellId":"1R75W7RI","sourceStableId":"1F2B01A4540E0001","pipelineFeatureId":"1R75W7RI/BOYLAT/27546638","provenance":{"cellId":"1R75W7RI","checksum":"b5289e4746f79c059a05acf9633c75fd68168eb2e505e2085580524aa988dd00","readerVersion":"GDAL 3.2.2","processedAt":"2026-08-11T18:29:20.995Z"}}},{"type":"Feature","geometry":{"type":"Point","coordinates":[3.7038167,51.3623667]},"properties":{"dolphinKind":"buoy-lateral","rawObjectClass":"BOYLAT","sourceProperties":{"RCID":27546639,"PRIM":1,"GRUP":2,"OBJL":17,"RVER":1,"AGEN":7979,"FIDN":27546639,"FIDS":1,"LNAM":"1F2B01A4540F0001","BOYSHP":5,"CATLAM":2,"COLOUR":["4"],"CONRAD":3,"NATCON":["8"],"OBJNAM":"PP 5","SCAMIN":200000,"SORDAT":"20150929","SORIND":"NL,1R,reprt,MD 407-15","sourceCellId":"1R75W7RI","sourceChecksum":"b5289e4746f79c059a05acf9633c75fd68168eb2e505e2085580524aa988dd00","rawObjectClass":"BOYLAT","sourceStableId":"1F2B01A4540F0001"},"sourceKind":"official","official":true,"sourceCellId":"1R75W7RI","sourceStableId":"1F2B01A4540F0001","pipelineFeatureId":"1R75W7RI/BOYLAT/27546639","provenance":{"cellId":"1R75W7RI","checksum":"b5289e4746f79c059a05acf9633c75fd68168eb2e505e2085580524aa988dd00","readerVersion":"GDAL 3.2.2","processedAt":"2026-08-11T18:29:20.995Z"}}},{"type":"Feature","geometry":{"type":"Point","coordinates":[3.71515,51.3585833]},"properties":{"dolphinKind":"buoy-lateral","rawObjectClass":"BOYLAT","sourceProperties":{"RCID":27546640,"PRIM":1,"GRUP":2,"OBJL":17,"RVER":1,"AGEN":7979,"FIDN":27546640,"FIDS":1,"LNAM":"1F2B01A454100001","LNAM_REFS":["1F2B01A454110001"],"FFPT_RIND":[2],"BOYSHP":5,"CATLAM":2,"COLOUR":["4"],"CONRAD":3,"NATCON":["8"],"OBJNAM":"PP 7","SCAMIN":200000,"SORDAT":"20150929","SORIND":"NL,1R,reprt,MD 407-15","sourceCellId":"1R75W7RI","sourceChecksum":"b5289e4746f79c059a05acf9633c75fd68168eb2e505e2085580524aa988dd00","rawObjectClass":"BOYLAT","sourceStableId":"1F2B01A454100001"},"sourceKind":"official","official":true,"sourceCellId":"1R75W7RI","sourceStableId":"1F2B01A454100001","pipelineFeatureId":"1R75W7RI/BOYLAT/27546640","provenance":{"cellId":"1R75W7RI","checksum":"b5289e4746f79c059a05acf9633c75fd68168eb2e505e2085580524aa988dd00","readerVersion":"GDAL 3.2.2","processedAt":"2026-08-11T18:29:20.995Z"}}},{"type":"Feature","geometry":{"type":"Point","coordinates":[3.6961833,51.36865]},"properties":{"dolphinKind":"buoy-lateral","rawObjectClass":"BOYLAT","sourceProperties":{"RCID":27546643,"PRIM":1,"GRUP":2,"OBJL":17,"RVER":1,"AGEN":7979,"FIDN":27546643,"FIDS":1,"LNAM":"1F2B01A454130001","BOYSHP":5,"CATLAM":1,"COLOUR":["3"],"CONRAD":3,"NATCON":["8"],"OBJNAM":"PP 4","SCAMIN":200000,"SORDAT":"20150929","SORIND":"NL,1R,reprt,MD 407-15","sourceCellId":"1R75W7RI","sourceChecksum":"b5289e4746f79c059a05acf9633c75fd68168eb2e505e2085580524aa988dd00","rawObjectClass":"BOYLAT","sourceStableId":"1F2B01A454130001"},"sourceKind":"official","official":true,"sourceCellId":"1R75W7RI","sourceStableId":"1F2B01A454130001","pipelineFeatureId":"1R75W7RI/BOYLAT/27546643","provenance":{"cellId":"1R75W7RI","checksum":"b5289e4746f79c059a05acf9633c75fd68168eb2e505e2085580524aa988dd00","readerVersion":"GDAL 3.2.2","processedAt":"2026-08-11T18:29:20.995Z"}}},{"type":"Feature","geometry":{"type":"Point","coordinates":[3.7029667,51.3640667]},"properties":{"dolphinKind":"buoy-lateral","rawObjectClass":"BOYLAT","sourceProperties":{"RCID":27546644,"PRIM":1,"GRUP":2,"OBJL":17,"RVER":1,"AGEN":7979,"FIDN":27546644,"FIDS":1,"LNAM":"1F2B01A454140001","BOYSHP":5,"CATLAM":1,"COLOUR":["3"],"CONRAD":3,"NATCON":["8"],"OBJNAM":"PP 6","SCAMIN":200000,"SORDAT":"20150929","SORIND":"NL,1R,reprt,MD 407-15","sourceCellId":"1R75W7RI","sourceChecksum":"b5289e4746f79c059a05acf9633c75fd68168eb2e505e2085580524aa988dd00","rawObjectClass":"BOYLAT","sourceStableId":"1F2B01A454140001"},"sourceKind":"official","official":true,"sourceCellId":"1R75W7RI","sourceStableId":"1F2B01A454140001","pipelineFeatureId":"1R75W7RI/BOYLAT/27546644","provenance":{"cellId":"1R75W7RI","checksum":"b5289e4746f79c059a05acf9633c75fd68168eb2e505e2085580524aa988dd00","readerVersion":"GDAL 3.2.2","processedAt":"2026-08-11T18:29:20.995Z"}}},{"type":"Feature","geometry":{"type":"Point","coordinates":[3.7072667,51.36225]},"properties":{"dolphinKind":"buoy-lateral","rawObjectClass":"BOYLAT","sourceProperties":{"RCID":27546645,"PRIM":1,"GRUP":2,"OBJL":17,"RVER":1,"AGEN":7979,"FIDN":27546645,"FIDS":1,"LNAM":"1F2B01A454150001","BOYSHP":5,"CATLAM":1,"COLOUR":["3"],"CONRAD":3,"NATCON":["8"],"OBJNAM":"PP 8","SCAMIN":200000,"SORDAT":"20150929","SORIND":"NL,1R,reprt,MD 407-15","sourceCellId":"1R75W7RI","sourceChecksum":"b5289e4746f79c059a05acf9633c75fd68168eb2e505e2085580524aa988dd00","rawObjectClass":"BOYLAT","sourceStableId":"1F2B01A454150001"},"sourceKind":"official","official":true,"sourceCellId":"1R75W7RI","sourceStableId":"1F2B01A454150001","pipelineFeatureId":"1R75W7RI/BOYLAT/27546645","provenance":{"cellId":"1R75W7RI","checksum":"b5289e4746f79c059a05acf9633c75fd68168eb2e505e2085580524aa988dd00","readerVersion":"GDAL 3.2.2","processedAt":"2026-08-11T18:29:20.995Z"}}},{"type":"Feature","geometry":{"type":"Point","coordinates":[3.7212167,51.3725667]},"properties":{"dolphinKind":"buoy-special","rawObjectClass":"BOYSPP","sourceProperties":{"RCID":17503,"PRIM":1,"GRUP":2,"OBJL":19,"RVER":1,"AGEN":7979,"FIDN":1106834684,"FIDS":309,"LNAM":"1F2B41F8F4FC0135","BOYSHP":5,"CATSPM":["40"],"COLOUR":["6"],"CONRAD":3,"NATCON":["8"],"OBJNAM":"A 1","SCAMIN":200000,"SORDAT":"20151208","SORIND":"NL,1R,reprt,MD 513-15","sourceCellId":"1R75W7RI","sourceChecksum":"b5289e4746f79c059a05acf9633c75fd68168eb2e505e2085580524aa988dd00","rawObjectClass":"BOYSPP","sourceStableId":"1F2B41F8F4FC0135"},"sourceKind":"official","official":true,"sourceCellId":"1R75W7RI","sourceStableId":"1F2B41F8F4FC0135","pipelineFeatureId":"1R75W7RI/BOYSPP/17503","provenance":{"cellId":"1R75W7RI","checksum":"b5289e4746f79c059a05acf9633c75fd68168eb2e505e2085580524aa988dd00","readerVersion":"GDAL 3.2.2","processedAt":"2026-08-11T18:29:20.995Z"}}},{"type":"Feature","geometry":{"type":"Point","coordinates":[3.7327333,51.3655167]},"properties":{"dolphinKind":"buoy-special","rawObjectClass":"BOYSPP","sourceProperties":{"RCID":17504,"PRIM":1,"GRUP":2,"OBJL":19,"RVER":1,"AGEN":7979,"FIDN":1106834684,"FIDS":310,"LNAM":"1F2B41F8F4FC0136","BOYSHP":5,"CATSPM":["40"],"COLOUR":["6"],"CONRAD":3,"NATCON":["8"],"OBJNAM":"A 3","SCAMIN":200000,"SORDAT":"20151208","SORIND":"NL,1R,reprt,MD 513-15","sourceCellId":"1R75W7RI","sourceChecksum":"b5289e4746f79c059a05acf9633c75fd68168eb2e505e2085580524aa988dd00","rawObjectClass":"BOYSPP","sourceStableId":"1F2B41F8F4FC0136"},"sourceKind":"official","official":true,"sourceCellId":"1R75W7RI","sourceStableId":"1F2B41F8F4FC0136","pipelineFeatureId":"1R75W7RI/BOYSPP/17504","provenance":{"cellId":"1R75W7RI","checksum":"b5289e4746f79c059a05acf9633c75fd68168eb2e505e2085580524aa988dd00","readerVersion":"GDAL 3.2.2","processedAt":"2026-08-11T18:29:20.995Z"}}},{"type":"Feature","geometry":{"type":"Point","coordinates":[3.727525,51.356055]},"properties":{"dolphinKind":"buoy-special","rawObjectClass":"BOYSPP","sourceProperties":{"RCID":27736205,"PRIM":1,"GRUP":2,"OBJL":19,"RVER":1,"AGEN":7979,"FIDN":27736205,"FIDS":1,"LNAM":"1F2B01A7388D0001","BOYSHP":5,"CATSPM":["27"],"COLOUR":["6"],"CONRAD":3,"NATCON":["8"],"OBJNAM":"PP A","SCAMIN":200000,"SORDAT":"20230719","SORIND":"NL,1R,Reprt,MD 369-23","sourceCellId":"1R75W7RI","sourceChecksum":"b5289e4746f79c059a05acf9633c75fd68168eb2e505e2085580524aa988dd00","rawObjectClass":"BOYSPP","sourceStableId":"1F2B01A7388D0001"},"sourceKind":"official","official":true,"sourceCellId":"1R75W7RI","sourceStableId":"1F2B01A7388D0001","pipelineFeatureId":"1R75W7RI/BOYSPP/27736205","provenance":{"cellId":"1R75W7RI","checksum":"b5289e4746f79c059a05acf9633c75fd68168eb2e505e2085580524aa988dd00","readerVersion":"GDAL 3.2.2","processedAt":"2026-08-11T18:29:20.995Z"}}},{"type":"Feature","geometry":{"type":"Point","coordinates":[3.729285,51.3625933]},"properties":{"dolphinKind":"buoy-special","rawObjectClass":"BOYSPP","sourceProperties":{"RCID":1146767994,"PRIM":1,"GRUP":2,"OBJL":19,"RVER":1,"AGEN":7979,"FIDN":1146767994,"FIDS":1,"LNAM":"1F2B445A4A7A0001","LNAM_REFS":["1F2B445A4A7B0001"],"FFPT_RIND":[2],"BOYSHP":5,"CATSPM":["27"],"COLOUR":["6"],"CONRAD":3,"NATCON":["8"],"OBJNAM":"TG 5","SCAMIN":200000,"SORDAT":"20230719","SORIND":"NL,1R,Reprt,MD 369-23","sourceCellId":"1R75W7RI","sourceChecksum":"b5289e4746f79c059a05acf9633c75fd68168eb2e505e2085580524aa988dd00","rawObjectClass":"BOYSPP","sourceStableId":"1F2B445A4A7A0001"},"sourceKind":"official","official":true,"sourceCellId":"1R75W7RI","sourceStableId":"1F2B445A4A7A0001","pipelineFeatureId":"1R75W7RI/BOYSPP/1146767994","provenance":{"cellId":"1R75W7RI","checksum":"b5289e4746f79c059a05acf9633c75fd68168eb2e505e2085580524aa988dd00","readerVersion":"GDAL 3.2.2","processedAt":"2026-08-11T18:29:20.995Z"}}},{"type":"Feature","geometry":{"type":"Point","coordinates":[3.7188983,51.359465]},"properties":{"dolphinKind":"buoy-special","rawObjectClass":"BOYSPP","sourceProperties":{"RCID":1146767999,"PRIM":1,"GRUP":2,"OBJL":19,"RVER":1,"AGEN":7979,"FIDN":1146767999,"FIDS":1,"LNAM":"1F2B445A4A7F0001","LNAM_REFS":["1F2B445A4A7D0001","1F2B445A4A7E0001"],"FFPT_RIND":[2,2],"BOYSHP":5,"CATSPM":["27"],"COLOUR":["6"],"CONRAD":3,"NATCON":["8"],"OBJNAM":"TG 1","SCAMIN":200000,"SORDAT":"20230719","SORIND":"NL,1R,Reprt,MD 369-23","sourceCellId":"1R75W7RI","sourceChecksum":"b5289e4746f79c059a05acf9633c75fd68168eb2e505e2085580524aa988dd00","rawObjectClass":"BOYSPP","sourceStableId":"1F2B445A4A7F0001"},"sourceKind":"official","official":true,"sourceCellId":"1R75W7RI","sourceStableId":"1F2B445A4A7F0001","pipelineFeatureId":"1R75W7RI/BOYSPP/1146767999","provenance":{"cellId":"1R75W7RI","checksum":"b5289e4746f79c059a05acf9633c75fd68168eb2e505e2085580524aa988dd00","readerVersion":"GDAL 3.2.2","processedAt":"2026-08-11T18:29:20.995Z"}}},{"type":"Feature","geometry":{"type":"Point","coordinates":[3.72827,51.3640217]},"properties":{"dolphinKind":"buoy-special","rawObjectClass":"BOYSPP","sourceProperties":{"RCID":1146768002,"PRIM":1,"GRUP":2,"OBJL":19,"RVER":1,"AGEN":7979,"FIDN":1146768002,"FIDS":1,"LNAM":"1F2B445A4A820001","LNAM_REFS":["1F2B445A4A800001","1F2B445A4A810001"],"FFPT_RIND":[2,2],"BOYSHP":5,"CATSPM":["27"],"COLOUR":["6"],"CONRAD":3,"NATCON":["8"],"OBJNAM":"TG 6","SCAMIN":200000,"SORDAT":"20230719","SORIND":"NL,1R,Reprt,MD 369-23","sourceCellId":"1R75W7RI","sourceChecksum":"b5289e4746f79c059a05acf9633c75fd68168eb2e505e2085580524aa988dd00","rawObjectClass":"BOYSPP","sourceStableId":"1F2B445A4A820001"},"sourceKind":"official","official":true,"sourceCellId":"1R75W7RI","sourceStableId":"1F2B445A4A820001","pipelineFeatureId":"1R75W7RI/BOYSPP/1146768002","provenance":{"cellId":"1R75W7RI","checksum":"b5289e4746f79c059a05acf9633c75fd68168eb2e505e2085580524aa988dd00","readerVersion":"GDAL 3.2.2","processedAt":"2026-08-11T18:29:20.995Z"}}},{"type":"Feature","geometry":{"type":"Point","coordinates":[3.71656,51.3600883]},"properties":{"dolphinKind":"buoy-special","rawObjectClass":"BOYSPP","sourceProperties":{"RCID":1146768003,"PRIM":1,"GRUP":2,"OBJL":19,"RVER":1,"AGEN":7979,"FIDN":1146768003,"FIDS":1,"LNAM":"1F2B445A4A830001","LNAM_REFS":["1F2B445A4A840001"],"FFPT_RIND":[2],"BOYSHP":5,"CATSPM":["27"],"COLOUR":["6"],"CONRAD":3,"NATCON":["8"],"OBJNAM":"TG 2","SCAMIN":200000,"SORDAT":"20230719","SORIND":"NL,1R,Reprt,MD 369-23","sourceCellId":"1R75W7RI","sourceChecksum":"b5289e4746f79c059a05acf9633c75fd68168eb2e505e2085580524aa988dd00","rawObjectClass":"BOYSPP","sourceStableId":"1F2B445A4A830001"},"sourceKind":"official","official":true,"sourceCellId":"1R75W7RI","sourceStableId":"1F2B445A4A830001","pipelineFeatureId":"1R75W7RI/BOYSPP/1146768003","provenance":{"cellId":"1R75W7RI","checksum":"b5289e4746f79c059a05acf9633c75fd68168eb2e505e2085580524aa988dd00","readerVersion":"GDAL 3.2.2","processedAt":"2026-08-11T18:29:20.995Z"}}},{"type":"Feature","geometry":{"type":"Point","coordinates":[3.724135,51.3631633]},"properties":{"dolphinKind":"buoy-special","rawObjectClass":"BOYSPP","sourceProperties":{"RCID":1146768005,"PRIM":1,"GRUP":2,"OBJL":19,"RVER":1,"AGEN":7979,"FIDN":1146768005,"FIDS":1,"LNAM":"1F2B445A4A850001","BOYSHP":5,"CATSPM":["27"],"COLOUR":["6"],"CONRAD":3,"NATCON":["8"],"OBJNAM":"TG 4","SCAMIN":200000,"SORDAT":"20230719","SORIND":"NL,1R,Reprt,MD 369-23","sourceCellId":"1R75W7RI","sourceChecksum":"b5289e4746f79c059a05acf9633c75fd68168eb2e505e2085580524aa988dd00","rawObjectClass":"BOYSPP","sourceStableId":"1F2B445A4A850001"},"sourceKind":"official","official":true,"sourceCellId":"1R75W7RI","sourceStableId":"1F2B445A4A850001","pipelineFeatureId":"1R75W7RI/BOYSPP/1146768005","provenance":{"cellId":"1R75W7RI","checksum":"b5289e4746f79c059a05acf9633c75fd68168eb2e505e2085580524aa988dd00","readerVersion":"GDAL 3.2.2","processedAt":"2026-08-11T18:29:20.995Z"}}},{"type":"Feature","geometry":{"type":"Point","coordinates":[3.7250417,51.3620917]},"properties":{"dolphinKind":"buoy-special","rawObjectClass":"BOYSPP","sourceProperties":{"RCID":1146768006,"PRIM":1,"GRUP":2,"OBJL":19,"RVER":1,"AGEN":7979,"FIDN":1146768006,"FIDS":1,"LNAM":"1F2B445A4A860001","BOYSHP":5,"CATSPM":["27"],"COLOUR":["6"],"CONRAD":3,"NATCON":["8"],"OBJNAM":"TG 3","SCAMIN":200000,"SORDAT":"20230719","SORIND":"NL,1R,Reprt,MD 369-23","sourceCellId":"1R75W7RI","sourceChecksum":"b5289e4746f79c059a05acf9633c75fd68168eb2e505e2085580524aa988dd00","rawObjectClass":"BOYSPP","sourceStableId":"1F2B445A4A860001"},"sourceKind":"official","official":true,"sourceCellId":"1R75W7RI","sourceStableId":"1F2B445A4A860001","pipelineFeatureId":"1R75W7RI/BOYSPP/1146768006","provenance":{"cellId":"1R75W7RI","checksum":"b5289e4746f79c059a05acf9633c75fd68168eb2e505e2085580524aa988dd00","readerVersion":"GDAL 3.2.2","processedAt":"2026-08-11T18:29:20.995Z"}}},{"type":"Feature","geometry":{"type":"Point","coordinates":[3.7188983,51.359465]},"properties":{"dolphinKind":"light","rawObjectClass":"LIGHTS","sourceProperties":{"RCID":1146767998,"PRIM":1,"GRUP":2,"OBJL":75,"RVER":1,"AGEN":7979,"FIDN":1146767998,"FIDS":1,"LNAM":"1F2B445A4A7E0001","COLOUR":["6"],"LITCHR":2,"SIGGRP":"(3)","SIGPER":10,"SCAMIN":200000,"sourceCellId":"1R75W7RI","sourceChecksum":"b5289e4746f79c059a05acf9633c75fd68168eb2e505e2085580524aa988dd00","rawObjectClass":"LIGHTS","sourceStableId":"1F2B445A4A7E0001"},"sourceKind":"official","official":true,"sourceCellId":"1R75W7RI","sourceStableId":"1F2B445A4A7E0001","pipelineFeatureId":"1R75W7RI/LIGHTS/1146767998","provenance":{"cellId":"1R75W7RI","checksum":"b5289e4746f79c059a05acf9633c75fd68168eb2e505e2085580524aa988dd00","readerVersion":"GDAL 3.2.2","processedAt":"2026-08-11T18:29:20.995Z"}}},{"type":"Feature","geometry":{"type":"Point","coordinates":[3.72827,51.3640217]},"properties":{"dolphinKind":"light","rawObjectClass":"LIGHTS","sourceProperties":{"RCID":1146768001,"PRIM":1,"GRUP":2,"OBJL":75,"RVER":1,"AGEN":7979,"FIDN":1146768001,"FIDS":1,"LNAM":"1F2B445A4A810001","COLOUR":["6"],"LITCHR":2,"SIGGRP":"(3)","SIGPER":10,"SCAMIN":200000,"sourceCellId":"1R75W7RI","sourceChecksum":"b5289e4746f79c059a05acf9633c75fd68168eb2e505e2085580524aa988dd00","rawObjectClass":"LIGHTS","sourceStableId":"1F2B445A4A810001"},"sourceKind":"official","official":true,"sourceCellId":"1R75W7RI","sourceStableId":"1F2B445A4A810001","pipelineFeatureId":"1R75W7RI/LIGHTS/1146768001","provenance":{"cellId":"1R75W7RI","checksum":"b5289e4746f79c059a05acf9633c75fd68168eb2e505e2085580524aa988dd00","readerVersion":"GDAL 3.2.2","processedAt":"2026-08-11T18:29:20.995Z"}}},{"type":"Feature","geometry":{"type":"Point","coordinates":[3.71515,51.3585833]},"properties":{"dolphinKind":"topmark","rawObjectClass":"TOPMAR","sourceProperties":{"RCID":27546641,"PRIM":1,"GRUP":2,"OBJL":144,"RVER":1,"AGEN":7979,"FIDN":27546641,"FIDS":1,"LNAM":"1F2B01A454110001","COLOUR":["4"],"TOPSHP":1,"SCAMIN":200000,"SORDAT":"20090327","SORIND":"NL,1R,reprt,Bass 026/09","sourceCellId":"1R75W7RI","sourceChecksum":"b5289e4746f79c059a05acf9633c75fd68168eb2e505e2085580524aa988dd00","rawObjectClass":"TOPMAR","sourceStableId":"1F2B01A454110001"},"sourceKind":"official","official":true,"sourceCellId":"1R75W7RI","sourceStableId":"1F2B01A454110001","pipelineFeatureId":"1R75W7RI/TOPMAR/27546641","provenance":{"cellId":"1R75W7RI","checksum":"b5289e4746f79c059a05acf9633c75fd68168eb2e505e2085580524aa988dd00","readerVersion":"GDAL 3.2.2","processedAt":"2026-08-11T18:29:20.995Z"},"associationRefsVerifiedInGdalOutput":false}},{"type":"Feature","geometry":{"type":"Point","coordinates":[3.729285,51.3625933]},"properties":{"dolphinKind":"topmark","rawObjectClass":"TOPMAR","sourceProperties":{"RCID":1146767995,"PRIM":1,"GRUP":2,"OBJL":144,"RVER":1,"AGEN":7979,"FIDN":1146767995,"FIDS":1,"LNAM":"1F2B445A4A7B0001","COLOUR":["6"],"TOPSHP":7,"SCAMIN":200000,"sourceCellId":"1R75W7RI","sourceChecksum":"b5289e4746f79c059a05acf9633c75fd68168eb2e505e2085580524aa988dd00","rawObjectClass":"TOPMAR","sourceStableId":"1F2B445A4A7B0001"},"sourceKind":"official","official":true,"sourceCellId":"1R75W7RI","sourceStableId":"1F2B445A4A7B0001","pipelineFeatureId":"1R75W7RI/TOPMAR/1146767995","provenance":{"cellId":"1R75W7RI","checksum":"b5289e4746f79c059a05acf9633c75fd68168eb2e505e2085580524aa988dd00","readerVersion":"GDAL 3.2.2","processedAt":"2026-08-11T18:29:20.995Z"},"associationRefsVerifiedInGdalOutput":false}},{"type":"Feature","geometry":{"type":"Point","coordinates":[3.7188983,51.359465]},"properties":{"dolphinKind":"topmark","rawObjectClass":"TOPMAR","sourceProperties":{"RCID":1146767997,"PRIM":1,"GRUP":2,"OBJL":144,"RVER":1,"AGEN":7979,"FIDN":1146767997,"FIDS":1,"LNAM":"1F2B445A4A7D0001","COLOUR":["6"],"TOPSHP":7,"SCAMIN":200000,"sourceCellId":"1R75W7RI","sourceChecksum":"b5289e4746f79c059a05acf9633c75fd68168eb2e505e2085580524aa988dd00","rawObjectClass":"TOPMAR","sourceStableId":"1F2B445A4A7D0001"},"sourceKind":"official","official":true,"sourceCellId":"1R75W7RI","sourceStableId":"1F2B445A4A7D0001","pipelineFeatureId":"1R75W7RI/TOPMAR/1146767997","provenance":{"cellId":"1R75W7RI","checksum":"b5289e4746f79c059a05acf9633c75fd68168eb2e505e2085580524aa988dd00","readerVersion":"GDAL 3.2.2","processedAt":"2026-08-11T18:29:20.995Z"},"associationRefsVerifiedInGdalOutput":false}},{"type":"Feature","geometry":{"type":"Point","coordinates":[3.72827,51.3640217]},"properties":{"dolphinKind":"topmark","rawObjectClass":"TOPMAR","sourceProperties":{"RCID":1146768000,"PRIM":1,"GRUP":2,"OBJL":144,"RVER":1,"AGEN":7979,"FIDN":1146768000,"FIDS":1,"LNAM":"1F2B445A4A800001","COLOUR":["6"],"TOPSHP":7,"SCAMIN":200000,"sourceCellId":"1R75W7RI","sourceChecksum":"b5289e4746f79c059a05acf9633c75fd68168eb2e505e2085580524aa988dd00","rawObjectClass":"TOPMAR","sourceStableId":"1F2B445A4A800001"},"sourceKind":"official","official":true,"sourceCellId":"1R75W7RI","sourceStableId":"1F2B445A4A800001","pipelineFeatureId":"1R75W7RI/TOPMAR/1146768000","provenance":{"cellId":"1R75W7RI","checksum":"b5289e4746f79c059a05acf9633c75fd68168eb2e505e2085580524aa988dd00","readerVersion":"GDAL 3.2.2","processedAt":"2026-08-11T18:29:20.995Z"},"associationRefsVerifiedInGdalOutput":false}},{"type":"Feature","geometry":{"type":"Point","coordinates":[3.71656,51.3600883]},"properties":{"dolphinKind":"topmark","rawObjectClass":"TOPMAR","sourceProperties":{"RCID":1146768004,"PRIM":1,"GRUP":2,"OBJL":144,"RVER":1,"AGEN":7979,"FIDN":1146768004,"FIDS":1,"LNAM":"1F2B445A4A840001","COLOUR":["6"],"TOPSHP":7,"SCAMIN":200000,"sourceCellId":"1R75W7RI","sourceChecksum":"b5289e4746f79c059a05acf9633c75fd68168eb2e505e2085580524aa988dd00","rawObjectClass":"TOPMAR","sourceStableId":"1F2B445A4A840001"},"sourceKind":"official","official":true,"sourceCellId":"1R75W7RI","sourceStableId":"1F2B445A4A840001","pipelineFeatureId":"1R75W7RI/TOPMAR/1146768004","provenance":{"cellId":"1R75W7RI","checksum":"b5289e4746f79c059a05acf9633c75fd68168eb2e505e2085580524aa988dd00","readerVersion":"GDAL 3.2.2","processedAt":"2026-08-11T18:29:20.995Z"},"associationRefsVerifiedInGdalOutput":false}}]}