{"type":"FeatureCollection","features":[{"type":"Feature","geometry":{"type":"Point","coordinates":[3.5444667,51.65755]},"properties":{"dolphinKind":"buoy-lateral","rawObjectClass":"BOYLAT","sourceProperties":{"RCID":17526,"PRIM":1,"GRUP":2,"OBJL":17,"RVER":1,"AGEN":7979,"FIDN":1106834684,"FIDS":332,"LNAM":"1F2B41F8F4FC014C","LNAM_REFS":["1F2B41F8F4FC014B","1F2B1EA97C3D0001"],"FFPT_RIND":[2,2],"BOYSHP":1,"CATLAM":2,"COLOUR":["4"],"CONRAD":3,"OBJNAM":"WG 9","SCAMIN":150000,"SORDAT":"20230510","SORIND":"NL,1R,reprt,MD 257-23","sourceCellId":"1R75W8RI","sourceChecksum":"a12af52c5db82a56c98d7d0e5b3caca868ff94978e2a341db3228266d1119537","rawObjectClass":"BOYLAT","sourceStableId":"1F2B41F8F4FC014C"},"sourceKind":"official","official":true,"sourceCellId":"1R75W8RI","sourceStableId":"1F2B41F8F4FC014C","pipelineFeatureId":"1R75W8RI/BOYLAT/17526","provenance":{"cellId":"1R75W8RI","checksum":"a12af52c5db82a56c98d7d0e5b3caca868ff94978e2a341db3228266d1119537","readerVersion":"GDAL 3.2.2","processedAt":"2026-08-11T13:43:44.753Z"}}},{"type":"Feature","geometry":{"type":"Point","coordinates":[3.5603217,51.6538017]},"properties":{"dolphinKind":"buoy-lateral","rawObjectClass":"BOYLAT","sourceProperties":{"RCID":17694,"PRIM":1,"GRUP":2,"OBJL":17,"RVER":1,"AGEN":7979,"FIDN":1106834684,"FIDS":500,"LNAM":"1F2B41F8F4FC01F4","BOYSHP":5,"CATLAM":2,"COLOUR":["4"],"CONRAD":3,"OBJNAM":"OR 1","SCAMIN":150000,"SORDAT":"20230510","SORIND":"NL,1R,reprt,MD 261-23","sourceCellId":"1R75W8RI","sourceChecksum":"a12af52c5db82a56c98d7d0e5b3caca868ff94978e2a341db3228266d1119537","rawObjectClass":"BOYLAT","sourceStableId":"1F2B41F8F4FC01F4"},"sourceKind":"official","official":true,"sourceCellId":"1R75W8RI","sourceStableId":"1F2B41F8F4FC01F4","pipelineFeatureId":"1R75W8RI/BOYLAT/17694","provenance":{"cellId":"1R75W8RI","checksum":"a12af52c5db82a56c98d7d0e5b3caca868ff94978e2a341db3228266d1119537","readerVersion":"GDAL 3.2.2","processedAt":"2026-08-11T13:43:44.753Z"}}},{"type":"Feature","geometry":{"type":"Point","coordinates":[3.5903183,51.6485967]},"properties":{"dolphinKind":"buoy-lateral","rawObjectClass":"BOYLAT","sourceProperties":{"RCID":17696,"PRIM":1,"GRUP":2,"OBJL":17,"RVER":1,"AGEN":7979,"FIDN":1106834684,"FIDS":502,"LNAM":"1F2B41F8F4FC01F6","LNAM_REFS":["1F2B41F8F4FC01F7","1F2B43BDDFA70001"],"FFPT_RIND":[2,2],"BOYSHP":1,"CATLAM":2,"COLOUR":["4"],"CONRAD":3,"OBJNAM":"OR 3","SCAMIN":150000,"SORDAT":"20260625","SORIND":"NL,1R,reprt,MD 305-26","sourceCellId":"1R75W8RI","sourceChecksum":"a12af52c5db82a56c98d7d0e5b3caca868ff94978e2a341db3228266d1119537","rawObjectClass":"BOYLAT","sourceStableId":"1F2B41F8F4FC01F6"},"sourceKind":"official","official":true,"sourceCellId":"1R75W8RI","sourceStableId":"1F2B41F8F4FC01F6","pipelineFeatureId":"1R75W8RI/BOYLAT/17696","provenance":{"cellId":"1R75W8RI","checksum":"a12af52c5db82a56c98d7d0e5b3caca868ff94978e2a341db3228266d1119537","readerVersion":"GDAL 3.2.2","processedAt":"2026-08-11T13:43:44.753Z"}}},{"type":"Feature","geometry":{"type":"Point","coordinates":[3.6056183,51.63845]},"properties":{"dolphinKind":"buoy-lateral","rawObjectClass":"BOYLAT","sourceProperties":{"RCID":17698,"PRIM":1,"GRUP":2,"OBJL":17,"RVER":1,"AGEN":7979,"FIDN":1106834684,"FIDS":504,"LNAM":"1F2B41F8F4FC01F8","BOYSHP":5,"CATLAM":2,"COLOUR":["4"],"CONRAD":3,"OBJNAM":"OR 5","SCAMIN":150000,"SORDAT":"20230510","SORIND":"NL,1R,reprt,MD 261-23","sourceCellId":"1R75W8RI","sourceChecksum":"a12af52c5db82a56c98d7d0e5b3caca868ff94978e2a341db3228266d1119537","rawObjectClass":"BOYLAT","sourceStableId":"1F2B41F8F4FC01F8"},"sourceKind":"official","official":true,"sourceCellId":"1R75W8RI","sourceStableId":"1F2B41F8F4FC01F8","pipelineFeatureId":"1R75W8RI/BOYLAT/17698","provenance":{"cellId":"1R75W8RI","checksum":"a12af52c5db82a56c98d7d0e5b3caca868ff94978e2a341db3228266d1119537","readerVersion":"GDAL 3.2.2","processedAt":"2026-08-11T13:43:44.753Z"}}},{"type":"Feature","geometry":{"type":"Point","coordinates":[3.6245017,51.626915]},"properties":{"dolphinKind":"buoy-lateral","rawObjectClass":"BOYLAT","sourceProperties":{"RCID":17699,"PRIM":1,"GRUP":2,"OBJL":17,"RVER":1,"AGEN":7979,"FIDN":1106834684,"FIDS":505,"LNAM":"1F2B41F8F4FC01F9","BOYSHP":5,"CATLAM":2,"COLOUR":["4"],"CONRAD":3,"OBJNAM":"OR 7","SCAMIN":150000,"SORDAT":"20230510","SORIND":"NL,1R,reprt,MD 261-23","sourceCellId":"1R75W8RI","sourceChecksum":"a12af52c5db82a56c98d7d0e5b3caca868ff94978e2a341db3228266d1119537","rawObjectClass":"BOYLAT","sourceStableId":"1F2B41F8F4FC01F9"},"sourceKind":"official","official":true,"sourceCellId":"1R75W8RI","sourceStableId":"1F2B41F8F4FC01F9","pipelineFeatureId":"1R75W8RI/BOYLAT/17699","provenance":{"cellId":"1R75W8RI","checksum":"a12af52c5db82a56c98d7d0e5b3caca868ff94978e2a341db3228266d1119537","readerVersion":"GDAL 3.2.2","processedAt":"2026-08-11T13:43:44.753Z"}}},{"type":"Feature","geometry":{"type":"Point","coordinates":[3.563155,51.6599483]},"properties":{"dolphinKind":"buoy-lateral","rawObjectClass":"BOYLAT","sourceProperties":{"RCID":17702,"PRIM":1,"GRUP":2,"OBJL":17,"RVER":1,"AGEN":7979,"FIDN":1106834684,"FIDS":508,"LNAM":"1F2B41F8F4FC01FC","LNAM_REFS":["1F2B43BDDFA80001","1F2B43BDDFA90001"],"FFPT_RIND":[2,2],"BOYSHP":2,"CATLAM":1,"COLOUR":["3"],"CONRAD":3,"OBJNAM":"OR 2","SCAMIN":150000,"SORDAT":"20230510","SORIND":"NL,1R,reprt,MD 261-23","sourceCellId":"1R75W8RI","sourceChecksum":"a12af52c5db82a56c98d7d0e5b3caca868ff94978e2a341db3228266d1119537","rawObjectClass":"BOYLAT","sourceStableId":"1F2B41F8F4FC01FC"},"sourceKind":"official","official":true,"sourceCellId":"1R75W8RI","sourceStableId":"1F2B41F8F4FC01FC","pipelineFeatureId":"1R75W8RI/BOYLAT/17702","provenance":{"cellId":"1R75W8RI","checksum":"a12af52c5db82a56c98d7d0e5b3caca868ff94978e2a341db3228266d1119537","readerVersion":"GDAL 3.2.2","processedAt":"2026-08-11T13:43:44.753Z"}}},{"type":"Feature","geometry":{"type":"Point","coordinates":[3.5918433,51.6535183]},"properties":{"dolphinKind":"buoy-lateral","rawObjectClass":"BOYLAT","sourceProperties":{"RCID":17703,"PRIM":1,"GRUP":2,"OBJL":17,"RVER":1,"AGEN":7979,"FIDN":1106834684,"FIDS":509,"LNAM":"1F2B41F8F4FC01FD","LNAM_REFS":["1F2B43BDDFAA0001"],"FFPT_RIND":[2],"BOYSHP":5,"CATLAM":1,"COLOUR":["3"],"CONRAD":3,"OBJNAM":"OR 4","SCAMIN":150000,"SORDAT":"20230510","SORIND":"NL,1R,reprt,MD 261-23","sourceCellId":"1R75W8RI","sourceChecksum":"a12af52c5db82a56c98d7d0e5b3caca868ff94978e2a341db3228266d1119537","rawObjectClass":"BOYLAT","sourceStableId":"1F2B41F8F4FC01FD"},"sourceKind":"official","official":true,"sourceCellId":"1R75W8RI","sourceStableId":"1F2B41F8F4FC01FD","pipelineFeatureId":"1R75W8RI/BOYLAT/17703","provenance":{"cellId":"1R75W8RI","checksum":"a12af52c5db82a56c98d7d0e5b3caca868ff94978e2a341db3228266d1119537","readerVersion":"GDAL 3.2.2","processedAt":"2026-08-11T13:43:44.753Z"}}},{"type":"Feature","geometry":{"type":"Point","coordinates":[3.6126133,51.6429767]},"properties":{"dolphinKind":"buoy-lateral","rawObjectClass":"BOYLAT","sourceProperties":{"RCID":17706,"PRIM":1,"GRUP":2,"OBJL":17,"RVER":1,"AGEN":7979,"FIDN":1106834685,"FIDS":257,"LNAM":"1F2B41F8F4FD0101","LNAM_REFS":["1F2B41F8F4FD0102"],"FFPT_RIND":[2],"BOYSHP":2,"CATLAM":1,"COLOUR":["3"],"CONRAD":3,"OBJNAM":"OR 6","SCAMIN":150000,"SORDAT":"20230510","SORIND":"NL,1R,reprt,MD 261-23","sourceCellId":"1R75W8RI","sourceChecksum":"a12af52c5db82a56c98d7d0e5b3caca868ff94978e2a341db3228266d1119537","rawObjectClass":"BOYLAT","sourceStableId":"1F2B41F8F4FD0101"},"sourceKind":"official","official":true,"sourceCellId":"1R75W8RI","sourceStableId":"1F2B41F8F4FD0101","pipelineFeatureId":"1R75W8RI/BOYLAT/17706","provenance":{"cellId":"1R75W8RI","checksum":"a12af52c5db82a56c98d7d0e5b3caca868ff94978e2a341db3228266d1119537","readerVersion":"GDAL 3.2.2","processedAt":"2026-08-11T13:43:44.753Z"}}},{"type":"Feature","geometry":{"type":"Point","coordinates":[3.6338533,51.6320833]},"properties":{"dolphinKind":"buoy-lateral","rawObjectClass":"BOYLAT","sourceProperties":{"RCID":17708,"PRIM":1,"GRUP":2,"OBJL":17,"RVER":1,"AGEN":7979,"FIDN":1106834685,"FIDS":259,"LNAM":"1F2B41F8F4FD0103","BOYSHP":5,"CATLAM":1,"COLOUR":["3"],"CONRAD":3,"OBJNAM":"OR 8","SCAMIN":150000,"SORDAT":"20230510","SORIND":"NL,1R,reprt,MD 261-23","sourceCellId":"1R75W8RI","sourceChecksum":"a12af52c5db82a56c98d7d0e5b3caca868ff94978e2a341db3228266d1119537","rawObjectClass":"BOYLAT","sourceStableId":"1F2B41F8F4FD0103"},"sourceKind":"official","official":true,"sourceCellId":"1R75W8RI","sourceStableId":"1F2B41F8F4FD0103","pipelineFeatureId":"1R75W8RI/BOYLAT/17708","provenance":{"cellId":"1R75W8RI","checksum":"a12af52c5db82a56c98d7d0e5b3caca868ff94978e2a341db3228266d1119537","readerVersion":"GDAL 3.2.2","processedAt":"2026-08-11T13:43:44.753Z"}}},{"type":"Feature","geometry":{"type":"Point","coordinates":[3.6448333,51.6747]},"properties":{"dolphinKind":"buoy-special","rawObjectClass":"BOYSPP","sourceProperties":{"RCID":17532,"PRIM":1,"GRUP":2,"OBJL":19,"RVER":1,"AGEN":7979,"FIDN":1106834684,"FIDS":338,"LNAM":"1F2B41F8F4FC0152","BOYSHP":5,"CATSPM":["27"],"COLOUR":["6"],"CONRAD":3,"OBJNAM":"H-S","SCAMIN":200000,"SORDAT":"20030930","sourceCellId":"1R75W8RI","sourceChecksum":"a12af52c5db82a56c98d7d0e5b3caca868ff94978e2a341db3228266d1119537","rawObjectClass":"BOYSPP","sourceStableId":"1F2B41F8F4FC0152"},"sourceKind":"official","official":true,"sourceCellId":"1R75W8RI","sourceStableId":"1F2B41F8F4FC0152","pipelineFeatureId":"1R75W8RI/BOYSPP/17532","provenance":{"cellId":"1R75W8RI","checksum":"a12af52c5db82a56c98d7d0e5b3caca868ff94978e2a341db3228266d1119537","readerVersion":"GDAL 3.2.2","processedAt":"2026-08-11T13:43:44.753Z"}}},{"type":"Feature","geometry":{"type":"Point","coordinates":[3.689935,51.648025]},"properties":{"dolphinKind":"buoy-special","rawObjectClass":"BOYSPP","sourceProperties":{"RCID":17742,"PRIM":1,"GRUP":2,"OBJL":19,"RVER":1,"AGEN":7979,"FIDN":1106834685,"FIDS":293,"LNAM":"1F2B41F8F4FD0125","LNAM_REFS":["1F2B41F8F4FD0124"],"FFPT_RIND":[2],"BOYSHP":5,"CATSPM":["50"],"COLOUR":["6"],"CONRAD":3,"OBJNAM":"Dam W 13","SCAMIN":200000,"SORDAT":"20230419","SORIND":"NL,1R,reprt,MD 227-23","sourceCellId":"1R75W8RI","sourceChecksum":"a12af52c5db82a56c98d7d0e5b3caca868ff94978e2a341db3228266d1119537","rawObjectClass":"BOYSPP","sourceStableId":"1F2B41F8F4FD0125"},"sourceKind":"official","official":true,"sourceCellId":"1R75W8RI","sourceStableId":"1F2B41F8F4FD0125","pipelineFeatureId":"1R75W8RI/BOYSPP/17742","provenance":{"cellId":"1R75W8RI","checksum":"a12af52c5db82a56c98d7d0e5b3caca868ff94978e2a341db3228266d1119537","readerVersion":"GDAL 3.2.2","processedAt":"2026-08-11T13:43:44.753Z"}}},{"type":"Feature","geometry":{"type":"Point","coordinates":[3.6889667,51.6513833]},"properties":{"dolphinKind":"buoy-special","rawObjectClass":"BOYSPP","sourceProperties":{"RCID":17744,"PRIM":1,"GRUP":2,"OBJL":19,"RVER":1,"AGEN":7979,"FIDN":1106834685,"FIDS":295,"LNAM":"1F2B41F8F4FD0127","LNAM_REFS":["1F2B41F8F4FD0126"],"FFPT_RIND":[2],"BOYSHP":5,"CATSPM":["50"],"COLOUR":["6"],"CONRAD":3,"OBJNAM":"Dam W 15","SCAMIN":200000,"SORDAT":"20041101","sourceCellId":"1R75W8RI","sourceChecksum":"a12af52c5db82a56c98d7d0e5b3caca868ff94978e2a341db3228266d1119537","rawObjectClass":"BOYSPP","sourceStableId":"1F2B41F8F4FD0127"},"sourceKind":"official","official":true,"sourceCellId":"1R75W8RI","sourceStableId":"1F2B41F8F4FD0127","pipelineFeatureId":"1R75W8RI/BOYSPP/17744","provenance":{"cellId":"1R75W8RI","checksum":"a12af52c5db82a56c98d7d0e5b3caca868ff94978e2a341db3228266d1119537","readerVersion":"GDAL 3.2.2","processedAt":"2026-08-11T13:43:44.753Z"}}},{"type":"Feature","geometry":{"type":"Point","coordinates":[3.6896834,51.6550667]},"properties":{"dolphinKind":"buoy-special","rawObjectClass":"BOYSPP","sourceProperties":{"RCID":17746,"PRIM":1,"GRUP":2,"OBJL":19,"RVER":1,"AGEN":7979,"FIDN":1106834685,"FIDS":297,"LNAM":"1F2B41F8F4FD0129","LNAM_REFS":["1F2B41F8F4FD0128"],"FFPT_RIND":[2],"BOYSHP":5,"CATSPM":["50"],"COLOUR":["6"],"CONRAD":3,"OBJNAM":"Dam W 17","SCAMIN":200000,"SORDAT":"20041101","sourceCellId":"1R75W8RI","sourceChecksum":"a12af52c5db82a56c98d7d0e5b3caca868ff94978e2a341db3228266d1119537","rawObjectClass":"BOYSPP","sourceStableId":"1F2B41F8F4FD0129"},"sourceKind":"official","official":true,"sourceCellId":"1R75W8RI","sourceStableId":"1F2B41F8F4FD0129","pipelineFeatureId":"1R75W8RI/BOYSPP/17746","provenance":{"cellId":"1R75W8RI","checksum":"a12af52c5db82a56c98d7d0e5b3caca868ff94978e2a341db3228266d1119537","readerVersion":"GDAL 3.2.2","processedAt":"2026-08-11T13:43:44.753Z"}}},{"type":"Feature","geometry":{"type":"Point","coordinates":[3.694,51.6615]},"properties":{"dolphinKind":"buoy-special","rawObjectClass":"BOYSPP","sourceProperties":{"RCID":17748,"PRIM":1,"GRUP":2,"OBJL":19,"RVER":1,"AGEN":7979,"FIDN":1106834685,"FIDS":299,"LNAM":"1F2B41F8F4FD012B","LNAM_REFS":["1F2B41F8F4FD012A"],"FFPT_RIND":[2],"BOYSHP":5,"CATSPM":["50"],"COLOUR":["6"],"CONRAD":3,"OBJNAM":"Dam W 19","SCAMIN":200000,"SORDAT":"20041101","sourceCellId":"1R75W8RI","sourceChecksum":"a12af52c5db82a56c98d7d0e5b3caca868ff94978e2a341db3228266d1119537","rawObjectClass":"BOYSPP","sourceStableId":"1F2B41F8F4FD012B"},"sourceKind":"official","official":true,"sourceCellId":"1R75W8RI","sourceStableId":"1F2B41F8F4FD012B","pipelineFeatureId":"1R75W8RI/BOYSPP/17748","provenance":{"cellId":"1R75W8RI","checksum":"a12af52c5db82a56c98d7d0e5b3caca868ff94978e2a341db3228266d1119537","readerVersion":"GDAL 3.2.2","processedAt":"2026-08-11T13:43:44.753Z"}}},{"type":"Feature","geometry":{"type":"Point","coordinates":[3.7005667,51.6658333]},"properties":{"dolphinKind":"buoy-special","rawObjectClass":"BOYSPP","sourceProperties":{"RCID":25462,"PRIM":1,"GRUP":2,"OBJL":19,"RVER":1,"AGEN":7979,"FIDN":1111666998,"FIDS":258,"LNAM":"1F2B4242B1360102","LNAM_REFS":["1F2B4242B1360101"],"FFPT_RIND":[2],"BOYSHP":5,"CATSPM":["50"],"COLOUR":["6"],"CONRAD":3,"OBJNAM":"Dam W 21","SCAMIN":200000,"SORDAT":"20041101","sourceCellId":"1R75W8RI","sourceChecksum":"a12af52c5db82a56c98d7d0e5b3caca868ff94978e2a341db3228266d1119537","rawObjectClass":"BOYSPP","sourceStableId":"1F2B4242B1360102"},"sourceKind":"official","official":true,"sourceCellId":"1R75W8RI","sourceStableId":"1F2B4242B1360102","pipelineFeatureId":"1R75W8RI/BOYSPP/25462","provenance":{"cellId":"1R75W8RI","checksum":"a12af52c5db82a56c98d7d0e5b3caca868ff94978e2a341db3228266d1119537","readerVersion":"GDAL 3.2.2","processedAt":"2026-08-11T13:43:44.753Z"}}},{"type":"Feature","geometry":{"type":"Point","coordinates":[3.732825,51.6666778]},"properties":{"dolphinKind":"buoy-special","rawObjectClass":"BOYSPP","sourceProperties":{"RCID":190739910,"PRIM":1,"GRUP":2,"OBJL":19,"RVER":1,"AGEN":7979,"FIDN":190739910,"FIDS":1,"LNAM":"1F2B0B5E75C60001","BOYSHP":2,"CATSPM":["27"],"COLOUR":["6"],"CONRAD":3,"OBJNAM":"H 12V","INFORM":"VMD","SCAMIN":200000,"SORDAT":"20160601","sourceCellId":"1R75W8RI","sourceChecksum":"a12af52c5db82a56c98d7d0e5b3caca868ff94978e2a341db3228266d1119537","rawObjectClass":"BOYSPP","sourceStableId":"1F2B0B5E75C60001"},"sourceKind":"official","official":true,"sourceCellId":"1R75W8RI","sourceStableId":"1F2B0B5E75C60001","pipelineFeatureId":"1R75W8RI/BOYSPP/190739910","provenance":{"cellId":"1R75W8RI","checksum":"a12af52c5db82a56c98d7d0e5b3caca868ff94978e2a341db3228266d1119537","readerVersion":"GDAL 3.2.2","processedAt":"2026-08-11T13:43:44.753Z"}}},{"type":"Feature","geometry":{"type":"Point","coordinates":[3.7316167,51.6670833]},"properties":{"dolphinKind":"buoy-special","rawObjectClass":"BOYSPP","sourceProperties":{"RCID":190739916,"PRIM":1,"GRUP":2,"OBJL":19,"RVER":1,"AGEN":7979,"FIDN":190739916,"FIDS":1,"LNAM":"1F2B0B5E75CC0001","BOYSHP":2,"CATSPM":["50"],"COLOUR":["6"],"OBJNAM":"H 12AN1","INFORM":"Life raft","NINFOM":"Reddingsvlot","SCAMIN":200000,"SORDAT":"20221022","SORIND":"NL,1R,reprt,MD 518-22","sourceCellId":"1R75W8RI","sourceChecksum":"a12af52c5db82a56c98d7d0e5b3caca868ff94978e2a341db3228266d1119537","rawObjectClass":"BOYSPP","sourceStableId":"1F2B0B5E75CC0001"},"sourceKind":"official","official":true,"sourceCellId":"1R75W8RI","sourceStableId":"1F2B0B5E75CC0001","pipelineFeatureId":"1R75W8RI/BOYSPP/190739916","provenance":{"cellId":"1R75W8RI","checksum":"a12af52c5db82a56c98d7d0e5b3caca868ff94978e2a341db3228266d1119537","readerVersion":"GDAL 3.2.2","processedAt":"2026-08-11T13:43:44.753Z"}}},{"type":"Feature","geometry":{"type":"Point","coordinates":[3.732885,51.6554433]},"properties":{"dolphinKind":"buoy-special","rawObjectClass":"BOYSPP","sourceProperties":{"RCID":190739918,"PRIM":1,"GRUP":2,"OBJL":19,"RVER":1,"AGEN":7979,"FIDN":190739918,"FIDS":1,"LNAM":"1F2B0B5E75CE0001","BOYSHP":2,"CATSPM":["27"],"COLOUR":["6"],"CONRAD":3,"DATEND":"20250110","OBJNAM":"H 2Z","INFORM":"VMD","SCAMIN":200000,"SORDAT":"20230929","SORIND":"NL,1R,Reprt,MD451-23","sourceCellId":"1R75W8RI","sourceChecksum":"a12af52c5db82a56c98d7d0e5b3caca868ff94978e2a341db3228266d1119537","rawObjectClass":"BOYSPP","sourceStableId":"1F2B0B5E75CE0001"},"sourceKind":"official","official":true,"sourceCellId":"1R75W8RI","sourceStableId":"1F2B0B5E75CE0001","pipelineFeatureId":"1R75W8RI/BOYSPP/190739918","provenance":{"cellId":"1R75W8RI","checksum":"a12af52c5db82a56c98d7d0e5b3caca868ff94978e2a341db3228266d1119537","readerVersion":"GDAL 3.2.2","processedAt":"2026-08-11T13:43:44.753Z"}}},{"type":"Feature","geometry":{"type":"Point","coordinates":[3.7293194,51.6686194]},"properties":{"dolphinKind":"buoy-special","rawObjectClass":"BOYSPP","sourceProperties":{"RCID":190739920,"PRIM":1,"GRUP":2,"OBJL":19,"RVER":1,"AGEN":7979,"FIDN":190739920,"FIDS":1,"LNAM":"1F2B0B5E75D00001","BOYSHP":2,"CATSPM":["27"],"COLOUR":["6"],"CONRAD":3,"OBJNAM":"H 12ANNN","INFORM":"VMD","SCAMIN":200000,"SORDAT":"20160601","sourceCellId":"1R75W8RI","sourceChecksum":"a12af52c5db82a56c98d7d0e5b3caca868ff94978e2a341db3228266d1119537","rawObjectClass":"BOYSPP","sourceStableId":"1F2B0B5E75D00001"},"sourceKind":"official","official":true,"sourceCellId":"1R75W8RI","sourceStableId":"1F2B0B5E75D00001","pipelineFeatureId":"1R75W8RI/BOYSPP/190739920","provenance":{"cellId":"1R75W8RI","checksum":"a12af52c5db82a56c98d7d0e5b3caca868ff94978e2a341db3228266d1119537","readerVersion":"GDAL 3.2.2","processedAt":"2026-08-11T13:43:44.753Z"}}},{"type":"Feature","geometry":{"type":"Point","coordinates":[3.7304944,51.6680028]},"properties":{"dolphinKind":"buoy-special","rawObjectClass":"BOYSPP","sourceProperties":{"RCID":190739921,"PRIM":1,"GRUP":2,"OBJL":19,"RVER":1,"AGEN":7979,"FIDN":190739921,"FIDS":1,"LNAM":"1F2B0B5E75D10001","BOYSHP":2,"CATSPM":["27"],"COLOUR":["6"],"CONRAD":3,"OBJNAM":"H 12ANN","INFORM":"VMD","SCAMIN":200000,"SORDAT":"20160601","sourceCellId":"1R75W8RI","sourceChecksum":"a12af52c5db82a56c98d7d0e5b3caca868ff94978e2a341db3228266d1119537","rawObjectClass":"BOYSPP","sourceStableId":"1F2B0B5E75D10001"},"sourceKind":"official","official":true,"sourceCellId":"1R75W8RI","sourceStableId":"1F2B0B5E75D10001","pipelineFeatureId":"1R75W8RI/BOYSPP/190739921","provenance":{"cellId":"1R75W8RI","checksum":"a12af52c5db82a56c98d7d0e5b3caca868ff94978e2a341db3228266d1119537","readerVersion":"GDAL 3.2.2","processedAt":"2026-08-11T13:43:44.753Z"}}},{"type":"Feature","geometry":{"type":"Point","coordinates":[3.731725,51.6673194]},"properties":{"dolphinKind":"buoy-special","rawObjectClass":"BOYSPP","sourceProperties":{"RCID":190739922,"PRIM":1,"GRUP":2,"OBJL":19,"RVER":1,"AGEN":7979,"FIDN":190739922,"FIDS":1,"LNAM":"1F2B0B5E75D20001","BOYSHP":2,"CATSPM":["27"],"COLOUR":["6"],"CONRAD":3,"OBJNAM":"H 12AN","INFORM":"VMD","SCAMIN":200000,"SORDAT":"20160601","sourceCellId":"1R75W8RI","sourceChecksum":"a12af52c5db82a56c98d7d0e5b3caca868ff94978e2a341db3228266d1119537","rawObjectClass":"BOYSPP","sourceStableId":"1F2B0B5E75D20001"},"sourceKind":"official","official":true,"sourceCellId":"1R75W8RI","sourceStableId":"1F2B0B5E75D20001","pipelineFeatureId":"1R75W8RI/BOYSPP/190739922","provenance":{"cellId":"1R75W8RI","checksum":"a12af52c5db82a56c98d7d0e5b3caca868ff94978e2a341db3228266d1119537","readerVersion":"GDAL 3.2.2","processedAt":"2026-08-11T13:43:44.753Z"}}},{"type":"Feature","geometry":{"type":"Point","coordinates":[3.73228,51.6546633]},"properties":{"dolphinKind":"buoy-special","rawObjectClass":"BOYSPP","sourceProperties":{"RCID":190739923,"PRIM":1,"GRUP":2,"OBJL":19,"RVER":1,"AGEN":7979,"FIDN":190739923,"FIDS":1,"LNAM":"1F2B0B5E75D30001","BOYSHP":2,"CATSPM":["27"],"COLOUR":["6"],"CONRAD":3,"DATEND":"20250110","OBJNAM":"H 2ZZ","INFORM":"VMD","SCAMIN":200000,"SORDAT":"20230929","SORIND":"NL,1R,Reprt,MD451-23","sourceCellId":"1R75W8RI","sourceChecksum":"a12af52c5db82a56c98d7d0e5b3caca868ff94978e2a341db3228266d1119537","rawObjectClass":"BOYSPP","sourceStableId":"1F2B0B5E75D30001"},"sourceKind":"official","official":true,"sourceCellId":"1R75W8RI","sourceStableId":"1F2B0B5E75D30001","pipelineFeatureId":"1R75W8RI/BOYSPP/190739923","provenance":{"cellId":"1R75W8RI","checksum":"a12af52c5db82a56c98d7d0e5b3caca868ff94978e2a341db3228266d1119537","readerVersion":"GDAL 3.2.2","processedAt":"2026-08-11T13:43:44.753Z"}}},{"type":"Feature","geometry":{"type":"Point","coordinates":[3.7318683,51.650175]},"properties":{"dolphinKind":"buoy-special","rawObjectClass":"BOYSPP","sourceProperties":{"RCID":190739979,"PRIM":1,"GRUP":2,"OBJL":19,"RVER":1,"AGEN":7979,"FIDN":190739979,"FIDS":1,"LNAM":"1F2B0B5E760B0001","BOYSHP":2,"CATSPM":["27"],"COLOUR":["6"],"CONRAD":3,"OBJNAM":"S 10NN","INFORM":"VMD","SCAMIN":200000,"SORDAT":"20220103","SORIND":"NL,1R,reprt,MD 014-22 Correctie","sourceCellId":"1R75W8RI","sourceChecksum":"a12af52c5db82a56c98d7d0e5b3caca868ff94978e2a341db3228266d1119537","rawObjectClass":"BOYSPP","sourceStableId":"1F2B0B5E760B0001"},"sourceKind":"official","official":true,"sourceCellId":"1R75W8RI","sourceStableId":"1F2B0B5E760B0001","pipelineFeatureId":"1R75W8RI/BOYSPP/190739979","provenance":{"cellId":"1R75W8RI","checksum":"a12af52c5db82a56c98d7d0e5b3caca868ff94978e2a341db3228266d1119537","readerVersion":"GDAL 3.2.2","processedAt":"2026-08-11T13:43:44.753Z"}}},{"type":"Feature","geometry":{"type":"Point","coordinates":[3.7224306,51.6400361]},"properties":{"dolphinKind":"buoy-special","rawObjectClass":"BOYSPP","sourceProperties":{"RCID":190739982,"PRIM":1,"GRUP":2,"OBJL":19,"RVER":1,"AGEN":7979,"FIDN":190739982,"FIDS":1,"LNAM":"1F2B0B5E760E0001","BOYSHP":2,"CATSPM":["27"],"COLOUR":["6"],"OBJNAM":"S 2BV","INFORM":"VMD","SCAMIN":200000,"SORDAT":"20160601","sourceCellId":"1R75W8RI","sourceChecksum":"a12af52c5db82a56c98d7d0e5b3caca868ff94978e2a341db3228266d1119537","rawObjectClass":"BOYSPP","sourceStableId":"1F2B0B5E760E0001"},"sourceKind":"official","official":true,"sourceCellId":"1R75W8RI","sourceStableId":"1F2B0B5E760E0001","pipelineFeatureId":"1R75W8RI/BOYSPP/190739982","provenance":{"cellId":"1R75W8RI","checksum":"a12af52c5db82a56c98d7d0e5b3caca868ff94978e2a341db3228266d1119537","readerVersion":"GDAL 3.2.2","processedAt":"2026-08-11T13:43:44.753Z"}}},{"type":"Feature","geometry":{"type":"Point","coordinates":[3.7321467,51.6422667]},"properties":{"dolphinKind":"buoy-special","rawObjectClass":"BOYSPP","sourceProperties":{"RCID":190739983,"PRIM":1,"GRUP":2,"OBJL":19,"RVER":1,"AGEN":7979,"FIDN":190739983,"FIDS":1,"LNAM":"1F2B0B5E760F0001","BOYSHP":2,"CATSPM":["27"],"COLOUR":["6"],"OBJNAM":"S 6Z","INFORM":"VMD","SCAMIN":200000,"SORDAT":"20220103","SORIND":"NL,1R,reprt,MD 014-22 Correctie","sourceCellId":"1R75W8RI","sourceChecksum":"a12af52c5db82a56c98d7d0e5b3caca868ff94978e2a341db3228266d1119537","rawObjectClass":"BOYSPP","sourceStableId":"1F2B0B5E760F0001"},"sourceKind":"official","official":true,"sourceCellId":"1R75W8RI","sourceStableId":"1F2B0B5E760F0001","pipelineFeatureId":"1R75W8RI/BOYSPP/190739983","provenance":{"cellId":"1R75W8RI","checksum":"a12af52c5db82a56c98d7d0e5b3caca868ff94978e2a341db3228266d1119537","readerVersion":"GDAL 3.2.2","processedAt":"2026-08-11T13:43:44.753Z"}}},{"type":"Feature","geometry":{"type":"Point","coordinates":[3.7236933,51.6422917]},"properties":{"dolphinKind":"buoy-special","rawObjectClass":"BOYSPP","sourceProperties":{"RCID":190740050,"PRIM":1,"GRUP":2,"OBJL":19,"RVER":1,"AGEN":7979,"FIDN":190740050,"FIDS":1,"LNAM":"1F2B0B5E76520001","BOYSHP":2,"CATSPM":["27"],"COLOUR":["6"],"OBJNAM":"S 2N","INFORM":"VMD","SCAMIN":200000,"SORDAT":"20220103","SORIND":"NL,1R,reprt,MD 014-22 Correctie","sourceCellId":"1R75W8RI","sourceChecksum":"a12af52c5db82a56c98d7d0e5b3caca868ff94978e2a341db3228266d1119537","rawObjectClass":"BOYSPP","sourceStableId":"1F2B0B5E76520001"},"sourceKind":"official","official":true,"sourceCellId":"1R75W8RI","sourceStableId":"1F2B0B5E76520001","pipelineFeatureId":"1R75W8RI/BOYSPP/190740050","provenance":{"cellId":"1R75W8RI","checksum":"a12af52c5db82a56c98d7d0e5b3caca868ff94978e2a341db3228266d1119537","readerVersion":"GDAL 3.2.2","processedAt":"2026-08-11T13:43:44.753Z"}}},{"type":"Feature","geometry":{"type":"Point","coordinates":[3.7327767,51.64301]},"properties":{"dolphinKind":"buoy-special","rawObjectClass":"BOYSPP","sourceProperties":{"RCID":190741050,"PRIM":1,"GRUP":2,"OBJL":19,"RVER":1,"AGEN":7979,"FIDN":190741050,"FIDS":1,"LNAM":"1F2B0B5E7A3A0001","BOYSHP":2,"CATSPM":["27"],"COLOUR":["6"],"OBJNAM":"S 6V","INFORM":"VMD","SCAMIN":200000,"SORDAT":"20220103","SORIND":"NL,1R,reprt,MD 014-22","sourceCellId":"1R75W8RI","sourceChecksum":"a12af52c5db82a56c98d7d0e5b3caca868ff94978e2a341db3228266d1119537","rawObjectClass":"BOYSPP","sourceStableId":"1F2B0B5E7A3A0001"},"sourceKind":"official","official":true,"sourceCellId":"1R75W8RI","sourceStableId":"1F2B0B5E7A3A0001","pipelineFeatureId":"1R75W8RI/BOYSPP/190741050","provenance":{"cellId":"1R75W8RI","checksum":"a12af52c5db82a56c98d7d0e5b3caca868ff94978e2a341db3228266d1119537","readerVersion":"GDAL 3.2.2","processedAt":"2026-08-11T13:43:44.753Z"}}},{"type":"Feature","geometry":{"type":"Point","coordinates":[3.7231283,51.64115]},"properties":{"dolphinKind":"buoy-special","rawObjectClass":"BOYSPP","sourceProperties":{"RCID":190741251,"PRIM":1,"GRUP":2,"OBJL":19,"RVER":1,"AGEN":7979,"FIDN":190741251,"FIDS":1,"LNAM":"1F2B0B5E7B030001","BOYSHP":2,"CATSPM":["27"],"COLOUR":["6"],"OBJNAM":"S 2AZ","INFORM":"VMD","SCAMIN":200000,"SORDAT":"20220103","SORIND":"NL,1R,reprt,MD 014-22 Correctie","sourceCellId":"1R75W8RI","sourceChecksum":"a12af52c5db82a56c98d7d0e5b3caca868ff94978e2a341db3228266d1119537","rawObjectClass":"BOYSPP","sourceStableId":"1F2B0B5E7B030001"},"sourceKind":"official","official":true,"sourceCellId":"1R75W8RI","sourceStableId":"1F2B0B5E7B030001","pipelineFeatureId":"1R75W8RI/BOYSPP/190741251","provenance":{"cellId":"1R75W8RI","checksum":"a12af52c5db82a56c98d7d0e5b3caca868ff94978e2a341db3228266d1119537","readerVersion":"GDAL 3.2.2","processedAt":"2026-08-11T13:43:44.753Z"}}},{"type":"Feature","geometry":{"type":"Point","coordinates":[3.7241017,51.6434567]},"properties":{"dolphinKind":"buoy-special","rawObjectClass":"BOYSPP","sourceProperties":{"RCID":190791302,"PRIM":1,"GRUP":2,"OBJL":19,"RVER":1,"AGEN":7979,"FIDN":190791302,"FIDS":1,"LNAM":"1F2B0B5F3E860001","BOYSHP":2,"CATSPM":["27"],"COLOUR":["6"],"OBJNAM":"S 2V","INFORM":"VMD","SCAMIN":200000,"SORDAT":"20220103","SORIND":"NL,1R,reprt,MD 014-22","sourceCellId":"1R75W8RI","sourceChecksum":"a12af52c5db82a56c98d7d0e5b3caca868ff94978e2a341db3228266d1119537","rawObjectClass":"BOYSPP","sourceStableId":"1F2B0B5F3E860001"},"sourceKind":"official","official":true,"sourceCellId":"1R75W8RI","sourceStableId":"1F2B0B5F3E860001","pipelineFeatureId":"1R75W8RI/BOYSPP/190791302","provenance":{"cellId":"1R75W8RI","checksum":"a12af52c5db82a56c98d7d0e5b3caca868ff94978e2a341db3228266d1119537","readerVersion":"GDAL 3.2.2","processedAt":"2026-08-11T13:43:44.753Z"}}},{"type":"Feature","geometry":{"type":"Point","coordinates":[3.731425,51.64913]},"properties":{"dolphinKind":"buoy-special","rawObjectClass":"BOYSPP","sourceProperties":{"RCID":190791303,"PRIM":1,"GRUP":2,"OBJL":19,"RVER":1,"AGEN":7979,"FIDN":190791303,"FIDS":1,"LNAM":"1F2B0B5F3E870001","BOYSHP":2,"CATSPM":["27"],"COLOUR":["6"],"OBJNAM":"S 10N","INFORM":"VMD","SCAMIN":200000,"SORDAT":"20220103","SORIND":"NL,1R,reprt,MD 014-22 Correctie","sourceCellId":"1R75W8RI","sourceChecksum":"a12af52c5db82a56c98d7d0e5b3caca868ff94978e2a341db3228266d1119537","rawObjectClass":"BOYSPP","sourceStableId":"1F2B0B5F3E870001"},"sourceKind":"official","official":true,"sourceCellId":"1R75W8RI","sourceStableId":"1F2B0B5F3E870001","pipelineFeatureId":"1R75W8RI/BOYSPP/190791303","provenance":{"cellId":"1R75W8RI","checksum":"a12af52c5db82a56c98d7d0e5b3caca868ff94978e2a341db3228266d1119537","readerVersion":"GDAL 3.2.2","processedAt":"2026-08-11T13:43:44.753Z"}}},{"type":"Feature","geometry":{"type":"Point","coordinates":[3.7207056,51.6404361]},"properties":{"dolphinKind":"buoy-special","rawObjectClass":"BOYSPP","sourceProperties":{"RCID":190808154,"PRIM":1,"GRUP":2,"OBJL":19,"RVER":1,"AGEN":7979,"FIDN":190808154,"FIDS":1,"LNAM":"1F2B0B5F805A0001","BOYSHP":2,"CATSPM":["27"],"COLOUR":["6"],"OBJNAM":"S 2BN","INFORM":"VMD","SCAMIN":200000,"SORDAT":"20160601","sourceCellId":"1R75W8RI","sourceChecksum":"a12af52c5db82a56c98d7d0e5b3caca868ff94978e2a341db3228266d1119537","rawObjectClass":"BOYSPP","sourceStableId":"1F2B0B5F805A0001"},"sourceKind":"official","official":true,"sourceCellId":"1R75W8RI","sourceStableId":"1F2B0B5F805A0001","pipelineFeatureId":"1R75W8RI/BOYSPP/190808154","provenance":{"cellId":"1R75W8RI","checksum":"a12af52c5db82a56c98d7d0e5b3caca868ff94978e2a341db3228266d1119537","readerVersion":"GDAL 3.2.2","processedAt":"2026-08-11T13:43:44.753Z"}}},{"type":"Feature","geometry":{"type":"Point","coordinates":[3.73151,51.64154]},"properties":{"dolphinKind":"buoy-special","rawObjectClass":"BOYSPP","sourceProperties":{"RCID":190808155,"PRIM":1,"GRUP":2,"OBJL":19,"RVER":1,"AGEN":7979,"FIDN":190808155,"FIDS":1,"LNAM":"1F2B0B5F805B0001","BOYSHP":5,"CATSPM":["27"],"COLOUR":["6"],"OBJNAM":"S 4N","INFORM":"VMD","SCAMIN":200000,"SORDAT":"20220103","SORIND":"NL,1R,reprt,MD 014-22 Correctie","sourceCellId":"1R75W8RI","sourceChecksum":"a12af52c5db82a56c98d7d0e5b3caca868ff94978e2a341db3228266d1119537","rawObjectClass":"BOYSPP","sourceStableId":"1F2B0B5F805B0001"},"sourceKind":"official","official":true,"sourceCellId":"1R75W8RI","sourceStableId":"1F2B0B5F805B0001","pipelineFeatureId":"1R75W8RI/BOYSPP/190808155","provenance":{"cellId":"1R75W8RI","checksum":"a12af52c5db82a56c98d7d0e5b3caca868ff94978e2a341db3228266d1119537","readerVersion":"GDAL 3.2.2","processedAt":"2026-08-11T13:43:44.753Z"}}},{"type":"Feature","geometry":{"type":"Point","coordinates":[3.732,51.6447017]},"properties":{"dolphinKind":"buoy-special","rawObjectClass":"BOYSPP","sourceProperties":{"RCID":190808156,"PRIM":1,"GRUP":2,"OBJL":19,"RVER":1,"AGEN":7979,"FIDN":190808156,"FIDS":1,"LNAM":"1F2B0B5F805C0001","BOYSHP":2,"CATSPM":["27"],"COLOUR":["6"],"OBJNAM":"S 8Z","INFORM":"VMD","SCAMIN":200000,"SORDAT":"20220103","SORIND":"NL,1R,reprt,MD 014-22 Correctie","sourceCellId":"1R75W8RI","sourceChecksum":"a12af52c5db82a56c98d7d0e5b3caca868ff94978e2a341db3228266d1119537","rawObjectClass":"BOYSPP","sourceStableId":"1F2B0B5F805C0001"},"sourceKind":"official","official":true,"sourceCellId":"1R75W8RI","sourceStableId":"1F2B0B5F805C0001","pipelineFeatureId":"1R75W8RI/BOYSPP/190808156","provenance":{"cellId":"1R75W8RI","checksum":"a12af52c5db82a56c98d7d0e5b3caca868ff94978e2a341db3228266d1119537","readerVersion":"GDAL 3.2.2","processedAt":"2026-08-11T13:43:44.753Z"}}},{"type":"Feature","geometry":{"type":"Point","coordinates":[3.7316183,51.6455533]},"properties":{"dolphinKind":"buoy-special","rawObjectClass":"BOYSPP","sourceProperties":{"RCID":190808157,"PRIM":1,"GRUP":2,"OBJL":19,"RVER":1,"AGEN":7979,"FIDN":190808157,"FIDS":1,"LNAM":"1F2B0B5F805D0001","BOYSHP":2,"CATSPM":["27"],"COLOUR":["6"],"OBJNAM":"S 8V","INFORM":"VMD","SCAMIN":200000,"SORDAT":"20220103","SORIND":"NL,1R,reprt,MD 014-22","sourceCellId":"1R75W8RI","sourceChecksum":"a12af52c5db82a56c98d7d0e5b3caca868ff94978e2a341db3228266d1119537","rawObjectClass":"BOYSPP","sourceStableId":"1F2B0B5F805D0001"},"sourceKind":"official","official":true,"sourceCellId":"1R75W8RI","sourceStableId":"1F2B0B5F805D0001","pipelineFeatureId":"1R75W8RI/BOYSPP/190808157","provenance":{"cellId":"1R75W8RI","checksum":"a12af52c5db82a56c98d7d0e5b3caca868ff94978e2a341db3228266d1119537","readerVersion":"GDAL 3.2.2","processedAt":"2026-08-11T13:43:44.753Z"}}},{"type":"Feature","geometry":{"type":"Point","coordinates":[3.7212833,51.6394861]},"properties":{"dolphinKind":"buoy-special","rawObjectClass":"BOYSPP","sourceProperties":{"RCID":190808158,"PRIM":1,"GRUP":2,"OBJL":19,"RVER":1,"AGEN":7979,"FIDN":190808158,"FIDS":1,"LNAM":"1F2B0B5F805E0001","BOYSHP":2,"CATSPM":["27"],"COLOUR":["6"],"OBJNAM":"S 2BZ","INFORM":"VMD","SCAMIN":200000,"SORDAT":"20160601","sourceCellId":"1R75W8RI","sourceChecksum":"a12af52c5db82a56c98d7d0e5b3caca868ff94978e2a341db3228266d1119537","rawObjectClass":"BOYSPP","sourceStableId":"1F2B0B5F805E0001"},"sourceKind":"official","official":true,"sourceCellId":"1R75W8RI","sourceStableId":"1F2B0B5F805E0001","pipelineFeatureId":"1R75W8RI/BOYSPP/190808158","provenance":{"cellId":"1R75W8RI","checksum":"a12af52c5db82a56c98d7d0e5b3caca868ff94978e2a341db3228266d1119537","readerVersion":"GDAL 3.2.2","processedAt":"2026-08-11T13:43:44.753Z"}}},{"type":"Feature","geometry":{"type":"Point","coordinates":[3.723485,51.6417183]},"properties":{"dolphinKind":"buoy-special","rawObjectClass":"BOYSPP","sourceProperties":{"RCID":190808159,"PRIM":1,"GRUP":2,"OBJL":19,"RVER":1,"AGEN":7979,"FIDN":190808159,"FIDS":1,"LNAM":"1F2B0B5F805F0001","BOYSHP":2,"CATSPM":["27"],"COLOUR":["6"],"OBJNAM":"S 2AV","INFORM":"VMD","SCAMIN":200000,"SORDAT":"20220103","SORIND":"NL,1R,reprt,MD 014-22","sourceCellId":"1R75W8RI","sourceChecksum":"a12af52c5db82a56c98d7d0e5b3caca868ff94978e2a341db3228266d1119537","rawObjectClass":"BOYSPP","sourceStableId":"1F2B0B5F805F0001"},"sourceKind":"official","official":true,"sourceCellId":"1R75W8RI","sourceStableId":"1F2B0B5F805F0001","pipelineFeatureId":"1R75W8RI/BOYSPP/190808159","provenance":{"cellId":"1R75W8RI","checksum":"a12af52c5db82a56c98d7d0e5b3caca868ff94978e2a341db3228266d1119537","readerVersion":"GDAL 3.2.2","processedAt":"2026-08-11T13:43:44.753Z"}}},{"type":"Feature","geometry":{"type":"Point","coordinates":[3.7308883,51.6408067]},"properties":{"dolphinKind":"buoy-special","rawObjectClass":"BOYSPP","sourceProperties":{"RCID":190808160,"PRIM":1,"GRUP":2,"OBJL":19,"RVER":1,"AGEN":7979,"FIDN":190808160,"FIDS":1,"LNAM":"1F2B0B5F80600001","BOYSHP":2,"CATSPM":["27"],"COLOUR":["6"],"OBJNAM":"S 4V","INFORM":"VMD","SCAMIN":200000,"SORDAT":"20220103","SORIND":"NL,1R,reprt,MD 014-22","sourceCellId":"1R75W8RI","sourceChecksum":"a12af52c5db82a56c98d7d0e5b3caca868ff94978e2a341db3228266d1119537","rawObjectClass":"BOYSPP","sourceStableId":"1F2B0B5F80600001"},"sourceKind":"official","official":true,"sourceCellId":"1R75W8RI","sourceStableId":"1F2B0B5F80600001","pipelineFeatureId":"1R75W8RI/BOYSPP/190808160","provenance":{"cellId":"1R75W8RI","checksum":"a12af52c5db82a56c98d7d0e5b3caca868ff94978e2a341db3228266d1119537","readerVersion":"GDAL 3.2.2","processedAt":"2026-08-11T13:43:44.753Z"}}},{"type":"Feature","geometry":{"type":"Point","coordinates":[3.7314033,51.6463917]},"properties":{"dolphinKind":"buoy-special","rawObjectClass":"BOYSPP","sourceProperties":{"RCID":190808161,"PRIM":1,"GRUP":2,"OBJL":19,"RVER":1,"AGEN":7979,"FIDN":190808161,"FIDS":1,"LNAM":"1F2B0B5F80610001","BOYSHP":2,"CATSPM":["27"],"COLOUR":["6"],"OBJNAM":"S 8N","INFORM":"VMD","SCAMIN":200000,"SORDAT":"20220103","SORIND":"NL,1R,reprt,MD 014-22 Correctie","sourceCellId":"1R75W8RI","sourceChecksum":"a12af52c5db82a56c98d7d0e5b3caca868ff94978e2a341db3228266d1119537","rawObjectClass":"BOYSPP","sourceStableId":"1F2B0B5F80610001"},"sourceKind":"official","official":true,"sourceCellId":"1R75W8RI","sourceStableId":"1F2B0B5F80610001","pipelineFeatureId":"1R75W8RI/BOYSPP/190808161","provenance":{"cellId":"1R75W8RI","checksum":"a12af52c5db82a56c98d7d0e5b3caca868ff94978e2a341db3228266d1119537","readerVersion":"GDAL 3.2.2","processedAt":"2026-08-11T13:43:44.753Z"}}},{"type":"Feature","geometry":{"type":"Point","coordinates":[3.730985,51.6480867]},"properties":{"dolphinKind":"buoy-special","rawObjectClass":"BOYSPP","sourceProperties":{"RCID":190808162,"PRIM":1,"GRUP":2,"OBJL":19,"RVER":1,"AGEN":7979,"FIDN":190808162,"FIDS":1,"LNAM":"1F2B0B5F80620001","BOYSHP":2,"CATSPM":["27"],"COLOUR":["6"],"OBJNAM":"S 10V","INFORM":"VMD","SCAMIN":200000,"SORDAT":"20220103","SORIND":"NL,1R,reprt,MD 014-22","sourceCellId":"1R75W8RI","sourceChecksum":"a12af52c5db82a56c98d7d0e5b3caca868ff94978e2a341db3228266d1119537","rawObjectClass":"BOYSPP","sourceStableId":"1F2B0B5F80620001"},"sourceKind":"official","official":true,"sourceCellId":"1R75W8RI","sourceStableId":"1F2B0B5F80620001","pipelineFeatureId":"1R75W8RI/BOYSPP/190808162","provenance":{"cellId":"1R75W8RI","checksum":"a12af52c5db82a56c98d7d0e5b3caca868ff94978e2a341db3228266d1119537","readerVersion":"GDAL 3.2.2","processedAt":"2026-08-11T13:43:44.753Z"}}},{"type":"Feature","geometry":{"type":"Point","coordinates":[3.7312,51.6472433]},"properties":{"dolphinKind":"buoy-special","rawObjectClass":"BOYSPP","sourceProperties":{"RCID":190808163,"PRIM":1,"GRUP":2,"OBJL":19,"RVER":1,"AGEN":7979,"FIDN":190808163,"FIDS":1,"LNAM":"1F2B0B5F80630001","BOYSHP":2,"CATSPM":["27"],"COLOUR":["6"],"OBJNAM":"S 10Z","INFORM":"VMD","SCAMIN":200000,"SORDAT":"20220103","SORIND":"NL,1R,reprt,MD 014-22 Correctie","sourceCellId":"1R75W8RI","sourceChecksum":"a12af52c5db82a56c98d7d0e5b3caca868ff94978e2a341db3228266d1119537","rawObjectClass":"BOYSPP","sourceStableId":"1F2B0B5F80630001"},"sourceKind":"official","official":true,"sourceCellId":"1R75W8RI","sourceStableId":"1F2B0B5F80630001","pipelineFeatureId":"1R75W8RI/BOYSPP/190808163","provenance":{"cellId":"1R75W8RI","checksum":"a12af52c5db82a56c98d7d0e5b3caca868ff94978e2a341db3228266d1119537","readerVersion":"GDAL 3.2.2","processedAt":"2026-08-11T13:43:44.753Z"}}},{"type":"Feature","geometry":{"type":"Point","coordinates":[3.7238883,51.6428783]},"properties":{"dolphinKind":"buoy-special","rawObjectClass":"BOYSPP","sourceProperties":{"RCID":190808164,"PRIM":1,"GRUP":2,"OBJL":19,"RVER":1,"AGEN":7979,"FIDN":190808164,"FIDS":1,"LNAM":"1F2B0B5F80640001","BOYSHP":2,"CATSPM":["27"],"COLOUR":["6"],"OBJNAM":"S 4Z","INFORM":"VMD","SCAMIN":200000,"SORDAT":"20220103","SORIND":"NL,1R,reprt,MD 014-22 Correctie","sourceCellId":"1R75W8RI","sourceChecksum":"a12af52c5db82a56c98d7d0e5b3caca868ff94978e2a341db3228266d1119537","rawObjectClass":"BOYSPP","sourceStableId":"1F2B0B5F80640001"},"sourceKind":"official","official":true,"sourceCellId":"1R75W8RI","sourceStableId":"1F2B0B5F80640001","pipelineFeatureId":"1R75W8RI/BOYSPP/190808164","provenance":{"cellId":"1R75W8RI","checksum":"a12af52c5db82a56c98d7d0e5b3caca868ff94978e2a341db3228266d1119537","readerVersion":"GDAL 3.2.2","processedAt":"2026-08-11T13:43:44.753Z"}}},{"type":"Feature","geometry":{"type":"Point","coordinates":[3.7323933,51.6438533]},"properties":{"dolphinKind":"buoy-special","rawObjectClass":"BOYSPP","sourceProperties":{"RCID":190808165,"PRIM":1,"GRUP":2,"OBJL":19,"RVER":1,"AGEN":7979,"FIDN":190808165,"FIDS":1,"LNAM":"1F2B0B5F80650001","BOYSHP":2,"CATSPM":["27"],"COLOUR":["6"],"OBJNAM":"S 6N","INFORM":"VMD","SCAMIN":200000,"SORDAT":"20220103","SORIND":"NL,1R,reprt,MD 014-22 Correctie","sourceCellId":"1R75W8RI","sourceChecksum":"a12af52c5db82a56c98d7d0e5b3caca868ff94978e2a341db3228266d1119537","rawObjectClass":"BOYSPP","sourceStableId":"1F2B0B5F80650001"},"sourceKind":"official","official":true,"sourceCellId":"1R75W8RI","sourceStableId":"1F2B0B5F80650001","pipelineFeatureId":"1R75W8RI/BOYSPP/190808165","provenance":{"cellId":"1R75W8RI","checksum":"a12af52c5db82a56c98d7d0e5b3caca868ff94978e2a341db3228266d1119537","readerVersion":"GDAL 3.2.2","processedAt":"2026-08-11T13:43:44.753Z"}}},{"type":"Feature","geometry":{"type":"Point","coordinates":[3.7137467,51.6647333]},"properties":{"dolphinKind":"buoy-special","rawObjectClass":"BOYSPP","sourceProperties":{"RCID":381748971,"PRIM":1,"GRUP":2,"OBJL":19,"RVER":1,"AGEN":7979,"FIDN":381748971,"FIDS":1,"LNAM":"1F2B16C106EB0001","BOYSHP":2,"CATSPM":["50"],"COLOUR":["6"],"CONRAD":3,"OBJNAM":"H 7N","SCAMIN":200000,"SORDAT":"20220303","SORIND":"NL,1R,Reprt,MD 106-22","sourceCellId":"1R75W8RI","sourceChecksum":"a12af52c5db82a56c98d7d0e5b3caca868ff94978e2a341db3228266d1119537","rawObjectClass":"BOYSPP","sourceStableId":"1F2B16C106EB0001"},"sourceKind":"official","official":true,"sourceCellId":"1R75W8RI","sourceStableId":"1F2B16C106EB0001","pipelineFeatureId":"1R75W8RI/BOYSPP/381748971","provenance":{"cellId":"1R75W8RI","checksum":"a12af52c5db82a56c98d7d0e5b3caca868ff94978e2a341db3228266d1119537","readerVersion":"GDAL 3.2.2","processedAt":"2026-08-11T13:43:44.753Z"}}},{"type":"Feature","geometry":{"type":"Point","coordinates":[3.7123033,51.6637583]},"properties":{"dolphinKind":"buoy-special","rawObjectClass":"BOYSPP","sourceProperties":{"RCID":381748972,"PRIM":1,"GRUP":2,"OBJL":19,"RVER":1,"AGEN":7979,"FIDN":381748972,"FIDS":1,"LNAM":"1F2B16C106EC0001","BOYSHP":2,"CATSPM":["50"],"COLOUR":["6"],"CONRAD":3,"OBJNAM":"H 7V","SCAMIN":200000,"SORDAT":"20230719","SORIND":"NL,1R,reprt,MD 344-23","sourceCellId":"1R75W8RI","sourceChecksum":"a12af52c5db82a56c98d7d0e5b3caca868ff94978e2a341db3228266d1119537","rawObjectClass":"BOYSPP","sourceStableId":"1F2B16C106EC0001"},"sourceKind":"official","official":true,"sourceCellId":"1R75W8RI","sourceStableId":"1F2B16C106EC0001","pipelineFeatureId":"1R75W8RI/BOYSPP/381748972","provenance":{"cellId":"1R75W8RI","checksum":"a12af52c5db82a56c98d7d0e5b3caca868ff94978e2a341db3228266d1119537","readerVersion":"GDAL 3.2.2","processedAt":"2026-08-11T13:43:44.753Z"}}},{"type":"Feature","geometry":{"type":"Point","coordinates":[3.71513,51.6625917]},"properties":{"dolphinKind":"buoy-special","rawObjectClass":"BOYSPP","sourceProperties":{"RCID":381748973,"PRIM":1,"GRUP":2,"OBJL":19,"RVER":1,"AGEN":7979,"FIDN":381748973,"FIDS":1,"LNAM":"1F2B16C106ED0001","BOYSHP":2,"CATSPM":["50"],"COLOUR":["6"],"CONRAD":3,"OBJNAM":"H 7Z","SCAMIN":200000,"SORDAT":"20230415","SORIND":"NL,1R,Reprt,MD 218-23","sourceCellId":"1R75W8RI","sourceChecksum":"a12af52c5db82a56c98d7d0e5b3caca868ff94978e2a341db3228266d1119537","rawObjectClass":"BOYSPP","sourceStableId":"1F2B16C106ED0001"},"sourceKind":"official","official":true,"sourceCellId":"1R75W8RI","sourceStableId":"1F2B16C106ED0001","pipelineFeatureId":"1R75W8RI/BOYSPP/381748973","provenance":{"cellId":"1R75W8RI","checksum":"a12af52c5db82a56c98d7d0e5b3caca868ff94978e2a341db3228266d1119537","readerVersion":"GDAL 3.2.2","processedAt":"2026-08-11T13:43:44.753Z"}}},{"type":"Feature","geometry":{"type":"Point","coordinates":[3.7156017,51.6589433]},"properties":{"dolphinKind":"buoy-special","rawObjectClass":"BOYSPP","sourceProperties":{"RCID":381748974,"PRIM":1,"GRUP":2,"OBJL":19,"RVER":1,"AGEN":7979,"FIDN":381748974,"FIDS":1,"LNAM":"1F2B16C106EE0001","BOYSHP":2,"CATSPM":["50"],"COLOUR":["6"],"CONRAD":3,"OBJNAM":"H 3BN","SCAMIN":200000,"SORDAT":"20230415","SORIND":"NL,1R,Reprt,MD 218-23","sourceCellId":"1R75W8RI","sourceChecksum":"a12af52c5db82a56c98d7d0e5b3caca868ff94978e2a341db3228266d1119537","rawObjectClass":"BOYSPP","sourceStableId":"1F2B16C106EE0001"},"sourceKind":"official","official":true,"sourceCellId":"1R75W8RI","sourceStableId":"1F2B16C106EE0001","pipelineFeatureId":"1R75W8RI/BOYSPP/381748974","provenance":{"cellId":"1R75W8RI","checksum":"a12af52c5db82a56c98d7d0e5b3caca868ff94978e2a341db3228266d1119537","readerVersion":"GDAL 3.2.2","processedAt":"2026-08-11T13:43:44.753Z"}}},{"type":"Feature","geometry":{"type":"Point","coordinates":[3.7111867,51.661145]},"properties":{"dolphinKind":"buoy-special","rawObjectClass":"BOYSPP","sourceProperties":{"RCID":381748975,"PRIM":1,"GRUP":2,"OBJL":19,"RVER":1,"AGEN":7979,"FIDN":381748975,"FIDS":1,"LNAM":"1F2B16C106EF0001","BOYSHP":2,"CATSPM":["50"],"COLOUR":["6"],"CONRAD":3,"OBJNAM":"H 5V","SCAMIN":200000,"SORDAT":"20230719","SORIND":"NL,1R,reprt,MD 344-23","sourceCellId":"1R75W8RI","sourceChecksum":"a12af52c5db82a56c98d7d0e5b3caca868ff94978e2a341db3228266d1119537","rawObjectClass":"BOYSPP","sourceStableId":"1F2B16C106EF0001"},"sourceKind":"official","official":true,"sourceCellId":"1R75W8RI","sourceStableId":"1F2B16C106EF0001","pipelineFeatureId":"1R75W8RI/BOYSPP/381748975","provenance":{"cellId":"1R75W8RI","checksum":"a12af52c5db82a56c98d7d0e5b3caca868ff94978e2a341db3228266d1119537","readerVersion":"GDAL 3.2.2","processedAt":"2026-08-11T13:43:44.753Z"}}},{"type":"Feature","geometry":{"type":"Point","coordinates":[3.71557,51.66164]},"properties":{"dolphinKind":"buoy-special","rawObjectClass":"BOYSPP","sourceProperties":{"RCID":381748976,"PRIM":1,"GRUP":2,"OBJL":19,"RVER":1,"AGEN":7979,"FIDN":381748976,"FIDS":1,"LNAM":"1F2B16C106F00001","BOYSHP":2,"CATSPM":["50"],"COLOUR":["6"],"CONRAD":3,"OBJNAM":"H 5N","SCAMIN":200000,"SORDAT":"20230415","SORIND":"NL,1R,Reprt,MD 218-23","sourceCellId":"1R75W8RI","sourceChecksum":"a12af52c5db82a56c98d7d0e5b3caca868ff94978e2a341db3228266d1119537","rawObjectClass":"BOYSPP","sourceStableId":"1F2B16C106F00001"},"sourceKind":"official","official":true,"sourceCellId":"1R75W8RI","sourceStableId":"1F2B16C106F00001","pipelineFeatureId":"1R75W8RI/BOYSPP/381748976","provenance":{"cellId":"1R75W8RI","checksum":"a12af52c5db82a56c98d7d0e5b3caca868ff94978e2a341db3228266d1119537","readerVersion":"GDAL 3.2.2","processedAt":"2026-08-11T13:43:44.753Z"}}},{"type":"Feature","geometry":{"type":"Point","coordinates":[3.71008,51.6586867]},"properties":{"dolphinKind":"buoy-special","rawObjectClass":"BOYSPP","sourceProperties":{"RCID":381748977,"PRIM":1,"GRUP":2,"OBJL":19,"RVER":1,"AGEN":7979,"FIDN":381748977,"FIDS":1,"LNAM":"1F2B16C106F10001","BOYSHP":2,"CATSPM":["50"],"COLOUR":["6"],"CONRAD":3,"OBJNAM":"H 3V","SCAMIN":200000,"SORDAT":"20230719","SORIND":"NL,1R,reprt,MD 344-23","sourceCellId":"1R75W8RI","sourceChecksum":"a12af52c5db82a56c98d7d0e5b3caca868ff94978e2a341db3228266d1119537","rawObjectClass":"BOYSPP","sourceStableId":"1F2B16C106F10001"},"sourceKind":"official","official":true,"sourceCellId":"1R75W8RI","sourceStableId":"1F2B16C106F10001","pipelineFeatureId":"1R75W8RI/BOYSPP/381748977","provenance":{"cellId":"1R75W8RI","checksum":"a12af52c5db82a56c98d7d0e5b3caca868ff94978e2a341db3228266d1119537","readerVersion":"GDAL 3.2.2","processedAt":"2026-08-11T13:43:44.753Z"}}},{"type":"Feature","geometry":{"type":"Point","coordinates":[3.7157733,51.6597767]},"properties":{"dolphinKind":"buoy-special","rawObjectClass":"BOYSPP","sourceProperties":{"RCID":381748978,"PRIM":1,"GRUP":2,"OBJL":19,"RVER":1,"AGEN":7979,"FIDN":381748978,"FIDS":1,"LNAM":"1F2B16C106F20001","BOYSHP":2,"CATSPM":["50"],"COLOUR":["6"],"CONRAD":3,"OBJNAM":"H 5Z","SCAMIN":200000,"SORDAT":"20230415","SORIND":"NL,1R,Reprt,MD 218-23","sourceCellId":"1R75W8RI","sourceChecksum":"a12af52c5db82a56c98d7d0e5b3caca868ff94978e2a341db3228266d1119537","rawObjectClass":"BOYSPP","sourceStableId":"1F2B16C106F20001"},"sourceKind":"official","official":true,"sourceCellId":"1R75W8RI","sourceStableId":"1F2B16C106F20001","pipelineFeatureId":"1R75W8RI/BOYSPP/381748978","provenance":{"cellId":"1R75W8RI","checksum":"a12af52c5db82a56c98d7d0e5b3caca868ff94978e2a341db3228266d1119537","readerVersion":"GDAL 3.2.2","processedAt":"2026-08-11T13:43:44.753Z"}}},{"type":"Feature","geometry":{"type":"Point","coordinates":[3.7077367,51.6576067]},"properties":{"dolphinKind":"buoy-special","rawObjectClass":"BOYSPP","sourceProperties":{"RCID":381748979,"PRIM":1,"GRUP":2,"OBJL":19,"RVER":1,"AGEN":7979,"FIDN":381748979,"FIDS":1,"LNAM":"1F2B16C106F30001","BOYSHP":2,"CATSPM":["50"],"COLOUR":["6"],"CONRAD":3,"OBJNAM":"H 3Z","SCAMIN":200000,"SORDAT":"20220303","SORIND":"NL,1R,Reprt,MD 106-22","sourceCellId":"1R75W8RI","sourceChecksum":"a12af52c5db82a56c98d7d0e5b3caca868ff94978e2a341db3228266d1119537","rawObjectClass":"BOYSPP","sourceStableId":"1F2B16C106F30001"},"sourceKind":"official","official":true,"sourceCellId":"1R75W8RI","sourceStableId":"1F2B16C106F30001","pipelineFeatureId":"1R75W8RI/BOYSPP/381748979","provenance":{"cellId":"1R75W8RI","checksum":"a12af52c5db82a56c98d7d0e5b3caca868ff94978e2a341db3228266d1119537","readerVersion":"GDAL 3.2.2","processedAt":"2026-08-11T13:43:44.753Z"}}},{"type":"Feature","geometry":{"type":"Point","coordinates":[3.708345,51.6567983]},"properties":{"dolphinKind":"buoy-special","rawObjectClass":"BOYSPP","sourceProperties":{"RCID":381748980,"PRIM":1,"GRUP":2,"OBJL":19,"RVER":1,"AGEN":7979,"FIDN":381748980,"FIDS":1,"LNAM":"1F2B16C106F40001","BOYSHP":2,"CATSPM":["50"],"COLOUR":["6"],"CONRAD":3,"OBJNAM":"H 1N","SCAMIN":200000,"SORDAT":"20220303","SORIND":"NL,1R,Reprt,MD 106-22","sourceCellId":"1R75W8RI","sourceChecksum":"a12af52c5db82a56c98d7d0e5b3caca868ff94978e2a341db3228266d1119537","rawObjectClass":"BOYSPP","sourceStableId":"1F2B16C106F40001"},"sourceKind":"official","official":true,"sourceCellId":"1R75W8RI","sourceStableId":"1F2B16C106F40001","pipelineFeatureId":"1R75W8RI/BOYSPP/381748980","provenance":{"cellId":"1R75W8RI","checksum":"a12af52c5db82a56c98d7d0e5b3caca868ff94978e2a341db3228266d1119537","readerVersion":"GDAL 3.2.2","processedAt":"2026-08-11T13:43:44.753Z"}}},{"type":"Feature","geometry":{"type":"Point","coordinates":[3.7089367,51.6559883]},"properties":{"dolphinKind":"buoy-special","rawObjectClass":"BOYSPP","sourceProperties":{"RCID":381748981,"PRIM":1,"GRUP":2,"OBJL":19,"RVER":1,"AGEN":7979,"FIDN":381748981,"FIDS":1,"LNAM":"1F2B16C106F50001","BOYSHP":2,"CATSPM":["50"],"COLOUR":["6"],"CONRAD":3,"OBJNAM":"H 1V","SCAMIN":200000,"SORDAT":"20200904","sourceCellId":"1R75W8RI","sourceChecksum":"a12af52c5db82a56c98d7d0e5b3caca868ff94978e2a341db3228266d1119537","rawObjectClass":"BOYSPP","sourceStableId":"1F2B16C106F50001"},"sourceKind":"official","official":true,"sourceCellId":"1R75W8RI","sourceStableId":"1F2B16C106F50001","pipelineFeatureId":"1R75W8RI/BOYSPP/381748981","provenance":{"cellId":"1R75W8RI","checksum":"a12af52c5db82a56c98d7d0e5b3caca868ff94978e2a341db3228266d1119537","readerVersion":"GDAL 3.2.2","processedAt":"2026-08-11T13:43:44.753Z"}}},{"type":"Feature","geometry":{"type":"Point","coordinates":[3.7086533,51.6551867]},"properties":{"dolphinKind":"buoy-special","rawObjectClass":"BOYSPP","sourceProperties":{"RCID":381748982,"PRIM":1,"GRUP":2,"OBJL":19,"RVER":1,"AGEN":7979,"FIDN":381748982,"FIDS":1,"LNAM":"1F2B16C106F60001","BOYSHP":2,"CATSPM":["50"],"COLOUR":["6"],"CONRAD":3,"OBJNAM":"H 1Z","SCAMIN":200000,"SORDAT":"20200904","sourceCellId":"1R75W8RI","sourceChecksum":"a12af52c5db82a56c98d7d0e5b3caca868ff94978e2a341db3228266d1119537","rawObjectClass":"BOYSPP","sourceStableId":"1F2B16C106F60001"},"sourceKind":"official","official":true,"sourceCellId":"1R75W8RI","sourceStableId":"1F2B16C106F60001","pipelineFeatureId":"1R75W8RI/BOYSPP/381748982","provenance":{"cellId":"1R75W8RI","checksum":"a12af52c5db82a56c98d7d0e5b3caca868ff94978e2a341db3228266d1119537","readerVersion":"GDAL 3.2.2","processedAt":"2026-08-11T13:43:44.753Z"}}},{"type":"Feature","geometry":{"type":"Point","coordinates":[3.70788,51.6536367]},"properties":{"dolphinKind":"buoy-special","rawObjectClass":"BOYSPP","sourceProperties":{"RCID":381748983,"PRIM":1,"GRUP":2,"OBJL":19,"RVER":1,"AGEN":7979,"FIDN":381748983,"FIDS":1,"LNAM":"1F2B16C106F70001","BOYSHP":2,"CATSPM":["50"],"COLOUR":["6"],"CONRAD":3,"OBJNAM":"S 7V","SCAMIN":200000,"SORDAT":"20200904","sourceCellId":"1R75W8RI","sourceChecksum":"a12af52c5db82a56c98d7d0e5b3caca868ff94978e2a341db3228266d1119537","rawObjectClass":"BOYSPP","sourceStableId":"1F2B16C106F70001"},"sourceKind":"official","official":true,"sourceCellId":"1R75W8RI","sourceStableId":"1F2B16C106F70001","pipelineFeatureId":"1R75W8RI/BOYSPP/381748983","provenance":{"cellId":"1R75W8RI","checksum":"a12af52c5db82a56c98d7d0e5b3caca868ff94978e2a341db3228266d1119537","readerVersion":"GDAL 3.2.2","processedAt":"2026-08-11T13:43:44.753Z"}}},{"type":"Feature","geometry":{"type":"Point","coordinates":[3.7064417,51.6503817]},"properties":{"dolphinKind":"buoy-special","rawObjectClass":"BOYSPP","sourceProperties":{"RCID":381748984,"PRIM":1,"GRUP":2,"OBJL":19,"RVER":1,"AGEN":7979,"FIDN":381748984,"FIDS":1,"LNAM":"1F2B16C106F80001","BOYSHP":2,"CATSPM":["50"],"COLOUR":["6"],"CONRAD":3,"OBJNAM":"S 5Z","SCAMIN":200000,"SORDAT":"20200904","sourceCellId":"1R75W8RI","sourceChecksum":"a12af52c5db82a56c98d7d0e5b3caca868ff94978e2a341db3228266d1119537","rawObjectClass":"BOYSPP","sourceStableId":"1F2B16C106F80001"},"sourceKind":"official","official":true,"sourceCellId":"1R75W8RI","sourceStableId":"1F2B16C106F80001","pipelineFeatureId":"1R75W8RI/BOYSPP/381748984","provenance":{"cellId":"1R75W8RI","checksum":"a12af52c5db82a56c98d7d0e5b3caca868ff94978e2a341db3228266d1119537","readerVersion":"GDAL 3.2.2","processedAt":"2026-08-11T13:43:44.753Z"}}},{"type":"Feature","geometry":{"type":"Point","coordinates":[3.7082083,51.6544183]},"properties":{"dolphinKind":"buoy-special","rawObjectClass":"BOYSPP","sourceProperties":{"RCID":381748985,"PRIM":1,"GRUP":2,"OBJL":19,"RVER":1,"AGEN":7979,"FIDN":381748985,"FIDS":1,"LNAM":"1F2B16C106F90001","BOYSHP":2,"CATSPM":["50"],"COLOUR":["6"],"CONRAD":3,"OBJNAM":"S 7N","SCAMIN":200000,"SORDAT":"20200904","sourceCellId":"1R75W8RI","sourceChecksum":"a12af52c5db82a56c98d7d0e5b3caca868ff94978e2a341db3228266d1119537","rawObjectClass":"BOYSPP","sourceStableId":"1F2B16C106F90001"},"sourceKind":"official","official":true,"sourceCellId":"1R75W8RI","sourceStableId":"1F2B16C106F90001","pipelineFeatureId":"1R75W8RI/BOYSPP/381748985","provenance":{"cellId":"1R75W8RI","checksum":"a12af52c5db82a56c98d7d0e5b3caca868ff94978e2a341db3228266d1119537","readerVersion":"GDAL 3.2.2","processedAt":"2026-08-11T13:43:44.753Z"}}},{"type":"Feature","geometry":{"type":"Point","coordinates":[3.7060867,51.6495167]},"properties":{"dolphinKind":"buoy-special","rawObjectClass":"BOYSPP","sourceProperties":{"RCID":381748986,"PRIM":1,"GRUP":2,"OBJL":19,"RVER":1,"AGEN":7979,"FIDN":381748986,"FIDS":1,"LNAM":"1F2B16C106FA0001","BOYSHP":2,"CATSPM":["50"],"COLOUR":["6"],"CONRAD":3,"OBJNAM":"S 3N","SCAMIN":200000,"SORDAT":"20200904","sourceCellId":"1R75W8RI","sourceChecksum":"a12af52c5db82a56c98d7d0e5b3caca868ff94978e2a341db3228266d1119537","rawObjectClass":"BOYSPP","sourceStableId":"1F2B16C106FA0001"},"sourceKind":"official","official":true,"sourceCellId":"1R75W8RI","sourceStableId":"1F2B16C106FA0001","pipelineFeatureId":"1R75W8RI/BOYSPP/381748986","provenance":{"cellId":"1R75W8RI","checksum":"a12af52c5db82a56c98d7d0e5b3caca868ff94978e2a341db3228266d1119537","readerVersion":"GDAL 3.2.2","processedAt":"2026-08-11T13:43:44.753Z"}}},{"type":"Feature","geometry":{"type":"Point","coordinates":[3.706675,51.65112]},"properties":{"dolphinKind":"buoy-special","rawObjectClass":"BOYSPP","sourceProperties":{"RCID":381748987,"PRIM":1,"GRUP":2,"OBJL":19,"RVER":1,"AGEN":7979,"FIDN":381748987,"FIDS":1,"LNAM":"1F2B16C106FB0001","BOYSHP":2,"CATSPM":["50"],"COLOUR":["6"],"CONRAD":3,"OBJNAM":"S 5V","SCAMIN":200000,"SORDAT":"20200904","sourceCellId":"1R75W8RI","sourceChecksum":"a12af52c5db82a56c98d7d0e5b3caca868ff94978e2a341db3228266d1119537","rawObjectClass":"BOYSPP","sourceStableId":"1F2B16C106FB0001"},"sourceKind":"official","official":true,"sourceCellId":"1R75W8RI","sourceStableId":"1F2B16C106FB0001","pipelineFeatureId":"1R75W8RI/BOYSPP/381748987","provenance":{"cellId":"1R75W8RI","checksum":"a12af52c5db82a56c98d7d0e5b3caca868ff94978e2a341db3228266d1119537","readerVersion":"GDAL 3.2.2","processedAt":"2026-08-11T13:43:44.753Z"}}},{"type":"Feature","geometry":{"type":"Point","coordinates":[3.7070867,51.6519967]},"properties":{"dolphinKind":"buoy-special","rawObjectClass":"BOYSPP","sourceProperties":{"RCID":381748988,"PRIM":1,"GRUP":2,"OBJL":19,"RVER":1,"AGEN":7979,"FIDN":381748988,"FIDS":1,"LNAM":"1F2B16C106FC0001","BOYSHP":2,"CATSPM":["50"],"COLOUR":["6"],"CONRAD":3,"OBJNAM":"S 5N","SCAMIN":200000,"SORDAT":"20200904","sourceCellId":"1R75W8RI","sourceChecksum":"a12af52c5db82a56c98d7d0e5b3caca868ff94978e2a341db3228266d1119537","rawObjectClass":"BOYSPP","sourceStableId":"1F2B16C106FC0001"},"sourceKind":"official","official":true,"sourceCellId":"1R75W8RI","sourceStableId":"1F2B16C106FC0001","pipelineFeatureId":"1R75W8RI/BOYSPP/381748988","provenance":{"cellId":"1R75W8RI","checksum":"a12af52c5db82a56c98d7d0e5b3caca868ff94978e2a341db3228266d1119537","readerVersion":"GDAL 3.2.2","processedAt":"2026-08-11T13:43:44.753Z"}}},{"type":"Feature","geometry":{"type":"Point","coordinates":[3.7075017,51.6528233]},"properties":{"dolphinKind":"buoy-special","rawObjectClass":"BOYSPP","sourceProperties":{"RCID":381748989,"PRIM":1,"GRUP":2,"OBJL":19,"RVER":1,"AGEN":7979,"FIDN":381748989,"FIDS":1,"LNAM":"1F2B16C106FD0001","BOYSHP":2,"CATSPM":["50"],"COLOUR":["6"],"CONRAD":3,"OBJNAM":"S 7Z","SCAMIN":200000,"SORDAT":"20200904","sourceCellId":"1R75W8RI","sourceChecksum":"a12af52c5db82a56c98d7d0e5b3caca868ff94978e2a341db3228266d1119537","rawObjectClass":"BOYSPP","sourceStableId":"1F2B16C106FD0001"},"sourceKind":"official","official":true,"sourceCellId":"1R75W8RI","sourceStableId":"1F2B16C106FD0001","pipelineFeatureId":"1R75W8RI/BOYSPP/381748989","provenance":{"cellId":"1R75W8RI","checksum":"a12af52c5db82a56c98d7d0e5b3caca868ff94978e2a341db3228266d1119537","readerVersion":"GDAL 3.2.2","processedAt":"2026-08-11T13:43:44.753Z"}}},{"type":"Feature","geometry":{"type":"Point","coordinates":[3.70567,51.648605]},"properties":{"dolphinKind":"buoy-special","rawObjectClass":"BOYSPP","sourceProperties":{"RCID":381748990,"PRIM":1,"GRUP":2,"OBJL":19,"RVER":1,"AGEN":7979,"FIDN":381748990,"FIDS":1,"LNAM":"1F2B16C106FE0001","BOYSHP":2,"CATSPM":["50"],"COLOUR":["6"],"CONRAD":3,"OBJNAM":"S 3V","SCAMIN":200000,"SORDAT":"20200904","sourceCellId":"1R75W8RI","sourceChecksum":"a12af52c5db82a56c98d7d0e5b3caca868ff94978e2a341db3228266d1119537","rawObjectClass":"BOYSPP","sourceStableId":"1F2B16C106FE0001"},"sourceKind":"official","official":true,"sourceCellId":"1R75W8RI","sourceStableId":"1F2B16C106FE0001","pipelineFeatureId":"1R75W8RI/BOYSPP/381748990","provenance":{"cellId":"1R75W8RI","checksum":"a12af52c5db82a56c98d7d0e5b3caca868ff94978e2a341db3228266d1119537","readerVersion":"GDAL 3.2.2","processedAt":"2026-08-11T13:43:44.753Z"}}},{"type":"Feature","geometry":{"type":"Point","coordinates":[3.7048067,51.6469217]},"properties":{"dolphinKind":"buoy-special","rawObjectClass":"BOYSPP","sourceProperties":{"RCID":381748991,"PRIM":1,"GRUP":2,"OBJL":19,"RVER":1,"AGEN":7979,"FIDN":381748991,"FIDS":1,"LNAM":"1F2B16C106FF0001","BOYSHP":2,"CATSPM":["50"],"COLOUR":["6"],"CONRAD":3,"OBJNAM":"S 1N","SCAMIN":200000,"SORDAT":"20200904","sourceCellId":"1R75W8RI","sourceChecksum":"a12af52c5db82a56c98d7d0e5b3caca868ff94978e2a341db3228266d1119537","rawObjectClass":"BOYSPP","sourceStableId":"1F2B16C106FF0001"},"sourceKind":"official","official":true,"sourceCellId":"1R75W8RI","sourceStableId":"1F2B16C106FF0001","pipelineFeatureId":"1R75W8RI/BOYSPP/381748991","provenance":{"cellId":"1R75W8RI","checksum":"a12af52c5db82a56c98d7d0e5b3caca868ff94978e2a341db3228266d1119537","readerVersion":"GDAL 3.2.2","processedAt":"2026-08-11T13:43:44.753Z"}}},{"type":"Feature","geometry":{"type":"Point","coordinates":[3.7072567,51.6455217]},"properties":{"dolphinKind":"buoy-special","rawObjectClass":"BOYSPP","sourceProperties":{"RCID":381748992,"PRIM":1,"GRUP":2,"OBJL":19,"RVER":1,"AGEN":7979,"FIDN":381748992,"FIDS":1,"LNAM":"1F2B16C107000001","BOYSHP":2,"CATSPM":["50"],"COLOUR":["6"],"CONRAD":3,"OBJNAM":"S 1AZZ","SCAMIN":200000,"SORDAT":"20200904","sourceCellId":"1R75W8RI","sourceChecksum":"a12af52c5db82a56c98d7d0e5b3caca868ff94978e2a341db3228266d1119537","rawObjectClass":"BOYSPP","sourceStableId":"1F2B16C107000001"},"sourceKind":"official","official":true,"sourceCellId":"1R75W8RI","sourceStableId":"1F2B16C107000001","pipelineFeatureId":"1R75W8RI/BOYSPP/381748992","provenance":{"cellId":"1R75W8RI","checksum":"a12af52c5db82a56c98d7d0e5b3caca868ff94978e2a341db3228266d1119537","readerVersion":"GDAL 3.2.2","processedAt":"2026-08-11T13:43:44.753Z"}}},{"type":"Feature","geometry":{"type":"Point","coordinates":[3.704405,51.6460617]},"properties":{"dolphinKind":"buoy-special","rawObjectClass":"BOYSPP","sourceProperties":{"RCID":381748993,"PRIM":1,"GRUP":2,"OBJL":19,"RVER":1,"AGEN":7979,"FIDN":381748993,"FIDS":1,"LNAM":"1F2B16C107010001","BOYSHP":2,"CATSPM":["50"],"COLOUR":["6"],"CONRAD":3,"OBJNAM":"S 1V","SCAMIN":200000,"SORDAT":"20200904","sourceCellId":"1R75W8RI","sourceChecksum":"a12af52c5db82a56c98d7d0e5b3caca868ff94978e2a341db3228266d1119537","rawObjectClass":"BOYSPP","sourceStableId":"1F2B16C107010001"},"sourceKind":"official","official":true,"sourceCellId":"1R75W8RI","sourceStableId":"1F2B16C107010001","pipelineFeatureId":"1R75W8RI/BOYSPP/381748993","provenance":{"cellId":"1R75W8RI","checksum":"a12af52c5db82a56c98d7d0e5b3caca868ff94978e2a341db3228266d1119537","readerVersion":"GDAL 3.2.2","processedAt":"2026-08-11T13:43:44.753Z"}}},{"type":"Feature","geometry":{"type":"Point","coordinates":[3.7065967,51.6465617]},"properties":{"dolphinKind":"buoy-special","rawObjectClass":"BOYSPP","sourceProperties":{"RCID":381748994,"PRIM":1,"GRUP":2,"OBJL":19,"RVER":1,"AGEN":7979,"FIDN":381748994,"FIDS":1,"LNAM":"1F2B16C107020001","BOYSHP":2,"CATSPM":["50"],"COLOUR":["6"],"CONRAD":3,"OBJNAM":"S 1AV","SCAMIN":200000,"SORDAT":"20200904","sourceCellId":"1R75W8RI","sourceChecksum":"a12af52c5db82a56c98d7d0e5b3caca868ff94978e2a341db3228266d1119537","rawObjectClass":"BOYSPP","sourceStableId":"1F2B16C107020001"},"sourceKind":"official","official":true,"sourceCellId":"1R75W8RI","sourceStableId":"1F2B16C107020001","pipelineFeatureId":"1R75W8RI/BOYSPP/381748994","provenance":{"cellId":"1R75W8RI","checksum":"a12af52c5db82a56c98d7d0e5b3caca868ff94978e2a341db3228266d1119537","readerVersion":"GDAL 3.2.2","processedAt":"2026-08-11T13:43:44.753Z"}}},{"type":"Feature","geometry":{"type":"Point","coordinates":[3.7053183,51.6478633]},"properties":{"dolphinKind":"buoy-special","rawObjectClass":"BOYSPP","sourceProperties":{"RCID":381748995,"PRIM":1,"GRUP":2,"OBJL":19,"RVER":1,"AGEN":7979,"FIDN":381748995,"FIDS":1,"LNAM":"1F2B16C107030001","BOYSHP":2,"CATSPM":["50"],"COLOUR":["6"],"CONRAD":3,"OBJNAM":"S 3Z","SCAMIN":200000,"SORDAT":"20200904","sourceCellId":"1R75W8RI","sourceChecksum":"a12af52c5db82a56c98d7d0e5b3caca868ff94978e2a341db3228266d1119537","rawObjectClass":"BOYSPP","sourceStableId":"1F2B16C107030001"},"sourceKind":"official","official":true,"sourceCellId":"1R75W8RI","sourceStableId":"1F2B16C107030001","pipelineFeatureId":"1R75W8RI/BOYSPP/381748995","provenance":{"cellId":"1R75W8RI","checksum":"a12af52c5db82a56c98d7d0e5b3caca868ff94978e2a341db3228266d1119537","readerVersion":"GDAL 3.2.2","processedAt":"2026-08-11T13:43:44.753Z"}}},{"type":"Feature","geometry":{"type":"Point","coordinates":[3.7079,51.6445717]},"properties":{"dolphinKind":"buoy-special","rawObjectClass":"BOYSPP","sourceProperties":{"RCID":381748996,"PRIM":1,"GRUP":2,"OBJL":19,"RVER":1,"AGEN":7979,"FIDN":381748996,"FIDS":1,"LNAM":"1F2B16C107040001","BOYSHP":2,"CATSPM":["50"],"COLOUR":["6"],"CONRAD":3,"OBJNAM":"S 1AZ","SCAMIN":200000,"SORDAT":"20200904","sourceCellId":"1R75W8RI","sourceChecksum":"a12af52c5db82a56c98d7d0e5b3caca868ff94978e2a341db3228266d1119537","rawObjectClass":"BOYSPP","sourceStableId":"1F2B16C107040001"},"sourceKind":"official","official":true,"sourceCellId":"1R75W8RI","sourceStableId":"1F2B16C107040001","pipelineFeatureId":"1R75W8RI/BOYSPP/381748996","provenance":{"cellId":"1R75W8RI","checksum":"a12af52c5db82a56c98d7d0e5b3caca868ff94978e2a341db3228266d1119537","readerVersion":"GDAL 3.2.2","processedAt":"2026-08-11T13:43:44.753Z"}}},{"type":"Feature","geometry":{"type":"Point","coordinates":[3.7227883,51.6405967]},"properties":{"dolphinKind":"buoy-special","rawObjectClass":"BOYSPP","sourceProperties":{"RCID":446398890,"PRIM":1,"GRUP":2,"OBJL":19,"RVER":1,"AGEN":7979,"FIDN":446398890,"FIDS":1,"LNAM":"1F2B1A9B81AA0001","BOYSHP":2,"CATSPM":["27"],"COLOUR":["6"],"OBJNAM":"S 2BZZ","INFORM":"VMD","SCAMIN":200000,"SORDAT":"20220103","SORIND":"Nl,1R,reprt,MD 014-22 Correctie","sourceCellId":"1R75W8RI","sourceChecksum":"a12af52c5db82a56c98d7d0e5b3caca868ff94978e2a341db3228266d1119537","rawObjectClass":"BOYSPP","sourceStableId":"1F2B1A9B81AA0001"},"sourceKind":"official","official":true,"sourceCellId":"1R75W8RI","sourceStableId":"1F2B1A9B81AA0001","pipelineFeatureId":"1R75W8RI/BOYSPP/446398890","provenance":{"cellId":"1R75W8RI","checksum":"a12af52c5db82a56c98d7d0e5b3caca868ff94978e2a341db3228266d1119537","readerVersion":"GDAL 3.2.2","processedAt":"2026-08-11T13:43:44.753Z"}}},{"type":"Feature","geometry":{"type":"Point","coordinates":[3.7075017,51.6596533]},"properties":{"dolphinKind":"buoy-special","rawObjectClass":"BOYSPP","sourceProperties":{"RCID":450821708,"PRIM":1,"GRUP":2,"OBJL":19,"RVER":1,"AGEN":7979,"FIDN":450821708,"FIDS":1,"LNAM":"1F2B1ADEFE4C0001","BOYSHP":2,"CATSPM":["50"],"COLOUR":["6"],"OBJNAM":"H 3N","SCAMIN":200000,"SORDAT":"20220303","SORIND":"NL,1R,Reprt,MD 106-22","sourceCellId":"1R75W8RI","sourceChecksum":"a12af52c5db82a56c98d7d0e5b3caca868ff94978e2a341db3228266d1119537","rawObjectClass":"BOYSPP","sourceStableId":"1F2B1ADEFE4C0001"},"sourceKind":"official","official":true,"sourceCellId":"1R75W8RI","sourceStableId":"1F2B1ADEFE4C0001","pipelineFeatureId":"1R75W8RI/BOYSPP/450821708","provenance":{"cellId":"1R75W8RI","checksum":"a12af52c5db82a56c98d7d0e5b3caca868ff94978e2a341db3228266d1119537","readerVersion":"GDAL 3.2.2","processedAt":"2026-08-11T13:43:44.753Z"}}},{"type":"Feature","geometry":{"type":"Point","coordinates":[3.71224,51.6479683]},"properties":{"dolphinKind":"buoy-special","rawObjectClass":"BOYSPP","sourceProperties":{"RCID":1204885056,"PRIM":1,"GRUP":2,"OBJL":19,"RVER":1,"AGEN":7979,"FIDN":1204885056,"FIDS":1,"LNAM":"1F2B47D116400001","BOYSHP":5,"CATSPM":["10","9"],"COLOUR":["6"],"MARSYS":1,"NOBJNM":"Oosterscheldekering Schaar","OBJNAM":"OSKS","INFORM":"Wave buoy","NINFOM":"Golfmeetboei","SCAMIN":200000,"SORDAT":"20250709","SORIND":"NL,1R,reprt,Topdesk C250702371","sourceCellId":"1R75W8RI","sourceChecksum":"a12af52c5db82a56c98d7d0e5b3caca868ff94978e2a341db3228266d1119537","rawObjectClass":"BOYSPP","sourceStableId":"1F2B47D116400001"},"sourceKind":"official","official":true,"sourceCellId":"1R75W8RI","sourceStableId":"1F2B47D116400001","pipelineFeatureId":"1R75W8RI/BOYSPP/1204885056","provenance":{"cellId":"1R75W8RI","checksum":"a12af52c5db82a56c98d7d0e5b3caca868ff94978e2a341db3228266d1119537","readerVersion":"GDAL 3.2.2","processedAt":"2026-08-11T13:43:44.753Z"}}},{"type":"Feature","geometry":{"type":"Point","coordinates":[3.71684,51.6600967]},"properties":{"dolphinKind":"buoy-special","rawObjectClass":"BOYSPP","sourceProperties":{"RCID":1204885057,"PRIM":1,"GRUP":2,"OBJL":19,"RVER":1,"AGEN":7979,"FIDN":1204885057,"FIDS":1,"LNAM":"1F2B47D116410001","BOYSHP":5,"CATSPM":["10","9"],"COLOUR":["6"],"MARSYS":1,"NOBJNM":"Oosterscheldekering Hammen","OBJNAM":"OSKH","INFORM":"Wave buoy","NINFOM":"Golfmeetboei","SCAMIN":200000,"SORDAT":"20250709","SORIND":"NL,1R,reprt,Topdesk C250702371","sourceCellId":"1R75W8RI","sourceChecksum":"a12af52c5db82a56c98d7d0e5b3caca868ff94978e2a341db3228266d1119537","rawObjectClass":"BOYSPP","sourceStableId":"1F2B47D116410001"},"sourceKind":"official","official":true,"sourceCellId":"1R75W8RI","sourceStableId":"1F2B47D116410001","pipelineFeatureId":"1R75W8RI/BOYSPP/1204885057","provenance":{"cellId":"1R75W8RI","checksum":"a12af52c5db82a56c98d7d0e5b3caca868ff94978e2a341db3228266d1119537","readerVersion":"GDAL 3.2.2","processedAt":"2026-08-11T13:43:44.753Z"}}},{"type":"Feature","geometry":{"type":"Point","coordinates":[3.5444667,51.65755]},"properties":{"dolphinKind":"light","rawObjectClass":"LIGHTS","sourceProperties":{"RCID":17525,"PRIM":1,"GRUP":2,"OBJL":75,"RVER":1,"AGEN":7979,"FIDN":1106834684,"FIDS":331,"LNAM":"1F2B41F8F4FC014B","COLOUR":["4"],"LITCHR":7,"SIGGRP":"(1)","SIGPER":4,"SCAMIN":200000,"SORDAT":"20230510","sourceCellId":"1R75W8RI","sourceChecksum":"a12af52c5db82a56c98d7d0e5b3caca868ff94978e2a341db3228266d1119537","rawObjectClass":"LIGHTS","sourceStableId":"1F2B41F8F4FC014B"},"sourceKind":"official","official":true,"sourceCellId":"1R75W8RI","sourceStableId":"1F2B41F8F4FC014B","pipelineFeatureId":"1R75W8RI/LIGHTS/17525","provenance":{"cellId":"1R75W8RI","checksum":"a12af52c5db82a56c98d7d0e5b3caca868ff94978e2a341db3228266d1119537","readerVersion":"GDAL 3.2.2","processedAt":"2026-08-11T13:43:44.753Z"}}},{"type":"Feature","geometry":{"type":"Point","coordinates":[3.5903183,51.6485967]},"properties":{"dolphinKind":"light","rawObjectClass":"LIGHTS","sourceProperties":{"RCID":17697,"PRIM":1,"GRUP":2,"OBJL":75,"RVER":1,"AGEN":7979,"FIDN":1106834684,"FIDS":503,"LNAM":"1F2B41F8F4FC01F7","COLOUR":["4"],"LITCHR":7,"SIGGRP":"(1)","SIGPER":8,"SCAMIN":200000,"SORDAT":"20230510","sourceCellId":"1R75W8RI","sourceChecksum":"a12af52c5db82a56c98d7d0e5b3caca868ff94978e2a341db3228266d1119537","rawObjectClass":"LIGHTS","sourceStableId":"1F2B41F8F4FC01F7"},"sourceKind":"official","official":true,"sourceCellId":"1R75W8RI","sourceStableId":"1F2B41F8F4FC01F7","pipelineFeatureId":"1R75W8RI/LIGHTS/17697","provenance":{"cellId":"1R75W8RI","checksum":"a12af52c5db82a56c98d7d0e5b3caca868ff94978e2a341db3228266d1119537","readerVersion":"GDAL 3.2.2","processedAt":"2026-08-11T13:43:44.753Z"}}},{"type":"Feature","geometry":{"type":"Point","coordinates":[3.6126133,51.6429767]},"properties":{"dolphinKind":"light","rawObjectClass":"LIGHTS","sourceProperties":{"RCID":17707,"PRIM":1,"GRUP":2,"OBJL":75,"RVER":1,"AGEN":7979,"FIDN":1106834685,"FIDS":258,"LNAM":"1F2B41F8F4FD0102","COLOUR":["3"],"LITCHR":7,"SIGGRP":"(1)","SIGPER":8,"SCAMIN":200000,"SORDAT":"20230510","SORIND":"NL,1R,reprt,MD 261-23","sourceCellId":"1R75W8RI","sourceChecksum":"a12af52c5db82a56c98d7d0e5b3caca868ff94978e2a341db3228266d1119537","rawObjectClass":"LIGHTS","sourceStableId":"1F2B41F8F4FD0102"},"sourceKind":"official","official":true,"sourceCellId":"1R75W8RI","sourceStableId":"1F2B41F8F4FD0102","pipelineFeatureId":"1R75W8RI/LIGHTS/17707","provenance":{"cellId":"1R75W8RI","checksum":"a12af52c5db82a56c98d7d0e5b3caca868ff94978e2a341db3228266d1119537","readerVersion":"GDAL 3.2.2","processedAt":"2026-08-11T13:43:44.753Z"}}},{"type":"Feature","geometry":{"type":"Point","coordinates":[3.7231399,51.6371729]},"properties":{"dolphinKind":"light","rawObjectClass":"LIGHTS","sourceProperties":{"RCID":19768,"PRIM":1,"GRUP":2,"OBJL":75,"RVER":1,"AGEN":7979,"FIDN":1106834753,"FIDS":469,"LNAM":"1F2B41F8F54101D5","COLOUR":["4"],"LITCHR":1,"SCAMIN":200000,"SORDAT":"20151105","SORIND":"NL,1R,Reprt,Topdesk M151102588","sourceCellId":"1R75W8RI","sourceChecksum":"a12af52c5db82a56c98d7d0e5b3caca868ff94978e2a341db3228266d1119537","rawObjectClass":"LIGHTS","sourceStableId":"1F2B41F8F54101D5"},"sourceKind":"official","official":true,"sourceCellId":"1R75W8RI","sourceStableId":"1F2B41F8F54101D5","pipelineFeatureId":"1R75W8RI/LIGHTS/19768","provenance":{"cellId":"1R75W8RI","checksum":"a12af52c5db82a56c98d7d0e5b3caca868ff94978e2a341db3228266d1119537","readerVersion":"GDAL 3.2.2","processedAt":"2026-08-11T13:43:44.753Z"}}},{"type":"Feature","geometry":{"type":"Point","coordinates":[3.7184506,51.638777]},"properties":{"dolphinKind":"light","rawObjectClass":"LIGHTS","sourceProperties":{"RCID":19769,"PRIM":1,"GRUP":2,"OBJL":75,"RVER":1,"AGEN":7979,"FIDN":1106834753,"FIDS":470,"LNAM":"1F2B41F8F54101D6","COLOUR":["3"],"LITCHR":1,"SCAMIN":200000,"SORDAT":"20151105","SORIND":"NL,1R,Reprt,Topdesk M151102588","sourceCellId":"1R75W8RI","sourceChecksum":"a12af52c5db82a56c98d7d0e5b3caca868ff94978e2a341db3228266d1119537","rawObjectClass":"LIGHTS","sourceStableId":"1F2B41F8F54101D6"},"sourceKind":"official","official":true,"sourceCellId":"1R75W8RI","sourceStableId":"1F2B41F8F54101D6","pipelineFeatureId":"1R75W8RI/LIGHTS/19769","provenance":{"cellId":"1R75W8RI","checksum":"a12af52c5db82a56c98d7d0e5b3caca868ff94978e2a341db3228266d1119537","readerVersion":"GDAL 3.2.2","processedAt":"2026-08-11T13:43:44.753Z"}}},{"type":"Feature","geometry":{"type":"Point","coordinates":[3.7061844,51.6421077]},"properties":{"dolphinKind":"light","rawObjectClass":"LIGHTS","sourceProperties":{"RCID":25452,"PRIM":1,"GRUP":2,"OBJL":75,"RVER":1,"AGEN":7979,"FIDN":1111502785,"FIDS":257,"LNAM":"1F2B42402FC10101","COLOUR":["3"],"LITCHR":1,"SCAMIN":200000,"sourceCellId":"1R75W8RI","sourceChecksum":"a12af52c5db82a56c98d7d0e5b3caca868ff94978e2a341db3228266d1119537","rawObjectClass":"LIGHTS","sourceStableId":"1F2B42402FC10101"},"sourceKind":"official","official":true,"sourceCellId":"1R75W8RI","sourceStableId":"1F2B42402FC10101","pipelineFeatureId":"1R75W8RI/LIGHTS/25452","provenance":{"cellId":"1R75W8RI","checksum":"a12af52c5db82a56c98d7d0e5b3caca868ff94978e2a341db3228266d1119537","readerVersion":"GDAL 3.2.2","processedAt":"2026-08-11T13:43:44.753Z"}}},{"type":"Feature","geometry":{"type":"Point","coordinates":[3.7036112,51.6437198]},"properties":{"dolphinKind":"light","rawObjectClass":"LIGHTS","sourceProperties":{"RCID":25455,"PRIM":1,"GRUP":2,"OBJL":75,"RVER":1,"AGEN":7979,"FIDN":1111504254,"FIDS":257,"LNAM":"1F2B4240357E0101","COLOUR":["4"],"LITCHR":1,"SCAMIN":200000,"sourceCellId":"1R75W8RI","sourceChecksum":"a12af52c5db82a56c98d7d0e5b3caca868ff94978e2a341db3228266d1119537","rawObjectClass":"LIGHTS","sourceStableId":"1F2B4240357E0101"},"sourceKind":"official","official":true,"sourceCellId":"1R75W8RI","sourceStableId":"1F2B4240357E0101","pipelineFeatureId":"1R75W8RI/LIGHTS/25455","provenance":{"cellId":"1R75W8RI","checksum":"a12af52c5db82a56c98d7d0e5b3caca868ff94978e2a341db3228266d1119537","readerVersion":"GDAL 3.2.2","processedAt":"2026-08-11T13:43:44.753Z"}}},{"type":"Feature","geometry":{"type":"Point","coordinates":[3.7312717,51.654075]},"properties":{"dolphinKind":"light","rawObjectClass":"LIGHTS","sourceProperties":{"RCID":25457,"PRIM":1,"GRUP":2,"OBJL":75,"RVER":1,"AGEN":7979,"FIDN":1111653100,"FIDS":257,"LNAM":"1F2B42427AEC0101","COLOUR":["3"],"HEIGHT":10,"LITCHR":1,"SCAMIN":200000,"sourceCellId":"1R75W8RI","sourceChecksum":"a12af52c5db82a56c98d7d0e5b3caca868ff94978e2a341db3228266d1119537","rawObjectClass":"LIGHTS","sourceStableId":"1F2B42427AEC0101"},"sourceKind":"official","official":true,"sourceCellId":"1R75W8RI","sourceStableId":"1F2B42427AEC0101","pipelineFeatureId":"1R75W8RI/LIGHTS/25457","provenance":{"cellId":"1R75W8RI","checksum":"a12af52c5db82a56c98d7d0e5b3caca868ff94978e2a341db3228266d1119537","readerVersion":"GDAL 3.2.2","processedAt":"2026-08-11T13:43:44.753Z"}}},{"type":"Feature","geometry":{"type":"Point","coordinates":[3.7287467,51.65479]},"properties":{"dolphinKind":"light","rawObjectClass":"LIGHTS","sourceProperties":{"RCID":25459,"PRIM":1,"GRUP":2,"OBJL":75,"RVER":1,"AGEN":7979,"FIDN":1111653118,"FIDS":257,"LNAM":"1F2B42427AFE0101","COLOUR":["4"],"HEIGHT":4.1,"LITCHR":1,"SCAMIN":200000,"sourceCellId":"1R75W8RI","sourceChecksum":"a12af52c5db82a56c98d7d0e5b3caca868ff94978e2a341db3228266d1119537","rawObjectClass":"LIGHTS","sourceStableId":"1F2B42427AFE0101"},"sourceKind":"official","official":true,"sourceCellId":"1R75W8RI","sourceStableId":"1F2B42427AFE0101","pipelineFeatureId":"1R75W8RI/LIGHTS/25459","provenance":{"cellId":"1R75W8RI","checksum":"a12af52c5db82a56c98d7d0e5b3caca868ff94978e2a341db3228266d1119537","readerVersion":"GDAL 3.2.2","processedAt":"2026-08-11T13:43:44.753Z"}}},{"type":"Feature","geometry":{"type":"Point","coordinates":[3.5443783,51.6655683]},"properties":{"dolphinKind":"light","rawObjectClass":"LIGHTS","sourceProperties":{"RCID":514439070,"PRIM":1,"GRUP":2,"OBJL":75,"RVER":1,"AGEN":7979,"FIDN":514439070,"FIDS":1,"LNAM":"1F2B1EA9B79E0001","COLOUR":["1"],"LITCHR":25,"SIGGRP":"(6)(1)","SIGPER":15,"SCAMIN":200000,"SORDAT":"20230510","SORIND":"NL,1R,reprt,MD 257-23","sourceCellId":"1R75W8RI","sourceChecksum":"a12af52c5db82a56c98d7d0e5b3caca868ff94978e2a341db3228266d1119537","rawObjectClass":"LIGHTS","sourceStableId":"1F2B1EA9B79E0001"},"sourceKind":"official","official":true,"sourceCellId":"1R75W8RI","sourceStableId":"1F2B1EA9B79E0001","pipelineFeatureId":"1R75W8RI/LIGHTS/514439070","provenance":{"cellId":"1R75W8RI","checksum":"a12af52c5db82a56c98d7d0e5b3caca868ff94978e2a341db3228266d1119537","readerVersion":"GDAL 3.2.2","processedAt":"2026-08-11T13:43:44.753Z"}}},{"type":"Feature","geometry":{"type":"Point","coordinates":[3.563155,51.6599483]},"properties":{"dolphinKind":"light","rawObjectClass":"LIGHTS","sourceProperties":{"RCID":1136517032,"PRIM":1,"GRUP":2,"OBJL":75,"RVER":1,"AGEN":7979,"FIDN":1136517032,"FIDS":1,"LNAM":"1F2B43BDDFA80001","COLOUR":["3"],"LITCHR":4,"SIGGRP":"(1)","SCAMIN":200000,"SORDAT":"20230510","SORIND":"NL,1R,reprt,MD 261-23","sourceCellId":"1R75W8RI","sourceChecksum":"a12af52c5db82a56c98d7d0e5b3caca868ff94978e2a341db3228266d1119537","rawObjectClass":"LIGHTS","sourceStableId":"1F2B43BDDFA80001"},"sourceKind":"official","official":true,"sourceCellId":"1R75W8RI","sourceStableId":"1F2B43BDDFA80001","pipelineFeatureId":"1R75W8RI/LIGHTS/1136517032","provenance":{"cellId":"1R75W8RI","checksum":"a12af52c5db82a56c98d7d0e5b3caca868ff94978e2a341db3228266d1119537","readerVersion":"GDAL 3.2.2","processedAt":"2026-08-11T13:43:44.753Z"}}},{"type":"Feature","geometry":{"type":"Point","coordinates":[3.5443783,51.6655683]},"properties":{"dolphinKind":"topmark","rawObjectClass":"TOPMAR","sourceProperties":{"RCID":17530,"PRIM":1,"GRUP":2,"OBJL":144,"RVER":1,"AGEN":7979,"FIDN":1106834684,"FIDS":336,"LNAM":"1F2B41F8F4FC0150","COLOUR":["2"],"TOPSHP":14,"SCAMIN":200000,"SORDAT":"20230510","SORIND":"NL,1R,reprt,MD 257-23","sourceCellId":"1R75W8RI","sourceChecksum":"a12af52c5db82a56c98d7d0e5b3caca868ff94978e2a341db3228266d1119537","rawObjectClass":"TOPMAR","sourceStableId":"1F2B41F8F4FC0150"},"sourceKind":"official","official":true,"sourceCellId":"1R75W8RI","sourceStableId":"1F2B41F8F4FC0150","pipelineFeatureId":"1R75W8RI/TOPMAR/17530","provenance":{"cellId":"1R75W8RI","checksum":"a12af52c5db82a56c98d7d0e5b3caca868ff94978e2a341db3228266d1119537","readerVersion":"GDAL 3.2.2","processedAt":"2026-08-11T13:43:44.753Z"},"associationRefsVerifiedInGdalOutput":false}},{"type":"Feature","geometry":{"type":"Point","coordinates":[3.622825,51.64778]},"properties":{"dolphinKind":"topmark","rawObjectClass":"TOPMAR","sourceProperties":{"RCID":17689,"PRIM":1,"GRUP":2,"OBJL":144,"RVER":1,"AGEN":7979,"FIDN":1106834684,"FIDS":495,"LNAM":"1F2B41F8F4FC01EF","COLOUR":["2"],"TOPSHP":10,"SCAMIN":200000,"SORDAT":"20210505","SORIND":"NL,1R,Reprt,NDB-verbetering","sourceCellId":"1R75W8RI","sourceChecksum":"a12af52c5db82a56c98d7d0e5b3caca868ff94978e2a341db3228266d1119537","rawObjectClass":"TOPMAR","sourceStableId":"1F2B41F8F4FC01EF"},"sourceKind":"official","official":true,"sourceCellId":"1R75W8RI","sourceStableId":"1F2B41F8F4FC01EF","pipelineFeatureId":"1R75W8RI/TOPMAR/17689","provenance":{"cellId":"1R75W8RI","checksum":"a12af52c5db82a56c98d7d0e5b3caca868ff94978e2a341db3228266d1119537","readerVersion":"GDAL 3.2.2","processedAt":"2026-08-11T13:43:44.753Z"},"associationRefsVerifiedInGdalOutput":false}},{"type":"Feature","geometry":{"type":"Point","coordinates":[3.689935,51.648025]},"properties":{"dolphinKind":"topmark","rawObjectClass":"TOPMAR","sourceProperties":{"RCID":17741,"PRIM":1,"GRUP":2,"OBJL":144,"RVER":1,"AGEN":7979,"FIDN":1106834685,"FIDS":292,"LNAM":"1F2B41F8F4FD0124","COLOUR":["6"],"TOPSHP":7,"SCAMIN":200000,"sourceCellId":"1R75W8RI","sourceChecksum":"a12af52c5db82a56c98d7d0e5b3caca868ff94978e2a341db3228266d1119537","rawObjectClass":"TOPMAR","sourceStableId":"1F2B41F8F4FD0124"},"sourceKind":"official","official":true,"sourceCellId":"1R75W8RI","sourceStableId":"1F2B41F8F4FD0124","pipelineFeatureId":"1R75W8RI/TOPMAR/17741","provenance":{"cellId":"1R75W8RI","checksum":"a12af52c5db82a56c98d7d0e5b3caca868ff94978e2a341db3228266d1119537","readerVersion":"GDAL 3.2.2","processedAt":"2026-08-11T13:43:44.753Z"},"associationRefsVerifiedInGdalOutput":false}},{"type":"Feature","geometry":{"type":"Point","coordinates":[3.6889667,51.6513833]},"properties":{"dolphinKind":"topmark","rawObjectClass":"TOPMAR","sourceProperties":{"RCID":17743,"PRIM":1,"GRUP":2,"OBJL":144,"RVER":1,"AGEN":7979,"FIDN":1106834685,"FIDS":294,"LNAM":"1F2B41F8F4FD0126","COLOUR":["6"],"TOPSHP":7,"SCAMIN":200000,"sourceCellId":"1R75W8RI","sourceChecksum":"a12af52c5db82a56c98d7d0e5b3caca868ff94978e2a341db3228266d1119537","rawObjectClass":"TOPMAR","sourceStableId":"1F2B41F8F4FD0126"},"sourceKind":"official","official":true,"sourceCellId":"1R75W8RI","sourceStableId":"1F2B41F8F4FD0126","pipelineFeatureId":"1R75W8RI/TOPMAR/17743","provenance":{"cellId":"1R75W8RI","checksum":"a12af52c5db82a56c98d7d0e5b3caca868ff94978e2a341db3228266d1119537","readerVersion":"GDAL 3.2.2","processedAt":"2026-08-11T13:43:44.753Z"},"associationRefsVerifiedInGdalOutput":false}},{"type":"Feature","geometry":{"type":"Point","coordinates":[3.6896834,51.6550667]},"properties":{"dolphinKind":"topmark","rawObjectClass":"TOPMAR","sourceProperties":{"RCID":17745,"PRIM":1,"GRUP":2,"OBJL":144,"RVER":1,"AGEN":7979,"FIDN":1106834685,"FIDS":296,"LNAM":"1F2B41F8F4FD0128","COLOUR":["6"],"TOPSHP":7,"SCAMIN":200000,"sourceCellId":"1R75W8RI","sourceChecksum":"a12af52c5db82a56c98d7d0e5b3caca868ff94978e2a341db3228266d1119537","rawObjectClass":"TOPMAR","sourceStableId":"1F2B41F8F4FD0128"},"sourceKind":"official","official":true,"sourceCellId":"1R75W8RI","sourceStableId":"1F2B41F8F4FD0128","pipelineFeatureId":"1R75W8RI/TOPMAR/17745","provenance":{"cellId":"1R75W8RI","checksum":"a12af52c5db82a56c98d7d0e5b3caca868ff94978e2a341db3228266d1119537","readerVersion":"GDAL 3.2.2","processedAt":"2026-08-11T13:43:44.753Z"},"associationRefsVerifiedInGdalOutput":false}},{"type":"Feature","geometry":{"type":"Point","coordinates":[3.694,51.6615]},"properties":{"dolphinKind":"topmark","rawObjectClass":"TOPMAR","sourceProperties":{"RCID":17747,"PRIM":1,"GRUP":2,"OBJL":144,"RVER":1,"AGEN":7979,"FIDN":1106834685,"FIDS":298,"LNAM":"1F2B41F8F4FD012A","COLOUR":["6"],"TOPSHP":7,"SCAMIN":200000,"sourceCellId":"1R75W8RI","sourceChecksum":"a12af52c5db82a56c98d7d0e5b3caca868ff94978e2a341db3228266d1119537","rawObjectClass":"TOPMAR","sourceStableId":"1F2B41F8F4FD012A"},"sourceKind":"official","official":true,"sourceCellId":"1R75W8RI","sourceStableId":"1F2B41F8F4FD012A","pipelineFeatureId":"1R75W8RI/TOPMAR/17747","provenance":{"cellId":"1R75W8RI","checksum":"a12af52c5db82a56c98d7d0e5b3caca868ff94978e2a341db3228266d1119537","readerVersion":"GDAL 3.2.2","processedAt":"2026-08-11T13:43:44.753Z"},"associationRefsVerifiedInGdalOutput":false}},{"type":"Feature","geometry":{"type":"Point","coordinates":[3.7005667,51.6658333]},"properties":{"dolphinKind":"topmark","rawObjectClass":"TOPMAR","sourceProperties":{"RCID":25461,"PRIM":1,"GRUP":2,"OBJL":144,"RVER":1,"AGEN":7979,"FIDN":1111666998,"FIDS":257,"LNAM":"1F2B4242B1360101","COLOUR":["6"],"TOPSHP":7,"SCAMIN":200000,"sourceCellId":"1R75W8RI","sourceChecksum":"a12af52c5db82a56c98d7d0e5b3caca868ff94978e2a341db3228266d1119537","rawObjectClass":"TOPMAR","sourceStableId":"1F2B4242B1360101"},"sourceKind":"official","official":true,"sourceCellId":"1R75W8RI","sourceStableId":"1F2B4242B1360101","pipelineFeatureId":"1R75W8RI/TOPMAR/25461","provenance":{"cellId":"1R75W8RI","checksum":"a12af52c5db82a56c98d7d0e5b3caca868ff94978e2a341db3228266d1119537","readerVersion":"GDAL 3.2.2","processedAt":"2026-08-11T13:43:44.753Z"},"associationRefsVerifiedInGdalOutput":false}},{"type":"Feature","geometry":{"type":"Point","coordinates":[3.7287467,51.65479]},"properties":{"dolphinKind":"topmark","rawObjectClass":"TOPMAR","sourceProperties":{"RCID":502949317,"PRIM":1,"GRUP":2,"OBJL":144,"RVER":1,"AGEN":7979,"FIDN":502949317,"FIDS":1,"LNAM":"1F2B1DFA65C50001","COLOUR":["4"],"TOPSHP":1,"SCAMIN":200000,"SORDAT":"20230223","SORIND":"NL,1R,reprt,NDB verbetering","sourceCellId":"1R75W8RI","sourceChecksum":"a12af52c5db82a56c98d7d0e5b3caca868ff94978e2a341db3228266d1119537","rawObjectClass":"TOPMAR","sourceStableId":"1F2B1DFA65C50001"},"sourceKind":"official","official":true,"sourceCellId":"1R75W8RI","sourceStableId":"1F2B1DFA65C50001","pipelineFeatureId":"1R75W8RI/TOPMAR/502949317","provenance":{"cellId":"1R75W8RI","checksum":"a12af52c5db82a56c98d7d0e5b3caca868ff94978e2a341db3228266d1119537","readerVersion":"GDAL 3.2.2","processedAt":"2026-08-11T13:43:44.753Z"},"associationRefsVerifiedInGdalOutput":false}},{"type":"Feature","geometry":{"type":"Point","coordinates":[3.7312717,51.654075]},"properties":{"dolphinKind":"topmark","rawObjectClass":"TOPMAR","sourceProperties":{"RCID":502949318,"PRIM":1,"GRUP":2,"OBJL":144,"RVER":1,"AGEN":7979,"FIDN":502949318,"FIDS":1,"LNAM":"1F2B1DFA65C60001","COLOUR":["1"],"TOPSHP":2,"SCAMIN":200000,"SORDAT":"20230223","SORIND":"NL,1R,reprt,NDB verbetering","sourceCellId":"1R75W8RI","sourceChecksum":"a12af52c5db82a56c98d7d0e5b3caca868ff94978e2a341db3228266d1119537","rawObjectClass":"TOPMAR","sourceStableId":"1F2B1DFA65C60001"},"sourceKind":"official","official":true,"sourceCellId":"1R75W8RI","sourceStableId":"1F2B1DFA65C60001","pipelineFeatureId":"1R75W8RI/TOPMAR/502949318","provenance":{"cellId":"1R75W8RI","checksum":"a12af52c5db82a56c98d7d0e5b3caca868ff94978e2a341db3228266d1119537","readerVersion":"GDAL 3.2.2","processedAt":"2026-08-11T13:43:44.753Z"},"associationRefsVerifiedInGdalOutput":false}},{"type":"Feature","geometry":{"type":"Point","coordinates":[3.5444667,51.65755]},"properties":{"dolphinKind":"topmark","rawObjectClass":"TOPMAR","sourceProperties":{"RCID":514423869,"PRIM":1,"GRUP":2,"OBJL":144,"RVER":1,"AGEN":7979,"FIDN":514423869,"FIDS":1,"LNAM":"1F2B1EA97C3D0001","COLOUR":["4"],"TOPSHP":1,"SCAMIN":200000,"SORDAT":"20230510","SORIND":"NL,1R,reprt,MD 257-23","sourceCellId":"1R75W8RI","sourceChecksum":"a12af52c5db82a56c98d7d0e5b3caca868ff94978e2a341db3228266d1119537","rawObjectClass":"TOPMAR","sourceStableId":"1F2B1EA97C3D0001"},"sourceKind":"official","official":true,"sourceCellId":"1R75W8RI","sourceStableId":"1F2B1EA97C3D0001","pipelineFeatureId":"1R75W8RI/TOPMAR/514423869","provenance":{"cellId":"1R75W8RI","checksum":"a12af52c5db82a56c98d7d0e5b3caca868ff94978e2a341db3228266d1119537","readerVersion":"GDAL 3.2.2","processedAt":"2026-08-11T13:43:44.753Z"},"associationRefsVerifiedInGdalOutput":false}},{"type":"Feature","geometry":{"type":"Point","coordinates":[3.5903183,51.6485967]},"properties":{"dolphinKind":"topmark","rawObjectClass":"TOPMAR","sourceProperties":{"RCID":1136517031,"PRIM":1,"GRUP":2,"OBJL":144,"RVER":1,"AGEN":7979,"FIDN":1136517031,"FIDS":1,"LNAM":"1F2B43BDDFA70001","COLOUR":["4"],"TOPSHP":1,"SCAMIN":200000,"SORDAT":"20230510","sourceCellId":"1R75W8RI","sourceChecksum":"a12af52c5db82a56c98d7d0e5b3caca868ff94978e2a341db3228266d1119537","rawObjectClass":"TOPMAR","sourceStableId":"1F2B43BDDFA70001"},"sourceKind":"official","official":true,"sourceCellId":"1R75W8RI","sourceStableId":"1F2B43BDDFA70001","pipelineFeatureId":"1R75W8RI/TOPMAR/1136517031","provenance":{"cellId":"1R75W8RI","checksum":"a12af52c5db82a56c98d7d0e5b3caca868ff94978e2a341db3228266d1119537","readerVersion":"GDAL 3.2.2","processedAt":"2026-08-11T13:43:44.753Z"},"associationRefsVerifiedInGdalOutput":false}},{"type":"Feature","geometry":{"type":"Point","coordinates":[3.563155,51.6599483]},"properties":{"dolphinKind":"topmark","rawObjectClass":"TOPMAR","sourceProperties":{"RCID":1136517033,"PRIM":1,"GRUP":2,"OBJL":144,"RVER":1,"AGEN":7979,"FIDN":1136517033,"FIDS":1,"LNAM":"1F2B43BDDFA90001","COLOUR":["3"],"TOPSHP":5,"SCAMIN":200000,"SORDAT":"20230510","SORIND":"NL,1R,reprt,MD 261-23","sourceCellId":"1R75W8RI","sourceChecksum":"a12af52c5db82a56c98d7d0e5b3caca868ff94978e2a341db3228266d1119537","rawObjectClass":"TOPMAR","sourceStableId":"1F2B43BDDFA90001"},"sourceKind":"official","official":true,"sourceCellId":"1R75W8RI","sourceStableId":"1F2B43BDDFA90001","pipelineFeatureId":"1R75W8RI/TOPMAR/1136517033","provenance":{"cellId":"1R75W8RI","checksum":"a12af52c5db82a56c98d7d0e5b3caca868ff94978e2a341db3228266d1119537","readerVersion":"GDAL 3.2.2","processedAt":"2026-08-11T13:43:44.753Z"},"associationRefsVerifiedInGdalOutput":false}},{"type":"Feature","geometry":{"type":"Point","coordinates":[3.5918433,51.6535183]},"properties":{"dolphinKind":"topmark","rawObjectClass":"TOPMAR","sourceProperties":{"RCID":1136517034,"PRIM":1,"GRUP":2,"OBJL":144,"RVER":1,"AGEN":7979,"FIDN":1136517034,"FIDS":1,"LNAM":"1F2B43BDDFAA0001","COLOUR":["3"],"TOPSHP":5,"SCAMIN":200000,"SORDAT":"20230510","SORIND":"NL,1R,reprt,MD 261-23","sourceCellId":"1R75W8RI","sourceChecksum":"a12af52c5db82a56c98d7d0e5b3caca868ff94978e2a341db3228266d1119537","rawObjectClass":"TOPMAR","sourceStableId":"1F2B43BDDFAA0001"},"sourceKind":"official","official":true,"sourceCellId":"1R75W8RI","sourceStableId":"1F2B43BDDFAA0001","pipelineFeatureId":"1R75W8RI/TOPMAR/1136517034","provenance":{"cellId":"1R75W8RI","checksum":"a12af52c5db82a56c98d7d0e5b3caca868ff94978e2a341db3228266d1119537","readerVersion":"GDAL 3.2.2","processedAt":"2026-08-11T13:43:44.753Z"},"associationRefsVerifiedInGdalOutput":false}}]}