{"type":"FeatureCollection","features":[{"type":"Feature","geometry":{"type":"Point","coordinates":[3.5254333,51.4507833]},"properties":{"dolphinKind":"buoy-lateral","rawObjectClass":"BOYLAT","sourceProperties":{"RCID":17012,"PRIM":1,"GRUP":2,"OBJL":17,"RVER":1,"AGEN":7979,"FIDN":1106834682,"FIDS":328,"LNAM":"1F2B41F8F4FA0148","LNAM_REFS":["1F2B41F8F4FA0149"],"FFPT_RIND":[2],"BOYSHP":1,"CATLAM":2,"COLOUR":["4"],"CONRAD":3,"OBJNAM":"OG 23","SCAMIN":200000,"SORDAT":"20170530","SORIND":"NL,1R,Reprt,BASS039-2017","sourceCellId":"1R75K83I","sourceChecksum":"43310d07eea7fc16f62cde806084973756982679c20eaa5a0d4a8d94fa41c0e3","rawObjectClass":"BOYLAT","sourceStableId":"1F2B41F8F4FA0148"},"sourceKind":"official","official":true,"sourceCellId":"1R75K83I","sourceStableId":"1F2B41F8F4FA0148","pipelineFeatureId":"1R75K83I/BOYLAT/17012","provenance":{"cellId":"1R75K83I","checksum":"43310d07eea7fc16f62cde806084973756982679c20eaa5a0d4a8d94fa41c0e3","readerVersion":"GDAL 3.2.2","processedAt":"2026-08-11T13:43:44.753Z"}}},{"type":"Feature","geometry":{"type":"Point","coordinates":[3.5123167,51.45835]},"properties":{"dolphinKind":"buoy-lateral","rawObjectClass":"BOYLAT","sourceProperties":{"RCID":17014,"PRIM":1,"GRUP":2,"OBJL":17,"RVER":1,"AGEN":7979,"FIDN":1106834682,"FIDS":330,"LNAM":"1F2B41F8F4FA014A","LNAM_REFS":["1F2B41F8F4FA014B","1F2B4873C3C10001"],"FFPT_RIND":[2,2],"BOYSHP":1,"CATLAM":2,"COLOUR":["4"],"CONRAD":3,"OBJNAM":"OG 21","SCAMIN":200000,"SORDAT":"20170530","SORIND":"NL,1R,Reprt,BASS039-2017","sourceCellId":"1R75K83I","sourceChecksum":"43310d07eea7fc16f62cde806084973756982679c20eaa5a0d4a8d94fa41c0e3","rawObjectClass":"BOYLAT","sourceStableId":"1F2B41F8F4FA014A"},"sourceKind":"official","official":true,"sourceCellId":"1R75K83I","sourceStableId":"1F2B41F8F4FA014A","pipelineFeatureId":"1R75K83I/BOYLAT/17014","provenance":{"cellId":"1R75K83I","checksum":"43310d07eea7fc16f62cde806084973756982679c20eaa5a0d4a8d94fa41c0e3","readerVersion":"GDAL 3.2.2","processedAt":"2026-08-11T13:43:44.753Z"}}},{"type":"Feature","geometry":{"type":"Point","coordinates":[3.520045,51.4646767]},"properties":{"dolphinKind":"buoy-lateral","rawObjectClass":"BOYLAT","sourceProperties":{"RCID":17143,"PRIM":1,"GRUP":2,"OBJL":17,"RVER":1,"AGEN":7979,"FIDN":1106834682,"FIDS":459,"LNAM":"1F2B41F8F4FA01CB","LNAM_REFS":["1F2B41F8F4FA01CA"],"FFPT_RIND":[2],"BOYSHP":2,"CATLAM":1,"COLOUR":["3"],"CONRAD":3,"OBJNAM":"OG 18","SCAMIN":200000,"SORDAT":"20200518","SORIND":"NL,1R,Reprt,MD220-20","sourceCellId":"1R75K83I","sourceChecksum":"43310d07eea7fc16f62cde806084973756982679c20eaa5a0d4a8d94fa41c0e3","rawObjectClass":"BOYLAT","sourceStableId":"1F2B41F8F4FA01CB"},"sourceKind":"official","official":true,"sourceCellId":"1R75K83I","sourceStableId":"1F2B41F8F4FA01CB","pipelineFeatureId":"1R75K83I/BOYLAT/17143","provenance":{"cellId":"1R75K83I","checksum":"43310d07eea7fc16f62cde806084973756982679c20eaa5a0d4a8d94fa41c0e3","readerVersion":"GDAL 3.2.2","processedAt":"2026-08-11T13:43:44.753Z"}}},{"type":"Feature","geometry":{"type":"Point","coordinates":[3.4426467,51.45646]},"properties":{"dolphinKind":"buoy-lateral","rawObjectClass":"BOYLAT","sourceProperties":{"RCID":17553,"PRIM":1,"GRUP":2,"OBJL":17,"RVER":1,"AGEN":7979,"FIDN":1106834684,"FIDS":359,"LNAM":"1F2B41F8F4FC0167","BOYSHP":5,"CATLAM":1,"COLOUR":["3"],"CONRAD":3,"OBJNAM":"GvW 10","SCAMIN":200000,"SORDAT":"20220112","SORIND":"NL,1R,Reprt,MD 023-22","sourceCellId":"1R75K83I","sourceChecksum":"43310d07eea7fc16f62cde806084973756982679c20eaa5a0d4a8d94fa41c0e3","rawObjectClass":"BOYLAT","sourceStableId":"1F2B41F8F4FC0167"},"sourceKind":"official","official":true,"sourceCellId":"1R75K83I","sourceStableId":"1F2B41F8F4FC0167","pipelineFeatureId":"1R75K83I/BOYLAT/17553","provenance":{"cellId":"1R75K83I","checksum":"43310d07eea7fc16f62cde806084973756982679c20eaa5a0d4a8d94fa41c0e3","readerVersion":"GDAL 3.2.2","processedAt":"2026-08-11T13:43:44.753Z"}}},{"type":"Feature","geometry":{"type":"Point","coordinates":[3.4704667,51.4473333]},"properties":{"dolphinKind":"buoy-lateral","rawObjectClass":"BOYLAT","sourceProperties":{"RCID":41497350,"PRIM":1,"GRUP":2,"OBJL":17,"RVER":1,"AGEN":7979,"FIDN":41497350,"FIDS":1,"LNAM":"1F2B027933060001","LNAM_REFS":["1F2B027933070001"],"FFPT_RIND":[2],"BOYSHP":5,"CATLAM":1,"COLOUR":["3"],"CONRAD":3,"OBJNAM":"GvW 12","SCAMIN":200000,"SORDAT":"20140625","SORIND":"NL,1R,Reprt,Bass073-2014","sourceCellId":"1R75K83I","sourceChecksum":"43310d07eea7fc16f62cde806084973756982679c20eaa5a0d4a8d94fa41c0e3","rawObjectClass":"BOYLAT","sourceStableId":"1F2B027933060001"},"sourceKind":"official","official":true,"sourceCellId":"1R75K83I","sourceStableId":"1F2B027933060001","pipelineFeatureId":"1R75K83I/BOYLAT/41497350","provenance":{"cellId":"1R75K83I","checksum":"43310d07eea7fc16f62cde806084973756982679c20eaa5a0d4a8d94fa41c0e3","readerVersion":"GDAL 3.2.2","processedAt":"2026-08-11T13:43:44.753Z"}}},{"type":"Feature","geometry":{"type":"Point","coordinates":[3.5036333,51.4749717]},"properties":{"dolphinKind":"buoy-lateral","rawObjectClass":"BOYLAT","sourceProperties":{"RCID":104024954,"PRIM":1,"GRUP":2,"OBJL":17,"RVER":1,"AGEN":7979,"FIDN":104024954,"FIDS":1,"LNAM":"1F2B06334B7A0001","LNAM_REFS":["1F2B06334B7B0001"],"FFPT_RIND":[2],"BOYSHP":1,"CATLAM":2,"COLOUR":["4"],"CONRAD":3,"OBJNAM":"OG 19","SCAMIN":200000,"SORDAT":"20170530","SORIND":"NL,1R,Reprt,BASS039-2017","sourceCellId":"1R75K83I","sourceChecksum":"43310d07eea7fc16f62cde806084973756982679c20eaa5a0d4a8d94fa41c0e3","rawObjectClass":"BOYLAT","sourceStableId":"1F2B06334B7A0001"},"sourceKind":"official","official":true,"sourceCellId":"1R75K83I","sourceStableId":"1F2B06334B7A0001","pipelineFeatureId":"1R75K83I/BOYLAT/104024954","provenance":{"cellId":"1R75K83I","checksum":"43310d07eea7fc16f62cde806084973756982679c20eaa5a0d4a8d94fa41c0e3","readerVersion":"GDAL 3.2.2","processedAt":"2026-08-11T13:43:44.753Z"}}},{"type":"Feature","geometry":{"type":"Point","coordinates":[3.5277917,51.4537967]},"properties":{"dolphinKind":"buoy-lateral","rawObjectClass":"BOYLAT","sourceProperties":{"RCID":200749353,"PRIM":1,"GRUP":2,"OBJL":17,"RVER":1,"AGEN":7979,"FIDN":200749353,"FIDS":1,"LNAM":"1F2B0BF731290001","LNAM_REFS":["1F2B0BF731280001","1F2B4873C9D50001"],"FFPT_RIND":[2,2],"BOYSHP":2,"CATLAM":1,"COLOUR":["3"],"CONRAD":3,"OBJNAM":"OG 20","SCAMIN":200000,"SORDAT":"20250730","SORIND":"NL,1R,reprt,MD405-25","sourceCellId":"1R75K83I","sourceChecksum":"43310d07eea7fc16f62cde806084973756982679c20eaa5a0d4a8d94fa41c0e3","rawObjectClass":"BOYLAT","sourceStableId":"1F2B0BF731290001"},"sourceKind":"official","official":true,"sourceCellId":"1R75K83I","sourceStableId":"1F2B0BF731290001","pipelineFeatureId":"1R75K83I/BOYLAT/200749353","provenance":{"cellId":"1R75K83I","checksum":"43310d07eea7fc16f62cde806084973756982679c20eaa5a0d4a8d94fa41c0e3","readerVersion":"GDAL 3.2.2","processedAt":"2026-08-11T13:43:44.753Z"}}},{"type":"Feature","geometry":{"type":"Point","coordinates":[3.504725,51.46597]},"properties":{"dolphinKind":"buoy-lateral","rawObjectClass":"BOYLAT","sourceProperties":{"RCID":302450539,"PRIM":1,"GRUP":2,"OBJL":17,"RVER":1,"AGEN":7979,"FIDN":302450539,"FIDS":1,"LNAM":"1F2B1207076B0001","LNAM_REFS":["1F2B1207076A0001"],"FFPT_RIND":[2],"BOYSHP":5,"CATLAM":1,"COLOUR":["3"],"CONRAD":3,"OBJNAM":"DL 10","SCAMIN":200000,"SORDAT":"20190408","SORIND":"NL,1R,reprt,MD143-19","sourceCellId":"1R75K83I","sourceChecksum":"43310d07eea7fc16f62cde806084973756982679c20eaa5a0d4a8d94fa41c0e3","rawObjectClass":"BOYLAT","sourceStableId":"1F2B1207076B0001"},"sourceKind":"official","official":true,"sourceCellId":"1R75K83I","sourceStableId":"1F2B1207076B0001","pipelineFeatureId":"1R75K83I/BOYLAT/302450539","provenance":{"cellId":"1R75K83I","checksum":"43310d07eea7fc16f62cde806084973756982679c20eaa5a0d4a8d94fa41c0e3","readerVersion":"GDAL 3.2.2","processedAt":"2026-08-11T13:43:44.753Z"}}},{"type":"Feature","geometry":{"type":"Point","coordinates":[3.47521,51.472445]},"properties":{"dolphinKind":"buoy-lateral","rawObjectClass":"BOYLAT","sourceProperties":{"RCID":343224239,"PRIM":1,"GRUP":2,"OBJL":17,"RVER":1,"AGEN":7979,"FIDN":343224239,"FIDS":1,"LNAM":"1F2B14752FAF0001","BOYSHP":5,"CATLAM":2,"COLOUR":["4"],"OBJNAM":"DL 7","SCAMIN":200000,"SORDAT":"20200124","SORIND":"NL,1R,reprt,MD031-20","sourceCellId":"1R75K83I","sourceChecksum":"43310d07eea7fc16f62cde806084973756982679c20eaa5a0d4a8d94fa41c0e3","rawObjectClass":"BOYLAT","sourceStableId":"1F2B14752FAF0001"},"sourceKind":"official","official":true,"sourceCellId":"1R75K83I","sourceStableId":"1F2B14752FAF0001","pipelineFeatureId":"1R75K83I/BOYLAT/343224239","provenance":{"cellId":"1R75K83I","checksum":"43310d07eea7fc16f62cde806084973756982679c20eaa5a0d4a8d94fa41c0e3","readerVersion":"GDAL 3.2.2","processedAt":"2026-08-11T13:43:44.753Z"}}},{"type":"Feature","geometry":{"type":"Point","coordinates":[3.4973267,51.463945]},"properties":{"dolphinKind":"buoy-lateral","rawObjectClass":"BOYLAT","sourceProperties":{"RCID":343224240,"PRIM":1,"GRUP":2,"OBJL":17,"RVER":1,"AGEN":7979,"FIDN":343224240,"FIDS":1,"LNAM":"1F2B14752FB00001","LNAM_REFS":["1F2B4BDDEA540001"],"FFPT_RIND":[2],"BOYSHP":5,"CATLAM":2,"COLOUR":["4"],"OBJNAM":"DL 9","SCAMIN":200000,"SORDAT":"20200124","SORIND":"NL,1R,reprt,MD031-20","sourceCellId":"1R75K83I","sourceChecksum":"43310d07eea7fc16f62cde806084973756982679c20eaa5a0d4a8d94fa41c0e3","rawObjectClass":"BOYLAT","sourceStableId":"1F2B14752FB00001"},"sourceKind":"official","official":true,"sourceCellId":"1R75K83I","sourceStableId":"1F2B14752FB00001","pipelineFeatureId":"1R75K83I/BOYLAT/343224240","provenance":{"cellId":"1R75K83I","checksum":"43310d07eea7fc16f62cde806084973756982679c20eaa5a0d4a8d94fa41c0e3","readerVersion":"GDAL 3.2.2","processedAt":"2026-08-11T13:43:44.753Z"}}},{"type":"Feature","geometry":{"type":"Point","coordinates":[3.4855667,51.4373333]},"properties":{"dolphinKind":"buoy-special","rawObjectClass":"BOYSPP","sourceProperties":{"RCID":16976,"PRIM":1,"GRUP":2,"OBJL":19,"RVER":1,"AGEN":7979,"FIDN":1106834682,"FIDS":292,"LNAM":"1F2B41F8F4FA0124","BOYSHP":5,"CATSPM":["40"],"COLOUR":["6"],"CONRAD":3,"OBJNAM":"WN 4","SCAMIN":200000,"SORDAT":"20230719","SORIND":"NL,1R,reprt,NDB verbetering","sourceCellId":"1R75K83I","sourceChecksum":"43310d07eea7fc16f62cde806084973756982679c20eaa5a0d4a8d94fa41c0e3","rawObjectClass":"BOYSPP","sourceStableId":"1F2B41F8F4FA0124"},"sourceKind":"official","official":true,"sourceCellId":"1R75K83I","sourceStableId":"1F2B41F8F4FA0124","pipelineFeatureId":"1R75K83I/BOYSPP/16976","provenance":{"cellId":"1R75K83I","checksum":"43310d07eea7fc16f62cde806084973756982679c20eaa5a0d4a8d94fa41c0e3","readerVersion":"GDAL 3.2.2","processedAt":"2026-08-11T13:43:44.753Z"}}},{"type":"Feature","geometry":{"type":"Point","coordinates":[3.5007,51.4365]},"properties":{"dolphinKind":"buoy-special","rawObjectClass":"BOYSPP","sourceProperties":{"RCID":16977,"PRIM":1,"GRUP":2,"OBJL":19,"RVER":1,"AGEN":7979,"FIDN":1106834682,"FIDS":293,"LNAM":"1F2B41F8F4FA0125","LNAM_REFS":["1F2B41F8F4FA0126"],"FFPT_RIND":[2],"BOYSHP":2,"CATSPM":["40"],"COLOUR":["6"],"CONRAD":3,"OBJNAM":"WN 6","SCAMIN":200000,"SORDAT":"20230719","SORIND":"NL,1R,reprt,NDB verbetering","sourceCellId":"1R75K83I","sourceChecksum":"43310d07eea7fc16f62cde806084973756982679c20eaa5a0d4a8d94fa41c0e3","rawObjectClass":"BOYSPP","sourceStableId":"1F2B41F8F4FA0125"},"sourceKind":"official","official":true,"sourceCellId":"1R75K83I","sourceStableId":"1F2B41F8F4FA0125","pipelineFeatureId":"1R75K83I/BOYSPP/16977","provenance":{"cellId":"1R75K83I","checksum":"43310d07eea7fc16f62cde806084973756982679c20eaa5a0d4a8d94fa41c0e3","readerVersion":"GDAL 3.2.2","processedAt":"2026-08-11T13:43:44.753Z"}}},{"type":"Feature","geometry":{"type":"Point","coordinates":[3.4621413,51.4281298]},"properties":{"dolphinKind":"buoy-special","rawObjectClass":"BOYSPP","sourceProperties":{"RCID":17131,"PRIM":1,"GRUP":2,"OBJL":19,"RVER":1,"AGEN":7979,"FIDN":1106834682,"FIDS":447,"LNAM":"1F2B41F8F4FA01BF","BOYSHP":5,"CATSPM":["40"],"COLOUR":["6"],"CONRAD":3,"OBJNAM":"WN 2","SCAMIN":200000,"SORDAT":"20230405","SORIND":"NL,1R,reprt,NDB verbetering","sourceCellId":"1R75K83I","sourceChecksum":"43310d07eea7fc16f62cde806084973756982679c20eaa5a0d4a8d94fa41c0e3","rawObjectClass":"BOYSPP","sourceStableId":"1F2B41F8F4FA01BF"},"sourceKind":"official","official":true,"sourceCellId":"1R75K83I","sourceStableId":"1F2B41F8F4FA01BF","pipelineFeatureId":"1R75K83I/BOYSPP/17131","provenance":{"cellId":"1R75K83I","checksum":"43310d07eea7fc16f62cde806084973756982679c20eaa5a0d4a8d94fa41c0e3","readerVersion":"GDAL 3.2.2","processedAt":"2026-08-11T13:43:44.753Z"}}},{"type":"Feature","geometry":{"type":"Point","coordinates":[3.5088333,51.4363333]},"properties":{"dolphinKind":"buoy-special","rawObjectClass":"BOYSPP","sourceProperties":{"RCID":879759,"PRIM":1,"GRUP":2,"OBJL":19,"RVER":1,"AGEN":7979,"FIDN":879759,"FIDS":1,"LNAM":"1F2B000D6C8F0001","LNAM_REFS":["1F2B4998913E0001"],"FFPT_RIND":[2],"BOYSHP":5,"CATSPM":["35"],"COLOUR":["6"],"CONRAD":3,"OBJNAM":"NP 2","SCAMIN":200000,"SORDAT":"20230719","SORIND":"NL,1R,reprt,NDB verbetering","sourceCellId":"1R75K83I","sourceChecksum":"43310d07eea7fc16f62cde806084973756982679c20eaa5a0d4a8d94fa41c0e3","rawObjectClass":"BOYSPP","sourceStableId":"1F2B000D6C8F0001"},"sourceKind":"official","official":true,"sourceCellId":"1R75K83I","sourceStableId":"1F2B000D6C8F0001","pipelineFeatureId":"1R75K83I/BOYSPP/879759","provenance":{"cellId":"1R75K83I","checksum":"43310d07eea7fc16f62cde806084973756982679c20eaa5a0d4a8d94fa41c0e3","readerVersion":"GDAL 3.2.2","processedAt":"2026-08-11T13:43:44.753Z"}}},{"type":"Feature","geometry":{"type":"Point","coordinates":[3.522175,51.4354017]},"properties":{"dolphinKind":"buoy-special","rawObjectClass":"BOYSPP","sourceProperties":{"RCID":879761,"PRIM":1,"GRUP":2,"OBJL":19,"RVER":1,"AGEN":7979,"FIDN":879761,"FIDS":1,"LNAM":"1F2B000D6C910001","BOYSHP":5,"CATSPM":["35"],"COLOUR":["6"],"CONRAD":3,"OBJNAM":"NP 4","SCAMIN":200000,"SORDAT":"20240625","SORIND":"NL,1R,reprt,MD 373-24","sourceCellId":"1R75K83I","sourceChecksum":"43310d07eea7fc16f62cde806084973756982679c20eaa5a0d4a8d94fa41c0e3","rawObjectClass":"BOYSPP","sourceStableId":"1F2B000D6C910001"},"sourceKind":"official","official":true,"sourceCellId":"1R75K83I","sourceStableId":"1F2B000D6C910001","pipelineFeatureId":"1R75K83I/BOYSPP/879761","provenance":{"cellId":"1R75K83I","checksum":"43310d07eea7fc16f62cde806084973756982679c20eaa5a0d4a8d94fa41c0e3","readerVersion":"GDAL 3.2.2","processedAt":"2026-08-11T13:43:44.753Z"}}},{"type":"Feature","geometry":{"type":"Point","coordinates":[3.4120017,51.4272469]},"properties":{"dolphinKind":"buoy-special","rawObjectClass":"BOYSPP","sourceProperties":{"RCID":13019677,"PRIM":1,"GRUP":2,"OBJL":19,"RVER":1,"AGEN":7979,"FIDN":13019677,"FIDS":1,"LNAM":"1F2B00C6AA1D0001","LNAM_REFS":["1F2B00C6AA1C0001"],"FFPT_RIND":[2],"BOYSHP":3,"CATSPM":["10"],"COLOUR":["6"],"OBJNAM":"Waverider WIEL","SCAMIN":200000,"sourceCellId":"1R75K83I","sourceChecksum":"43310d07eea7fc16f62cde806084973756982679c20eaa5a0d4a8d94fa41c0e3","rawObjectClass":"BOYSPP","sourceStableId":"1F2B00C6AA1D0001"},"sourceKind":"official","official":true,"sourceCellId":"1R75K83I","sourceStableId":"1F2B00C6AA1D0001","pipelineFeatureId":"1R75K83I/BOYSPP/13019677","provenance":{"cellId":"1R75K83I","checksum":"43310d07eea7fc16f62cde806084973756982679c20eaa5a0d4a8d94fa41c0e3","readerVersion":"GDAL 3.2.2","processedAt":"2026-08-11T13:43:44.753Z"}}},{"type":"Feature","geometry":{"type":"Point","coordinates":[3.46015,51.4682833]},"properties":{"dolphinKind":"buoy-special","rawObjectClass":"BOYSPP","sourceProperties":{"RCID":41497345,"PRIM":1,"GRUP":2,"OBJL":19,"RVER":1,"AGEN":7979,"FIDN":41497345,"FIDS":1,"LNAM":"1F2B027933010001","LNAM_REFS":["1F2B41F8F4FC010B"],"FFPT_RIND":[2],"BOYSHP":5,"CATSPM":["27"],"COLOUR":["6"],"CONRAD":3,"OBJNAM":"SP 1","SCAMIN":200000,"SORDAT":"20091104","SORIND":"NL,1R,Reprt,Bass110/09","sourceCellId":"1R75K83I","sourceChecksum":"43310d07eea7fc16f62cde806084973756982679c20eaa5a0d4a8d94fa41c0e3","rawObjectClass":"BOYSPP","sourceStableId":"1F2B027933010001"},"sourceKind":"official","official":true,"sourceCellId":"1R75K83I","sourceStableId":"1F2B027933010001","pipelineFeatureId":"1R75K83I/BOYSPP/41497345","provenance":{"cellId":"1R75K83I","checksum":"43310d07eea7fc16f62cde806084973756982679c20eaa5a0d4a8d94fa41c0e3","readerVersion":"GDAL 3.2.2","processedAt":"2026-08-11T13:43:44.753Z"}}},{"type":"Feature","geometry":{"type":"Point","coordinates":[3.4747,51.458]},"properties":{"dolphinKind":"buoy-special","rawObjectClass":"BOYSPP","sourceProperties":{"RCID":41497346,"PRIM":1,"GRUP":2,"OBJL":19,"RVER":1,"AGEN":7979,"FIDN":41497346,"FIDS":1,"LNAM":"1F2B027933020001","BOYSHP":5,"CATSPM":["27"],"COLOUR":["6"],"CONRAD":3,"OBJNAM":"SP 3","SCAMIN":200000,"SORDAT":"20091104","SORIND":"NL,1R,Reprt,Bass110/09","sourceCellId":"1R75K83I","sourceChecksum":"43310d07eea7fc16f62cde806084973756982679c20eaa5a0d4a8d94fa41c0e3","rawObjectClass":"BOYSPP","sourceStableId":"1F2B027933020001"},"sourceKind":"official","official":true,"sourceCellId":"1R75K83I","sourceStableId":"1F2B027933020001","pipelineFeatureId":"1R75K83I/BOYSPP/41497346","provenance":{"cellId":"1R75K83I","checksum":"43310d07eea7fc16f62cde806084973756982679c20eaa5a0d4a8d94fa41c0e3","readerVersion":"GDAL 3.2.2","processedAt":"2026-08-11T13:43:44.753Z"}}},{"type":"Feature","geometry":{"type":"Point","coordinates":[3.4970833,51.4421833]},"properties":{"dolphinKind":"buoy-special","rawObjectClass":"BOYSPP","sourceProperties":{"RCID":41497348,"PRIM":1,"GRUP":2,"OBJL":19,"RVER":1,"AGEN":7979,"FIDN":41497348,"FIDS":1,"LNAM":"1F2B027933040001","LNAM_REFS":["1F2B4BE894F30001"],"FFPT_RIND":[2],"BOYSHP":5,"CATSPM":["27"],"COLOUR":["6"],"CONRAD":3,"OBJNAM":"SP 7","SCAMIN":200000,"SORDAT":"20091104","SORIND":"NL,1R,Reprt,Bass1110/09","sourceCellId":"1R75K83I","sourceChecksum":"43310d07eea7fc16f62cde806084973756982679c20eaa5a0d4a8d94fa41c0e3","rawObjectClass":"BOYSPP","sourceStableId":"1F2B027933040001"},"sourceKind":"official","official":true,"sourceCellId":"1R75K83I","sourceStableId":"1F2B027933040001","pipelineFeatureId":"1R75K83I/BOYSPP/41497348","provenance":{"cellId":"1R75K83I","checksum":"43310d07eea7fc16f62cde806084973756982679c20eaa5a0d4a8d94fa41c0e3","readerVersion":"GDAL 3.2.2","processedAt":"2026-08-11T13:43:44.753Z"}}},{"type":"Feature","geometry":{"type":"Point","coordinates":[3.4859617,51.4500967]},"properties":{"dolphinKind":"buoy-special","rawObjectClass":"BOYSPP","sourceProperties":{"RCID":1138723250,"PRIM":1,"GRUP":2,"OBJL":19,"RVER":1,"AGEN":7979,"FIDN":1138723250,"FIDS":1,"LNAM":"1F2B43DF89B20001","BOYSHP":5,"CATSPM":["27"],"COLOUR":["6"],"CONRAD":3,"OBJNAM":"SP 5","SCAMIN":200000,"SORDAT":"20230602","SORIND":"NL,1R,Reprt,ENC verbetering","sourceCellId":"1R75K83I","sourceChecksum":"43310d07eea7fc16f62cde806084973756982679c20eaa5a0d4a8d94fa41c0e3","rawObjectClass":"BOYSPP","sourceStableId":"1F2B43DF89B20001"},"sourceKind":"official","official":true,"sourceCellId":"1R75K83I","sourceStableId":"1F2B43DF89B20001","pipelineFeatureId":"1R75K83I/BOYSPP/1138723250","provenance":{"cellId":"1R75K83I","checksum":"43310d07eea7fc16f62cde806084973756982679c20eaa5a0d4a8d94fa41c0e3","readerVersion":"GDAL 3.2.2","processedAt":"2026-08-11T13:43:44.753Z"}}},{"type":"Feature","geometry":{"type":"Point","coordinates":[3.35008,51.4511717]},"properties":{"dolphinKind":"buoy-special","rawObjectClass":"BOYSPP","sourceProperties":{"RCID":1249166922,"PRIM":1,"GRUP":2,"OBJL":19,"RVER":1,"AGEN":7979,"FIDN":1249166922,"FIDS":1,"LNAM":"1F2B4A74C64A0001","LNAM_REFS":["1F2B4A74C6550001","1F2B4A74C6560001"],"FFPT_RIND":[2,2],"BOYSHP":3,"CATSPM":["14"],"COLOUR":["6"],"DATEND":"20260531","OBJNAM":"MP 5","SCAMIN":200000,"SORDAT":"20251206","SORIND":"NL,1R,reprt,MD 268-26","sourceCellId":"1R75K83I","sourceChecksum":"43310d07eea7fc16f62cde806084973756982679c20eaa5a0d4a8d94fa41c0e3","rawObjectClass":"BOYSPP","sourceStableId":"1F2B4A74C64A0001"},"sourceKind":"official","official":true,"sourceCellId":"1R75K83I","sourceStableId":"1F2B4A74C64A0001","pipelineFeatureId":"1R75K83I/BOYSPP/1249166922","provenance":{"cellId":"1R75K83I","checksum":"43310d07eea7fc16f62cde806084973756982679c20eaa5a0d4a8d94fa41c0e3","readerVersion":"GDAL 3.2.2","processedAt":"2026-08-11T13:43:44.753Z"}}},{"type":"Feature","geometry":{"type":"Point","coordinates":[3.39825,51.4256167]},"properties":{"dolphinKind":"buoy-special","rawObjectClass":"BOYSPP","sourceProperties":{"RCID":1266596806,"PRIM":1,"GRUP":2,"OBJL":19,"RVER":1,"AGEN":7979,"FIDN":1266596806,"FIDS":1,"LNAM":"1F2B4B7EBBC60001","LNAM_REFS":["1F2B4B7EBBC40001","1F2B4B7EBBC50001"],"FFPT_RIND":[2,2],"BOYSHP":5,"CATSPM":["9"],"COLOUR":["6"],"DATEND":"20260526","MARSYS":1,"OBJNAM":"MP 3","SCAMIN":200000,"SORDAT":"20260318","SORIND":"NL,1R,Reprt,MD 268-26","sourceCellId":"1R75K83I","sourceChecksum":"43310d07eea7fc16f62cde806084973756982679c20eaa5a0d4a8d94fa41c0e3","rawObjectClass":"BOYSPP","sourceStableId":"1F2B4B7EBBC60001"},"sourceKind":"official","official":true,"sourceCellId":"1R75K83I","sourceStableId":"1F2B4B7EBBC60001","pipelineFeatureId":"1R75K83I/BOYSPP/1266596806","provenance":{"cellId":"1R75K83I","checksum":"43310d07eea7fc16f62cde806084973756982679c20eaa5a0d4a8d94fa41c0e3","readerVersion":"GDAL 3.2.2","processedAt":"2026-08-11T13:43:44.753Z"}}},{"type":"Feature","geometry":{"type":"Point","coordinates":[3.4189167,51.4270333]},"properties":{"dolphinKind":"buoy-special","rawObjectClass":"BOYSPP","sourceProperties":{"RCID":1266596809,"PRIM":1,"GRUP":2,"OBJL":19,"RVER":1,"AGEN":7979,"FIDN":1266596809,"FIDS":1,"LNAM":"1F2B4B7EBBC90001","LNAM_REFS":["1F2B4B7EBBC70001","1F2B4B7EBBC80001"],"FFPT_RIND":[2,2],"BOYSHP":5,"CATSPM":["9"],"COLOUR":["6"],"DATEND":"20260526","MARSYS":1,"OBJNAM":"MP 4","SCAMIN":200000,"SORDAT":"20260318","SORIND":"NL,1R,Reprt,MD 115-2026,TopDeskC260303810","sourceCellId":"1R75K83I","sourceChecksum":"43310d07eea7fc16f62cde806084973756982679c20eaa5a0d4a8d94fa41c0e3","rawObjectClass":"BOYSPP","sourceStableId":"1F2B4B7EBBC90001"},"sourceKind":"official","official":true,"sourceCellId":"1R75K83I","sourceStableId":"1F2B4B7EBBC90001","pipelineFeatureId":"1R75K83I/BOYSPP/1266596809","provenance":{"cellId":"1R75K83I","checksum":"43310d07eea7fc16f62cde806084973756982679c20eaa5a0d4a8d94fa41c0e3","readerVersion":"GDAL 3.2.2","processedAt":"2026-08-11T13:43:44.753Z"}}},{"type":"Feature","geometry":{"type":"Point","coordinates":[3.4304667,51.4272333]},"properties":{"dolphinKind":"buoy-special","rawObjectClass":"BOYSPP","sourceProperties":{"RCID":1266596812,"PRIM":1,"GRUP":2,"OBJL":19,"RVER":1,"AGEN":7979,"FIDN":1266596812,"FIDS":1,"LNAM":"1F2B4B7EBBCC0001","LNAM_REFS":["1F2B4B7EBBCA0001","1F2B4B7EBBCB0001"],"FFPT_RIND":[2,2],"BOYSHP":5,"CATSPM":["9"],"COLOUR":["6"],"DATEND":"20260526","MARSYS":1,"OBJNAM":"MP 5","SCAMIN":200000,"SORDAT":"20260318","SORIND":"NL,1R,Reprt,MD 115-2026,TopDeskC260303810","sourceCellId":"1R75K83I","sourceChecksum":"43310d07eea7fc16f62cde806084973756982679c20eaa5a0d4a8d94fa41c0e3","rawObjectClass":"BOYSPP","sourceStableId":"1F2B4B7EBBCC0001"},"sourceKind":"official","official":true,"sourceCellId":"1R75K83I","sourceStableId":"1F2B4B7EBBCC0001","pipelineFeatureId":"1R75K83I/BOYSPP/1266596812","provenance":{"cellId":"1R75K83I","checksum":"43310d07eea7fc16f62cde806084973756982679c20eaa5a0d4a8d94fa41c0e3","readerVersion":"GDAL 3.2.2","processedAt":"2026-08-11T13:43:44.753Z"}}},{"type":"Feature","geometry":{"type":"Point","coordinates":[3.3345333,51.4363967]},"properties":{"dolphinKind":"buoy-special","rawObjectClass":"BOYSPP","sourceProperties":{"RCID":1270267359,"PRIM":1,"GRUP":2,"OBJL":19,"RVER":1,"AGEN":7979,"FIDN":1270267359,"FIDS":1,"LNAM":"1F2B4BB6BDDF0001","LNAM_REFS":["1F2B4BB6D32A0001","1F2B4BB6DD530001"],"FFPT_RIND":[2,2],"BOYSHP":5,"CATSPM":["9"],"COLOUR":["6"],"DATEND":"20260511","MARSYS":1,"OBJNAM":"VR-A","SCAMIN":200000,"SORDAT":"20260511","SORIND":"NL,1R,Reprt,MD 252-2026","sourceCellId":"1R75K83I","sourceChecksum":"43310d07eea7fc16f62cde806084973756982679c20eaa5a0d4a8d94fa41c0e3","rawObjectClass":"BOYSPP","sourceStableId":"1F2B4BB6BDDF0001"},"sourceKind":"official","official":true,"sourceCellId":"1R75K83I","sourceStableId":"1F2B4BB6BDDF0001","pipelineFeatureId":"1R75K83I/BOYSPP/1270267359","provenance":{"cellId":"1R75K83I","checksum":"43310d07eea7fc16f62cde806084973756982679c20eaa5a0d4a8d94fa41c0e3","readerVersion":"GDAL 3.2.2","processedAt":"2026-08-11T13:43:44.753Z"}}},{"type":"Feature","geometry":{"type":"Point","coordinates":[3.3345333,51.4355033]},"properties":{"dolphinKind":"buoy-special","rawObjectClass":"BOYSPP","sourceProperties":{"RCID":1270280163,"PRIM":1,"GRUP":2,"OBJL":19,"RVER":1,"AGEN":7979,"FIDN":1270280163,"FIDS":1,"LNAM":"1F2B4BB6EFE30001","LNAM_REFS":["1F2B4BB6F0480001","1F2B4BB6F0490001"],"FFPT_RIND":[2,2],"BOYSHP":5,"CATSPM":["9"],"COLOUR":["6"],"DATEND":"20260511","MARSYS":1,"OBJNAM":"VR-B","SCAMIN":200000,"SORDAT":"20260511","SORIND":"NL,1R,Reprt,MD 252-2026","sourceCellId":"1R75K83I","sourceChecksum":"43310d07eea7fc16f62cde806084973756982679c20eaa5a0d4a8d94fa41c0e3","rawObjectClass":"BOYSPP","sourceStableId":"1F2B4BB6EFE30001"},"sourceKind":"official","official":true,"sourceCellId":"1R75K83I","sourceStableId":"1F2B4BB6EFE30001","pipelineFeatureId":"1R75K83I/BOYSPP/1270280163","provenance":{"cellId":"1R75K83I","checksum":"43310d07eea7fc16f62cde806084973756982679c20eaa5a0d4a8d94fa41c0e3","readerVersion":"GDAL 3.2.2","processedAt":"2026-08-11T13:43:44.753Z"}}},{"type":"Feature","geometry":{"type":"Point","coordinates":[3.3974667,51.4274967]},"properties":{"dolphinKind":"buoy-special","rawObjectClass":"BOYSPP","sourceProperties":{"RCID":1270292416,"PRIM":1,"GRUP":2,"OBJL":19,"RVER":1,"AGEN":7979,"FIDN":1270292416,"FIDS":1,"LNAM":"1F2B4BB71FC00001","LNAM_REFS":["1F2B4BB72F2F0001","1F2B4BB72F940001"],"FFPT_RIND":[2,2],"BOYSHP":5,"CATSPM":["9"],"COLOUR":["6"],"DATEND":"20260511","MARSYS":1,"OBJNAM":"VR-C","SCAMIN":200000,"SORDAT":"20260511","SORIND":"NL,1R,Reprt,MD 252-2026","sourceCellId":"1R75K83I","sourceChecksum":"43310d07eea7fc16f62cde806084973756982679c20eaa5a0d4a8d94fa41c0e3","rawObjectClass":"BOYSPP","sourceStableId":"1F2B4BB71FC00001"},"sourceKind":"official","official":true,"sourceCellId":"1R75K83I","sourceStableId":"1F2B4BB71FC00001","pipelineFeatureId":"1R75K83I/BOYSPP/1270292416","provenance":{"cellId":"1R75K83I","checksum":"43310d07eea7fc16f62cde806084973756982679c20eaa5a0d4a8d94fa41c0e3","readerVersion":"GDAL 3.2.2","processedAt":"2026-08-11T13:43:44.753Z"}}},{"type":"Feature","geometry":{"type":"Point","coordinates":[3.4703653,51.4377906]},"properties":{"dolphinKind":"light","rawObjectClass":"LIGHTS","sourceProperties":{"RCID":16974,"PRIM":1,"GRUP":2,"OBJL":75,"RVER":1,"AGEN":7979,"FIDN":1106834682,"FIDS":290,"LNAM":"1F2B41F8F4FA0122","COLOUR":["1"],"LITCHR":26,"SIGGRP":"(6)(1)","SIGPER":10,"SCAMIN":200000,"SORDAT":"20030930","sourceCellId":"1R75K83I","sourceChecksum":"43310d07eea7fc16f62cde806084973756982679c20eaa5a0d4a8d94fa41c0e3","rawObjectClass":"LIGHTS","sourceStableId":"1F2B41F8F4FA0122"},"sourceKind":"official","official":true,"sourceCellId":"1R75K83I","sourceStableId":"1F2B41F8F4FA0122","pipelineFeatureId":"1R75K83I/LIGHTS/16974","provenance":{"cellId":"1R75K83I","checksum":"43310d07eea7fc16f62cde806084973756982679c20eaa5a0d4a8d94fa41c0e3","readerVersion":"GDAL 3.2.2","processedAt":"2026-08-11T13:43:44.753Z"}}},{"type":"Feature","geometry":{"type":"Point","coordinates":[3.5007,51.4365]},"properties":{"dolphinKind":"light","rawObjectClass":"LIGHTS","sourceProperties":{"RCID":16978,"PRIM":1,"GRUP":2,"OBJL":75,"RVER":1,"AGEN":7979,"FIDN":1106834682,"FIDS":294,"LNAM":"1F2B41F8F4FA0126","COLOUR":["6"],"LITCHR":2,"SIGGRP":"(4)","SIGPER":10,"SCAMIN":200000,"SORDAT":"20030930","sourceCellId":"1R75K83I","sourceChecksum":"43310d07eea7fc16f62cde806084973756982679c20eaa5a0d4a8d94fa41c0e3","rawObjectClass":"LIGHTS","sourceStableId":"1F2B41F8F4FA0126"},"sourceKind":"official","official":true,"sourceCellId":"1R75K83I","sourceStableId":"1F2B41F8F4FA0126","pipelineFeatureId":"1R75K83I/LIGHTS/16978","provenance":{"cellId":"1R75K83I","checksum":"43310d07eea7fc16f62cde806084973756982679c20eaa5a0d4a8d94fa41c0e3","readerVersion":"GDAL 3.2.2","processedAt":"2026-08-11T13:43:44.753Z"}}},{"type":"Feature","geometry":{"type":"Point","coordinates":[3.5254333,51.4507833]},"properties":{"dolphinKind":"light","rawObjectClass":"LIGHTS","sourceProperties":{"RCID":17013,"PRIM":1,"GRUP":2,"OBJL":75,"RVER":1,"AGEN":7979,"FIDN":1106834682,"FIDS":329,"LNAM":"1F2B41F8F4FA0149","CATLIT":["10"],"COLOUR":["4"],"LITCHR":7,"SIGGRP":"(1)","SIGPER":4,"SCAMIN":200000,"SORDAT":"20121120","SORIND":"NL,1R,Reprt,BASS109-2012","sourceCellId":"1R75K83I","sourceChecksum":"43310d07eea7fc16f62cde806084973756982679c20eaa5a0d4a8d94fa41c0e3","rawObjectClass":"LIGHTS","sourceStableId":"1F2B41F8F4FA0149"},"sourceKind":"official","official":true,"sourceCellId":"1R75K83I","sourceStableId":"1F2B41F8F4FA0149","pipelineFeatureId":"1R75K83I/LIGHTS/17013","provenance":{"cellId":"1R75K83I","checksum":"43310d07eea7fc16f62cde806084973756982679c20eaa5a0d4a8d94fa41c0e3","readerVersion":"GDAL 3.2.2","processedAt":"2026-08-11T13:43:44.753Z"}}},{"type":"Feature","geometry":{"type":"Point","coordinates":[3.5123167,51.45835]},"properties":{"dolphinKind":"light","rawObjectClass":"LIGHTS","sourceProperties":{"RCID":17015,"PRIM":1,"GRUP":2,"OBJL":75,"RVER":1,"AGEN":7979,"FIDN":1106834682,"FIDS":331,"LNAM":"1F2B41F8F4FA014B","CATLIT":["10"],"COLOUR":["4"],"LITCHR":5,"SIGGRP":"(1)","SIGPER":0.5,"SCAMIN":200000,"SORDAT":"20121120","SORIND":"NL,1R,Reprt,BASS109-2012","sourceCellId":"1R75K83I","sourceChecksum":"43310d07eea7fc16f62cde806084973756982679c20eaa5a0d4a8d94fa41c0e3","rawObjectClass":"LIGHTS","sourceStableId":"1F2B41F8F4FA014B"},"sourceKind":"official","official":true,"sourceCellId":"1R75K83I","sourceStableId":"1F2B41F8F4FA014B","pipelineFeatureId":"1R75K83I/LIGHTS/17015","provenance":{"cellId":"1R75K83I","checksum":"43310d07eea7fc16f62cde806084973756982679c20eaa5a0d4a8d94fa41c0e3","readerVersion":"GDAL 3.2.2","processedAt":"2026-08-11T13:43:44.753Z"}}},{"type":"Feature","geometry":{"type":"Point","coordinates":[3.520045,51.4646767]},"properties":{"dolphinKind":"light","rawObjectClass":"LIGHTS","sourceProperties":{"RCID":17142,"PRIM":1,"GRUP":2,"OBJL":75,"RVER":1,"AGEN":7979,"FIDN":1106834682,"FIDS":458,"LNAM":"1F2B41F8F4FA01CA","COLOUR":["3"],"LITCHR":7,"SIGGRP":"(1)","SIGPER":2,"SCAMIN":200000,"SORDAT":"20160913","SORIND":"NL,1R,reprt,Bass 118-2016","sourceCellId":"1R75K83I","sourceChecksum":"43310d07eea7fc16f62cde806084973756982679c20eaa5a0d4a8d94fa41c0e3","rawObjectClass":"LIGHTS","sourceStableId":"1F2B41F8F4FA01CA"},"sourceKind":"official","official":true,"sourceCellId":"1R75K83I","sourceStableId":"1F2B41F8F4FA01CA","pipelineFeatureId":"1R75K83I/LIGHTS/17142","provenance":{"cellId":"1R75K83I","checksum":"43310d07eea7fc16f62cde806084973756982679c20eaa5a0d4a8d94fa41c0e3","readerVersion":"GDAL 3.2.2","processedAt":"2026-08-11T13:43:44.753Z"}}},{"type":"Feature","geometry":{"type":"Point","coordinates":[3.5112,51.4660167]},"properties":{"dolphinKind":"light","rawObjectClass":"LIGHTS","sourceProperties":{"RCID":17151,"PRIM":1,"GRUP":2,"OBJL":75,"RVER":1,"AGEN":7979,"FIDN":1106834682,"FIDS":467,"LNAM":"1F2B41F8F4FA01D3","CATLIT":["10"],"COLOUR":["1"],"LITCHR":5,"SIGGRP":"(3)","SIGPER":5,"SCAMIN":200000,"SORDAT":"20160913","SORIND":"NL,1R,Reprt,BASS118-2016","sourceCellId":"1R75K83I","sourceChecksum":"43310d07eea7fc16f62cde806084973756982679c20eaa5a0d4a8d94fa41c0e3","rawObjectClass":"LIGHTS","sourceStableId":"1F2B41F8F4FA01D3"},"sourceKind":"official","official":true,"sourceCellId":"1R75K83I","sourceStableId":"1F2B41F8F4FA01D3","pipelineFeatureId":"1R75K83I/LIGHTS/17151","provenance":{"cellId":"1R75K83I","checksum":"43310d07eea7fc16f62cde806084973756982679c20eaa5a0d4a8d94fa41c0e3","readerVersion":"GDAL 3.2.2","processedAt":"2026-08-11T13:43:44.753Z"}}},{"type":"Feature","geometry":{"type":"Point","coordinates":[3.5188,51.4732833]},"properties":{"dolphinKind":"light","rawObjectClass":"LIGHTS","sourceProperties":{"RCID":25243,"PRIM":1,"GRUP":2,"OBJL":75,"RVER":1,"AGEN":7979,"FIDN":1107858576,"FIDS":1,"LNAM":"1F2B420894900001","CATLIT":["4","15"],"COLOUR":["1"],"HEIGHT":36,"LITCHR":8,"SECTR1":122.5,"SECTR2":137.5,"SIGGRP":"(1)","SIGPER":5,"VALNMR":13,"INFORM":"visible: 122.5-137.5 deg","NINFOM":"Zichtbaar: 122.5-137.5 graden","SCAMIN":250000,"SORDAT":"20210204","SORIND":"NL,1R,Reprt,MD065-21","sourceCellId":"1R75K83I","sourceChecksum":"43310d07eea7fc16f62cde806084973756982679c20eaa5a0d4a8d94fa41c0e3","rawObjectClass":"LIGHTS","sourceStableId":"1F2B420894900001"},"sourceKind":"official","official":true,"sourceCellId":"1R75K83I","sourceStableId":"1F2B420894900001","pipelineFeatureId":"1R75K83I/LIGHTS/25243","provenance":{"cellId":"1R75K83I","checksum":"43310d07eea7fc16f62cde806084973756982679c20eaa5a0d4a8d94fa41c0e3","readerVersion":"GDAL 3.2.2","processedAt":"2026-08-11T13:43:44.753Z"}}},{"type":"Feature","geometry":{"type":"Point","coordinates":[3.5163666,51.4745667]},"properties":{"dolphinKind":"light","rawObjectClass":"LIGHTS","sourceProperties":{"RCID":25254,"PRIM":1,"GRUP":2,"OBJL":75,"RVER":1,"AGEN":7979,"FIDN":1107860382,"FIDS":1,"LNAM":"1F2B42089B9E0001","CATLIT":["4","14"],"COLOUR":["1"],"HEIGHT":27,"LITCHR":8,"SECTR1":122.5,"SECTR2":137.5,"SIGGRP":"(1)","SIGPER":5,"VALNMR":13,"INFORM":"visible: 122.5-137.5 deg, synchronous with upper light","NINFOM":"Zichtbaar; 122.5-137.5 graden, synchroon met bovenste licht","SCAMIN":250000,"SORDAT":"20210204","SORIND":"NL,1R,Reprt,MD065-21","sourceCellId":"1R75K83I","sourceChecksum":"43310d07eea7fc16f62cde806084973756982679c20eaa5a0d4a8d94fa41c0e3","rawObjectClass":"LIGHTS","sourceStableId":"1F2B42089B9E0001"},"sourceKind":"official","official":true,"sourceCellId":"1R75K83I","sourceStableId":"1F2B42089B9E0001","pipelineFeatureId":"1R75K83I/LIGHTS/25254","provenance":{"cellId":"1R75K83I","checksum":"43310d07eea7fc16f62cde806084973756982679c20eaa5a0d4a8d94fa41c0e3","readerVersion":"GDAL 3.2.2","processedAt":"2026-08-11T13:43:44.753Z"}}},{"type":"Feature","geometry":{"type":"Point","coordinates":[3.4120017,51.4272469]},"properties":{"dolphinKind":"light","rawObjectClass":"LIGHTS","sourceProperties":{"RCID":13019676,"PRIM":1,"GRUP":2,"OBJL":75,"RVER":1,"AGEN":7979,"FIDN":13019676,"FIDS":1,"LNAM":"1F2B00C6AA1C0001","COLOUR":["6"],"LITCHR":2,"SIGGRP":"(5)","SIGPER":20,"SCAMIN":300000,"sourceCellId":"1R75K83I","sourceChecksum":"43310d07eea7fc16f62cde806084973756982679c20eaa5a0d4a8d94fa41c0e3","rawObjectClass":"LIGHTS","sourceStableId":"1F2B00C6AA1C0001"},"sourceKind":"official","official":true,"sourceCellId":"1R75K83I","sourceStableId":"1F2B00C6AA1C0001","pipelineFeatureId":"1R75K83I/LIGHTS/13019676","provenance":{"cellId":"1R75K83I","checksum":"43310d07eea7fc16f62cde806084973756982679c20eaa5a0d4a8d94fa41c0e3","readerVersion":"GDAL 3.2.2","processedAt":"2026-08-11T13:43:44.753Z"}}},{"type":"Feature","geometry":{"type":"Point","coordinates":[3.5036333,51.4749717]},"properties":{"dolphinKind":"light","rawObjectClass":"LIGHTS","sourceProperties":{"RCID":104024955,"PRIM":1,"GRUP":2,"OBJL":75,"RVER":1,"AGEN":7979,"FIDN":104024955,"FIDS":1,"LNAM":"1F2B06334B7B0001","CATLIT":["10"],"COLOUR":["4"],"LITCHR":7,"SIGGRP":"(1)","SIGPER":8,"SCAMIN":200000,"SORDAT":"20121120","SORIND":"NL,1R,Reprt,Bass109-2012","sourceCellId":"1R75K83I","sourceChecksum":"43310d07eea7fc16f62cde806084973756982679c20eaa5a0d4a8d94fa41c0e3","rawObjectClass":"LIGHTS","sourceStableId":"1F2B06334B7B0001"},"sourceKind":"official","official":true,"sourceCellId":"1R75K83I","sourceStableId":"1F2B06334B7B0001","pipelineFeatureId":"1R75K83I/LIGHTS/104024955","provenance":{"cellId":"1R75K83I","checksum":"43310d07eea7fc16f62cde806084973756982679c20eaa5a0d4a8d94fa41c0e3","readerVersion":"GDAL 3.2.2","processedAt":"2026-08-11T13:43:44.753Z"}}},{"type":"Feature","geometry":{"type":"Point","coordinates":[3.5277917,51.4537967]},"properties":{"dolphinKind":"light","rawObjectClass":"LIGHTS","sourceProperties":{"RCID":200749352,"PRIM":1,"GRUP":2,"OBJL":75,"RVER":1,"AGEN":7979,"FIDN":200749352,"FIDS":1,"LNAM":"1F2B0BF731280001","CATLIT":["10"],"COLOUR":["3"],"LITCHR":5,"SIGGRP":"(1)","SIGPER":0.5,"SCAMIN":200000,"SORDAT":"20230522","SORIND":"NL,1R,reprt,MD 274-23","sourceCellId":"1R75K83I","sourceChecksum":"43310d07eea7fc16f62cde806084973756982679c20eaa5a0d4a8d94fa41c0e3","rawObjectClass":"LIGHTS","sourceStableId":"1F2B0BF731280001"},"sourceKind":"official","official":true,"sourceCellId":"1R75K83I","sourceStableId":"1F2B0BF731280001","pipelineFeatureId":"1R75K83I/LIGHTS/200749352","provenance":{"cellId":"1R75K83I","checksum":"43310d07eea7fc16f62cde806084973756982679c20eaa5a0d4a8d94fa41c0e3","readerVersion":"GDAL 3.2.2","processedAt":"2026-08-11T13:43:44.753Z"}}},{"type":"Feature","geometry":{"type":"Point","coordinates":[3.35008,51.4511717]},"properties":{"dolphinKind":"light","rawObjectClass":"LIGHTS","sourceProperties":{"RCID":1249166934,"PRIM":1,"GRUP":2,"OBJL":75,"RVER":1,"AGEN":7979,"FIDN":1249166934,"FIDS":1,"LNAM":"1F2B4A74C6560001","COLOUR":["6"],"DATEND":"20260531","LITCHR":2,"SIGGRP":"(5)","SIGPER":20,"SCAMIN":200000,"sourceCellId":"1R75K83I","sourceChecksum":"43310d07eea7fc16f62cde806084973756982679c20eaa5a0d4a8d94fa41c0e3","rawObjectClass":"LIGHTS","sourceStableId":"1F2B4A74C6560001"},"sourceKind":"official","official":true,"sourceCellId":"1R75K83I","sourceStableId":"1F2B4A74C6560001","pipelineFeatureId":"1R75K83I/LIGHTS/1249166934","provenance":{"cellId":"1R75K83I","checksum":"43310d07eea7fc16f62cde806084973756982679c20eaa5a0d4a8d94fa41c0e3","readerVersion":"GDAL 3.2.2","processedAt":"2026-08-11T13:43:44.753Z"}}},{"type":"Feature","geometry":{"type":"Point","coordinates":[3.39825,51.4256167]},"properties":{"dolphinKind":"light","rawObjectClass":"LIGHTS","sourceProperties":{"RCID":1266596805,"PRIM":1,"GRUP":2,"OBJL":75,"RVER":1,"AGEN":7979,"FIDN":1266596805,"FIDS":1,"LNAM":"1F2B4B7EBBC50001","CATLIT":["12"],"COLOUR":["6"],"DATEND":"20260526","LITCHR":2,"SIGGRP":"(5)","SIGPER":20,"SCAMIN":300000,"SORDAT":"20260318","SORIND":"NL,1R,Reprt,MD 115-2026,TopdeskC260303810","sourceCellId":"1R75K83I","sourceChecksum":"43310d07eea7fc16f62cde806084973756982679c20eaa5a0d4a8d94fa41c0e3","rawObjectClass":"LIGHTS","sourceStableId":"1F2B4B7EBBC50001"},"sourceKind":"official","official":true,"sourceCellId":"1R75K83I","sourceStableId":"1F2B4B7EBBC50001","pipelineFeatureId":"1R75K83I/LIGHTS/1266596805","provenance":{"cellId":"1R75K83I","checksum":"43310d07eea7fc16f62cde806084973756982679c20eaa5a0d4a8d94fa41c0e3","readerVersion":"GDAL 3.2.2","processedAt":"2026-08-11T13:43:44.753Z"}}},{"type":"Feature","geometry":{"type":"Point","coordinates":[3.4189167,51.4270333]},"properties":{"dolphinKind":"light","rawObjectClass":"LIGHTS","sourceProperties":{"RCID":1266596808,"PRIM":1,"GRUP":2,"OBJL":75,"RVER":1,"AGEN":7979,"FIDN":1266596808,"FIDS":1,"LNAM":"1F2B4B7EBBC80001","CATLIT":["12"],"COLOUR":["6"],"DATEND":"20260526","LITCHR":2,"SIGGRP":"(5)","SIGPER":20,"SCAMIN":300000,"SORDAT":"20260318","SORIND":"NL,1R,Reprt,MD 115-2026,TopdeskC260303810","sourceCellId":"1R75K83I","sourceChecksum":"43310d07eea7fc16f62cde806084973756982679c20eaa5a0d4a8d94fa41c0e3","rawObjectClass":"LIGHTS","sourceStableId":"1F2B4B7EBBC80001"},"sourceKind":"official","official":true,"sourceCellId":"1R75K83I","sourceStableId":"1F2B4B7EBBC80001","pipelineFeatureId":"1R75K83I/LIGHTS/1266596808","provenance":{"cellId":"1R75K83I","checksum":"43310d07eea7fc16f62cde806084973756982679c20eaa5a0d4a8d94fa41c0e3","readerVersion":"GDAL 3.2.2","processedAt":"2026-08-11T13:43:44.753Z"}}},{"type":"Feature","geometry":{"type":"Point","coordinates":[3.4304667,51.4272333]},"properties":{"dolphinKind":"light","rawObjectClass":"LIGHTS","sourceProperties":{"RCID":1266596811,"PRIM":1,"GRUP":2,"OBJL":75,"RVER":1,"AGEN":7979,"FIDN":1266596811,"FIDS":1,"LNAM":"1F2B4B7EBBCB0001","CATLIT":["12"],"COLOUR":["6"],"DATEND":"20260526","LITCHR":2,"SIGGRP":"(5)","SIGPER":20,"SCAMIN":300000,"SORDAT":"20260318","SORIND":"NL,1R,Reprt,MD 115-2026,TopdeskC260303810","sourceCellId":"1R75K83I","sourceChecksum":"43310d07eea7fc16f62cde806084973756982679c20eaa5a0d4a8d94fa41c0e3","rawObjectClass":"LIGHTS","sourceStableId":"1F2B4B7EBBCB0001"},"sourceKind":"official","official":true,"sourceCellId":"1R75K83I","sourceStableId":"1F2B4B7EBBCB0001","pipelineFeatureId":"1R75K83I/LIGHTS/1266596811","provenance":{"cellId":"1R75K83I","checksum":"43310d07eea7fc16f62cde806084973756982679c20eaa5a0d4a8d94fa41c0e3","readerVersion":"GDAL 3.2.2","processedAt":"2026-08-11T13:43:44.753Z"}}},{"type":"Feature","geometry":{"type":"Point","coordinates":[3.3345333,51.4363967]},"properties":{"dolphinKind":"light","rawObjectClass":"LIGHTS","sourceProperties":{"RCID":1270275411,"PRIM":1,"GRUP":2,"OBJL":75,"RVER":1,"AGEN":7979,"FIDN":1270275411,"FIDS":1,"LNAM":"1F2B4BB6DD530001","CATLIT":["12"],"COLOUR":["6"],"DATEND":"20260511","LITCHR":2,"SIGGRP":"(5)","SIGPER":20,"SCAMIN":300000,"SORDAT":"20260511","SORIND":"NL,1R,Reprt,MD 252-2026","sourceCellId":"1R75K83I","sourceChecksum":"43310d07eea7fc16f62cde806084973756982679c20eaa5a0d4a8d94fa41c0e3","rawObjectClass":"LIGHTS","sourceStableId":"1F2B4BB6DD530001"},"sourceKind":"official","official":true,"sourceCellId":"1R75K83I","sourceStableId":"1F2B4BB6DD530001","pipelineFeatureId":"1R75K83I/LIGHTS/1270275411","provenance":{"cellId":"1R75K83I","checksum":"43310d07eea7fc16f62cde806084973756982679c20eaa5a0d4a8d94fa41c0e3","readerVersion":"GDAL 3.2.2","processedAt":"2026-08-11T13:43:44.753Z"}}},{"type":"Feature","geometry":{"type":"Point","coordinates":[3.3345333,51.4355033]},"properties":{"dolphinKind":"light","rawObjectClass":"LIGHTS","sourceProperties":{"RCID":1270280265,"PRIM":1,"GRUP":2,"OBJL":75,"RVER":1,"AGEN":7979,"FIDN":1270280265,"FIDS":1,"LNAM":"1F2B4BB6F0490001","CATLIT":["12"],"COLOUR":["6"],"DATEND":"20260511","LITCHR":2,"SIGGRP":"(5)","SIGPER":20,"SCAMIN":300000,"SORDAT":"20260511","SORIND":"NL,1R,Reprt,MD 252-2026","sourceCellId":"1R75K83I","sourceChecksum":"43310d07eea7fc16f62cde806084973756982679c20eaa5a0d4a8d94fa41c0e3","rawObjectClass":"LIGHTS","sourceStableId":"1F2B4BB6F0490001"},"sourceKind":"official","official":true,"sourceCellId":"1R75K83I","sourceStableId":"1F2B4BB6F0490001","pipelineFeatureId":"1R75K83I/LIGHTS/1270280265","provenance":{"cellId":"1R75K83I","checksum":"43310d07eea7fc16f62cde806084973756982679c20eaa5a0d4a8d94fa41c0e3","readerVersion":"GDAL 3.2.2","processedAt":"2026-08-11T13:43:44.753Z"}}},{"type":"Feature","geometry":{"type":"Point","coordinates":[3.3974667,51.4274967]},"properties":{"dolphinKind":"light","rawObjectClass":"LIGHTS","sourceProperties":{"RCID":1270296468,"PRIM":1,"GRUP":2,"OBJL":75,"RVER":1,"AGEN":7979,"FIDN":1270296468,"FIDS":1,"LNAM":"1F2B4BB72F940001","CATLIT":["12"],"COLOUR":["6"],"DATEND":"20260511","LITCHR":2,"SIGGRP":"(5)","SIGPER":20,"SCAMIN":300000,"SORDAT":"20260511","SORIND":"NL,1R,Reprt,MD 252-2026","sourceCellId":"1R75K83I","sourceChecksum":"43310d07eea7fc16f62cde806084973756982679c20eaa5a0d4a8d94fa41c0e3","rawObjectClass":"LIGHTS","sourceStableId":"1F2B4BB72F940001"},"sourceKind":"official","official":true,"sourceCellId":"1R75K83I","sourceStableId":"1F2B4BB72F940001","pipelineFeatureId":"1R75K83I/LIGHTS/1270296468","provenance":{"cellId":"1R75K83I","checksum":"43310d07eea7fc16f62cde806084973756982679c20eaa5a0d4a8d94fa41c0e3","readerVersion":"GDAL 3.2.2","processedAt":"2026-08-11T13:43:44.753Z"}}},{"type":"Feature","geometry":{"type":"Point","coordinates":[3.4703653,51.4377906]},"properties":{"dolphinKind":"topmark","rawObjectClass":"TOPMAR","sourceProperties":{"RCID":16975,"PRIM":1,"GRUP":2,"OBJL":144,"RVER":1,"AGEN":7979,"FIDN":1106834682,"FIDS":291,"LNAM":"1F2B41F8F4FA0123","COLOUR":["2"],"TOPSHP":14,"SCAMIN":200000,"SORDAT":"20030930","sourceCellId":"1R75K83I","sourceChecksum":"43310d07eea7fc16f62cde806084973756982679c20eaa5a0d4a8d94fa41c0e3","rawObjectClass":"TOPMAR","sourceStableId":"1F2B41F8F4FA0123"},"sourceKind":"official","official":true,"sourceCellId":"1R75K83I","sourceStableId":"1F2B41F8F4FA0123","pipelineFeatureId":"1R75K83I/TOPMAR/16975","provenance":{"cellId":"1R75K83I","checksum":"43310d07eea7fc16f62cde806084973756982679c20eaa5a0d4a8d94fa41c0e3","readerVersion":"GDAL 3.2.2","processedAt":"2026-08-11T13:43:44.753Z"},"associationRefsVerifiedInGdalOutput":false}},{"type":"Feature","geometry":{"type":"Point","coordinates":[3.3681405,51.4373731]},"properties":{"dolphinKind":"topmark","rawObjectClass":"TOPMAR","sourceProperties":{"RCID":17092,"PRIM":1,"GRUP":2,"OBJL":144,"RVER":1,"AGEN":7979,"FIDN":1106834682,"FIDS":408,"LNAM":"1F2B41F8F4FA0198","COLOUR":["2"],"TOPSHP":14,"SCAMIN":200000,"SORDAT":"20030930","sourceCellId":"1R75K83I","sourceChecksum":"43310d07eea7fc16f62cde806084973756982679c20eaa5a0d4a8d94fa41c0e3","rawObjectClass":"TOPMAR","sourceStableId":"1F2B41F8F4FA0198"},"sourceKind":"official","official":true,"sourceCellId":"1R75K83I","sourceStableId":"1F2B41F8F4FA0198","pipelineFeatureId":"1R75K83I/TOPMAR/17092","provenance":{"cellId":"1R75K83I","checksum":"43310d07eea7fc16f62cde806084973756982679c20eaa5a0d4a8d94fa41c0e3","readerVersion":"GDAL 3.2.2","processedAt":"2026-08-11T13:43:44.753Z"},"associationRefsVerifiedInGdalOutput":false}},{"type":"Feature","geometry":{"type":"Point","coordinates":[3.5112,51.4660167]},"properties":{"dolphinKind":"topmark","rawObjectClass":"TOPMAR","sourceProperties":{"RCID":17152,"PRIM":1,"GRUP":2,"OBJL":144,"RVER":1,"AGEN":7979,"FIDN":1106834682,"FIDS":468,"LNAM":"1F2B41F8F4FA01D4","COLOUR":["2"],"TOPSHP":11,"SCAMIN":200000,"SORDAT":"20160913","SORIND":"NL,1R,Reprt,BASS118-2016","sourceCellId":"1R75K83I","sourceChecksum":"43310d07eea7fc16f62cde806084973756982679c20eaa5a0d4a8d94fa41c0e3","rawObjectClass":"TOPMAR","sourceStableId":"1F2B41F8F4FA01D4"},"sourceKind":"official","official":true,"sourceCellId":"1R75K83I","sourceStableId":"1F2B41F8F4FA01D4","pipelineFeatureId":"1R75K83I/TOPMAR/17152","provenance":{"cellId":"1R75K83I","checksum":"43310d07eea7fc16f62cde806084973756982679c20eaa5a0d4a8d94fa41c0e3","readerVersion":"GDAL 3.2.2","processedAt":"2026-08-11T13:43:44.753Z"},"associationRefsVerifiedInGdalOutput":false}},{"type":"Feature","geometry":{"type":"Point","coordinates":[3.46015,51.4682833]},"properties":{"dolphinKind":"topmark","rawObjectClass":"TOPMAR","sourceProperties":{"RCID":17461,"PRIM":1,"GRUP":2,"OBJL":144,"RVER":1,"AGEN":7979,"FIDN":1106834684,"FIDS":267,"LNAM":"1F2B41F8F4FC010B","COLOUR":["2"],"TOPSHP":7,"SCAMIN":200000,"SORDAT":"20091104","SORIND":"NL,1R,Reprt,Bass110/09","sourceCellId":"1R75K83I","sourceChecksum":"43310d07eea7fc16f62cde806084973756982679c20eaa5a0d4a8d94fa41c0e3","rawObjectClass":"TOPMAR","sourceStableId":"1F2B41F8F4FC010B"},"sourceKind":"official","official":true,"sourceCellId":"1R75K83I","sourceStableId":"1F2B41F8F4FC010B","pipelineFeatureId":"1R75K83I/TOPMAR/17461","provenance":{"cellId":"1R75K83I","checksum":"43310d07eea7fc16f62cde806084973756982679c20eaa5a0d4a8d94fa41c0e3","readerVersion":"GDAL 3.2.2","processedAt":"2026-08-11T13:43:44.753Z"},"associationRefsVerifiedInGdalOutput":false}},{"type":"Feature","geometry":{"type":"Point","coordinates":[3.4704667,51.4473333]},"properties":{"dolphinKind":"topmark","rawObjectClass":"TOPMAR","sourceProperties":{"RCID":41497351,"PRIM":1,"GRUP":2,"OBJL":144,"RVER":1,"AGEN":7979,"FIDN":41497351,"FIDS":1,"LNAM":"1F2B027933070001","COLOUR":["3"],"TOPSHP":5,"SCAMIN":200000,"SORDAT":"20091104","SORIND":"NL,1R,Reprt,Bass110/09","sourceCellId":"1R75K83I","sourceChecksum":"43310d07eea7fc16f62cde806084973756982679c20eaa5a0d4a8d94fa41c0e3","rawObjectClass":"TOPMAR","sourceStableId":"1F2B027933070001"},"sourceKind":"official","official":true,"sourceCellId":"1R75K83I","sourceStableId":"1F2B027933070001","pipelineFeatureId":"1R75K83I/TOPMAR/41497351","provenance":{"cellId":"1R75K83I","checksum":"43310d07eea7fc16f62cde806084973756982679c20eaa5a0d4a8d94fa41c0e3","readerVersion":"GDAL 3.2.2","processedAt":"2026-08-11T13:43:44.753Z"},"associationRefsVerifiedInGdalOutput":false}},{"type":"Feature","geometry":{"type":"Point","coordinates":[3.50095,51.4392]},"properties":{"dolphinKind":"topmark","rawObjectClass":"TOPMAR","sourceProperties":{"RCID":41497386,"PRIM":1,"GRUP":2,"OBJL":144,"RVER":1,"AGEN":7979,"FIDN":41497386,"FIDS":1,"LNAM":"1F2B0279332A0001","COLOUR":["2"],"TOPSHP":10,"SCAMIN":200000,"SORDAT":"20091104","SORIND":"NL,1R,Reprt,Bass110/09","sourceCellId":"1R75K83I","sourceChecksum":"43310d07eea7fc16f62cde806084973756982679c20eaa5a0d4a8d94fa41c0e3","rawObjectClass":"TOPMAR","sourceStableId":"1F2B0279332A0001"},"sourceKind":"official","official":true,"sourceCellId":"1R75K83I","sourceStableId":"1F2B0279332A0001","pipelineFeatureId":"1R75K83I/TOPMAR/41497386","provenance":{"cellId":"1R75K83I","checksum":"43310d07eea7fc16f62cde806084973756982679c20eaa5a0d4a8d94fa41c0e3","readerVersion":"GDAL 3.2.2","processedAt":"2026-08-11T13:43:44.753Z"},"associationRefsVerifiedInGdalOutput":false}},{"type":"Feature","geometry":{"type":"Point","coordinates":[3.504725,51.46597]},"properties":{"dolphinKind":"topmark","rawObjectClass":"TOPMAR","sourceProperties":{"RCID":302450538,"PRIM":1,"GRUP":2,"OBJL":144,"RVER":1,"AGEN":7979,"FIDN":302450538,"FIDS":1,"LNAM":"1F2B1207076A0001","COLOUR":["3"],"TOPSHP":5,"SCAMIN":200000,"SORDAT":"20030930","sourceCellId":"1R75K83I","sourceChecksum":"43310d07eea7fc16f62cde806084973756982679c20eaa5a0d4a8d94fa41c0e3","rawObjectClass":"TOPMAR","sourceStableId":"1F2B1207076A0001"},"sourceKind":"official","official":true,"sourceCellId":"1R75K83I","sourceStableId":"1F2B1207076A0001","pipelineFeatureId":"1R75K83I/TOPMAR/302450538","provenance":{"cellId":"1R75K83I","checksum":"43310d07eea7fc16f62cde806084973756982679c20eaa5a0d4a8d94fa41c0e3","readerVersion":"GDAL 3.2.2","processedAt":"2026-08-11T13:43:44.753Z"},"associationRefsVerifiedInGdalOutput":false}},{"type":"Feature","geometry":{"type":"Point","coordinates":[3.5123167,51.45835]},"properties":{"dolphinKind":"topmark","rawObjectClass":"TOPMAR","sourceProperties":{"RCID":1215546305,"PRIM":1,"GRUP":2,"OBJL":144,"RVER":1,"AGEN":7979,"FIDN":1215546305,"FIDS":1,"LNAM":"1F2B4873C3C10001","COLOUR":["4"],"TOPSHP":1,"SCAMIN":200000,"SORDAT":"20250114","SORIND":"NL,1R,Reprt,MD 026-25","sourceCellId":"1R75K83I","sourceChecksum":"43310d07eea7fc16f62cde806084973756982679c20eaa5a0d4a8d94fa41c0e3","rawObjectClass":"TOPMAR","sourceStableId":"1F2B4873C3C10001"},"sourceKind":"official","official":true,"sourceCellId":"1R75K83I","sourceStableId":"1F2B4873C3C10001","pipelineFeatureId":"1R75K83I/TOPMAR/1215546305","provenance":{"cellId":"1R75K83I","checksum":"43310d07eea7fc16f62cde806084973756982679c20eaa5a0d4a8d94fa41c0e3","readerVersion":"GDAL 3.2.2","processedAt":"2026-08-11T13:43:44.753Z"},"associationRefsVerifiedInGdalOutput":false}},{"type":"Feature","geometry":{"type":"Point","coordinates":[3.5277917,51.4537967]},"properties":{"dolphinKind":"topmark","rawObjectClass":"TOPMAR","sourceProperties":{"RCID":1215547861,"PRIM":1,"GRUP":2,"OBJL":144,"RVER":1,"AGEN":7979,"FIDN":1215547861,"FIDS":1,"LNAM":"1F2B4873C9D50001","COLOUR":["3"],"TOPSHP":5,"SCAMIN":200000,"SORDAT":"20250114","SORIND":"NL,1R,Reprt, MD 026-25","sourceCellId":"1R75K83I","sourceChecksum":"43310d07eea7fc16f62cde806084973756982679c20eaa5a0d4a8d94fa41c0e3","rawObjectClass":"TOPMAR","sourceStableId":"1F2B4873C9D50001"},"sourceKind":"official","official":true,"sourceCellId":"1R75K83I","sourceStableId":"1F2B4873C9D50001","pipelineFeatureId":"1R75K83I/TOPMAR/1215547861","provenance":{"cellId":"1R75K83I","checksum":"43310d07eea7fc16f62cde806084973756982679c20eaa5a0d4a8d94fa41c0e3","readerVersion":"GDAL 3.2.2","processedAt":"2026-08-11T13:43:44.753Z"},"associationRefsVerifiedInGdalOutput":false}},{"type":"Feature","geometry":{"type":"Point","coordinates":[3.5088333,51.4363333]},"properties":{"dolphinKind":"topmark","rawObjectClass":"TOPMAR","sourceProperties":{"RCID":1234735422,"PRIM":1,"GRUP":2,"OBJL":144,"RVER":1,"AGEN":7979,"FIDN":1234735422,"FIDS":1,"LNAM":"1F2B4998913E0001","COLOUR":["6"],"TOPSHP":7,"SCAMIN":200000,"sourceCellId":"1R75K83I","sourceChecksum":"43310d07eea7fc16f62cde806084973756982679c20eaa5a0d4a8d94fa41c0e3","rawObjectClass":"TOPMAR","sourceStableId":"1F2B4998913E0001"},"sourceKind":"official","official":true,"sourceCellId":"1R75K83I","sourceStableId":"1F2B4998913E0001","pipelineFeatureId":"1R75K83I/TOPMAR/1234735422","provenance":{"cellId":"1R75K83I","checksum":"43310d07eea7fc16f62cde806084973756982679c20eaa5a0d4a8d94fa41c0e3","readerVersion":"GDAL 3.2.2","processedAt":"2026-08-11T13:43:44.753Z"},"associationRefsVerifiedInGdalOutput":false}},{"type":"Feature","geometry":{"type":"Point","coordinates":[3.35008,51.4511717]},"properties":{"dolphinKind":"topmark","rawObjectClass":"TOPMAR","sourceProperties":{"RCID":1249166933,"PRIM":1,"GRUP":2,"OBJL":144,"RVER":1,"AGEN":7979,"FIDN":1249166933,"FIDS":1,"LNAM":"1F2B4A74C6550001","COLOUR":["6"],"TOPSHP":7,"SCAMIN":200000,"sourceCellId":"1R75K83I","sourceChecksum":"43310d07eea7fc16f62cde806084973756982679c20eaa5a0d4a8d94fa41c0e3","rawObjectClass":"TOPMAR","sourceStableId":"1F2B4A74C6550001"},"sourceKind":"official","official":true,"sourceCellId":"1R75K83I","sourceStableId":"1F2B4A74C6550001","pipelineFeatureId":"1R75K83I/TOPMAR/1249166933","provenance":{"cellId":"1R75K83I","checksum":"43310d07eea7fc16f62cde806084973756982679c20eaa5a0d4a8d94fa41c0e3","readerVersion":"GDAL 3.2.2","processedAt":"2026-08-11T13:43:44.753Z"},"associationRefsVerifiedInGdalOutput":false}},{"type":"Feature","geometry":{"type":"Point","coordinates":[3.39825,51.4256167]},"properties":{"dolphinKind":"topmark","rawObjectClass":"TOPMAR","sourceProperties":{"RCID":1266596804,"PRIM":1,"GRUP":2,"OBJL":144,"RVER":1,"AGEN":7979,"FIDN":1266596804,"FIDS":1,"LNAM":"1F2B4B7EBBC40001","COLOUR":["6"],"TOPSHP":7,"SCAMIN":200000,"SORDAT":"20260318","SORIND":"NL,1R,Reprt,MD 268-26","sourceCellId":"1R75K83I","sourceChecksum":"43310d07eea7fc16f62cde806084973756982679c20eaa5a0d4a8d94fa41c0e3","rawObjectClass":"TOPMAR","sourceStableId":"1F2B4B7EBBC40001"},"sourceKind":"official","official":true,"sourceCellId":"1R75K83I","sourceStableId":"1F2B4B7EBBC40001","pipelineFeatureId":"1R75K83I/TOPMAR/1266596804","provenance":{"cellId":"1R75K83I","checksum":"43310d07eea7fc16f62cde806084973756982679c20eaa5a0d4a8d94fa41c0e3","readerVersion":"GDAL 3.2.2","processedAt":"2026-08-11T13:43:44.753Z"},"associationRefsVerifiedInGdalOutput":false}},{"type":"Feature","geometry":{"type":"Point","coordinates":[3.4189167,51.4270333]},"properties":{"dolphinKind":"topmark","rawObjectClass":"TOPMAR","sourceProperties":{"RCID":1266596807,"PRIM":1,"GRUP":2,"OBJL":144,"RVER":1,"AGEN":7979,"FIDN":1266596807,"FIDS":1,"LNAM":"1F2B4B7EBBC70001","COLOUR":["6"],"TOPSHP":7,"SCAMIN":200000,"SORDAT":"20260318","SORIND":"NL,1R,Reprt,MD 115-2026,TopdeskC260303810","sourceCellId":"1R75K83I","sourceChecksum":"43310d07eea7fc16f62cde806084973756982679c20eaa5a0d4a8d94fa41c0e3","rawObjectClass":"TOPMAR","sourceStableId":"1F2B4B7EBBC70001"},"sourceKind":"official","official":true,"sourceCellId":"1R75K83I","sourceStableId":"1F2B4B7EBBC70001","pipelineFeatureId":"1R75K83I/TOPMAR/1266596807","provenance":{"cellId":"1R75K83I","checksum":"43310d07eea7fc16f62cde806084973756982679c20eaa5a0d4a8d94fa41c0e3","readerVersion":"GDAL 3.2.2","processedAt":"2026-08-11T13:43:44.753Z"},"associationRefsVerifiedInGdalOutput":false}},{"type":"Feature","geometry":{"type":"Point","coordinates":[3.4304667,51.4272333]},"properties":{"dolphinKind":"topmark","rawObjectClass":"TOPMAR","sourceProperties":{"RCID":1266596810,"PRIM":1,"GRUP":2,"OBJL":144,"RVER":1,"AGEN":7979,"FIDN":1266596810,"FIDS":1,"LNAM":"1F2B4B7EBBCA0001","COLOUR":["6"],"TOPSHP":7,"SCAMIN":200000,"SORDAT":"20260318","SORIND":"NL,1R,Reprt,MD 115-2026,TopdeskC260303810","sourceCellId":"1R75K83I","sourceChecksum":"43310d07eea7fc16f62cde806084973756982679c20eaa5a0d4a8d94fa41c0e3","rawObjectClass":"TOPMAR","sourceStableId":"1F2B4B7EBBCA0001"},"sourceKind":"official","official":true,"sourceCellId":"1R75K83I","sourceStableId":"1F2B4B7EBBCA0001","pipelineFeatureId":"1R75K83I/TOPMAR/1266596810","provenance":{"cellId":"1R75K83I","checksum":"43310d07eea7fc16f62cde806084973756982679c20eaa5a0d4a8d94fa41c0e3","readerVersion":"GDAL 3.2.2","processedAt":"2026-08-11T13:43:44.753Z"},"associationRefsVerifiedInGdalOutput":false}},{"type":"Feature","geometry":{"type":"Point","coordinates":[3.3345333,51.4363967]},"properties":{"dolphinKind":"topmark","rawObjectClass":"TOPMAR","sourceProperties":{"RCID":1270272810,"PRIM":1,"GRUP":2,"OBJL":144,"RVER":1,"AGEN":7979,"FIDN":1270272810,"FIDS":1,"LNAM":"1F2B4BB6D32A0001","COLOUR":["6"],"TOPSHP":7,"SCAMIN":200000,"SORDAT":"20260511","SORIND":"NL,1R,Reprt,MD 252-2026","sourceCellId":"1R75K83I","sourceChecksum":"43310d07eea7fc16f62cde806084973756982679c20eaa5a0d4a8d94fa41c0e3","rawObjectClass":"TOPMAR","sourceStableId":"1F2B4BB6D32A0001"},"sourceKind":"official","official":true,"sourceCellId":"1R75K83I","sourceStableId":"1F2B4BB6D32A0001","pipelineFeatureId":"1R75K83I/TOPMAR/1270272810","provenance":{"cellId":"1R75K83I","checksum":"43310d07eea7fc16f62cde806084973756982679c20eaa5a0d4a8d94fa41c0e3","readerVersion":"GDAL 3.2.2","processedAt":"2026-08-11T13:43:44.753Z"},"associationRefsVerifiedInGdalOutput":false}},{"type":"Feature","geometry":{"type":"Point","coordinates":[3.3345333,51.4355033]},"properties":{"dolphinKind":"topmark","rawObjectClass":"TOPMAR","sourceProperties":{"RCID":1270280264,"PRIM":1,"GRUP":2,"OBJL":144,"RVER":1,"AGEN":7979,"FIDN":1270280264,"FIDS":1,"LNAM":"1F2B4BB6F0480001","COLOUR":["6"],"TOPSHP":7,"SCAMIN":200000,"SORDAT":"20260511","SORIND":"NL,1R,Reprt,MD 252-2026","sourceCellId":"1R75K83I","sourceChecksum":"43310d07eea7fc16f62cde806084973756982679c20eaa5a0d4a8d94fa41c0e3","rawObjectClass":"TOPMAR","sourceStableId":"1F2B4BB6F0480001"},"sourceKind":"official","official":true,"sourceCellId":"1R75K83I","sourceStableId":"1F2B4BB6F0480001","pipelineFeatureId":"1R75K83I/TOPMAR/1270280264","provenance":{"cellId":"1R75K83I","checksum":"43310d07eea7fc16f62cde806084973756982679c20eaa5a0d4a8d94fa41c0e3","readerVersion":"GDAL 3.2.2","processedAt":"2026-08-11T13:43:44.753Z"},"associationRefsVerifiedInGdalOutput":false}},{"type":"Feature","geometry":{"type":"Point","coordinates":[3.3974667,51.4274967]},"properties":{"dolphinKind":"topmark","rawObjectClass":"TOPMAR","sourceProperties":{"RCID":1270296367,"PRIM":1,"GRUP":2,"OBJL":144,"RVER":1,"AGEN":7979,"FIDN":1270296367,"FIDS":1,"LNAM":"1F2B4BB72F2F0001","COLOUR":["6"],"TOPSHP":7,"SCAMIN":200000,"SORDAT":"20260511","SORIND":"NL,1R,Reprt,MD 252-2026","sourceCellId":"1R75K83I","sourceChecksum":"43310d07eea7fc16f62cde806084973756982679c20eaa5a0d4a8d94fa41c0e3","rawObjectClass":"TOPMAR","sourceStableId":"1F2B4BB72F2F0001"},"sourceKind":"official","official":true,"sourceCellId":"1R75K83I","sourceStableId":"1F2B4BB72F2F0001","pipelineFeatureId":"1R75K83I/TOPMAR/1270296367","provenance":{"cellId":"1R75K83I","checksum":"43310d07eea7fc16f62cde806084973756982679c20eaa5a0d4a8d94fa41c0e3","readerVersion":"GDAL 3.2.2","processedAt":"2026-08-11T13:43:44.753Z"},"associationRefsVerifiedInGdalOutput":false}},{"type":"Feature","geometry":{"type":"Point","coordinates":[3.4973267,51.463945]},"properties":{"dolphinKind":"topmark","rawObjectClass":"TOPMAR","sourceProperties":{"RCID":1272834644,"PRIM":1,"GRUP":2,"OBJL":144,"RVER":1,"AGEN":7979,"FIDN":1272834644,"FIDS":1,"LNAM":"1F2B4BDDEA540001","COLOUR":["4"],"TOPSHP":1,"SCAMIN":200000,"sourceCellId":"1R75K83I","sourceChecksum":"43310d07eea7fc16f62cde806084973756982679c20eaa5a0d4a8d94fa41c0e3","rawObjectClass":"TOPMAR","sourceStableId":"1F2B4BDDEA540001"},"sourceKind":"official","official":true,"sourceCellId":"1R75K83I","sourceStableId":"1F2B4BDDEA540001","pipelineFeatureId":"1R75K83I/TOPMAR/1272834644","provenance":{"cellId":"1R75K83I","checksum":"43310d07eea7fc16f62cde806084973756982679c20eaa5a0d4a8d94fa41c0e3","readerVersion":"GDAL 3.2.2","processedAt":"2026-08-11T13:43:44.753Z"},"associationRefsVerifiedInGdalOutput":false}},{"type":"Feature","geometry":{"type":"Point","coordinates":[3.4970833,51.4421833]},"properties":{"dolphinKind":"topmark","rawObjectClass":"TOPMAR","sourceProperties":{"RCID":1273533683,"PRIM":1,"GRUP":2,"OBJL":144,"RVER":1,"AGEN":7979,"FIDN":1273533683,"FIDS":1,"LNAM":"1F2B4BE894F30001","COLOUR":["2"],"TOPSHP":7,"SCAMIN":200000,"SORDAT":"20260504","SORIND":"NL,1R,Reprt,NDB verbetering","sourceCellId":"1R75K83I","sourceChecksum":"43310d07eea7fc16f62cde806084973756982679c20eaa5a0d4a8d94fa41c0e3","rawObjectClass":"TOPMAR","sourceStableId":"1F2B4BE894F30001"},"sourceKind":"official","official":true,"sourceCellId":"1R75K83I","sourceStableId":"1F2B4BE894F30001","pipelineFeatureId":"1R75K83I/TOPMAR/1273533683","provenance":{"cellId":"1R75K83I","checksum":"43310d07eea7fc16f62cde806084973756982679c20eaa5a0d4a8d94fa41c0e3","readerVersion":"GDAL 3.2.2","processedAt":"2026-08-11T13:43:44.753Z"},"associationRefsVerifiedInGdalOutput":false}}]}