{"type":"FeatureCollection","features":[{"type":"Feature","geometry":{"type":"Point","coordinates":[3.5514167,51.7462167]},"properties":{"dolphinKind":"buoy-lateral","rawObjectClass":"BOYLAT","sourceProperties":{"RCID":513694223,"PRIM":1,"GRUP":2,"OBJL":17,"RVER":1,"AGEN":7979,"FIDN":513694223,"FIDS":1,"LNAM":"1F2B1E9E5A0F0001","LNAM_REFS":["1F2B1E9E5A0E0001","1F2B1E9E5A100001"],"FFPT_RIND":[2,2],"BOYSHP":1,"CATLAM":2,"COLOUR":["4"],"CONRAD":3,"OBJNAM":"GB 1","SCAMIN":200000,"SORDAT":"20230510","SORIND":"NL,1R,reprt,MD 257-23","sourceCellId":"1R75W93I","sourceChecksum":"3b771fe29d4a8d9366dc586153fcb8172764ad3fbdb57eb7780f8a20b5b2fa16","rawObjectClass":"BOYLAT","sourceStableId":"1F2B1E9E5A0F0001"},"sourceKind":"official","official":true,"sourceCellId":"1R75W93I","sourceStableId":"1F2B1E9E5A0F0001","pipelineFeatureId":"1R75W93I/BOYLAT/513694223","provenance":{"cellId":"1R75W93I","checksum":"3b771fe29d4a8d9366dc586153fcb8172764ad3fbdb57eb7780f8a20b5b2fa16","readerVersion":"GDAL 3.2.2","processedAt":"2026-08-11T18:29:20.995Z"}}},{"type":"Feature","geometry":{"type":"Point","coordinates":[3.541425,51.7293267]},"properties":{"dolphinKind":"buoy-lateral","rawObjectClass":"BOYLAT","sourceProperties":{"RCID":513694225,"PRIM":1,"GRUP":2,"OBJL":17,"RVER":1,"AGEN":7979,"FIDN":513694225,"FIDS":1,"LNAM":"1F2B1E9E5A110001","BOYSHP":5,"CATLAM":2,"COLOUR":["4"],"CONRAD":3,"NATCON":["8"],"OBJNAM":"GB 3","SCAMIN":200000,"SORDAT":"20230510","SORIND":"NL,1R,reprt,MD 257-23","sourceCellId":"1R75W93I","sourceChecksum":"3b771fe29d4a8d9366dc586153fcb8172764ad3fbdb57eb7780f8a20b5b2fa16","rawObjectClass":"BOYLAT","sourceStableId":"1F2B1E9E5A110001"},"sourceKind":"official","official":true,"sourceCellId":"1R75W93I","sourceStableId":"1F2B1E9E5A110001","pipelineFeatureId":"1R75W93I/BOYLAT/513694225","provenance":{"cellId":"1R75W93I","checksum":"3b771fe29d4a8d9366dc586153fcb8172764ad3fbdb57eb7780f8a20b5b2fa16","readerVersion":"GDAL 3.2.2","processedAt":"2026-08-11T18:29:20.995Z"}}},{"type":"Feature","geometry":{"type":"Point","coordinates":[3.56193,51.7430817]},"properties":{"dolphinKind":"buoy-lateral","rawObjectClass":"BOYLAT","sourceProperties":{"RCID":513694236,"PRIM":1,"GRUP":2,"OBJL":17,"RVER":1,"AGEN":7979,"FIDN":513694236,"FIDS":1,"LNAM":"1F2B1E9E5A1C0001","LNAM_REFS":["1F2B1E9E5A1B0001"],"FFPT_RIND":[2],"BOYSHP":5,"CATLAM":1,"COLOUR":["3"],"CONRAD":3,"NATCON":["8"],"OBJNAM":"GB 2","SCAMIN":200000,"SORDAT":"20260423","SORIND":"NL,1R,reprt,MD 227-2026","sourceCellId":"1R75W93I","sourceChecksum":"3b771fe29d4a8d9366dc586153fcb8172764ad3fbdb57eb7780f8a20b5b2fa16","rawObjectClass":"BOYLAT","sourceStableId":"1F2B1E9E5A1C0001"},"sourceKind":"official","official":true,"sourceCellId":"1R75W93I","sourceStableId":"1F2B1E9E5A1C0001","pipelineFeatureId":"1R75W93I/BOYLAT/513694236","provenance":{"cellId":"1R75W93I","checksum":"3b771fe29d4a8d9366dc586153fcb8172764ad3fbdb57eb7780f8a20b5b2fa16","readerVersion":"GDAL 3.2.2","processedAt":"2026-08-11T18:29:20.995Z"}}},{"type":"Feature","geometry":{"type":"Point","coordinates":[3.5469167,51.7278383]},"properties":{"dolphinKind":"buoy-lateral","rawObjectClass":"BOYLAT","sourceProperties":{"RCID":513694238,"PRIM":1,"GRUP":2,"OBJL":17,"RVER":1,"AGEN":7979,"FIDN":513694238,"FIDS":1,"LNAM":"1F2B1E9E5A1E0001","LNAM_REFS":["1F2B1E9E5A1D0001"],"FFPT_RIND":[2],"BOYSHP":2,"CATLAM":1,"COLOUR":["3"],"CONRAD":3,"OBJNAM":"GB 4","SCAMIN":200000,"SORDAT":"20230510","SORIND":"NL,1R,reprt,MD 257-23","sourceCellId":"1R75W93I","sourceChecksum":"3b771fe29d4a8d9366dc586153fcb8172764ad3fbdb57eb7780f8a20b5b2fa16","rawObjectClass":"BOYLAT","sourceStableId":"1F2B1E9E5A1E0001"},"sourceKind":"official","official":true,"sourceCellId":"1R75W93I","sourceStableId":"1F2B1E9E5A1E0001","pipelineFeatureId":"1R75W93I/BOYLAT/513694238","provenance":{"cellId":"1R75W93I","checksum":"3b771fe29d4a8d9366dc586153fcb8172764ad3fbdb57eb7780f8a20b5b2fa16","readerVersion":"GDAL 3.2.2","processedAt":"2026-08-11T18:29:20.995Z"}}},{"type":"Feature","geometry":{"type":"Point","coordinates":[3.73224,51.77264]},"properties":{"dolphinKind":"buoy-special","rawObjectClass":"BOYSPP","sourceProperties":{"RCID":30052289,"PRIM":1,"GRUP":2,"OBJL":19,"RVER":1,"AGEN":7979,"FIDN":30052289,"FIDS":1,"LNAM":"1F2B01CA8FC10001","BOYSHP":5,"CATSPM":["18"],"COLOUR":["6"],"CONRAD":3,"OBJNAM":"BO-OW A","PEREND":"--0401","PERSTA":"--1101","INFORM":"Resting area during winter","SCAMIN":200000,"SORDAT":"20251205","SORIND":"NL,1R,Reprt,MD 586-25","sourceCellId":"1R75W93I","sourceChecksum":"3b771fe29d4a8d9366dc586153fcb8172764ad3fbdb57eb7780f8a20b5b2fa16","rawObjectClass":"BOYSPP","sourceStableId":"1F2B01CA8FC10001"},"sourceKind":"official","official":true,"sourceCellId":"1R75W93I","sourceStableId":"1F2B01CA8FC10001","pipelineFeatureId":"1R75W93I/BOYSPP/30052289","provenance":{"cellId":"1R75W93I","checksum":"3b771fe29d4a8d9366dc586153fcb8172764ad3fbdb57eb7780f8a20b5b2fa16","readerVersion":"GDAL 3.2.2","processedAt":"2026-08-11T18:29:20.995Z"}}},{"type":"Feature","geometry":{"type":"Point","coordinates":[3.725395,51.7576133]},"properties":{"dolphinKind":"buoy-special","rawObjectClass":"BOYSPP","sourceProperties":{"RCID":141809952,"PRIM":1,"GRUP":2,"OBJL":19,"RVER":1,"AGEN":7979,"FIDN":141809952,"FIDS":1,"LNAM":"1F2B0873D9200001","BOYSHP":5,"CATSPM":["50"],"COLOUR":["6"],"CONRAD":3,"OBJNAM":"MPZ-OW 1","SCAMIN":200000,"SORDAT":"20250312","SORIND":"NL,1R,reprt,MD 591-24","sourceCellId":"1R75W93I","sourceChecksum":"3b771fe29d4a8d9366dc586153fcb8172764ad3fbdb57eb7780f8a20b5b2fa16","rawObjectClass":"BOYSPP","sourceStableId":"1F2B0873D9200001"},"sourceKind":"official","official":true,"sourceCellId":"1R75W93I","sourceStableId":"1F2B0873D9200001","pipelineFeatureId":"1R75W93I/BOYSPP/141809952","provenance":{"cellId":"1R75W93I","checksum":"3b771fe29d4a8d9366dc586153fcb8172764ad3fbdb57eb7780f8a20b5b2fa16","readerVersion":"GDAL 3.2.2","processedAt":"2026-08-11T18:29:20.995Z"}}},{"type":"Feature","geometry":{"type":"Point","coordinates":[3.7260817,51.7531517]},"properties":{"dolphinKind":"buoy-special","rawObjectClass":"BOYSPP","sourceProperties":{"RCID":141809954,"PRIM":1,"GRUP":2,"OBJL":19,"RVER":1,"AGEN":7979,"FIDN":141809954,"FIDS":1,"LNAM":"1F2B0873D9220001","BOYSHP":5,"CATSPM":["50"],"COLOUR":["6"],"CONRAD":3,"OBJNAM":"MPZ-OW 2","SCAMIN":200000,"SORDAT":"20250312","SORIND":"NL,1R,reprt,MD 591-24","sourceCellId":"1R75W93I","sourceChecksum":"3b771fe29d4a8d9366dc586153fcb8172764ad3fbdb57eb7780f8a20b5b2fa16","rawObjectClass":"BOYSPP","sourceStableId":"1F2B0873D9220001"},"sourceKind":"official","official":true,"sourceCellId":"1R75W93I","sourceStableId":"1F2B0873D9220001","pipelineFeatureId":"1R75W93I/BOYSPP/141809954","provenance":{"cellId":"1R75W93I","checksum":"3b771fe29d4a8d9366dc586153fcb8172764ad3fbdb57eb7780f8a20b5b2fa16","readerVersion":"GDAL 3.2.2","processedAt":"2026-08-11T18:29:20.995Z"}}},{"type":"Feature","geometry":{"type":"Point","coordinates":[3.73094,51.7605467]},"properties":{"dolphinKind":"buoy-special","rawObjectClass":"BOYSPP","sourceProperties":{"RCID":141809957,"PRIM":1,"GRUP":2,"OBJL":19,"RVER":1,"AGEN":7979,"FIDN":141809957,"FIDS":1,"LNAM":"1F2B0873D9250001","BOYSHP":5,"CATSPM":["50"],"COLOUR":["6"],"CONRAD":3,"OBJNAM":"MPZ-OW 5","SCAMIN":200000,"SORDAT":"20250312","SORIND":"NL,1R,reprt,MD 591-24","sourceCellId":"1R75W93I","sourceChecksum":"3b771fe29d4a8d9366dc586153fcb8172764ad3fbdb57eb7780f8a20b5b2fa16","rawObjectClass":"BOYSPP","sourceStableId":"1F2B0873D9250001"},"sourceKind":"official","official":true,"sourceCellId":"1R75W93I","sourceStableId":"1F2B0873D9250001","pipelineFeatureId":"1R75W93I/BOYSPP/141809957","provenance":{"cellId":"1R75W93I","checksum":"3b771fe29d4a8d9366dc586153fcb8172764ad3fbdb57eb7780f8a20b5b2fa16","readerVersion":"GDAL 3.2.2","processedAt":"2026-08-11T18:29:20.995Z"}}},{"type":"Feature","geometry":{"type":"Point","coordinates":[3.727335,51.7594733]},"properties":{"dolphinKind":"buoy-special","rawObjectClass":"BOYSPP","sourceProperties":{"RCID":279621280,"PRIM":1,"GRUP":2,"OBJL":19,"RVER":1,"AGEN":7979,"FIDN":279621280,"FIDS":1,"LNAM":"1F2B10AAAEA00001","BOYSHP":5,"CATSPM":["50"],"COLOUR":["6"],"CONRAD":3,"OBJNAM":"MPZ-OW 3","SCAMIN":200000,"SORDAT":"20250312","SORIND":"NL,1R,reprt,MD 591-24","sourceCellId":"1R75W93I","sourceChecksum":"3b771fe29d4a8d9366dc586153fcb8172764ad3fbdb57eb7780f8a20b5b2fa16","rawObjectClass":"BOYSPP","sourceStableId":"1F2B10AAAEA00001"},"sourceKind":"official","official":true,"sourceCellId":"1R75W93I","sourceStableId":"1F2B10AAAEA00001","pipelineFeatureId":"1R75W93I/BOYSPP/279621280","provenance":{"cellId":"1R75W93I","checksum":"3b771fe29d4a8d9366dc586153fcb8172764ad3fbdb57eb7780f8a20b5b2fa16","readerVersion":"GDAL 3.2.2","processedAt":"2026-08-11T18:29:20.995Z"}}},{"type":"Feature","geometry":{"type":"Point","coordinates":[3.5714333,51.7316833]},"properties":{"dolphinKind":"buoy-special","rawObjectClass":"BOYSPP","sourceProperties":{"RCID":332352216,"PRIM":1,"GRUP":2,"OBJL":19,"RVER":1,"AGEN":7979,"FIDN":332352216,"FIDS":1,"LNAM":"1F2B13CF4AD80001","BOYSHP":5,"CATSPM":["18"],"COLOUR":["6"],"OBJNAM":"BZ-OW 1","SCAMIN":200000,"SORDAT":"20241101","SORIND":"NL,1R,reprt,MD592-24","sourceCellId":"1R75W93I","sourceChecksum":"3b771fe29d4a8d9366dc586153fcb8172764ad3fbdb57eb7780f8a20b5b2fa16","rawObjectClass":"BOYSPP","sourceStableId":"1F2B13CF4AD80001"},"sourceKind":"official","official":true,"sourceCellId":"1R75W93I","sourceStableId":"1F2B13CF4AD80001","pipelineFeatureId":"1R75W93I/BOYSPP/332352216","provenance":{"cellId":"1R75W93I","checksum":"3b771fe29d4a8d9366dc586153fcb8172764ad3fbdb57eb7780f8a20b5b2fa16","readerVersion":"GDAL 3.2.2","processedAt":"2026-08-11T18:29:20.995Z"}}},{"type":"Feature","geometry":{"type":"Point","coordinates":[3.5781883,51.7358567]},"properties":{"dolphinKind":"buoy-special","rawObjectClass":"BOYSPP","sourceProperties":{"RCID":332352217,"PRIM":1,"GRUP":2,"OBJL":19,"RVER":1,"AGEN":7979,"FIDN":332352217,"FIDS":1,"LNAM":"1F2B13CF4AD90001","BOYSHP":5,"CATSPM":["18"],"COLOUR":["6"],"OBJNAM":"BZ-OW 3","SCAMIN":200000,"SORDAT":"20241101","SORIND":"NL,1R,reprt,MD592-24","sourceCellId":"1R75W93I","sourceChecksum":"3b771fe29d4a8d9366dc586153fcb8172764ad3fbdb57eb7780f8a20b5b2fa16","rawObjectClass":"BOYSPP","sourceStableId":"1F2B13CF4AD90001"},"sourceKind":"official","official":true,"sourceCellId":"1R75W93I","sourceStableId":"1F2B13CF4AD90001","pipelineFeatureId":"1R75W93I/BOYSPP/332352217","provenance":{"cellId":"1R75W93I","checksum":"3b771fe29d4a8d9366dc586153fcb8172764ad3fbdb57eb7780f8a20b5b2fa16","readerVersion":"GDAL 3.2.2","processedAt":"2026-08-11T18:29:20.995Z"}}},{"type":"Feature","geometry":{"type":"Point","coordinates":[3.5848333,51.7401833]},"properties":{"dolphinKind":"buoy-special","rawObjectClass":"BOYSPP","sourceProperties":{"RCID":332352218,"PRIM":1,"GRUP":2,"OBJL":19,"RVER":1,"AGEN":7979,"FIDN":332352218,"FIDS":1,"LNAM":"1F2B13CF4ADA0001","BOYSHP":5,"CATSPM":["18"],"COLOUR":["6"],"OBJNAM":"BZ-OW 5","SCAMIN":200000,"SORDAT":"20241101","SORIND":"NL,1R,reprt,MD592-24","sourceCellId":"1R75W93I","sourceChecksum":"3b771fe29d4a8d9366dc586153fcb8172764ad3fbdb57eb7780f8a20b5b2fa16","rawObjectClass":"BOYSPP","sourceStableId":"1F2B13CF4ADA0001"},"sourceKind":"official","official":true,"sourceCellId":"1R75W93I","sourceStableId":"1F2B13CF4ADA0001","pipelineFeatureId":"1R75W93I/BOYSPP/332352218","provenance":{"cellId":"1R75W93I","checksum":"3b771fe29d4a8d9366dc586153fcb8172764ad3fbdb57eb7780f8a20b5b2fa16","readerVersion":"GDAL 3.2.2","processedAt":"2026-08-11T18:29:20.995Z"}}},{"type":"Feature","geometry":{"type":"Point","coordinates":[3.5988017,51.740425]},"properties":{"dolphinKind":"buoy-special","rawObjectClass":"BOYSPP","sourceProperties":{"RCID":332352219,"PRIM":1,"GRUP":2,"OBJL":19,"RVER":1,"AGEN":7979,"FIDN":332352219,"FIDS":1,"LNAM":"1F2B13CF4ADB0001","BOYSHP":5,"CATSPM":["18"],"COLOUR":["6"],"OBJNAM":"BZ-OW 7","SCAMIN":200000,"SORDAT":"20241101","SORIND":"NL,1R,reprt,MD 592-24","sourceCellId":"1R75W93I","sourceChecksum":"3b771fe29d4a8d9366dc586153fcb8172764ad3fbdb57eb7780f8a20b5b2fa16","rawObjectClass":"BOYSPP","sourceStableId":"1F2B13CF4ADB0001"},"sourceKind":"official","official":true,"sourceCellId":"1R75W93I","sourceStableId":"1F2B13CF4ADB0001","pipelineFeatureId":"1R75W93I/BOYSPP/332352219","provenance":{"cellId":"1R75W93I","checksum":"3b771fe29d4a8d9366dc586153fcb8172764ad3fbdb57eb7780f8a20b5b2fa16","readerVersion":"GDAL 3.2.2","processedAt":"2026-08-11T18:29:20.995Z"}}},{"type":"Feature","geometry":{"type":"Point","coordinates":[3.612965,51.74067]},"properties":{"dolphinKind":"buoy-special","rawObjectClass":"BOYSPP","sourceProperties":{"RCID":332352220,"PRIM":1,"GRUP":2,"OBJL":19,"RVER":1,"AGEN":7979,"FIDN":332352220,"FIDS":1,"LNAM":"1F2B13CF4ADC0001","BOYSHP":5,"CATSPM":["18"],"COLOUR":["6"],"OBJNAM":"BZ-OW 9","SCAMIN":200000,"SORDAT":"20241101","SORIND":"NL,1R,reprt,MD592-24","sourceCellId":"1R75W93I","sourceChecksum":"3b771fe29d4a8d9366dc586153fcb8172764ad3fbdb57eb7780f8a20b5b2fa16","rawObjectClass":"BOYSPP","sourceStableId":"1F2B13CF4ADC0001"},"sourceKind":"official","official":true,"sourceCellId":"1R75W93I","sourceStableId":"1F2B13CF4ADC0001","pipelineFeatureId":"1R75W93I/BOYSPP/332352220","provenance":{"cellId":"1R75W93I","checksum":"3b771fe29d4a8d9366dc586153fcb8172764ad3fbdb57eb7780f8a20b5b2fa16","readerVersion":"GDAL 3.2.2","processedAt":"2026-08-11T18:29:20.995Z"}}},{"type":"Feature","geometry":{"type":"Point","coordinates":[3.6269017,51.740915]},"properties":{"dolphinKind":"buoy-special","rawObjectClass":"BOYSPP","sourceProperties":{"RCID":332352221,"PRIM":1,"GRUP":2,"OBJL":19,"RVER":1,"AGEN":7979,"FIDN":332352221,"FIDS":1,"LNAM":"1F2B13CF4ADD0001","BOYSHP":5,"CATSPM":["18"],"COLOUR":["6"],"OBJNAM":"BZ-OW 11","SCAMIN":200000,"SORDAT":"20241101","SORIND":"NL,1R,reprt,MD 592-24","sourceCellId":"1R75W93I","sourceChecksum":"3b771fe29d4a8d9366dc586153fcb8172764ad3fbdb57eb7780f8a20b5b2fa16","rawObjectClass":"BOYSPP","sourceStableId":"1F2B13CF4ADD0001"},"sourceKind":"official","official":true,"sourceCellId":"1R75W93I","sourceStableId":"1F2B13CF4ADD0001","pipelineFeatureId":"1R75W93I/BOYSPP/332352221","provenance":{"cellId":"1R75W93I","checksum":"3b771fe29d4a8d9366dc586153fcb8172764ad3fbdb57eb7780f8a20b5b2fa16","readerVersion":"GDAL 3.2.2","processedAt":"2026-08-11T18:29:20.995Z"}}},{"type":"Feature","geometry":{"type":"Point","coordinates":[3.6408867,51.7411817]},"properties":{"dolphinKind":"buoy-special","rawObjectClass":"BOYSPP","sourceProperties":{"RCID":332352222,"PRIM":1,"GRUP":2,"OBJL":19,"RVER":1,"AGEN":7979,"FIDN":332352222,"FIDS":1,"LNAM":"1F2B13CF4ADE0001","BOYSHP":5,"CATSPM":["18"],"COLOUR":["6"],"OBJNAM":"BZ-OW 13","SCAMIN":200000,"SORDAT":"20241101","SORIND":"NL,1R,reprt,MD592-24","sourceCellId":"1R75W93I","sourceChecksum":"3b771fe29d4a8d9366dc586153fcb8172764ad3fbdb57eb7780f8a20b5b2fa16","rawObjectClass":"BOYSPP","sourceStableId":"1F2B13CF4ADE0001"},"sourceKind":"official","official":true,"sourceCellId":"1R75W93I","sourceStableId":"1F2B13CF4ADE0001","pipelineFeatureId":"1R75W93I/BOYSPP/332352222","provenance":{"cellId":"1R75W93I","checksum":"3b771fe29d4a8d9366dc586153fcb8172764ad3fbdb57eb7780f8a20b5b2fa16","readerVersion":"GDAL 3.2.2","processedAt":"2026-08-11T18:29:20.995Z"}}},{"type":"Feature","geometry":{"type":"Point","coordinates":[3.6546333,51.7414167]},"properties":{"dolphinKind":"buoy-special","rawObjectClass":"BOYSPP","sourceProperties":{"RCID":332352223,"PRIM":1,"GRUP":2,"OBJL":19,"RVER":1,"AGEN":7979,"FIDN":332352223,"FIDS":1,"LNAM":"1F2B13CF4ADF0001","BOYSHP":5,"CATSPM":["18"],"COLOUR":["6"],"OBJNAM":"BZ-OW 15","SCAMIN":200000,"SORDAT":"20241101","SORIND":"NL,1R,reprt,MD592-24","sourceCellId":"1R75W93I","sourceChecksum":"3b771fe29d4a8d9366dc586153fcb8172764ad3fbdb57eb7780f8a20b5b2fa16","rawObjectClass":"BOYSPP","sourceStableId":"1F2B13CF4ADF0001"},"sourceKind":"official","official":true,"sourceCellId":"1R75W93I","sourceStableId":"1F2B13CF4ADF0001","pipelineFeatureId":"1R75W93I/BOYSPP/332352223","provenance":{"cellId":"1R75W93I","checksum":"3b771fe29d4a8d9366dc586153fcb8172764ad3fbdb57eb7780f8a20b5b2fa16","readerVersion":"GDAL 3.2.2","processedAt":"2026-08-11T18:29:20.995Z"}}},{"type":"Feature","geometry":{"type":"Point","coordinates":[3.565535,51.727865]},"properties":{"dolphinKind":"buoy-special","rawObjectClass":"BOYSPP","sourceProperties":{"RCID":332352224,"PRIM":1,"GRUP":2,"OBJL":19,"RVER":1,"AGEN":7979,"FIDN":332352224,"FIDS":1,"LNAM":"1F2B13CF4AE00001","BOYSHP":5,"CATSPM":["18"],"COLOUR":["6"],"OBJNAM":"BZ-OW 2","PEREND":"--0515","PERSTA":"--1101","SCAMIN":200000,"SORDAT":"20241101","SORIND":"NL,1R,reprt,MD592-24","sourceCellId":"1R75W93I","sourceChecksum":"3b771fe29d4a8d9366dc586153fcb8172764ad3fbdb57eb7780f8a20b5b2fa16","rawObjectClass":"BOYSPP","sourceStableId":"1F2B13CF4AE00001"},"sourceKind":"official","official":true,"sourceCellId":"1R75W93I","sourceStableId":"1F2B13CF4AE00001","pipelineFeatureId":"1R75W93I/BOYSPP/332352224","provenance":{"cellId":"1R75W93I","checksum":"3b771fe29d4a8d9366dc586153fcb8172764ad3fbdb57eb7780f8a20b5b2fa16","readerVersion":"GDAL 3.2.2","processedAt":"2026-08-11T18:29:20.995Z"}}},{"type":"Feature","geometry":{"type":"Point","coordinates":[3.6613267,51.7379245]},"properties":{"dolphinKind":"buoy-special","rawObjectClass":"BOYSPP","sourceProperties":{"RCID":450556743,"PRIM":1,"GRUP":2,"OBJL":19,"RVER":1,"AGEN":7979,"FIDN":450556743,"FIDS":1,"LNAM":"1F2B1ADAF3470001","BOYSHP":5,"CATSPM":["18"],"COLOUR":["6"],"OBJNAM":"BZ-OW 17","SCAMIN":200000,"SORDAT":"20241101","SORIND":"NL,1R,reprt,MD592-24","sourceCellId":"1R75W93I","sourceChecksum":"3b771fe29d4a8d9366dc586153fcb8172764ad3fbdb57eb7780f8a20b5b2fa16","rawObjectClass":"BOYSPP","sourceStableId":"1F2B1ADAF3470001"},"sourceKind":"official","official":true,"sourceCellId":"1R75W93I","sourceStableId":"1F2B1ADAF3470001","pipelineFeatureId":"1R75W93I/BOYSPP/450556743","provenance":{"cellId":"1R75W93I","checksum":"3b771fe29d4a8d9366dc586153fcb8172764ad3fbdb57eb7780f8a20b5b2fa16","readerVersion":"GDAL 3.2.2","processedAt":"2026-08-11T18:29:20.995Z"}}},{"type":"Feature","geometry":{"type":"Point","coordinates":[3.6733383,51.7316983]},"properties":{"dolphinKind":"buoy-special","rawObjectClass":"BOYSPP","sourceProperties":{"RCID":450556744,"PRIM":1,"GRUP":2,"OBJL":19,"RVER":1,"AGEN":7979,"FIDN":450556744,"FIDS":1,"LNAM":"1F2B1ADAF3480001","BOYSHP":5,"CATSPM":["18"],"COLOUR":["6"],"OBJNAM":"BZ-OW 19","SCAMIN":200000,"SORDAT":"20241101","SORIND":"NL,1R,reprt,MD592-24","sourceCellId":"1R75W93I","sourceChecksum":"3b771fe29d4a8d9366dc586153fcb8172764ad3fbdb57eb7780f8a20b5b2fa16","rawObjectClass":"BOYSPP","sourceStableId":"1F2B1ADAF3480001"},"sourceKind":"official","official":true,"sourceCellId":"1R75W93I","sourceStableId":"1F2B1ADAF3480001","pipelineFeatureId":"1R75W93I/BOYSPP/450556744","provenance":{"cellId":"1R75W93I","checksum":"3b771fe29d4a8d9366dc586153fcb8172764ad3fbdb57eb7780f8a20b5b2fa16","readerVersion":"GDAL 3.2.2","processedAt":"2026-08-11T18:29:20.995Z"}}},{"type":"Feature","geometry":{"type":"Point","coordinates":[3.6813,51.7274833]},"properties":{"dolphinKind":"buoy-special","rawObjectClass":"BOYSPP","sourceProperties":{"RCID":450556745,"PRIM":1,"GRUP":2,"OBJL":19,"RVER":1,"AGEN":7979,"FIDN":450556745,"FIDS":1,"LNAM":"1F2B1ADAF3490001","BOYSHP":5,"CATSPM":["18"],"COLOUR":["6"],"OBJNAM":"BZ-OW 21","SCAMIN":200000,"SORDAT":"20241101","SORIND":"NL,1R,reprt,MD592-24","sourceCellId":"1R75W93I","sourceChecksum":"3b771fe29d4a8d9366dc586153fcb8172764ad3fbdb57eb7780f8a20b5b2fa16","rawObjectClass":"BOYSPP","sourceStableId":"1F2B1ADAF3490001"},"sourceKind":"official","official":true,"sourceCellId":"1R75W93I","sourceStableId":"1F2B1ADAF3490001","pipelineFeatureId":"1R75W93I/BOYSPP/450556745","provenance":{"cellId":"1R75W93I","checksum":"3b771fe29d4a8d9366dc586153fcb8172764ad3fbdb57eb7780f8a20b5b2fa16","readerVersion":"GDAL 3.2.2","processedAt":"2026-08-11T18:29:20.995Z"}}},{"type":"Feature","geometry":{"type":"Point","coordinates":[3.7321333,51.77159]},"properties":{"dolphinKind":"buoy-special","rawObjectClass":"BOYSPP","sourceProperties":{"RCID":454400502,"PRIM":1,"GRUP":2,"OBJL":19,"RVER":1,"AGEN":7979,"FIDN":454400502,"FIDS":1,"LNAM":"1F2B1B1599F60001","BOYSHP":5,"CATSPM":["18"],"COLOUR":["6"],"CONRAD":3,"OBJNAM":"BO-OW K","PEREND":"--0401","PERSTA":"--1101","INFORM":"Resting area during winter","SCAMIN":200000,"SORDAT":"20251205","SORIND":"NL,1R,Reprt,MD 586-25","sourceCellId":"1R75W93I","sourceChecksum":"3b771fe29d4a8d9366dc586153fcb8172764ad3fbdb57eb7780f8a20b5b2fa16","rawObjectClass":"BOYSPP","sourceStableId":"1F2B1B1599F60001"},"sourceKind":"official","official":true,"sourceCellId":"1R75W93I","sourceStableId":"1F2B1B1599F60001","pipelineFeatureId":"1R75W93I/BOYSPP/454400502","provenance":{"cellId":"1R75W93I","checksum":"3b771fe29d4a8d9366dc586153fcb8172764ad3fbdb57eb7780f8a20b5b2fa16","readerVersion":"GDAL 3.2.2","processedAt":"2026-08-11T18:29:20.995Z"}}},{"type":"Feature","geometry":{"type":"Point","coordinates":[3.5816133,51.72656]},"properties":{"dolphinKind":"buoy-special","rawObjectClass":"BOYSPP","sourceProperties":{"RCID":457590538,"PRIM":1,"GRUP":2,"OBJL":19,"RVER":1,"AGEN":7979,"FIDN":457590538,"FIDS":1,"LNAM":"1F2B1B46470A0001","BOYSHP":5,"CATSPM":["18"],"COLOUR":["6"],"OBJNAM":"BZ-WNB 2","PEREND":"--1101","PERSTA":"--0515","SCAMIN":200000,"SORDAT":"20230509","SORIND":"NL,1R,reprt,MD 262-23","sourceCellId":"1R75W93I","sourceChecksum":"3b771fe29d4a8d9366dc586153fcb8172764ad3fbdb57eb7780f8a20b5b2fa16","rawObjectClass":"BOYSPP","sourceStableId":"1F2B1B46470A0001"},"sourceKind":"official","official":true,"sourceCellId":"1R75W93I","sourceStableId":"1F2B1B46470A0001","pipelineFeatureId":"1R75W93I/BOYSPP/457590538","provenance":{"cellId":"1R75W93I","checksum":"3b771fe29d4a8d9366dc586153fcb8172764ad3fbdb57eb7780f8a20b5b2fa16","readerVersion":"GDAL 3.2.2","processedAt":"2026-08-11T18:29:20.995Z"}}},{"type":"Feature","geometry":{"type":"Point","coordinates":[3.73209,51.7475183]},"properties":{"dolphinKind":"buoy-special","rawObjectClass":"BOYSPP","sourceProperties":{"RCID":457911537,"PRIM":1,"GRUP":2,"OBJL":19,"RVER":1,"AGEN":7979,"FIDN":457911537,"FIDS":1,"LNAM":"1F2B1B4B2CF10001","BOYSHP":5,"CATSPM":["50"],"COLOUR":["6"],"CONRAD":3,"OBJNAM":"MPZ-OW 4","PEREND":"--0401","PERSTA":"--1101","SCAMIN":200000,"SORDAT":"20251205","SORIND":"NL,1R,Reprt,MD 586-25","sourceCellId":"1R75W93I","sourceChecksum":"3b771fe29d4a8d9366dc586153fcb8172764ad3fbdb57eb7780f8a20b5b2fa16","rawObjectClass":"BOYSPP","sourceStableId":"1F2B1B4B2CF10001"},"sourceKind":"official","official":true,"sourceCellId":"1R75W93I","sourceStableId":"1F2B1B4B2CF10001","pipelineFeatureId":"1R75W93I/BOYSPP/457911537","provenance":{"cellId":"1R75W93I","checksum":"3b771fe29d4a8d9366dc586153fcb8172764ad3fbdb57eb7780f8a20b5b2fa16","readerVersion":"GDAL 3.2.2","processedAt":"2026-08-11T18:29:20.995Z"}}},{"type":"Feature","geometry":{"type":"Point","coordinates":[3.7316183,51.7663667]},"properties":{"dolphinKind":"buoy-special","rawObjectClass":"BOYSPP","sourceProperties":{"RCID":457919661,"PRIM":1,"GRUP":2,"OBJL":19,"RVER":1,"AGEN":7979,"FIDN":457919661,"FIDS":1,"LNAM":"1F2B1B4B4CAD0001","BOYSHP":5,"CATSPM":["50"],"COLOUR":["6"],"CONRAD":3,"OBJNAM":"MPZ-OW 7","PEREND":"--0401","PERSTA":"--1101","INFORM":"Resting area during winter","SCAMIN":200000,"SORDAT":"20251205","SORIND":"NL,1R,Reprt,MD 586-25","sourceCellId":"1R75W93I","sourceChecksum":"3b771fe29d4a8d9366dc586153fcb8172764ad3fbdb57eb7780f8a20b5b2fa16","rawObjectClass":"BOYSPP","sourceStableId":"1F2B1B4B4CAD0001"},"sourceKind":"official","official":true,"sourceCellId":"1R75W93I","sourceStableId":"1F2B1B4B4CAD0001","pipelineFeatureId":"1R75W93I/BOYSPP/457919661","provenance":{"cellId":"1R75W93I","checksum":"3b771fe29d4a8d9366dc586153fcb8172764ad3fbdb57eb7780f8a20b5b2fa16","readerVersion":"GDAL 3.2.2","processedAt":"2026-08-11T18:29:20.995Z"}}},{"type":"Feature","geometry":{"type":"Point","coordinates":[3.6217472,51.7665269]},"properties":{"dolphinKind":"light","rawObjectClass":"LIGHTS","sourceProperties":{"RCID":16409,"PRIM":1,"GRUP":2,"OBJL":75,"RVER":1,"AGEN":7979,"FIDN":1106834596,"FIDS":295,"LNAM":"1F2B41F8F4A40127","COLOUR":["6"],"LITCHR":2,"SIGGRP":"(1)","SIGPER":5,"SCAMIN":200000,"sourceCellId":"1R75W93I","sourceChecksum":"3b771fe29d4a8d9366dc586153fcb8172764ad3fbdb57eb7780f8a20b5b2fa16","rawObjectClass":"LIGHTS","sourceStableId":"1F2B41F8F4A40127"},"sourceKind":"official","official":true,"sourceCellId":"1R75W93I","sourceStableId":"1F2B41F8F4A40127","pipelineFeatureId":"1R75W93I/LIGHTS/16409","provenance":{"cellId":"1R75W93I","checksum":"3b771fe29d4a8d9366dc586153fcb8172764ad3fbdb57eb7780f8a20b5b2fa16","readerVersion":"GDAL 3.2.2","processedAt":"2026-08-11T18:29:20.995Z"}}},{"type":"Feature","geometry":{"type":"Point","coordinates":[3.5514167,51.7462167]},"properties":{"dolphinKind":"light","rawObjectClass":"LIGHTS","sourceProperties":{"RCID":513694222,"PRIM":1,"GRUP":2,"OBJL":75,"RVER":1,"AGEN":7979,"FIDN":513694222,"FIDS":1,"LNAM":"1F2B1E9E5A0E0001","COLOUR":["4"],"LITCHR":4,"SIGGRP":"(1)","SIGPER":1,"SCAMIN":200000,"SORDAT":"20230510","SORIND":"NL,1R,reprt,MD 257-23","sourceCellId":"1R75W93I","sourceChecksum":"3b771fe29d4a8d9366dc586153fcb8172764ad3fbdb57eb7780f8a20b5b2fa16","rawObjectClass":"LIGHTS","sourceStableId":"1F2B1E9E5A0E0001"},"sourceKind":"official","official":true,"sourceCellId":"1R75W93I","sourceStableId":"1F2B1E9E5A0E0001","pipelineFeatureId":"1R75W93I/LIGHTS/513694222","provenance":{"cellId":"1R75W93I","checksum":"3b771fe29d4a8d9366dc586153fcb8172764ad3fbdb57eb7780f8a20b5b2fa16","readerVersion":"GDAL 3.2.2","processedAt":"2026-08-11T18:29:20.995Z"}}},{"type":"Feature","geometry":{"type":"Point","coordinates":[3.5469167,51.7278383]},"properties":{"dolphinKind":"light","rawObjectClass":"LIGHTS","sourceProperties":{"RCID":513694237,"PRIM":1,"GRUP":2,"OBJL":75,"RVER":1,"AGEN":7979,"FIDN":513694237,"FIDS":1,"LNAM":"1F2B1E9E5A1D0001","COLOUR":["3"],"LITCHR":7,"SIGGRP":"(1)","SIGPER":8,"SCAMIN":200000,"SORDAT":"20230510","SORIND":"NL,1R,reprt,MD 257-23","sourceCellId":"1R75W93I","sourceChecksum":"3b771fe29d4a8d9366dc586153fcb8172764ad3fbdb57eb7780f8a20b5b2fa16","rawObjectClass":"LIGHTS","sourceStableId":"1F2B1E9E5A1D0001"},"sourceKind":"official","official":true,"sourceCellId":"1R75W93I","sourceStableId":"1F2B1E9E5A1D0001","pipelineFeatureId":"1R75W93I/LIGHTS/513694237","provenance":{"cellId":"1R75W93I","checksum":"3b771fe29d4a8d9366dc586153fcb8172764ad3fbdb57eb7780f8a20b5b2fa16","readerVersion":"GDAL 3.2.2","processedAt":"2026-08-11T18:29:20.995Z"}}},{"type":"Feature","geometry":{"type":"Point","coordinates":[3.6337,51.7416833]},"properties":{"dolphinKind":"topmark","rawObjectClass":"TOPMAR","sourceProperties":{"RCID":17604,"PRIM":1,"GRUP":2,"OBJL":144,"RVER":1,"AGEN":7979,"FIDN":1106834684,"FIDS":410,"LNAM":"1F2B41F8F4FC019A","COLOUR":["2"],"TOPSHP":13,"SCAMIN":200000,"SORDAT":"20030930","sourceCellId":"1R75W93I","sourceChecksum":"3b771fe29d4a8d9366dc586153fcb8172764ad3fbdb57eb7780f8a20b5b2fa16","rawObjectClass":"TOPMAR","sourceStableId":"1F2B41F8F4FC019A"},"sourceKind":"official","official":true,"sourceCellId":"1R75W93I","sourceStableId":"1F2B41F8F4FC019A","pipelineFeatureId":"1R75W93I/TOPMAR/17604","provenance":{"cellId":"1R75W93I","checksum":"3b771fe29d4a8d9366dc586153fcb8172764ad3fbdb57eb7780f8a20b5b2fa16","readerVersion":"GDAL 3.2.2","processedAt":"2026-08-11T18:29:20.995Z"},"associationRefsVerifiedInGdalOutput":false}},{"type":"Feature","geometry":{"type":"Point","coordinates":[3.5514167,51.7462167]},"properties":{"dolphinKind":"topmark","rawObjectClass":"TOPMAR","sourceProperties":{"RCID":513694224,"PRIM":1,"GRUP":2,"OBJL":144,"RVER":1,"AGEN":7979,"FIDN":513694224,"FIDS":1,"LNAM":"1F2B1E9E5A100001","COLOUR":["4"],"TOPSHP":1,"SCAMIN":200000,"SORDAT":"20230510","SORIND":"NL,1R,reprt,MD 257-23","sourceCellId":"1R75W93I","sourceChecksum":"3b771fe29d4a8d9366dc586153fcb8172764ad3fbdb57eb7780f8a20b5b2fa16","rawObjectClass":"TOPMAR","sourceStableId":"1F2B1E9E5A100001"},"sourceKind":"official","official":true,"sourceCellId":"1R75W93I","sourceStableId":"1F2B1E9E5A100001","pipelineFeatureId":"1R75W93I/TOPMAR/513694224","provenance":{"cellId":"1R75W93I","checksum":"3b771fe29d4a8d9366dc586153fcb8172764ad3fbdb57eb7780f8a20b5b2fa16","readerVersion":"GDAL 3.2.2","processedAt":"2026-08-11T18:29:20.995Z"},"associationRefsVerifiedInGdalOutput":false}},{"type":"Feature","geometry":{"type":"Point","coordinates":[3.56193,51.7430817]},"properties":{"dolphinKind":"topmark","rawObjectClass":"TOPMAR","sourceProperties":{"RCID":513694235,"PRIM":1,"GRUP":2,"OBJL":144,"RVER":1,"AGEN":7979,"FIDN":513694235,"FIDS":1,"LNAM":"1F2B1E9E5A1B0001","COLOUR":["3"],"TOPSHP":5,"SCAMIN":200000,"SORDAT":"20230510","SORIND":"NL,1R,reprt,MD 257-23","sourceCellId":"1R75W93I","sourceChecksum":"3b771fe29d4a8d9366dc586153fcb8172764ad3fbdb57eb7780f8a20b5b2fa16","rawObjectClass":"TOPMAR","sourceStableId":"1F2B1E9E5A1B0001"},"sourceKind":"official","official":true,"sourceCellId":"1R75W93I","sourceStableId":"1F2B1E9E5A1B0001","pipelineFeatureId":"1R75W93I/TOPMAR/513694235","provenance":{"cellId":"1R75W93I","checksum":"3b771fe29d4a8d9366dc586153fcb8172764ad3fbdb57eb7780f8a20b5b2fa16","readerVersion":"GDAL 3.2.2","processedAt":"2026-08-11T18:29:20.995Z"},"associationRefsVerifiedInGdalOutput":false}}]}