{"type":"FeatureCollection","features":[{"type":"Feature","geometry":{"type":"Point","coordinates":[3.688465,51.523705]},"properties":{"dolphinKind":"buoy-special","rawObjectClass":"BOYSPP","sourceProperties":{"RCID":1209426752,"PRIM":1,"GRUP":2,"OBJL":19,"RVER":1,"AGEN":7979,"FIDN":1209426752,"FIDS":1,"LNAM":"1F2B481663400001","BOYSHP":2,"CATSPM":["18"],"COLOUR":["6"],"OBJNAM":"KRIB","SCAMIN":200000,"SORDAT":"20241120","SORIND":"NL,1R,Reprt,MD641-24","sourceCellId":"1R75W89I","sourceChecksum":"75b5e0c67f673d567bb1fae9d6aa2607be5c46177579e724278999342ef0b716","rawObjectClass":"BOYSPP","sourceStableId":"1F2B481663400001"},"sourceKind":"official","official":true,"sourceCellId":"1R75W89I","sourceStableId":"1F2B481663400001","pipelineFeatureId":"1R75W89I/BOYSPP/1209426752","provenance":{"cellId":"1R75W89I","checksum":"75b5e0c67f673d567bb1fae9d6aa2607be5c46177579e724278999342ef0b716","readerVersion":"GDAL 3.2.2","processedAt":"2026-08-11T18:29:20.995Z"}}},{"type":"Feature","geometry":{"type":"Point","coordinates":[3.6658813,51.5243162]},"properties":{"dolphinKind":"light","rawObjectClass":"LIGHTS","sourceProperties":{"RCID":20419,"PRIM":1,"GRUP":2,"OBJL":75,"RVER":1,"AGEN":7979,"FIDN":1106834756,"FIDS":355,"LNAM":"1F2B41F8F5440163","COLOUR":["1"],"LITCHR":1,"SCAMIN":200000,"sourceCellId":"1R75W89I","sourceChecksum":"75b5e0c67f673d567bb1fae9d6aa2607be5c46177579e724278999342ef0b716","rawObjectClass":"LIGHTS","sourceStableId":"1F2B41F8F5440163"},"sourceKind":"official","official":true,"sourceCellId":"1R75W89I","sourceStableId":"1F2B41F8F5440163","pipelineFeatureId":"1R75W89I/LIGHTS/20419","provenance":{"cellId":"1R75W89I","checksum":"75b5e0c67f673d567bb1fae9d6aa2607be5c46177579e724278999342ef0b716","readerVersion":"GDAL 3.2.2","processedAt":"2026-08-11T18:29:20.995Z"}}},{"type":"Feature","geometry":{"type":"Point","coordinates":[3.6085235,51.4916673]},"properties":{"dolphinKind":"light","rawObjectClass":"LIGHTS","sourceProperties":{"RCID":20430,"PRIM":1,"GRUP":2,"OBJL":75,"RVER":1,"AGEN":7979,"FIDN":1106834756,"FIDS":366,"LNAM":"1F2B41F8F544016E","COLOUR":["3"],"LITCHR":1,"SCAMIN":200000,"sourceCellId":"1R75W89I","sourceChecksum":"75b5e0c67f673d567bb1fae9d6aa2607be5c46177579e724278999342ef0b716","rawObjectClass":"LIGHTS","sourceStableId":"1F2B41F8F544016E"},"sourceKind":"official","official":true,"sourceCellId":"1R75W89I","sourceStableId":"1F2B41F8F544016E","pipelineFeatureId":"1R75W89I/LIGHTS/20430","provenance":{"cellId":"1R75W89I","checksum":"75b5e0c67f673d567bb1fae9d6aa2607be5c46177579e724278999342ef0b716","readerVersion":"GDAL 3.2.2","processedAt":"2026-08-11T18:29:20.995Z"}}},{"type":"Feature","geometry":{"type":"Point","coordinates":[3.7017239,51.5200514]},"properties":{"dolphinKind":"light","rawObjectClass":"LIGHTS","sourceProperties":{"RCID":8557020,"PRIM":1,"GRUP":2,"OBJL":75,"RVER":1,"AGEN":7979,"FIDN":8557020,"FIDS":1,"LNAM":"1F2B008291DC0001","COLOUR":["3"],"LITCHR":4,"SIGGRP":"(1)","SCAMIN":200000,"sourceCellId":"1R75W89I","sourceChecksum":"75b5e0c67f673d567bb1fae9d6aa2607be5c46177579e724278999342ef0b716","rawObjectClass":"LIGHTS","sourceStableId":"1F2B008291DC0001"},"sourceKind":"official","official":true,"sourceCellId":"1R75W89I","sourceStableId":"1F2B008291DC0001","pipelineFeatureId":"1R75W89I/LIGHTS/8557020","provenance":{"cellId":"1R75W89I","checksum":"75b5e0c67f673d567bb1fae9d6aa2607be5c46177579e724278999342ef0b716","readerVersion":"GDAL 3.2.2","processedAt":"2026-08-11T18:29:20.995Z"}}},{"type":"Feature","geometry":{"type":"Point","coordinates":[3.6978141,51.521721]},"properties":{"dolphinKind":"light","rawObjectClass":"LIGHTS","sourceProperties":{"RCID":8557021,"PRIM":1,"GRUP":2,"OBJL":75,"RVER":1,"AGEN":7979,"FIDN":8557021,"FIDS":1,"LNAM":"1F2B008291DD0001","COLOUR":["4"],"LITCHR":7,"SIGGRP":"(1)","SIGPER":4,"SCAMIN":200000,"sourceCellId":"1R75W89I","sourceChecksum":"75b5e0c67f673d567bb1fae9d6aa2607be5c46177579e724278999342ef0b716","rawObjectClass":"LIGHTS","sourceStableId":"1F2B008291DD0001"},"sourceKind":"official","official":true,"sourceCellId":"1R75W89I","sourceStableId":"1F2B008291DD0001","pipelineFeatureId":"1R75W89I/LIGHTS/8557021","provenance":{"cellId":"1R75W89I","checksum":"75b5e0c67f673d567bb1fae9d6aa2607be5c46177579e724278999342ef0b716","readerVersion":"GDAL 3.2.2","processedAt":"2026-08-11T18:29:20.995Z"}}},{"type":"Feature","geometry":{"type":"Point","coordinates":[3.6921962,51.5232039]},"properties":{"dolphinKind":"light","rawObjectClass":"LIGHTS","sourceProperties":{"RCID":8557022,"PRIM":1,"GRUP":2,"OBJL":75,"RVER":1,"AGEN":7979,"FIDN":8557022,"FIDS":1,"LNAM":"1F2B008291DE0001","COLOUR":["4"],"LITCHR":7,"SIGGRP":"(1)","SIGPER":6,"SCAMIN":200000,"sourceCellId":"1R75W89I","sourceChecksum":"75b5e0c67f673d567bb1fae9d6aa2607be5c46177579e724278999342ef0b716","rawObjectClass":"LIGHTS","sourceStableId":"1F2B008291DE0001"},"sourceKind":"official","official":true,"sourceCellId":"1R75W89I","sourceStableId":"1F2B008291DE0001","pipelineFeatureId":"1R75W89I/LIGHTS/8557022","provenance":{"cellId":"1R75W89I","checksum":"75b5e0c67f673d567bb1fae9d6aa2607be5c46177579e724278999342ef0b716","readerVersion":"GDAL 3.2.2","processedAt":"2026-08-11T18:29:20.995Z"}}},{"type":"Feature","geometry":{"type":"Point","coordinates":[3.7045377,51.5234543]},"properties":{"dolphinKind":"light","rawObjectClass":"LIGHTS","sourceProperties":{"RCID":8557023,"PRIM":1,"GRUP":2,"OBJL":75,"RVER":1,"AGEN":7979,"FIDN":8557023,"FIDS":1,"LNAM":"1F2B008291DF0001","COLOUR":["4"],"LITCHR":7,"SIGGRP":"(1)","SIGPER":8,"SCAMIN":200000,"sourceCellId":"1R75W89I","sourceChecksum":"75b5e0c67f673d567bb1fae9d6aa2607be5c46177579e724278999342ef0b716","rawObjectClass":"LIGHTS","sourceStableId":"1F2B008291DF0001"},"sourceKind":"official","official":true,"sourceCellId":"1R75W89I","sourceStableId":"1F2B008291DF0001","pipelineFeatureId":"1R75W89I/LIGHTS/8557023","provenance":{"cellId":"1R75W89I","checksum":"75b5e0c67f673d567bb1fae9d6aa2607be5c46177579e724278999342ef0b716","readerVersion":"GDAL 3.2.2","processedAt":"2026-08-11T18:29:20.995Z"}}},{"type":"Feature","geometry":{"type":"Point","coordinates":[3.6934214,51.5201021]},"properties":{"dolphinKind":"light","rawObjectClass":"LIGHTS","sourceProperties":{"RCID":8557024,"PRIM":1,"GRUP":2,"OBJL":75,"RVER":1,"AGEN":7979,"FIDN":8557024,"FIDS":1,"LNAM":"1F2B008291E00001","COLOUR":["3"],"LITCHR":3,"SIGGRP":"(1)","SIGPER":5,"SCAMIN":200000,"sourceCellId":"1R75W89I","sourceChecksum":"75b5e0c67f673d567bb1fae9d6aa2607be5c46177579e724278999342ef0b716","rawObjectClass":"LIGHTS","sourceStableId":"1F2B008291E00001"},"sourceKind":"official","official":true,"sourceCellId":"1R75W89I","sourceStableId":"1F2B008291E00001","pipelineFeatureId":"1R75W89I/LIGHTS/8557024","provenance":{"cellId":"1R75W89I","checksum":"75b5e0c67f673d567bb1fae9d6aa2607be5c46177579e724278999342ef0b716","readerVersion":"GDAL 3.2.2","processedAt":"2026-08-11T18:29:20.995Z"}}},{"type":"Feature","geometry":{"type":"Point","coordinates":[3.7074066,51.5222549]},"properties":{"dolphinKind":"light","rawObjectClass":"LIGHTS","sourceProperties":{"RCID":8557025,"PRIM":1,"GRUP":2,"OBJL":75,"RVER":1,"AGEN":7979,"FIDN":8557025,"FIDS":1,"LNAM":"1F2B008291E10001","COLOUR":["3"],"LITCHR":3,"SIGGRP":"(1)","SIGPER":8,"SCAMIN":200000,"sourceCellId":"1R75W89I","sourceChecksum":"75b5e0c67f673d567bb1fae9d6aa2607be5c46177579e724278999342ef0b716","rawObjectClass":"LIGHTS","sourceStableId":"1F2B008291E10001"},"sourceKind":"official","official":true,"sourceCellId":"1R75W89I","sourceStableId":"1F2B008291E10001","pipelineFeatureId":"1R75W89I/LIGHTS/8557025","provenance":{"cellId":"1R75W89I","checksum":"75b5e0c67f673d567bb1fae9d6aa2607be5c46177579e724278999342ef0b716","readerVersion":"GDAL 3.2.2","processedAt":"2026-08-11T18:29:20.995Z"}}},{"type":"Feature","geometry":{"type":"Point","coordinates":[3.6948069,51.5227563]},"properties":{"dolphinKind":"topmark","rawObjectClass":"TOPMAR","sourceProperties":{"RCID":8557026,"PRIM":1,"GRUP":2,"OBJL":144,"RVER":1,"AGEN":7979,"FIDN":8557026,"FIDS":1,"LNAM":"1F2B008291E20001","COLOUR":["4"],"TOPSHP":1,"SCAMIN":200000,"sourceCellId":"1R75W89I","sourceChecksum":"75b5e0c67f673d567bb1fae9d6aa2607be5c46177579e724278999342ef0b716","rawObjectClass":"TOPMAR","sourceStableId":"1F2B008291E20001"},"sourceKind":"official","official":true,"sourceCellId":"1R75W89I","sourceStableId":"1F2B008291E20001","pipelineFeatureId":"1R75W89I/TOPMAR/8557026","provenance":{"cellId":"1R75W89I","checksum":"75b5e0c67f673d567bb1fae9d6aa2607be5c46177579e724278999342ef0b716","readerVersion":"GDAL 3.2.2","processedAt":"2026-08-11T18:29:20.995Z"},"associationRefsVerifiedInGdalOutput":false}},{"type":"Feature","geometry":{"type":"Point","coordinates":[3.7017239,51.5200514]},"properties":{"dolphinKind":"topmark","rawObjectClass":"TOPMAR","sourceProperties":{"RCID":8557028,"PRIM":1,"GRUP":2,"OBJL":144,"RVER":1,"AGEN":7979,"FIDN":8557028,"FIDS":1,"LNAM":"1F2B008291E40001","COLOUR":["3"],"TOPSHP":5,"SCAMIN":200000,"sourceCellId":"1R75W89I","sourceChecksum":"75b5e0c67f673d567bb1fae9d6aa2607be5c46177579e724278999342ef0b716","rawObjectClass":"TOPMAR","sourceStableId":"1F2B008291E40001"},"sourceKind":"official","official":true,"sourceCellId":"1R75W89I","sourceStableId":"1F2B008291E40001","pipelineFeatureId":"1R75W89I/TOPMAR/8557028","provenance":{"cellId":"1R75W89I","checksum":"75b5e0c67f673d567bb1fae9d6aa2607be5c46177579e724278999342ef0b716","readerVersion":"GDAL 3.2.2","processedAt":"2026-08-11T18:29:20.995Z"},"associationRefsVerifiedInGdalOutput":false}},{"type":"Feature","geometry":{"type":"Point","coordinates":[3.7185551,51.523988]},"properties":{"dolphinKind":"topmark","rawObjectClass":"TOPMAR","sourceProperties":{"RCID":8557029,"PRIM":1,"GRUP":2,"OBJL":144,"RVER":1,"AGEN":7979,"FIDN":8557029,"FIDS":1,"LNAM":"1F2B008291E50001","COLOUR":["4"],"TOPSHP":1,"SCAMIN":200000,"sourceCellId":"1R75W89I","sourceChecksum":"75b5e0c67f673d567bb1fae9d6aa2607be5c46177579e724278999342ef0b716","rawObjectClass":"TOPMAR","sourceStableId":"1F2B008291E50001"},"sourceKind":"official","official":true,"sourceCellId":"1R75W89I","sourceStableId":"1F2B008291E50001","pipelineFeatureId":"1R75W89I/TOPMAR/8557029","provenance":{"cellId":"1R75W89I","checksum":"75b5e0c67f673d567bb1fae9d6aa2607be5c46177579e724278999342ef0b716","readerVersion":"GDAL 3.2.2","processedAt":"2026-08-11T18:29:20.995Z"},"associationRefsVerifiedInGdalOutput":false}},{"type":"Feature","geometry":{"type":"Point","coordinates":[3.6990951,51.5174961]},"properties":{"dolphinKind":"topmark","rawObjectClass":"TOPMAR","sourceProperties":{"RCID":8557030,"PRIM":1,"GRUP":2,"OBJL":144,"RVER":1,"AGEN":7979,"FIDN":8557030,"FIDS":1,"LNAM":"1F2B008291E60001","COLOUR":["3"],"TOPSHP":5,"SCAMIN":200000,"sourceCellId":"1R75W89I","sourceChecksum":"75b5e0c67f673d567bb1fae9d6aa2607be5c46177579e724278999342ef0b716","rawObjectClass":"TOPMAR","sourceStableId":"1F2B008291E60001"},"sourceKind":"official","official":true,"sourceCellId":"1R75W89I","sourceStableId":"1F2B008291E60001","pipelineFeatureId":"1R75W89I/TOPMAR/8557030","provenance":{"cellId":"1R75W89I","checksum":"75b5e0c67f673d567bb1fae9d6aa2607be5c46177579e724278999342ef0b716","readerVersion":"GDAL 3.2.2","processedAt":"2026-08-11T18:29:20.995Z"},"associationRefsVerifiedInGdalOutput":false}},{"type":"Feature","geometry":{"type":"Point","coordinates":[3.7121667,51.5188333]},"properties":{"dolphinKind":"topmark","rawObjectClass":"TOPMAR","sourceProperties":{"RCID":8557031,"PRIM":1,"GRUP":2,"OBJL":144,"RVER":1,"AGEN":7979,"FIDN":8557031,"FIDS":1,"LNAM":"1F2B008291E70001","COLOUR":["3"],"TOPSHP":5,"SCAMIN":200000,"sourceCellId":"1R75W89I","sourceChecksum":"75b5e0c67f673d567bb1fae9d6aa2607be5c46177579e724278999342ef0b716","rawObjectClass":"TOPMAR","sourceStableId":"1F2B008291E70001"},"sourceKind":"official","official":true,"sourceCellId":"1R75W89I","sourceStableId":"1F2B008291E70001","pipelineFeatureId":"1R75W89I/TOPMAR/8557031","provenance":{"cellId":"1R75W89I","checksum":"75b5e0c67f673d567bb1fae9d6aa2607be5c46177579e724278999342ef0b716","readerVersion":"GDAL 3.2.2","processedAt":"2026-08-11T18:29:20.995Z"},"associationRefsVerifiedInGdalOutput":false}},{"type":"Feature","geometry":{"type":"Point","coordinates":[3.7220722,51.5243619]},"properties":{"dolphinKind":"topmark","rawObjectClass":"TOPMAR","sourceProperties":{"RCID":8557046,"PRIM":1,"GRUP":2,"OBJL":144,"RVER":1,"AGEN":7979,"FIDN":8557046,"FIDS":1,"LNAM":"1F2B008291F60001","COLOUR":["3","4"],"COLPAT":["1"],"TOPSHP":3,"SCAMIN":200000,"SORDAT":"20240110","SORIND":"NL,1R,Reprt,ENC-verbetering","sourceCellId":"1R75W89I","sourceChecksum":"75b5e0c67f673d567bb1fae9d6aa2607be5c46177579e724278999342ef0b716","rawObjectClass":"TOPMAR","sourceStableId":"1F2B008291F60001"},"sourceKind":"official","official":true,"sourceCellId":"1R75W89I","sourceStableId":"1F2B008291F60001","pipelineFeatureId":"1R75W89I/TOPMAR/8557046","provenance":{"cellId":"1R75W89I","checksum":"75b5e0c67f673d567bb1fae9d6aa2607be5c46177579e724278999342ef0b716","readerVersion":"GDAL 3.2.2","processedAt":"2026-08-11T18:29:20.995Z"},"associationRefsVerifiedInGdalOutput":false}},{"type":"Feature","geometry":{"type":"Point","coordinates":[3.7238509,51.5241984]},"properties":{"dolphinKind":"topmark","rawObjectClass":"TOPMAR","sourceProperties":{"RCID":8557047,"PRIM":1,"GRUP":2,"OBJL":144,"RVER":1,"AGEN":7979,"FIDN":8557047,"FIDS":1,"LNAM":"1F2B008291F70001","COLOUR":["3","4"],"COLPAT":["1"],"TOPSHP":3,"SCAMIN":200000,"SORDAT":"20240110","SORIND":"NL,1R,Reprt,ENC-verbetering","sourceCellId":"1R75W89I","sourceChecksum":"75b5e0c67f673d567bb1fae9d6aa2607be5c46177579e724278999342ef0b716","rawObjectClass":"TOPMAR","sourceStableId":"1F2B008291F70001"},"sourceKind":"official","official":true,"sourceCellId":"1R75W89I","sourceStableId":"1F2B008291F70001","pipelineFeatureId":"1R75W89I/TOPMAR/8557047","provenance":{"cellId":"1R75W89I","checksum":"75b5e0c67f673d567bb1fae9d6aa2607be5c46177579e724278999342ef0b716","readerVersion":"GDAL 3.2.2","processedAt":"2026-08-11T18:29:20.995Z"},"associationRefsVerifiedInGdalOutput":false}},{"type":"Feature","geometry":{"type":"Point","coordinates":[3.7203682,51.5228811]},"properties":{"dolphinKind":"topmark","rawObjectClass":"TOPMAR","sourceProperties":{"RCID":8557048,"PRIM":1,"GRUP":2,"OBJL":144,"RVER":1,"AGEN":7979,"FIDN":8557048,"FIDS":1,"LNAM":"1F2B008291F80001","COLOUR":["3","4"],"COLPAT":["1"],"TOPSHP":3,"SCAMIN":200000,"SORDAT":"20240110","SORIND":"NL,1R,Reprt,ENC-verbetering","sourceCellId":"1R75W89I","sourceChecksum":"75b5e0c67f673d567bb1fae9d6aa2607be5c46177579e724278999342ef0b716","rawObjectClass":"TOPMAR","sourceStableId":"1F2B008291F80001"},"sourceKind":"official","official":true,"sourceCellId":"1R75W89I","sourceStableId":"1F2B008291F80001","pipelineFeatureId":"1R75W89I/TOPMAR/8557048","provenance":{"cellId":"1R75W89I","checksum":"75b5e0c67f673d567bb1fae9d6aa2607be5c46177579e724278999342ef0b716","readerVersion":"GDAL 3.2.2","processedAt":"2026-08-11T18:29:20.995Z"},"associationRefsVerifiedInGdalOutput":false}},{"type":"Feature","geometry":{"type":"Point","coordinates":[3.6968183,51.517965]},"properties":{"dolphinKind":"topmark","rawObjectClass":"TOPMAR","sourceProperties":{"RCID":8557049,"PRIM":1,"GRUP":2,"OBJL":144,"RVER":1,"AGEN":7979,"FIDN":8557049,"FIDS":1,"LNAM":"1F2B008291F90001","COLOUR":["3","4"],"COLPAT":["1"],"TOPSHP":3,"SCAMIN":200000,"sourceCellId":"1R75W89I","sourceChecksum":"75b5e0c67f673d567bb1fae9d6aa2607be5c46177579e724278999342ef0b716","rawObjectClass":"TOPMAR","sourceStableId":"1F2B008291F90001"},"sourceKind":"official","official":true,"sourceCellId":"1R75W89I","sourceStableId":"1F2B008291F90001","pipelineFeatureId":"1R75W89I/TOPMAR/8557049","provenance":{"cellId":"1R75W89I","checksum":"75b5e0c67f673d567bb1fae9d6aa2607be5c46177579e724278999342ef0b716","readerVersion":"GDAL 3.2.2","processedAt":"2026-08-11T18:29:20.995Z"},"associationRefsVerifiedInGdalOutput":false}},{"type":"Feature","geometry":{"type":"Point","coordinates":[3.7031874,51.5233359]},"properties":{"dolphinKind":"topmark","rawObjectClass":"TOPMAR","sourceProperties":{"RCID":8557050,"PRIM":1,"GRUP":2,"OBJL":144,"RVER":1,"AGEN":7979,"FIDN":8557050,"FIDS":1,"LNAM":"1F2B008291FA0001","COLOUR":["4"],"TOPSHP":1,"SCAMIN":200000,"SORDAT":"20240110","SORIND":"NL,1R,Reprt,ENC-verbetering","sourceCellId":"1R75W89I","sourceChecksum":"75b5e0c67f673d567bb1fae9d6aa2607be5c46177579e724278999342ef0b716","rawObjectClass":"TOPMAR","sourceStableId":"1F2B008291FA0001"},"sourceKind":"official","official":true,"sourceCellId":"1R75W89I","sourceStableId":"1F2B008291FA0001","pipelineFeatureId":"1R75W89I/TOPMAR/8557050","provenance":{"cellId":"1R75W89I","checksum":"75b5e0c67f673d567bb1fae9d6aa2607be5c46177579e724278999342ef0b716","readerVersion":"GDAL 3.2.2","processedAt":"2026-08-11T18:29:20.995Z"},"associationRefsVerifiedInGdalOutput":false}},{"type":"Feature","geometry":{"type":"Point","coordinates":[3.700747,51.523076]},"properties":{"dolphinKind":"topmark","rawObjectClass":"TOPMAR","sourceProperties":{"RCID":8557051,"PRIM":1,"GRUP":2,"OBJL":144,"RVER":1,"AGEN":7979,"FIDN":8557051,"FIDS":1,"LNAM":"1F2B008291FB0001","COLOUR":["4"],"TOPSHP":1,"SCAMIN":200000,"SORDAT":"20240110","SORIND":"NL,1R,Reprt,ENC-verbetering","sourceCellId":"1R75W89I","sourceChecksum":"75b5e0c67f673d567bb1fae9d6aa2607be5c46177579e724278999342ef0b716","rawObjectClass":"TOPMAR","sourceStableId":"1F2B008291FB0001"},"sourceKind":"official","official":true,"sourceCellId":"1R75W89I","sourceStableId":"1F2B008291FB0001","pipelineFeatureId":"1R75W89I/TOPMAR/8557051","provenance":{"cellId":"1R75W89I","checksum":"75b5e0c67f673d567bb1fae9d6aa2607be5c46177579e724278999342ef0b716","readerVersion":"GDAL 3.2.2","processedAt":"2026-08-11T18:29:20.995Z"},"associationRefsVerifiedInGdalOutput":false}},{"type":"Feature","geometry":{"type":"Point","coordinates":[3.6981667,51.5225167]},"properties":{"dolphinKind":"topmark","rawObjectClass":"TOPMAR","sourceProperties":{"RCID":8557052,"PRIM":1,"GRUP":2,"OBJL":144,"RVER":1,"AGEN":7979,"FIDN":8557052,"FIDS":1,"LNAM":"1F2B008291FC0001","COLOUR":["4"],"TOPSHP":1,"SCAMIN":200000,"SORDAT":"20240110","SORIND":"NL,1R,Reprt,ENC-verbetering","sourceCellId":"1R75W89I","sourceChecksum":"75b5e0c67f673d567bb1fae9d6aa2607be5c46177579e724278999342ef0b716","rawObjectClass":"TOPMAR","sourceStableId":"1F2B008291FC0001"},"sourceKind":"official","official":true,"sourceCellId":"1R75W89I","sourceStableId":"1F2B008291FC0001","pipelineFeatureId":"1R75W89I/TOPMAR/8557052","provenance":{"cellId":"1R75W89I","checksum":"75b5e0c67f673d567bb1fae9d6aa2607be5c46177579e724278999342ef0b716","readerVersion":"GDAL 3.2.2","processedAt":"2026-08-11T18:29:20.995Z"},"associationRefsVerifiedInGdalOutput":false}},{"type":"Feature","geometry":{"type":"Point","coordinates":[3.725787,51.5240642]},"properties":{"dolphinKind":"topmark","rawObjectClass":"TOPMAR","sourceProperties":{"RCID":8557053,"PRIM":1,"GRUP":2,"OBJL":144,"RVER":1,"AGEN":7979,"FIDN":8557053,"FIDS":1,"LNAM":"1F2B008291FD0001","COLOUR":["4"],"TOPSHP":1,"SCAMIN":200000,"SORDAT":"20240110","SORIND":"NL,1R,Reprt,ENC-verbetering","sourceCellId":"1R75W89I","sourceChecksum":"75b5e0c67f673d567bb1fae9d6aa2607be5c46177579e724278999342ef0b716","rawObjectClass":"TOPMAR","sourceStableId":"1F2B008291FD0001"},"sourceKind":"official","official":true,"sourceCellId":"1R75W89I","sourceStableId":"1F2B008291FD0001","pipelineFeatureId":"1R75W89I/TOPMAR/8557053","provenance":{"cellId":"1R75W89I","checksum":"75b5e0c67f673d567bb1fae9d6aa2607be5c46177579e724278999342ef0b716","readerVersion":"GDAL 3.2.2","processedAt":"2026-08-11T18:29:20.995Z"},"associationRefsVerifiedInGdalOutput":false}},{"type":"Feature","geometry":{"type":"Point","coordinates":[3.7271652,51.523814]},"properties":{"dolphinKind":"topmark","rawObjectClass":"TOPMAR","sourceProperties":{"RCID":8557054,"PRIM":1,"GRUP":2,"OBJL":144,"RVER":1,"AGEN":7979,"FIDN":8557054,"FIDS":1,"LNAM":"1F2B008291FE0001","COLOUR":["4"],"TOPSHP":1,"SCAMIN":200000,"SORDAT":"20240110","SORIND":"NL,1R,Reprt,ENC-verbetering","sourceCellId":"1R75W89I","sourceChecksum":"75b5e0c67f673d567bb1fae9d6aa2607be5c46177579e724278999342ef0b716","rawObjectClass":"TOPMAR","sourceStableId":"1F2B008291FE0001"},"sourceKind":"official","official":true,"sourceCellId":"1R75W89I","sourceStableId":"1F2B008291FE0001","pipelineFeatureId":"1R75W89I/TOPMAR/8557054","provenance":{"cellId":"1R75W89I","checksum":"75b5e0c67f673d567bb1fae9d6aa2607be5c46177579e724278999342ef0b716","readerVersion":"GDAL 3.2.2","processedAt":"2026-08-11T18:29:20.995Z"},"associationRefsVerifiedInGdalOutput":false}},{"type":"Feature","geometry":{"type":"Point","coordinates":[3.7230547,51.524295]},"properties":{"dolphinKind":"topmark","rawObjectClass":"TOPMAR","sourceProperties":{"RCID":8557055,"PRIM":1,"GRUP":2,"OBJL":144,"RVER":1,"AGEN":7979,"FIDN":8557055,"FIDS":1,"LNAM":"1F2B008291FF0001","COLOUR":["4"],"TOPSHP":1,"SCAMIN":200000,"SORDAT":"20240110","SORIND":"NL,1R,Reprt,ENC-verbetering","sourceCellId":"1R75W89I","sourceChecksum":"75b5e0c67f673d567bb1fae9d6aa2607be5c46177579e724278999342ef0b716","rawObjectClass":"TOPMAR","sourceStableId":"1F2B008291FF0001"},"sourceKind":"official","official":true,"sourceCellId":"1R75W89I","sourceStableId":"1F2B008291FF0001","pipelineFeatureId":"1R75W89I/TOPMAR/8557055","provenance":{"cellId":"1R75W89I","checksum":"75b5e0c67f673d567bb1fae9d6aa2607be5c46177579e724278999342ef0b716","readerVersion":"GDAL 3.2.2","processedAt":"2026-08-11T18:29:20.995Z"},"associationRefsVerifiedInGdalOutput":false}},{"type":"Feature","geometry":{"type":"Point","coordinates":[3.7234117,51.5232033]},"properties":{"dolphinKind":"topmark","rawObjectClass":"TOPMAR","sourceProperties":{"RCID":8557056,"PRIM":1,"GRUP":2,"OBJL":144,"RVER":1,"AGEN":7979,"FIDN":8557056,"FIDS":1,"LNAM":"1F2B008292000001","COLOUR":["4"],"TOPSHP":1,"SCAMIN":200000,"SORDAT":"20240110","SORIND":"NL,1R,Reprt,ENC-verbetering","sourceCellId":"1R75W89I","sourceChecksum":"75b5e0c67f673d567bb1fae9d6aa2607be5c46177579e724278999342ef0b716","rawObjectClass":"TOPMAR","sourceStableId":"1F2B008292000001"},"sourceKind":"official","official":true,"sourceCellId":"1R75W89I","sourceStableId":"1F2B008292000001","pipelineFeatureId":"1R75W89I/TOPMAR/8557056","provenance":{"cellId":"1R75W89I","checksum":"75b5e0c67f673d567bb1fae9d6aa2607be5c46177579e724278999342ef0b716","readerVersion":"GDAL 3.2.2","processedAt":"2026-08-11T18:29:20.995Z"},"associationRefsVerifiedInGdalOutput":false}},{"type":"Feature","geometry":{"type":"Point","coordinates":[3.7233845,51.5235535]},"properties":{"dolphinKind":"topmark","rawObjectClass":"TOPMAR","sourceProperties":{"RCID":8557057,"PRIM":1,"GRUP":2,"OBJL":144,"RVER":1,"AGEN":7979,"FIDN":8557057,"FIDS":1,"LNAM":"1F2B008292010001","COLOUR":["4"],"TOPSHP":1,"SCAMIN":200000,"SORDAT":"20240110","SORIND":"NL,1R,Reprt,ENC-verbetering","sourceCellId":"1R75W89I","sourceChecksum":"75b5e0c67f673d567bb1fae9d6aa2607be5c46177579e724278999342ef0b716","rawObjectClass":"TOPMAR","sourceStableId":"1F2B008292010001"},"sourceKind":"official","official":true,"sourceCellId":"1R75W89I","sourceStableId":"1F2B008292010001","pipelineFeatureId":"1R75W89I/TOPMAR/8557057","provenance":{"cellId":"1R75W89I","checksum":"75b5e0c67f673d567bb1fae9d6aa2607be5c46177579e724278999342ef0b716","readerVersion":"GDAL 3.2.2","processedAt":"2026-08-11T18:29:20.995Z"},"associationRefsVerifiedInGdalOutput":false}},{"type":"Feature","geometry":{"type":"Point","coordinates":[3.7239998,51.5224924]},"properties":{"dolphinKind":"topmark","rawObjectClass":"TOPMAR","sourceProperties":{"RCID":8557058,"PRIM":1,"GRUP":2,"OBJL":144,"RVER":1,"AGEN":7979,"FIDN":8557058,"FIDS":1,"LNAM":"1F2B008292020001","COLOUR":["4"],"TOPSHP":1,"SCAMIN":200000,"SORDAT":"20240110","SORIND":"NL,1R,Reprt,ENC-verbetering","sourceCellId":"1R75W89I","sourceChecksum":"75b5e0c67f673d567bb1fae9d6aa2607be5c46177579e724278999342ef0b716","rawObjectClass":"TOPMAR","sourceStableId":"1F2B008292020001"},"sourceKind":"official","official":true,"sourceCellId":"1R75W89I","sourceStableId":"1F2B008292020001","pipelineFeatureId":"1R75W89I/TOPMAR/8557058","provenance":{"cellId":"1R75W89I","checksum":"75b5e0c67f673d567bb1fae9d6aa2607be5c46177579e724278999342ef0b716","readerVersion":"GDAL 3.2.2","processedAt":"2026-08-11T18:29:20.995Z"},"associationRefsVerifiedInGdalOutput":false}},{"type":"Feature","geometry":{"type":"Point","coordinates":[3.721011,51.5226476]},"properties":{"dolphinKind":"topmark","rawObjectClass":"TOPMAR","sourceProperties":{"RCID":8557059,"PRIM":1,"GRUP":2,"OBJL":144,"RVER":1,"AGEN":7979,"FIDN":8557059,"FIDS":1,"LNAM":"1F2B008292030001","COLOUR":["4"],"TOPSHP":1,"SCAMIN":200000,"SORDAT":"20240110","SORIND":"NL,1R,Reprt,ENC-verbetering","sourceCellId":"1R75W89I","sourceChecksum":"75b5e0c67f673d567bb1fae9d6aa2607be5c46177579e724278999342ef0b716","rawObjectClass":"TOPMAR","sourceStableId":"1F2B008292030001"},"sourceKind":"official","official":true,"sourceCellId":"1R75W89I","sourceStableId":"1F2B008292030001","pipelineFeatureId":"1R75W89I/TOPMAR/8557059","provenance":{"cellId":"1R75W89I","checksum":"75b5e0c67f673d567bb1fae9d6aa2607be5c46177579e724278999342ef0b716","readerVersion":"GDAL 3.2.2","processedAt":"2026-08-11T18:29:20.995Z"},"associationRefsVerifiedInGdalOutput":false}},{"type":"Feature","geometry":{"type":"Point","coordinates":[3.7211681,51.5222902]},"properties":{"dolphinKind":"topmark","rawObjectClass":"TOPMAR","sourceProperties":{"RCID":8557060,"PRIM":1,"GRUP":2,"OBJL":144,"RVER":1,"AGEN":7979,"FIDN":8557060,"FIDS":1,"LNAM":"1F2B008292040001","COLOUR":["4"],"TOPSHP":1,"SCAMIN":200000,"SORDAT":"20240110","SORIND":"NL,1R,Reprt,ENC-verbetering","sourceCellId":"1R75W89I","sourceChecksum":"75b5e0c67f673d567bb1fae9d6aa2607be5c46177579e724278999342ef0b716","rawObjectClass":"TOPMAR","sourceStableId":"1F2B008292040001"},"sourceKind":"official","official":true,"sourceCellId":"1R75W89I","sourceStableId":"1F2B008292040001","pipelineFeatureId":"1R75W89I/TOPMAR/8557060","provenance":{"cellId":"1R75W89I","checksum":"75b5e0c67f673d567bb1fae9d6aa2607be5c46177579e724278999342ef0b716","readerVersion":"GDAL 3.2.2","processedAt":"2026-08-11T18:29:20.995Z"},"associationRefsVerifiedInGdalOutput":false}},{"type":"Feature","geometry":{"type":"Point","coordinates":[3.6983733,51.516085]},"properties":{"dolphinKind":"topmark","rawObjectClass":"TOPMAR","sourceProperties":{"RCID":8557061,"PRIM":1,"GRUP":2,"OBJL":144,"RVER":1,"AGEN":7979,"FIDN":8557061,"FIDS":1,"LNAM":"1F2B008292050001","COLOUR":["4"],"TOPSHP":1,"SCAMIN":200000,"sourceCellId":"1R75W89I","sourceChecksum":"75b5e0c67f673d567bb1fae9d6aa2607be5c46177579e724278999342ef0b716","rawObjectClass":"TOPMAR","sourceStableId":"1F2B008292050001"},"sourceKind":"official","official":true,"sourceCellId":"1R75W89I","sourceStableId":"1F2B008292050001","pipelineFeatureId":"1R75W89I/TOPMAR/8557061","provenance":{"cellId":"1R75W89I","checksum":"75b5e0c67f673d567bb1fae9d6aa2607be5c46177579e724278999342ef0b716","readerVersion":"GDAL 3.2.2","processedAt":"2026-08-11T18:29:20.995Z"},"associationRefsVerifiedInGdalOutput":false}},{"type":"Feature","geometry":{"type":"Point","coordinates":[3.700275,51.5146517]},"properties":{"dolphinKind":"topmark","rawObjectClass":"TOPMAR","sourceProperties":{"RCID":8557062,"PRIM":1,"GRUP":2,"OBJL":144,"RVER":1,"AGEN":7979,"FIDN":8557062,"FIDS":1,"LNAM":"1F2B008292060001","COLOUR":["4"],"TOPSHP":1,"SCAMIN":200000,"sourceCellId":"1R75W89I","sourceChecksum":"75b5e0c67f673d567bb1fae9d6aa2607be5c46177579e724278999342ef0b716","rawObjectClass":"TOPMAR","sourceStableId":"1F2B008292060001"},"sourceKind":"official","official":true,"sourceCellId":"1R75W89I","sourceStableId":"1F2B008292060001","pipelineFeatureId":"1R75W89I/TOPMAR/8557062","provenance":{"cellId":"1R75W89I","checksum":"75b5e0c67f673d567bb1fae9d6aa2607be5c46177579e724278999342ef0b716","readerVersion":"GDAL 3.2.2","processedAt":"2026-08-11T18:29:20.995Z"},"associationRefsVerifiedInGdalOutput":false}},{"type":"Feature","geometry":{"type":"Point","coordinates":[3.69915,51.51528]},"properties":{"dolphinKind":"topmark","rawObjectClass":"TOPMAR","sourceProperties":{"RCID":8557063,"PRIM":1,"GRUP":2,"OBJL":144,"RVER":1,"AGEN":7979,"FIDN":8557063,"FIDS":1,"LNAM":"1F2B008292070001","COLOUR":["4"],"TOPSHP":1,"SCAMIN":200000,"sourceCellId":"1R75W89I","sourceChecksum":"75b5e0c67f673d567bb1fae9d6aa2607be5c46177579e724278999342ef0b716","rawObjectClass":"TOPMAR","sourceStableId":"1F2B008292070001"},"sourceKind":"official","official":true,"sourceCellId":"1R75W89I","sourceStableId":"1F2B008292070001","pipelineFeatureId":"1R75W89I/TOPMAR/8557063","provenance":{"cellId":"1R75W89I","checksum":"75b5e0c67f673d567bb1fae9d6aa2607be5c46177579e724278999342ef0b716","readerVersion":"GDAL 3.2.2","processedAt":"2026-08-11T18:29:20.995Z"},"associationRefsVerifiedInGdalOutput":false}},{"type":"Feature","geometry":{"type":"Point","coordinates":[3.7012533,51.5140433]},"properties":{"dolphinKind":"topmark","rawObjectClass":"TOPMAR","sourceProperties":{"RCID":8557064,"PRIM":1,"GRUP":2,"OBJL":144,"RVER":1,"AGEN":7979,"FIDN":8557064,"FIDS":1,"LNAM":"1F2B008292080001","COLOUR":["4"],"TOPSHP":1,"SCAMIN":200000,"sourceCellId":"1R75W89I","sourceChecksum":"75b5e0c67f673d567bb1fae9d6aa2607be5c46177579e724278999342ef0b716","rawObjectClass":"TOPMAR","sourceStableId":"1F2B008292080001"},"sourceKind":"official","official":true,"sourceCellId":"1R75W89I","sourceStableId":"1F2B008292080001","pipelineFeatureId":"1R75W89I/TOPMAR/8557064","provenance":{"cellId":"1R75W89I","checksum":"75b5e0c67f673d567bb1fae9d6aa2607be5c46177579e724278999342ef0b716","readerVersion":"GDAL 3.2.2","processedAt":"2026-08-11T18:29:20.995Z"},"associationRefsVerifiedInGdalOutput":false}},{"type":"Feature","geometry":{"type":"Point","coordinates":[3.70211,51.5130683]},"properties":{"dolphinKind":"topmark","rawObjectClass":"TOPMAR","sourceProperties":{"RCID":8557065,"PRIM":1,"GRUP":2,"OBJL":144,"RVER":1,"AGEN":7979,"FIDN":8557065,"FIDS":1,"LNAM":"1F2B008292090001","COLOUR":["4"],"TOPSHP":1,"SCAMIN":200000,"sourceCellId":"1R75W89I","sourceChecksum":"75b5e0c67f673d567bb1fae9d6aa2607be5c46177579e724278999342ef0b716","rawObjectClass":"TOPMAR","sourceStableId":"1F2B008292090001"},"sourceKind":"official","official":true,"sourceCellId":"1R75W89I","sourceStableId":"1F2B008292090001","pipelineFeatureId":"1R75W89I/TOPMAR/8557065","provenance":{"cellId":"1R75W89I","checksum":"75b5e0c67f673d567bb1fae9d6aa2607be5c46177579e724278999342ef0b716","readerVersion":"GDAL 3.2.2","processedAt":"2026-08-11T18:29:20.995Z"},"associationRefsVerifiedInGdalOutput":false}},{"type":"Feature","geometry":{"type":"Point","coordinates":[3.7023633,51.51256]},"properties":{"dolphinKind":"topmark","rawObjectClass":"TOPMAR","sourceProperties":{"RCID":8557066,"PRIM":1,"GRUP":2,"OBJL":144,"RVER":1,"AGEN":7979,"FIDN":8557066,"FIDS":1,"LNAM":"1F2B0082920A0001","COLOUR":["4"],"TOPSHP":1,"SCAMIN":200000,"SORIND":"NL,1R,reprt,MZ 43/11","sourceCellId":"1R75W89I","sourceChecksum":"75b5e0c67f673d567bb1fae9d6aa2607be5c46177579e724278999342ef0b716","rawObjectClass":"TOPMAR","sourceStableId":"1F2B0082920A0001"},"sourceKind":"official","official":true,"sourceCellId":"1R75W89I","sourceStableId":"1F2B0082920A0001","pipelineFeatureId":"1R75W89I/TOPMAR/8557066","provenance":{"cellId":"1R75W89I","checksum":"75b5e0c67f673d567bb1fae9d6aa2607be5c46177579e724278999342ef0b716","readerVersion":"GDAL 3.2.2","processedAt":"2026-08-11T18:29:20.995Z"},"associationRefsVerifiedInGdalOutput":false}},{"type":"Feature","geometry":{"type":"Point","coordinates":[3.7147056,51.5236363]},"properties":{"dolphinKind":"topmark","rawObjectClass":"TOPMAR","sourceProperties":{"RCID":8557067,"PRIM":1,"GRUP":2,"OBJL":144,"RVER":1,"AGEN":7979,"FIDN":8557067,"FIDS":1,"LNAM":"1F2B0082920B0001","COLOUR":["3"],"TOPSHP":5,"SCAMIN":200000,"SORDAT":"20240110","SORIND":"NL,1R,Reprt,ENC-verbetering","sourceCellId":"1R75W89I","sourceChecksum":"75b5e0c67f673d567bb1fae9d6aa2607be5c46177579e724278999342ef0b716","rawObjectClass":"TOPMAR","sourceStableId":"1F2B0082920B0001"},"sourceKind":"official","official":true,"sourceCellId":"1R75W89I","sourceStableId":"1F2B0082920B0001","pipelineFeatureId":"1R75W89I/TOPMAR/8557067","provenance":{"cellId":"1R75W89I","checksum":"75b5e0c67f673d567bb1fae9d6aa2607be5c46177579e724278999342ef0b716","readerVersion":"GDAL 3.2.2","processedAt":"2026-08-11T18:29:20.995Z"},"associationRefsVerifiedInGdalOutput":false}},{"type":"Feature","geometry":{"type":"Point","coordinates":[3.7129203,51.5247615]},"properties":{"dolphinKind":"topmark","rawObjectClass":"TOPMAR","sourceProperties":{"RCID":8557068,"PRIM":1,"GRUP":2,"OBJL":144,"RVER":1,"AGEN":7979,"FIDN":8557068,"FIDS":1,"LNAM":"1F2B0082920C0001","COLOUR":["3"],"TOPSHP":5,"SCAMIN":200000,"SORDAT":"20191103","sourceCellId":"1R75W89I","sourceChecksum":"75b5e0c67f673d567bb1fae9d6aa2607be5c46177579e724278999342ef0b716","rawObjectClass":"TOPMAR","sourceStableId":"1F2B0082920C0001"},"sourceKind":"official","official":true,"sourceCellId":"1R75W89I","sourceStableId":"1F2B0082920C0001","pipelineFeatureId":"1R75W89I/TOPMAR/8557068","provenance":{"cellId":"1R75W89I","checksum":"75b5e0c67f673d567bb1fae9d6aa2607be5c46177579e724278999342ef0b716","readerVersion":"GDAL 3.2.2","processedAt":"2026-08-11T18:29:20.995Z"},"associationRefsVerifiedInGdalOutput":false}},{"type":"Feature","geometry":{"type":"Point","coordinates":[3.6955833,51.5245333]},"properties":{"dolphinKind":"topmark","rawObjectClass":"TOPMAR","sourceProperties":{"RCID":8557069,"PRIM":1,"GRUP":2,"OBJL":144,"RVER":1,"AGEN":7979,"FIDN":8557069,"FIDS":1,"LNAM":"1F2B0082920D0001","COLOUR":["3"],"TOPSHP":5,"SCAMIN":200000,"SORDAT":"20240110","SORIND":"NL,1R,Reprt,ENC-verbetering","sourceCellId":"1R75W89I","sourceChecksum":"75b5e0c67f673d567bb1fae9d6aa2607be5c46177579e724278999342ef0b716","rawObjectClass":"TOPMAR","sourceStableId":"1F2B0082920D0001"},"sourceKind":"official","official":true,"sourceCellId":"1R75W89I","sourceStableId":"1F2B0082920D0001","pipelineFeatureId":"1R75W89I/TOPMAR/8557069","provenance":{"cellId":"1R75W89I","checksum":"75b5e0c67f673d567bb1fae9d6aa2607be5c46177579e724278999342ef0b716","readerVersion":"GDAL 3.2.2","processedAt":"2026-08-11T18:29:20.995Z"},"associationRefsVerifiedInGdalOutput":false}},{"type":"Feature","geometry":{"type":"Point","coordinates":[3.7259261,51.524201]},"properties":{"dolphinKind":"topmark","rawObjectClass":"TOPMAR","sourceProperties":{"RCID":8557070,"PRIM":1,"GRUP":2,"OBJL":144,"RVER":1,"AGEN":7979,"FIDN":8557070,"FIDS":1,"LNAM":"1F2B0082920E0001","COLOUR":["3"],"TOPSHP":5,"SCAMIN":200000,"SORDAT":"20240110","SORIND":"NL,1R,Reprt,ENC-verbetering","sourceCellId":"1R75W89I","sourceChecksum":"75b5e0c67f673d567bb1fae9d6aa2607be5c46177579e724278999342ef0b716","rawObjectClass":"TOPMAR","sourceStableId":"1F2B0082920E0001"},"sourceKind":"official","official":true,"sourceCellId":"1R75W89I","sourceStableId":"1F2B0082920E0001","pipelineFeatureId":"1R75W89I/TOPMAR/8557070","provenance":{"cellId":"1R75W89I","checksum":"75b5e0c67f673d567bb1fae9d6aa2607be5c46177579e724278999342ef0b716","readerVersion":"GDAL 3.2.2","processedAt":"2026-08-11T18:29:20.995Z"},"associationRefsVerifiedInGdalOutput":false}},{"type":"Feature","geometry":{"type":"Point","coordinates":[3.7249122,51.5243394]},"properties":{"dolphinKind":"topmark","rawObjectClass":"TOPMAR","sourceProperties":{"RCID":8557071,"PRIM":1,"GRUP":2,"OBJL":144,"RVER":1,"AGEN":7979,"FIDN":8557071,"FIDS":1,"LNAM":"1F2B0082920F0001","COLOUR":["3"],"TOPSHP":5,"SCAMIN":200000,"SORDAT":"20240110","SORIND":"NL,1R,Reprt,ENC-verbetering","sourceCellId":"1R75W89I","sourceChecksum":"75b5e0c67f673d567bb1fae9d6aa2607be5c46177579e724278999342ef0b716","rawObjectClass":"TOPMAR","sourceStableId":"1F2B0082920F0001"},"sourceKind":"official","official":true,"sourceCellId":"1R75W89I","sourceStableId":"1F2B0082920F0001","pipelineFeatureId":"1R75W89I/TOPMAR/8557071","provenance":{"cellId":"1R75W89I","checksum":"75b5e0c67f673d567bb1fae9d6aa2607be5c46177579e724278999342ef0b716","readerVersion":"GDAL 3.2.2","processedAt":"2026-08-11T18:29:20.995Z"},"associationRefsVerifiedInGdalOutput":false}},{"type":"Feature","geometry":{"type":"Point","coordinates":[3.7239101,51.5245499]},"properties":{"dolphinKind":"topmark","rawObjectClass":"TOPMAR","sourceProperties":{"RCID":8557072,"PRIM":1,"GRUP":2,"OBJL":144,"RVER":1,"AGEN":7979,"FIDN":8557072,"FIDS":1,"LNAM":"1F2B008292100001","COLOUR":["3"],"TOPSHP":5,"SCAMIN":200000,"SORDAT":"20240110","SORIND":"NL,1R,Reprt,ENC-verbetering","sourceCellId":"1R75W89I","sourceChecksum":"75b5e0c67f673d567bb1fae9d6aa2607be5c46177579e724278999342ef0b716","rawObjectClass":"TOPMAR","sourceStableId":"1F2B008292100001"},"sourceKind":"official","official":true,"sourceCellId":"1R75W89I","sourceStableId":"1F2B008292100001","pipelineFeatureId":"1R75W89I/TOPMAR/8557072","provenance":{"cellId":"1R75W89I","checksum":"75b5e0c67f673d567bb1fae9d6aa2607be5c46177579e724278999342ef0b716","readerVersion":"GDAL 3.2.2","processedAt":"2026-08-11T18:29:20.995Z"},"associationRefsVerifiedInGdalOutput":false}},{"type":"Feature","geometry":{"type":"Point","coordinates":[3.726941,51.5240357]},"properties":{"dolphinKind":"topmark","rawObjectClass":"TOPMAR","sourceProperties":{"RCID":8557073,"PRIM":1,"GRUP":2,"OBJL":144,"RVER":1,"AGEN":7979,"FIDN":8557073,"FIDS":1,"LNAM":"1F2B008292110001","COLOUR":["3"],"TOPSHP":5,"SCAMIN":200000,"SORDAT":"20240110","SORIND":"NL,1R,Reprt,ENC-verbetering","sourceCellId":"1R75W89I","sourceChecksum":"75b5e0c67f673d567bb1fae9d6aa2607be5c46177579e724278999342ef0b716","rawObjectClass":"TOPMAR","sourceStableId":"1F2B008292110001"},"sourceKind":"official","official":true,"sourceCellId":"1R75W89I","sourceStableId":"1F2B008292110001","pipelineFeatureId":"1R75W89I/TOPMAR/8557073","provenance":{"cellId":"1R75W89I","checksum":"75b5e0c67f673d567bb1fae9d6aa2607be5c46177579e724278999342ef0b716","readerVersion":"GDAL 3.2.2","processedAt":"2026-08-11T18:29:20.995Z"},"associationRefsVerifiedInGdalOutput":false}},{"type":"Feature","geometry":{"type":"Point","coordinates":[3.7229184,51.5248684]},"properties":{"dolphinKind":"topmark","rawObjectClass":"TOPMAR","sourceProperties":{"RCID":8557074,"PRIM":1,"GRUP":2,"OBJL":144,"RVER":1,"AGEN":7979,"FIDN":8557074,"FIDS":1,"LNAM":"1F2B008292120001","COLOUR":["3"],"TOPSHP":5,"SCAMIN":200000,"SORDAT":"20240110","SORIND":"NL,1R,Reprt,ENC-verbetering","sourceCellId":"1R75W89I","sourceChecksum":"75b5e0c67f673d567bb1fae9d6aa2607be5c46177579e724278999342ef0b716","rawObjectClass":"TOPMAR","sourceStableId":"1F2B008292120001"},"sourceKind":"official","official":true,"sourceCellId":"1R75W89I","sourceStableId":"1F2B008292120001","pipelineFeatureId":"1R75W89I/TOPMAR/8557074","provenance":{"cellId":"1R75W89I","checksum":"75b5e0c67f673d567bb1fae9d6aa2607be5c46177579e724278999342ef0b716","readerVersion":"GDAL 3.2.2","processedAt":"2026-08-11T18:29:20.995Z"},"associationRefsVerifiedInGdalOutput":false}},{"type":"Feature","geometry":{"type":"Point","coordinates":[3.7211415,51.5230181]},"properties":{"dolphinKind":"topmark","rawObjectClass":"TOPMAR","sourceProperties":{"RCID":8557075,"PRIM":1,"GRUP":2,"OBJL":144,"RVER":1,"AGEN":7979,"FIDN":8557075,"FIDS":1,"LNAM":"1F2B008292130001","COLOUR":["3"],"TOPSHP":5,"SCAMIN":200000,"SORDAT":"20240110","SORIND":"NL,1R,Reprt,ENC-verbetering","sourceCellId":"1R75W89I","sourceChecksum":"75b5e0c67f673d567bb1fae9d6aa2607be5c46177579e724278999342ef0b716","rawObjectClass":"TOPMAR","sourceStableId":"1F2B008292130001"},"sourceKind":"official","official":true,"sourceCellId":"1R75W89I","sourceStableId":"1F2B008292130001","pipelineFeatureId":"1R75W89I/TOPMAR/8557075","provenance":{"cellId":"1R75W89I","checksum":"75b5e0c67f673d567bb1fae9d6aa2607be5c46177579e724278999342ef0b716","readerVersion":"GDAL 3.2.2","processedAt":"2026-08-11T18:29:20.995Z"},"associationRefsVerifiedInGdalOutput":false}},{"type":"Feature","geometry":{"type":"Point","coordinates":[3.7214347,51.5236695]},"properties":{"dolphinKind":"topmark","rawObjectClass":"TOPMAR","sourceProperties":{"RCID":8557076,"PRIM":1,"GRUP":2,"OBJL":144,"RVER":1,"AGEN":7979,"FIDN":8557076,"FIDS":1,"LNAM":"1F2B008292140001","COLOUR":["3"],"TOPSHP":5,"SCAMIN":200000,"SORDAT":"20240110","SORIND":"NL,1R,Reprt,ENC-verbetering","sourceCellId":"1R75W89I","sourceChecksum":"75b5e0c67f673d567bb1fae9d6aa2607be5c46177579e724278999342ef0b716","rawObjectClass":"TOPMAR","sourceStableId":"1F2B008292140001"},"sourceKind":"official","official":true,"sourceCellId":"1R75W89I","sourceStableId":"1F2B008292140001","pipelineFeatureId":"1R75W89I/TOPMAR/8557076","provenance":{"cellId":"1R75W89I","checksum":"75b5e0c67f673d567bb1fae9d6aa2607be5c46177579e724278999342ef0b716","readerVersion":"GDAL 3.2.2","processedAt":"2026-08-11T18:29:20.995Z"},"associationRefsVerifiedInGdalOutput":false}},{"type":"Feature","geometry":{"type":"Point","coordinates":[3.7241605,51.5224318]},"properties":{"dolphinKind":"topmark","rawObjectClass":"TOPMAR","sourceProperties":{"RCID":8557077,"PRIM":1,"GRUP":2,"OBJL":144,"RVER":1,"AGEN":7979,"FIDN":8557077,"FIDS":1,"LNAM":"1F2B008292150001","COLOUR":["3"],"TOPSHP":5,"SCAMIN":200000,"SORDAT":"20240110","SORIND":"NL,1R,Reprt,ENC-verbetering","sourceCellId":"1R75W89I","sourceChecksum":"75b5e0c67f673d567bb1fae9d6aa2607be5c46177579e724278999342ef0b716","rawObjectClass":"TOPMAR","sourceStableId":"1F2B008292150001"},"sourceKind":"official","official":true,"sourceCellId":"1R75W89I","sourceStableId":"1F2B008292150001","pipelineFeatureId":"1R75W89I/TOPMAR/8557077","provenance":{"cellId":"1R75W89I","checksum":"75b5e0c67f673d567bb1fae9d6aa2607be5c46177579e724278999342ef0b716","readerVersion":"GDAL 3.2.2","processedAt":"2026-08-11T18:29:20.995Z"},"associationRefsVerifiedInGdalOutput":false}},{"type":"Feature","geometry":{"type":"Point","coordinates":[3.7236779,51.5230183]},"properties":{"dolphinKind":"topmark","rawObjectClass":"TOPMAR","sourceProperties":{"RCID":8557078,"PRIM":1,"GRUP":2,"OBJL":144,"RVER":1,"AGEN":7979,"FIDN":8557078,"FIDS":1,"LNAM":"1F2B008292160001","COLOUR":["3"],"TOPSHP":5,"SCAMIN":200000,"SORDAT":"20240110","SORIND":"NL,1R,Reprt,ENC-verbetering","sourceCellId":"1R75W89I","sourceChecksum":"75b5e0c67f673d567bb1fae9d6aa2607be5c46177579e724278999342ef0b716","rawObjectClass":"TOPMAR","sourceStableId":"1F2B008292160001"},"sourceKind":"official","official":true,"sourceCellId":"1R75W89I","sourceStableId":"1F2B008292160001","pipelineFeatureId":"1R75W89I/TOPMAR/8557078","provenance":{"cellId":"1R75W89I","checksum":"75b5e0c67f673d567bb1fae9d6aa2607be5c46177579e724278999342ef0b716","readerVersion":"GDAL 3.2.2","processedAt":"2026-08-11T18:29:20.995Z"},"associationRefsVerifiedInGdalOutput":false}},{"type":"Feature","geometry":{"type":"Point","coordinates":[3.7236658,51.5233507]},"properties":{"dolphinKind":"topmark","rawObjectClass":"TOPMAR","sourceProperties":{"RCID":8557079,"PRIM":1,"GRUP":2,"OBJL":144,"RVER":1,"AGEN":7979,"FIDN":8557079,"FIDS":1,"LNAM":"1F2B008292170001","COLOUR":["3"],"TOPSHP":5,"SCAMIN":200000,"SORDAT":"20240110","SORIND":"NL,1R,Reprt,ENC-verbetering","sourceCellId":"1R75W89I","sourceChecksum":"75b5e0c67f673d567bb1fae9d6aa2607be5c46177579e724278999342ef0b716","rawObjectClass":"TOPMAR","sourceStableId":"1F2B008292170001"},"sourceKind":"official","official":true,"sourceCellId":"1R75W89I","sourceStableId":"1F2B008292170001","pipelineFeatureId":"1R75W89I/TOPMAR/8557079","provenance":{"cellId":"1R75W89I","checksum":"75b5e0c67f673d567bb1fae9d6aa2607be5c46177579e724278999342ef0b716","readerVersion":"GDAL 3.2.2","processedAt":"2026-08-11T18:29:20.995Z"},"associationRefsVerifiedInGdalOutput":false}},{"type":"Feature","geometry":{"type":"Point","coordinates":[3.7235678,51.523664]},"properties":{"dolphinKind":"topmark","rawObjectClass":"TOPMAR","sourceProperties":{"RCID":8557080,"PRIM":1,"GRUP":2,"OBJL":144,"RVER":1,"AGEN":7979,"FIDN":8557080,"FIDS":1,"LNAM":"1F2B008292180001","COLOUR":["3"],"TOPSHP":5,"SCAMIN":200000,"SORDAT":"20240110","SORIND":"NL,1R,Reprt,ENC-verbetering","sourceCellId":"1R75W89I","sourceChecksum":"75b5e0c67f673d567bb1fae9d6aa2607be5c46177579e724278999342ef0b716","rawObjectClass":"TOPMAR","sourceStableId":"1F2B008292180001"},"sourceKind":"official","official":true,"sourceCellId":"1R75W89I","sourceStableId":"1F2B008292180001","pipelineFeatureId":"1R75W89I/TOPMAR/8557080","provenance":{"cellId":"1R75W89I","checksum":"75b5e0c67f673d567bb1fae9d6aa2607be5c46177579e724278999342ef0b716","readerVersion":"GDAL 3.2.2","processedAt":"2026-08-11T18:29:20.995Z"},"associationRefsVerifiedInGdalOutput":false}},{"type":"Feature","geometry":{"type":"Point","coordinates":[3.7213122,51.5222923]},"properties":{"dolphinKind":"topmark","rawObjectClass":"TOPMAR","sourceProperties":{"RCID":8557081,"PRIM":1,"GRUP":2,"OBJL":144,"RVER":1,"AGEN":7979,"FIDN":8557081,"FIDS":1,"LNAM":"1F2B008292190001","COLOUR":["3"],"TOPSHP":5,"SCAMIN":200000,"SORDAT":"20240110","SORIND":"NL,1R,Reprt,ENC-verbetering","sourceCellId":"1R75W89I","sourceChecksum":"75b5e0c67f673d567bb1fae9d6aa2607be5c46177579e724278999342ef0b716","rawObjectClass":"TOPMAR","sourceStableId":"1F2B008292190001"},"sourceKind":"official","official":true,"sourceCellId":"1R75W89I","sourceStableId":"1F2B008292190001","pipelineFeatureId":"1R75W89I/TOPMAR/8557081","provenance":{"cellId":"1R75W89I","checksum":"75b5e0c67f673d567bb1fae9d6aa2607be5c46177579e724278999342ef0b716","readerVersion":"GDAL 3.2.2","processedAt":"2026-08-11T18:29:20.995Z"},"associationRefsVerifiedInGdalOutput":false}},{"type":"Feature","geometry":{"type":"Point","coordinates":[3.698595,51.516205]},"properties":{"dolphinKind":"topmark","rawObjectClass":"TOPMAR","sourceProperties":{"RCID":8557082,"PRIM":1,"GRUP":2,"OBJL":144,"RVER":1,"AGEN":7979,"FIDN":8557082,"FIDS":1,"LNAM":"1F2B0082921A0001","COLOUR":["3"],"TOPSHP":5,"SCAMIN":200000,"sourceCellId":"1R75W89I","sourceChecksum":"75b5e0c67f673d567bb1fae9d6aa2607be5c46177579e724278999342ef0b716","rawObjectClass":"TOPMAR","sourceStableId":"1F2B0082921A0001"},"sourceKind":"official","official":true,"sourceCellId":"1R75W89I","sourceStableId":"1F2B0082921A0001","pipelineFeatureId":"1R75W89I/TOPMAR/8557082","provenance":{"cellId":"1R75W89I","checksum":"75b5e0c67f673d567bb1fae9d6aa2607be5c46177579e724278999342ef0b716","readerVersion":"GDAL 3.2.2","processedAt":"2026-08-11T18:29:20.995Z"},"associationRefsVerifiedInGdalOutput":false}},{"type":"Feature","geometry":{"type":"Point","coordinates":[3.6984117,51.5166617]},"properties":{"dolphinKind":"topmark","rawObjectClass":"TOPMAR","sourceProperties":{"RCID":8557083,"PRIM":1,"GRUP":2,"OBJL":144,"RVER":1,"AGEN":7979,"FIDN":8557083,"FIDS":1,"LNAM":"1F2B0082921B0001","COLOUR":["3"],"TOPSHP":5,"SCAMIN":200000,"sourceCellId":"1R75W89I","sourceChecksum":"75b5e0c67f673d567bb1fae9d6aa2607be5c46177579e724278999342ef0b716","rawObjectClass":"TOPMAR","sourceStableId":"1F2B0082921B0001"},"sourceKind":"official","official":true,"sourceCellId":"1R75W89I","sourceStableId":"1F2B0082921B0001","pipelineFeatureId":"1R75W89I/TOPMAR/8557083","provenance":{"cellId":"1R75W89I","checksum":"75b5e0c67f673d567bb1fae9d6aa2607be5c46177579e724278999342ef0b716","readerVersion":"GDAL 3.2.2","processedAt":"2026-08-11T18:29:20.995Z"},"associationRefsVerifiedInGdalOutput":false}},{"type":"Feature","geometry":{"type":"Point","coordinates":[3.7023367,51.5132733]},"properties":{"dolphinKind":"topmark","rawObjectClass":"TOPMAR","sourceProperties":{"RCID":8557084,"PRIM":1,"GRUP":2,"OBJL":144,"RVER":1,"AGEN":7979,"FIDN":8557084,"FIDS":1,"LNAM":"1F2B0082921C0001","COLOUR":["3"],"TOPSHP":5,"SCAMIN":200000,"SORIND":"NL,1R,reprt,MZ 43/11","sourceCellId":"1R75W89I","sourceChecksum":"75b5e0c67f673d567bb1fae9d6aa2607be5c46177579e724278999342ef0b716","rawObjectClass":"TOPMAR","sourceStableId":"1F2B0082921C0001"},"sourceKind":"official","official":true,"sourceCellId":"1R75W89I","sourceStableId":"1F2B0082921C0001","pipelineFeatureId":"1R75W89I/TOPMAR/8557084","provenance":{"cellId":"1R75W89I","checksum":"75b5e0c67f673d567bb1fae9d6aa2607be5c46177579e724278999342ef0b716","readerVersion":"GDAL 3.2.2","processedAt":"2026-08-11T18:29:20.995Z"},"associationRefsVerifiedInGdalOutput":false}},{"type":"Feature","geometry":{"type":"Point","coordinates":[3.7014067,51.514165]},"properties":{"dolphinKind":"topmark","rawObjectClass":"TOPMAR","sourceProperties":{"RCID":8557085,"PRIM":1,"GRUP":2,"OBJL":144,"RVER":1,"AGEN":7979,"FIDN":8557085,"FIDS":1,"LNAM":"1F2B0082921D0001","COLOUR":["3"],"TOPSHP":5,"SCAMIN":200000,"sourceCellId":"1R75W89I","sourceChecksum":"75b5e0c67f673d567bb1fae9d6aa2607be5c46177579e724278999342ef0b716","rawObjectClass":"TOPMAR","sourceStableId":"1F2B0082921D0001"},"sourceKind":"official","official":true,"sourceCellId":"1R75W89I","sourceStableId":"1F2B0082921D0001","pipelineFeatureId":"1R75W89I/TOPMAR/8557085","provenance":{"cellId":"1R75W89I","checksum":"75b5e0c67f673d567bb1fae9d6aa2607be5c46177579e724278999342ef0b716","readerVersion":"GDAL 3.2.2","processedAt":"2026-08-11T18:29:20.995Z"},"associationRefsVerifiedInGdalOutput":false}},{"type":"Feature","geometry":{"type":"Point","coordinates":[3.6992933,51.5154633]},"properties":{"dolphinKind":"topmark","rawObjectClass":"TOPMAR","sourceProperties":{"RCID":8557086,"PRIM":1,"GRUP":2,"OBJL":144,"RVER":1,"AGEN":7979,"FIDN":8557086,"FIDS":1,"LNAM":"1F2B0082921E0001","COLOUR":["3"],"TOPSHP":5,"SCAMIN":200000,"sourceCellId":"1R75W89I","sourceChecksum":"75b5e0c67f673d567bb1fae9d6aa2607be5c46177579e724278999342ef0b716","rawObjectClass":"TOPMAR","sourceStableId":"1F2B0082921E0001"},"sourceKind":"official","official":true,"sourceCellId":"1R75W89I","sourceStableId":"1F2B0082921E0001","pipelineFeatureId":"1R75W89I/TOPMAR/8557086","provenance":{"cellId":"1R75W89I","checksum":"75b5e0c67f673d567bb1fae9d6aa2607be5c46177579e724278999342ef0b716","readerVersion":"GDAL 3.2.2","processedAt":"2026-08-11T18:29:20.995Z"},"associationRefsVerifiedInGdalOutput":false}},{"type":"Feature","geometry":{"type":"Point","coordinates":[3.7027367,51.5129033]},"properties":{"dolphinKind":"topmark","rawObjectClass":"TOPMAR","sourceProperties":{"RCID":8557087,"PRIM":1,"GRUP":2,"OBJL":144,"RVER":1,"AGEN":7979,"FIDN":8557087,"FIDS":1,"LNAM":"1F2B0082921F0001","COLOUR":["3"],"TOPSHP":5,"SCAMIN":200000,"SORIND":"NL,1R,reprt,MZ 43,11","sourceCellId":"1R75W89I","sourceChecksum":"75b5e0c67f673d567bb1fae9d6aa2607be5c46177579e724278999342ef0b716","rawObjectClass":"TOPMAR","sourceStableId":"1F2B0082921F0001"},"sourceKind":"official","official":true,"sourceCellId":"1R75W89I","sourceStableId":"1F2B0082921F0001","pipelineFeatureId":"1R75W89I/TOPMAR/8557087","provenance":{"cellId":"1R75W89I","checksum":"75b5e0c67f673d567bb1fae9d6aa2607be5c46177579e724278999342ef0b716","readerVersion":"GDAL 3.2.2","processedAt":"2026-08-11T18:29:20.995Z"},"associationRefsVerifiedInGdalOutput":false}},{"type":"Feature","geometry":{"type":"Point","coordinates":[3.6984933,51.5173767]},"properties":{"dolphinKind":"topmark","rawObjectClass":"TOPMAR","sourceProperties":{"RCID":12204278,"PRIM":1,"GRUP":2,"OBJL":144,"RVER":1,"AGEN":7979,"FIDN":12204278,"FIDS":1,"LNAM":"1F2B00BA38F60001","COLOUR":["3"],"TOPSHP":5,"SCAMIN":200000,"sourceCellId":"1R75W89I","sourceChecksum":"75b5e0c67f673d567bb1fae9d6aa2607be5c46177579e724278999342ef0b716","rawObjectClass":"TOPMAR","sourceStableId":"1F2B00BA38F60001"},"sourceKind":"official","official":true,"sourceCellId":"1R75W89I","sourceStableId":"1F2B00BA38F60001","pipelineFeatureId":"1R75W89I/TOPMAR/12204278","provenance":{"cellId":"1R75W89I","checksum":"75b5e0c67f673d567bb1fae9d6aa2607be5c46177579e724278999342ef0b716","readerVersion":"GDAL 3.2.2","processedAt":"2026-08-11T18:29:20.995Z"},"associationRefsVerifiedInGdalOutput":false}},{"type":"Feature","geometry":{"type":"Point","coordinates":[3.697945,51.51648]},"properties":{"dolphinKind":"topmark","rawObjectClass":"TOPMAR","sourceProperties":{"RCID":12204280,"PRIM":1,"GRUP":2,"OBJL":144,"RVER":1,"AGEN":7979,"FIDN":12204280,"FIDS":1,"LNAM":"1F2B00BA38F80001","COLOUR":["4"],"TOPSHP":1,"SCAMIN":200000,"sourceCellId":"1R75W89I","sourceChecksum":"75b5e0c67f673d567bb1fae9d6aa2607be5c46177579e724278999342ef0b716","rawObjectClass":"TOPMAR","sourceStableId":"1F2B00BA38F80001"},"sourceKind":"official","official":true,"sourceCellId":"1R75W89I","sourceStableId":"1F2B00BA38F80001","pipelineFeatureId":"1R75W89I/TOPMAR/12204280","provenance":{"cellId":"1R75W89I","checksum":"75b5e0c67f673d567bb1fae9d6aa2607be5c46177579e724278999342ef0b716","readerVersion":"GDAL 3.2.2","processedAt":"2026-08-11T18:29:20.995Z"},"associationRefsVerifiedInGdalOutput":false}},{"type":"Feature","geometry":{"type":"Point","coordinates":[3.7004117,51.5147783]},"properties":{"dolphinKind":"topmark","rawObjectClass":"TOPMAR","sourceProperties":{"RCID":71651495,"PRIM":1,"GRUP":2,"OBJL":144,"RVER":1,"AGEN":7979,"FIDN":71651495,"FIDS":1,"LNAM":"1F2B044550A70001","COLOUR":["3"],"TOPSHP":5,"SCAMIN":200000,"sourceCellId":"1R75W89I","sourceChecksum":"75b5e0c67f673d567bb1fae9d6aa2607be5c46177579e724278999342ef0b716","rawObjectClass":"TOPMAR","sourceStableId":"1F2B044550A70001"},"sourceKind":"official","official":true,"sourceCellId":"1R75W89I","sourceStableId":"1F2B044550A70001","pipelineFeatureId":"1R75W89I/TOPMAR/71651495","provenance":{"cellId":"1R75W89I","checksum":"75b5e0c67f673d567bb1fae9d6aa2607be5c46177579e724278999342ef0b716","readerVersion":"GDAL 3.2.2","processedAt":"2026-08-11T18:29:20.995Z"},"associationRefsVerifiedInGdalOutput":false}},{"type":"Feature","geometry":{"type":"Point","coordinates":[3.69776,51.517275]},"properties":{"dolphinKind":"topmark","rawObjectClass":"TOPMAR","sourceProperties":{"RCID":71651497,"PRIM":1,"GRUP":2,"OBJL":144,"RVER":1,"AGEN":7979,"FIDN":71651497,"FIDS":1,"LNAM":"1F2B044550A90001","COLOUR":["4"],"TOPSHP":1,"SCAMIN":200000,"sourceCellId":"1R75W89I","sourceChecksum":"75b5e0c67f673d567bb1fae9d6aa2607be5c46177579e724278999342ef0b716","rawObjectClass":"TOPMAR","sourceStableId":"1F2B044550A90001"},"sourceKind":"official","official":true,"sourceCellId":"1R75W89I","sourceStableId":"1F2B044550A90001","pipelineFeatureId":"1R75W89I/TOPMAR/71651497","provenance":{"cellId":"1R75W89I","checksum":"75b5e0c67f673d567bb1fae9d6aa2607be5c46177579e724278999342ef0b716","readerVersion":"GDAL 3.2.2","processedAt":"2026-08-11T18:29:20.995Z"},"associationRefsVerifiedInGdalOutput":false}},{"type":"Feature","geometry":{"type":"Point","coordinates":[3.69815,51.525]},"properties":{"dolphinKind":"topmark","rawObjectClass":"TOPMAR","sourceProperties":{"RCID":313333327,"PRIM":1,"GRUP":2,"OBJL":144,"RVER":1,"AGEN":7979,"FIDN":313333327,"FIDS":1,"LNAM":"1F2B12AD164F0001","COLOUR":["4"],"TOPSHP":1,"SCAMIN":200000,"sourceCellId":"1R75W89I","sourceChecksum":"75b5e0c67f673d567bb1fae9d6aa2607be5c46177579e724278999342ef0b716","rawObjectClass":"TOPMAR","sourceStableId":"1F2B12AD164F0001"},"sourceKind":"official","official":true,"sourceCellId":"1R75W89I","sourceStableId":"1F2B12AD164F0001","pipelineFeatureId":"1R75W89I/TOPMAR/313333327","provenance":{"cellId":"1R75W89I","checksum":"75b5e0c67f673d567bb1fae9d6aa2607be5c46177579e724278999342ef0b716","readerVersion":"GDAL 3.2.2","processedAt":"2026-08-11T18:29:20.995Z"},"associationRefsVerifiedInGdalOutput":false}}]}