{"type":"FeatureCollection","features":[{"type":"Feature","geometry":{"type":"Point","coordinates":[4.1654129,51.6142456]},"properties":{"dolphinKind":"beacon-special","rawObjectClass":"BCNSPP","sourceProperties":{"RCID":12362,"PRIM":1,"GRUP":2,"OBJL":9,"RVER":1,"AGEN":7979,"FIDN":1106210685,"FIDS":404,"LNAM":"1F2B41EF6F7D0194","BCNSHP":1,"CATSPM":["6"],"COLOUR":["2"],"SCAMIN":200000,"sourceCellId":"1R76W8LI","sourceChecksum":"1228405ba65ba70afec00c3b0ef5f459dd166a6df588805434383b3b731245ea","rawObjectClass":"BCNSPP","sourceStableId":"1F2B41EF6F7D0194"},"sourceKind":"official","official":true,"sourceCellId":"1R76W8LI","sourceStableId":"1F2B41EF6F7D0194","pipelineFeatureId":"1R76W8LI/BCNSPP/12362","provenance":{"cellId":"1R76W8LI","checksum":"1228405ba65ba70afec00c3b0ef5f459dd166a6df588805434383b3b731245ea","readerVersion":"GDAL 3.2.2","processedAt":"2026-07-07T08:43:52.618Z"}}},{"type":"Feature","geometry":{"type":"Point","coordinates":[4.1673279,51.6054343]},"properties":{"dolphinKind":"beacon-special","rawObjectClass":"BCNSPP","sourceProperties":{"RCID":12363,"PRIM":1,"GRUP":2,"OBJL":9,"RVER":1,"AGEN":7979,"FIDN":1106210685,"FIDS":405,"LNAM":"1F2B41EF6F7D0195","BCNSHP":1,"CATSPM":["6"],"COLOUR":["2"],"SCAMIN":200000,"sourceCellId":"1R76W8LI","sourceChecksum":"1228405ba65ba70afec00c3b0ef5f459dd166a6df588805434383b3b731245ea","rawObjectClass":"BCNSPP","sourceStableId":"1F2B41EF6F7D0195"},"sourceKind":"official","official":true,"sourceCellId":"1R76W8LI","sourceStableId":"1F2B41EF6F7D0195","pipelineFeatureId":"1R76W8LI/BCNSPP/12363","provenance":{"cellId":"1R76W8LI","checksum":"1228405ba65ba70afec00c3b0ef5f459dd166a6df588805434383b3b731245ea","readerVersion":"GDAL 3.2.2","processedAt":"2026-07-07T08:43:52.618Z"}}},{"type":"Feature","geometry":{"type":"Point","coordinates":[4.2013722,51.5852]},"properties":{"dolphinKind":"light","rawObjectClass":"LIGHTS","sourceProperties":{"RCID":16858,"PRIM":1,"GRUP":2,"OBJL":75,"RVER":1,"AGEN":7979,"FIDN":1106834597,"FIDS":489,"LNAM":"1F2B41F8F4A501E9","COLOUR":["6"],"LITCHR":2,"SIGGRP":"(1)","SIGPER":5,"SCAMIN":200000,"sourceCellId":"1R76W8LI","sourceChecksum":"1228405ba65ba70afec00c3b0ef5f459dd166a6df588805434383b3b731245ea","rawObjectClass":"LIGHTS","sourceStableId":"1F2B41F8F4A501E9"},"sourceKind":"official","official":true,"sourceCellId":"1R76W8LI","sourceStableId":"1F2B41F8F4A501E9","pipelineFeatureId":"1R76W8LI/LIGHTS/16858","provenance":{"cellId":"1R76W8LI","checksum":"1228405ba65ba70afec00c3b0ef5f459dd166a6df588805434383b3b731245ea","readerVersion":"GDAL 3.2.2","processedAt":"2026-07-07T08:43:52.618Z"}}},{"type":"Feature","geometry":{"type":"Point","coordinates":[4.1934167,51.5936683]},"properties":{"dolphinKind":"light","rawObjectClass":"LIGHTS","sourceProperties":{"RCID":19612,"PRIM":1,"GRUP":2,"OBJL":75,"RVER":1,"AGEN":7979,"FIDN":1106834753,"FIDS":313,"LNAM":"1F2B41F8F5410139","COLOUR":["4"],"LITCHR":7,"SIGGRP":"(1)","SIGPER":4,"SCAMIN":200000,"SORDAT":"20180507","SORIND":"NL,1R,Reprt,MD 204-18","sourceCellId":"1R76W8LI","sourceChecksum":"1228405ba65ba70afec00c3b0ef5f459dd166a6df588805434383b3b731245ea","rawObjectClass":"LIGHTS","sourceStableId":"1F2B41F8F5410139"},"sourceKind":"official","official":true,"sourceCellId":"1R76W8LI","sourceStableId":"1F2B41F8F5410139","pipelineFeatureId":"1R76W8LI/LIGHTS/19612","provenance":{"cellId":"1R76W8LI","checksum":"1228405ba65ba70afec00c3b0ef5f459dd166a6df588805434383b3b731245ea","readerVersion":"GDAL 3.2.2","processedAt":"2026-07-07T08:43:52.618Z"}}},{"type":"Feature","geometry":{"type":"Point","coordinates":[4.1913688,51.5932351]},"properties":{"dolphinKind":"light","rawObjectClass":"LIGHTS","sourceProperties":{"RCID":19614,"PRIM":1,"GRUP":2,"OBJL":75,"RVER":1,"AGEN":7979,"FIDN":1106834753,"FIDS":315,"LNAM":"1F2B41F8F541013B","COLOUR":["3"],"LITCHR":7,"SIGGRP":"(1)","SIGPER":4,"SCAMIN":200000,"sourceCellId":"1R76W8LI","sourceChecksum":"1228405ba65ba70afec00c3b0ef5f459dd166a6df588805434383b3b731245ea","rawObjectClass":"LIGHTS","sourceStableId":"1F2B41F8F541013B"},"sourceKind":"official","official":true,"sourceCellId":"1R76W8LI","sourceStableId":"1F2B41F8F541013B","pipelineFeatureId":"1R76W8LI/LIGHTS/19614","provenance":{"cellId":"1R76W8LI","checksum":"1228405ba65ba70afec00c3b0ef5f459dd166a6df588805434383b3b731245ea","readerVersion":"GDAL 3.2.2","processedAt":"2026-07-07T08:43:52.618Z"}}},{"type":"Feature","geometry":{"type":"Point","coordinates":[4.2092539,51.6247504]},"properties":{"dolphinKind":"light","rawObjectClass":"LIGHTS","sourceProperties":{"RCID":19630,"PRIM":1,"GRUP":2,"OBJL":75,"RVER":1,"AGEN":7979,"FIDN":1106834753,"FIDS":331,"LNAM":"1F2B41F8F541014B","COLOUR":["4"],"LITCHR":7,"SIGGRP":"(1)","SIGPER":4,"SCAMIN":200000,"sourceCellId":"1R76W8LI","sourceChecksum":"1228405ba65ba70afec00c3b0ef5f459dd166a6df588805434383b3b731245ea","rawObjectClass":"LIGHTS","sourceStableId":"1F2B41F8F541014B"},"sourceKind":"official","official":true,"sourceCellId":"1R76W8LI","sourceStableId":"1F2B41F8F541014B","pipelineFeatureId":"1R76W8LI/LIGHTS/19630","provenance":{"cellId":"1R76W8LI","checksum":"1228405ba65ba70afec00c3b0ef5f459dd166a6df588805434383b3b731245ea","readerVersion":"GDAL 3.2.2","processedAt":"2026-07-07T08:43:52.618Z"}}},{"type":"Feature","geometry":{"type":"Point","coordinates":[4.1994333,51.6184]},"properties":{"dolphinKind":"light","rawObjectClass":"LIGHTS","sourceProperties":{"RCID":46122649,"PRIM":1,"GRUP":2,"OBJL":75,"RVER":1,"AGEN":7979,"FIDN":46122649,"FIDS":1,"LNAM":"1F2B02BFC6990001","COLOUR":["4"],"LITCHR":7,"SIGGRP":"(1)","SIGPER":4,"SCAMIN":200000,"SORDAT":"20100413","SORIND":"NL,1R,reprt,DZD-BAS-2010/37","sourceCellId":"1R76W8LI","sourceChecksum":"1228405ba65ba70afec00c3b0ef5f459dd166a6df588805434383b3b731245ea","rawObjectClass":"LIGHTS","sourceStableId":"1F2B02BFC6990001"},"sourceKind":"official","official":true,"sourceCellId":"1R76W8LI","sourceStableId":"1F2B02BFC6990001","pipelineFeatureId":"1R76W8LI/LIGHTS/46122649","provenance":{"cellId":"1R76W8LI","checksum":"1228405ba65ba70afec00c3b0ef5f459dd166a6df588805434383b3b731245ea","readerVersion":"GDAL 3.2.2","processedAt":"2026-07-07T08:43:52.618Z"}}},{"type":"Feature","geometry":{"type":"Point","coordinates":[4.2090683,51.5791967]},"properties":{"dolphinKind":"light","rawObjectClass":"LIGHTS","sourceProperties":{"RCID":179277053,"PRIM":1,"GRUP":2,"OBJL":75,"RVER":1,"AGEN":7979,"FIDN":179277053,"FIDS":1,"LNAM":"1F2B0AAF8CFD0001","COLOUR":["4"],"LITCHR":7,"SIGGRP":"(1)","SIGPER":4,"SCAMIN":200000,"SORDAT":"20150115","SORIND":"NL,1R,reprt,DZD-BAS-2015/06","sourceCellId":"1R76W8LI","sourceChecksum":"1228405ba65ba70afec00c3b0ef5f459dd166a6df588805434383b3b731245ea","rawObjectClass":"LIGHTS","sourceStableId":"1F2B0AAF8CFD0001"},"sourceKind":"official","official":true,"sourceCellId":"1R76W8LI","sourceStableId":"1F2B0AAF8CFD0001","pipelineFeatureId":"1R76W8LI/LIGHTS/179277053","provenance":{"cellId":"1R76W8LI","checksum":"1228405ba65ba70afec00c3b0ef5f459dd166a6df588805434383b3b731245ea","readerVersion":"GDAL 3.2.2","processedAt":"2026-07-07T08:43:52.618Z"}}},{"type":"Feature","geometry":{"type":"Point","coordinates":[4.191725,51.6063117]},"properties":{"dolphinKind":"light","rawObjectClass":"LIGHTS","sourceProperties":{"RCID":213526701,"PRIM":1,"GRUP":2,"OBJL":75,"RVER":1,"AGEN":7979,"FIDN":213526701,"FIDS":1,"LNAM":"1F2B0CBA28AD0001","COLOUR":["4"],"LITCHR":7,"SIGGRP":"(1)","SIGPER":4,"SCAMIN":200000,"sourceCellId":"1R76W8LI","sourceChecksum":"1228405ba65ba70afec00c3b0ef5f459dd166a6df588805434383b3b731245ea","rawObjectClass":"LIGHTS","sourceStableId":"1F2B0CBA28AD0001"},"sourceKind":"official","official":true,"sourceCellId":"1R76W8LI","sourceStableId":"1F2B0CBA28AD0001","pipelineFeatureId":"1R76W8LI/LIGHTS/213526701","provenance":{"cellId":"1R76W8LI","checksum":"1228405ba65ba70afec00c3b0ef5f459dd166a6df588805434383b3b731245ea","readerVersion":"GDAL 3.2.2","processedAt":"2026-07-07T08:43:52.618Z"}}},{"type":"Feature","geometry":{"type":"Point","coordinates":[4.2024017,51.6227733]},"properties":{"dolphinKind":"light","rawObjectClass":"LIGHTS","sourceProperties":{"RCID":389487745,"PRIM":1,"GRUP":2,"OBJL":75,"RVER":1,"AGEN":7979,"FIDN":389487745,"FIDS":1,"LNAM":"1F2B17371C810001","COLOUR":["3"],"LITCHR":7,"SIGGRP":"(1)","SIGPER":4,"SCAMIN":200000,"sourceCellId":"1R76W8LI","sourceChecksum":"1228405ba65ba70afec00c3b0ef5f459dd166a6df588805434383b3b731245ea","rawObjectClass":"LIGHTS","sourceStableId":"1F2B17371C810001"},"sourceKind":"official","official":true,"sourceCellId":"1R76W8LI","sourceStableId":"1F2B17371C810001","pipelineFeatureId":"1R76W8LI/LIGHTS/389487745","provenance":{"cellId":"1R76W8LI","checksum":"1228405ba65ba70afec00c3b0ef5f459dd166a6df588805434383b3b731245ea","readerVersion":"GDAL 3.2.2","processedAt":"2026-07-07T08:43:52.618Z"}}},{"type":"Feature","geometry":{"type":"Point","coordinates":[4.1769261,51.6148406]},"properties":{"dolphinKind":"light","rawObjectClass":"LIGHTS","sourceProperties":{"RCID":428357794,"PRIM":1,"GRUP":2,"OBJL":75,"RVER":1,"AGEN":7979,"FIDN":428357794,"FIDS":1,"LNAM":"1F2B198838A20001","COLOUR":["3"],"LITCHR":1,"INFORM":"Spuilicht","SCAMIN":200000,"SORDAT":"20231025","SORIND":"NL,1R,rprt,ENCverbetering","sourceCellId":"1R76W8LI","sourceChecksum":"1228405ba65ba70afec00c3b0ef5f459dd166a6df588805434383b3b731245ea","rawObjectClass":"LIGHTS","sourceStableId":"1F2B198838A20001"},"sourceKind":"official","official":true,"sourceCellId":"1R76W8LI","sourceStableId":"1F2B198838A20001","pipelineFeatureId":"1R76W8LI/LIGHTS/428357794","provenance":{"cellId":"1R76W8LI","checksum":"1228405ba65ba70afec00c3b0ef5f459dd166a6df588805434383b3b731245ea","readerVersion":"GDAL 3.2.2","processedAt":"2026-07-07T08:43:52.618Z"}}},{"type":"Feature","geometry":{"type":"Point","coordinates":[4.1931383,51.610315]},"properties":{"dolphinKind":"light","rawObjectClass":"LIGHTS","sourceProperties":{"RCID":467737947,"PRIM":1,"GRUP":2,"OBJL":75,"RVER":1,"AGEN":7979,"FIDN":467737947,"FIDS":1,"LNAM":"1F2B1BE11D5B0001","COLOUR":["4"],"LITCHR":7,"SIGGRP":"(1)","SIGPER":4,"SCAMIN":200000,"sourceCellId":"1R76W8LI","sourceChecksum":"1228405ba65ba70afec00c3b0ef5f459dd166a6df588805434383b3b731245ea","rawObjectClass":"LIGHTS","sourceStableId":"1F2B1BE11D5B0001"},"sourceKind":"official","official":true,"sourceCellId":"1R76W8LI","sourceStableId":"1F2B1BE11D5B0001","pipelineFeatureId":"1R76W8LI/LIGHTS/467737947","provenance":{"cellId":"1R76W8LI","checksum":"1228405ba65ba70afec00c3b0ef5f459dd166a6df588805434383b3b731245ea","readerVersion":"GDAL 3.2.2","processedAt":"2026-07-07T08:43:52.618Z"}}},{"type":"Feature","geometry":{"type":"Point","coordinates":[4.1897933,51.5977533]},"properties":{"dolphinKind":"light","rawObjectClass":"LIGHTS","sourceProperties":{"RCID":470104655,"PRIM":1,"GRUP":2,"OBJL":75,"RVER":1,"AGEN":7979,"FIDN":470104655,"FIDS":1,"LNAM":"1F2B1C053A4F0001","COLOUR":["3"],"LITCHR":7,"SIGGRP":"(1)","SIGPER":4,"SCAMIN":200000,"SORDAT":"20220722","SORIND":"NL,1R,reprt,MD 399-22","sourceCellId":"1R76W8LI","sourceChecksum":"1228405ba65ba70afec00c3b0ef5f459dd166a6df588805434383b3b731245ea","rawObjectClass":"LIGHTS","sourceStableId":"1F2B1C053A4F0001"},"sourceKind":"official","official":true,"sourceCellId":"1R76W8LI","sourceStableId":"1F2B1C053A4F0001","pipelineFeatureId":"1R76W8LI/LIGHTS/470104655","provenance":{"cellId":"1R76W8LI","checksum":"1228405ba65ba70afec00c3b0ef5f459dd166a6df588805434383b3b731245ea","readerVersion":"GDAL 3.2.2","processedAt":"2026-07-07T08:43:52.618Z"}}},{"type":"Feature","geometry":{"type":"Point","coordinates":[4.20763,51.578445]},"properties":{"dolphinKind":"light","rawObjectClass":"LIGHTS","sourceProperties":{"RCID":1178869624,"PRIM":1,"GRUP":2,"OBJL":75,"RVER":1,"AGEN":7979,"FIDN":1178869624,"FIDS":1,"LNAM":"1F2B46441F780001","COLOUR":["3"],"LITCHR":7,"SIGGRP":"(1)","SIGPER":4,"SCAMIN":200000,"SORDAT":"20240212","SORIND":"NL,1R,reprt,MD 072-24","sourceCellId":"1R76W8LI","sourceChecksum":"1228405ba65ba70afec00c3b0ef5f459dd166a6df588805434383b3b731245ea","rawObjectClass":"LIGHTS","sourceStableId":"1F2B46441F780001"},"sourceKind":"official","official":true,"sourceCellId":"1R76W8LI","sourceStableId":"1F2B46441F780001","pipelineFeatureId":"1R76W8LI/LIGHTS/1178869624","provenance":{"cellId":"1R76W8LI","checksum":"1228405ba65ba70afec00c3b0ef5f459dd166a6df588805434383b3b731245ea","readerVersion":"GDAL 3.2.2","processedAt":"2026-07-07T08:43:52.618Z"}}},{"type":"Feature","geometry":{"type":"Point","coordinates":[4.198385,51.5854333]},"properties":{"dolphinKind":"light","rawObjectClass":"LIGHTS","sourceProperties":{"RCID":1178869625,"PRIM":1,"GRUP":2,"OBJL":75,"RVER":1,"AGEN":7979,"FIDN":1178869625,"FIDS":1,"LNAM":"1F2B46441F790001","COLOUR":["3"],"LITCHR":7,"SIGGRP":"(1)","SIGPER":4,"SCAMIN":200000,"SORDAT":"20240212","SORIND":"NL,1R,reprt,MD 072-24","sourceCellId":"1R76W8LI","sourceChecksum":"1228405ba65ba70afec00c3b0ef5f459dd166a6df588805434383b3b731245ea","rawObjectClass":"LIGHTS","sourceStableId":"1F2B46441F790001"},"sourceKind":"official","official":true,"sourceCellId":"1R76W8LI","sourceStableId":"1F2B46441F790001","pipelineFeatureId":"1R76W8LI/LIGHTS/1178869625","provenance":{"cellId":"1R76W8LI","checksum":"1228405ba65ba70afec00c3b0ef5f459dd166a6df588805434383b3b731245ea","readerVersion":"GDAL 3.2.2","processedAt":"2026-07-07T08:43:52.618Z"}}},{"type":"Feature","geometry":{"type":"Point","coordinates":[4.189245,51.602055]},"properties":{"dolphinKind":"light","rawObjectClass":"LIGHTS","sourceProperties":{"RCID":1178869626,"PRIM":1,"GRUP":2,"OBJL":75,"RVER":1,"AGEN":7979,"FIDN":1178869626,"FIDS":1,"LNAM":"1F2B46441F7A0001","COLOUR":["3"],"LITCHR":7,"SIGGRP":"(1)","SIGPER":4,"SCAMIN":200000,"SORDAT":"20240212","SORIND":"NL,1R,reprt,MD 072-24","sourceCellId":"1R76W8LI","sourceChecksum":"1228405ba65ba70afec00c3b0ef5f459dd166a6df588805434383b3b731245ea","rawObjectClass":"LIGHTS","sourceStableId":"1F2B46441F7A0001"},"sourceKind":"official","official":true,"sourceCellId":"1R76W8LI","sourceStableId":"1F2B46441F7A0001","pipelineFeatureId":"1R76W8LI/LIGHTS/1178869626","provenance":{"cellId":"1R76W8LI","checksum":"1228405ba65ba70afec00c3b0ef5f459dd166a6df588805434383b3b731245ea","readerVersion":"GDAL 3.2.2","processedAt":"2026-07-07T08:43:52.618Z"}}},{"type":"Feature","geometry":{"type":"Point","coordinates":[4.1914467,51.6108617]},"properties":{"dolphinKind":"light","rawObjectClass":"LIGHTS","sourceProperties":{"RCID":1178880081,"PRIM":1,"GRUP":2,"OBJL":75,"RVER":1,"AGEN":7979,"FIDN":1178880081,"FIDS":1,"LNAM":"1F2B464448510001","COLOUR":["3"],"LITCHR":7,"SIGGRP":"(1)","SIGPER":4,"SCAMIN":200000,"sourceCellId":"1R76W8LI","sourceChecksum":"1228405ba65ba70afec00c3b0ef5f459dd166a6df588805434383b3b731245ea","rawObjectClass":"LIGHTS","sourceStableId":"1F2B464448510001"},"sourceKind":"official","official":true,"sourceCellId":"1R76W8LI","sourceStableId":"1F2B464448510001","pipelineFeatureId":"1R76W8LI/LIGHTS/1178880081","provenance":{"cellId":"1R76W8LI","checksum":"1228405ba65ba70afec00c3b0ef5f459dd166a6df588805434383b3b731245ea","readerVersion":"GDAL 3.2.2","processedAt":"2026-07-07T08:43:52.618Z"}}},{"type":"Feature","geometry":{"type":"Point","coordinates":[4.1940933,51.6150967]},"properties":{"dolphinKind":"light","rawObjectClass":"LIGHTS","sourceProperties":{"RCID":1178880082,"PRIM":1,"GRUP":2,"OBJL":75,"RVER":1,"AGEN":7979,"FIDN":1178880082,"FIDS":1,"LNAM":"1F2B464448520001","COLOUR":["3"],"LITCHR":7,"SIGGRP":"(1)","SIGPER":4,"SCAMIN":200000,"sourceCellId":"1R76W8LI","sourceChecksum":"1228405ba65ba70afec00c3b0ef5f459dd166a6df588805434383b3b731245ea","rawObjectClass":"LIGHTS","sourceStableId":"1F2B464448520001"},"sourceKind":"official","official":true,"sourceCellId":"1R76W8LI","sourceStableId":"1F2B464448520001","pipelineFeatureId":"1R76W8LI/LIGHTS/1178880082","provenance":{"cellId":"1R76W8LI","checksum":"1228405ba65ba70afec00c3b0ef5f459dd166a6df588805434383b3b731245ea","readerVersion":"GDAL 3.2.2","processedAt":"2026-07-07T08:43:52.618Z"}}},{"type":"Feature","geometry":{"type":"Point","coordinates":[4.2038033,51.6219633]},"properties":{"dolphinKind":"light","rawObjectClass":"LIGHTS","sourceProperties":{"RCID":1178903591,"PRIM":1,"GRUP":2,"OBJL":75,"RVER":1,"AGEN":7979,"FIDN":1178903591,"FIDS":1,"LNAM":"1F2B4644A4270001","COLOUR":["4"],"LITCHR":7,"SIGGRP":"(1)","SIGPER":4,"SCAMIN":200000,"sourceCellId":"1R76W8LI","sourceChecksum":"1228405ba65ba70afec00c3b0ef5f459dd166a6df588805434383b3b731245ea","rawObjectClass":"LIGHTS","sourceStableId":"1F2B4644A4270001"},"sourceKind":"official","official":true,"sourceCellId":"1R76W8LI","sourceStableId":"1F2B4644A4270001","pipelineFeatureId":"1R76W8LI/LIGHTS/1178903591","provenance":{"cellId":"1R76W8LI","checksum":"1228405ba65ba70afec00c3b0ef5f459dd166a6df588805434383b3b731245ea","readerVersion":"GDAL 3.2.2","processedAt":"2026-07-07T08:43:52.618Z"}}},{"type":"Feature","geometry":{"type":"Point","coordinates":[4.1958467,51.6146183]},"properties":{"dolphinKind":"light","rawObjectClass":"LIGHTS","sourceProperties":{"RCID":1178903592,"PRIM":1,"GRUP":2,"OBJL":75,"RVER":1,"AGEN":7979,"FIDN":1178903592,"FIDS":1,"LNAM":"1F2B4644A4280001","COLOUR":["4"],"LITCHR":7,"SIGGRP":"(1)","SIGPER":4,"SCAMIN":200000,"sourceCellId":"1R76W8LI","sourceChecksum":"1228405ba65ba70afec00c3b0ef5f459dd166a6df588805434383b3b731245ea","rawObjectClass":"LIGHTS","sourceStableId":"1F2B4644A4280001"},"sourceKind":"official","official":true,"sourceCellId":"1R76W8LI","sourceStableId":"1F2B4644A4280001","pipelineFeatureId":"1R76W8LI/LIGHTS/1178903592","provenance":{"cellId":"1R76W8LI","checksum":"1228405ba65ba70afec00c3b0ef5f459dd166a6df588805434383b3b731245ea","readerVersion":"GDAL 3.2.2","processedAt":"2026-07-07T08:43:52.618Z"}}},{"type":"Feature","geometry":{"type":"Point","coordinates":[4.1916983,51.5978117]},"properties":{"dolphinKind":"light","rawObjectClass":"LIGHTS","sourceProperties":{"RCID":1178929348,"PRIM":1,"GRUP":2,"OBJL":75,"RVER":1,"AGEN":7979,"FIDN":1178929348,"FIDS":1,"LNAM":"1F2B464508C40001","COLOUR":["4"],"LITCHR":7,"SIGGRP":"(1)","SIGPER":4,"SCAMIN":200000,"sourceCellId":"1R76W8LI","sourceChecksum":"1228405ba65ba70afec00c3b0ef5f459dd166a6df588805434383b3b731245ea","rawObjectClass":"LIGHTS","sourceStableId":"1F2B464508C40001"},"sourceKind":"official","official":true,"sourceCellId":"1R76W8LI","sourceStableId":"1F2B464508C40001","pipelineFeatureId":"1R76W8LI/LIGHTS/1178929348","provenance":{"cellId":"1R76W8LI","checksum":"1228405ba65ba70afec00c3b0ef5f459dd166a6df588805434383b3b731245ea","readerVersion":"GDAL 3.2.2","processedAt":"2026-07-07T08:43:52.618Z"}}},{"type":"Feature","geometry":{"type":"Point","coordinates":[4.19621,51.58977]},"properties":{"dolphinKind":"light","rawObjectClass":"LIGHTS","sourceProperties":{"RCID":1178929349,"PRIM":1,"GRUP":2,"OBJL":75,"RVER":1,"AGEN":7979,"FIDN":1178929349,"FIDS":1,"LNAM":"1F2B464508C50001","COLOUR":["4"],"LITCHR":7,"SIGGRP":"(1)","SIGPER":4,"SCAMIN":200000,"sourceCellId":"1R76W8LI","sourceChecksum":"1228405ba65ba70afec00c3b0ef5f459dd166a6df588805434383b3b731245ea","rawObjectClass":"LIGHTS","sourceStableId":"1F2B464508C50001"},"sourceKind":"official","official":true,"sourceCellId":"1R76W8LI","sourceStableId":"1F2B464508C50001","pipelineFeatureId":"1R76W8LI/LIGHTS/1178929349","provenance":{"cellId":"1R76W8LI","checksum":"1228405ba65ba70afec00c3b0ef5f459dd166a6df588805434383b3b731245ea","readerVersion":"GDAL 3.2.2","processedAt":"2026-07-07T08:43:52.618Z"}}},{"type":"Feature","geometry":{"type":"Point","coordinates":[4.1999517,51.5861767]},"properties":{"dolphinKind":"light","rawObjectClass":"LIGHTS","sourceProperties":{"RCID":1178929350,"PRIM":1,"GRUP":2,"OBJL":75,"RVER":1,"AGEN":7979,"FIDN":1178929350,"FIDS":1,"LNAM":"1F2B464508C60001","COLOUR":["4"],"LITCHR":7,"SIGGRP":"(1)","SIGPER":4,"SCAMIN":200000,"sourceCellId":"1R76W8LI","sourceChecksum":"1228405ba65ba70afec00c3b0ef5f459dd166a6df588805434383b3b731245ea","rawObjectClass":"LIGHTS","sourceStableId":"1F2B464508C60001"},"sourceKind":"official","official":true,"sourceCellId":"1R76W8LI","sourceStableId":"1F2B464508C60001","pipelineFeatureId":"1R76W8LI/LIGHTS/1178929350","provenance":{"cellId":"1R76W8LI","checksum":"1228405ba65ba70afec00c3b0ef5f459dd166a6df588805434383b3b731245ea","readerVersion":"GDAL 3.2.2","processedAt":"2026-07-07T08:43:52.618Z"}}},{"type":"Feature","geometry":{"type":"Point","coordinates":[4.19771,51.619075]},"properties":{"dolphinKind":"light","rawObjectClass":"LIGHTS","sourceProperties":{"RCID":1191079454,"PRIM":1,"GRUP":2,"OBJL":75,"RVER":1,"AGEN":7979,"FIDN":1191079454,"FIDS":1,"LNAM":"1F2B46FE6E1E0001","COLOUR":["3"],"LITCHR":7,"SIGGRP":"(1)","SIGPER":4,"SCAMIN":200000,"sourceCellId":"1R76W8LI","sourceChecksum":"1228405ba65ba70afec00c3b0ef5f459dd166a6df588805434383b3b731245ea","rawObjectClass":"LIGHTS","sourceStableId":"1F2B46FE6E1E0001"},"sourceKind":"official","official":true,"sourceCellId":"1R76W8LI","sourceStableId":"1F2B46FE6E1E0001","pipelineFeatureId":"1R76W8LI/LIGHTS/1191079454","provenance":{"cellId":"1R76W8LI","checksum":"1228405ba65ba70afec00c3b0ef5f459dd166a6df588805434383b3b731245ea","readerVersion":"GDAL 3.2.2","processedAt":"2026-07-07T08:43:52.618Z"}}},{"type":"Feature","geometry":{"type":"Point","coordinates":[4.1897183,51.6065233]},"properties":{"dolphinKind":"light","rawObjectClass":"LIGHTS","sourceProperties":{"RCID":1191079456,"PRIM":1,"GRUP":2,"OBJL":75,"RVER":1,"AGEN":7979,"FIDN":1191079456,"FIDS":1,"LNAM":"1F2B46FE6E200001","COLOUR":["3"],"LITCHR":7,"SIGGRP":"(1)","SIGPER":4,"SCAMIN":200000,"SORDAT":"20240212","SORIND":"NL,1R,reprt,MD 072-24","sourceCellId":"1R76W8LI","sourceChecksum":"1228405ba65ba70afec00c3b0ef5f459dd166a6df588805434383b3b731245ea","rawObjectClass":"LIGHTS","sourceStableId":"1F2B46FE6E200001"},"sourceKind":"official","official":true,"sourceCellId":"1R76W8LI","sourceStableId":"1F2B46FE6E200001","pipelineFeatureId":"1R76W8LI/LIGHTS/1191079456","provenance":{"cellId":"1R76W8LI","checksum":"1228405ba65ba70afec00c3b0ef5f459dd166a6df588805434383b3b731245ea","readerVersion":"GDAL 3.2.2","processedAt":"2026-07-07T08:43:52.618Z"}}},{"type":"Feature","geometry":{"type":"Point","coordinates":[4.1945033,51.5891767]},"properties":{"dolphinKind":"light","rawObjectClass":"LIGHTS","sourceProperties":{"RCID":1191079458,"PRIM":1,"GRUP":2,"OBJL":75,"RVER":1,"AGEN":7979,"FIDN":1191079458,"FIDS":1,"LNAM":"1F2B46FE6E220001","COLOUR":["3"],"LITCHR":7,"SIGGRP":"(1)","SIGPER":4,"SCAMIN":200000,"SORDAT":"20240212","SORIND":"NL,1R,reprt,MD 072-24","sourceCellId":"1R76W8LI","sourceChecksum":"1228405ba65ba70afec00c3b0ef5f459dd166a6df588805434383b3b731245ea","rawObjectClass":"LIGHTS","sourceStableId":"1F2B46FE6E220001"},"sourceKind":"official","official":true,"sourceCellId":"1R76W8LI","sourceStableId":"1F2B46FE6E220001","pipelineFeatureId":"1R76W8LI/LIGHTS/1191079458","provenance":{"cellId":"1R76W8LI","checksum":"1228405ba65ba70afec00c3b0ef5f459dd166a6df588805434383b3b731245ea","readerVersion":"GDAL 3.2.2","processedAt":"2026-07-07T08:43:52.618Z"}}},{"type":"Feature","geometry":{"type":"Point","coordinates":[4.1911567,51.60205]},"properties":{"dolphinKind":"light","rawObjectClass":"LIGHTS","sourceProperties":{"RCID":1231416305,"PRIM":1,"GRUP":2,"OBJL":75,"RVER":1,"AGEN":7979,"FIDN":1231416305,"FIDS":1,"LNAM":"1F2B4965EBF10001","COLOUR":["4"],"LITCHR":7,"SIGGRP":"(1)","SIGPER":4,"SCAMIN":200000,"sourceCellId":"1R76W8LI","sourceChecksum":"1228405ba65ba70afec00c3b0ef5f459dd166a6df588805434383b3b731245ea","rawObjectClass":"LIGHTS","sourceStableId":"1F2B4965EBF10001"},"sourceKind":"official","official":true,"sourceCellId":"1R76W8LI","sourceStableId":"1F2B4965EBF10001","pipelineFeatureId":"1R76W8LI/LIGHTS/1231416305","provenance":{"cellId":"1R76W8LI","checksum":"1228405ba65ba70afec00c3b0ef5f459dd166a6df588805434383b3b731245ea","readerVersion":"GDAL 3.2.2","processedAt":"2026-07-07T08:43:52.618Z"}}},{"type":"Feature","geometry":{"type":"Point","coordinates":[4.1897933,51.5977533]},"properties":{"dolphinKind":"topmark","rawObjectClass":"TOPMAR","sourceProperties":{"RCID":470104657,"PRIM":1,"GRUP":2,"OBJL":144,"RVER":1,"AGEN":7979,"FIDN":470104657,"FIDS":1,"LNAM":"1F2B1C053A510001","COLOUR":["3"],"TOPSHP":5,"SCAMIN":200000,"SORDAT":"20230208","SORIND":"NL,1R,reprt,ENC verbetering","sourceCellId":"1R76W8LI","sourceChecksum":"1228405ba65ba70afec00c3b0ef5f459dd166a6df588805434383b3b731245ea","rawObjectClass":"TOPMAR","sourceStableId":"1F2B1C053A510001"},"sourceKind":"official","official":true,"sourceCellId":"1R76W8LI","sourceStableId":"1F2B1C053A510001","pipelineFeatureId":"1R76W8LI/TOPMAR/470104657","provenance":{"cellId":"1R76W8LI","checksum":"1228405ba65ba70afec00c3b0ef5f459dd166a6df588805434383b3b731245ea","readerVersion":"GDAL 3.2.2","processedAt":"2026-07-07T08:43:52.618Z"},"associationRefsVerifiedInGdalOutput":false}},{"type":"Feature","geometry":{"type":"Point","coordinates":[4.3375883,51.661695]},"properties":{"dolphinKind":"buoy-lateral","rawObjectClass":"BOYLAT","sourceProperties":{"RCID":197234471,"PRIM":1,"GRUP":2,"OBJL":17,"RVER":1,"AGEN":7979,"FIDN":197234471,"FIDS":1,"LNAM":"1F2B0BC18F270001","LNAM_REFS":["1F2B41F8F5410189"],"FFPT_RIND":[2],"BOYSHP":5,"CATLAM":2,"COLOUR":["3"],"OBJNAM":"NV 8","SCAMIN":200000,"SORDAT":"20160801","SORIND":"NL,1R,Reprt,Topdesk M160801734","sourceCellId":"1R7788RI","sourceChecksum":"cbdea5755b9f53de9587e2fc4d441c52178484268b79c23084a307e3910da99b","rawObjectClass":"BOYLAT","sourceStableId":"1F2B0BC18F270001"},"sourceKind":"official","official":true,"sourceCellId":"1R7788RI","sourceStableId":"1F2B0BC18F270001","pipelineFeatureId":"1R7788RI/BOYLAT/197234471","provenance":{"cellId":"1R7788RI","checksum":"cbdea5755b9f53de9587e2fc4d441c52178484268b79c23084a307e3910da99b","readerVersion":"GDAL 3.2.2","processedAt":"2026-07-07T08:43:52.618Z"}}},{"type":"Feature","geometry":{"type":"Point","coordinates":[4.3621717,51.6661383]},"properties":{"dolphinKind":"buoy-lateral","rawObjectClass":"BOYLAT","sourceProperties":{"RCID":284389637,"PRIM":1,"GRUP":2,"OBJL":17,"RVER":1,"AGEN":7979,"FIDN":284389637,"FIDS":1,"LNAM":"1F2B10F371050001","LNAM_REFS":["1F2B41F8F52901B7","1F2B41F8F52A01CA"],"FFPT_RIND":[2,2],"BOYSHP":5,"CATLAM":3,"COLOUR":["3","4"],"COLPAT":["1"],"OBJNAM":"NV 12-HG 1","SCAMIN":200000,"SORDAT":"20170315","SORIND":"NL,1R,reprt,MD065-17","sourceCellId":"1R7788RI","sourceChecksum":"cbdea5755b9f53de9587e2fc4d441c52178484268b79c23084a307e3910da99b","rawObjectClass":"BOYLAT","sourceStableId":"1F2B10F371050001"},"sourceKind":"official","official":true,"sourceCellId":"1R7788RI","sourceStableId":"1F2B10F371050001","pipelineFeatureId":"1R7788RI/BOYLAT/284389637","provenance":{"cellId":"1R7788RI","checksum":"cbdea5755b9f53de9587e2fc4d441c52178484268b79c23084a307e3910da99b","readerVersion":"GDAL 3.2.2","processedAt":"2026-07-07T08:43:52.618Z"}}},{"type":"Feature","geometry":{"type":"Point","coordinates":[4.3653667,51.6625283]},"properties":{"dolphinKind":"buoy-lateral","rawObjectClass":"BOYLAT","sourceProperties":{"RCID":284396693,"PRIM":1,"GRUP":2,"OBJL":17,"RVER":1,"AGEN":7979,"FIDN":284396693,"FIDS":1,"LNAM":"1F2B10F38C950001","LNAM_REFS":["1F2B41F8F52A010D","1F2B41F8F52A01C7"],"FFPT_RIND":[2,2],"BOYSHP":5,"CATLAM":4,"COLOUR":["4","3"],"COLPAT":["1"],"CONRAD":3,"OBJNAM":"NV 11-DS 2","SCAMIN":200000,"SORDAT":"20170315","SORIND":"NL,1R,reprt,MD065-17","sourceCellId":"1R7788RI","sourceChecksum":"cbdea5755b9f53de9587e2fc4d441c52178484268b79c23084a307e3910da99b","rawObjectClass":"BOYLAT","sourceStableId":"1F2B10F38C950001"},"sourceKind":"official","official":true,"sourceCellId":"1R7788RI","sourceStableId":"1F2B10F38C950001","pipelineFeatureId":"1R7788RI/BOYLAT/284396693","provenance":{"cellId":"1R7788RI","checksum":"cbdea5755b9f53de9587e2fc4d441c52178484268b79c23084a307e3910da99b","readerVersion":"GDAL 3.2.2","processedAt":"2026-07-07T08:43:52.618Z"}}},{"type":"Feature","geometry":{"type":"Point","coordinates":[4.3341917,51.663]},"properties":{"dolphinKind":"buoy-lateral","rawObjectClass":"BOYLAT","sourceProperties":{"RCID":1269294550,"PRIM":1,"GRUP":2,"OBJL":17,"RVER":1,"AGEN":7979,"FIDN":1269294550,"FIDS":1,"LNAM":"1F2B4BA7E5D60001","LNAM_REFS":["1F2B4BA7F7070001"],"FFPT_RIND":[2],"BOYSHP":5,"CATLAM":2,"COLOUR":["3","1","3"],"COLPAT":["1"],"CONRAD":1,"OBJNAM":"R-NV 2","SCAMIN":200000,"SORDAT":"20260402","SORIND":"NL,1R,Reprt,MD182-2026","sourceCellId":"1R7788RI","sourceChecksum":"cbdea5755b9f53de9587e2fc4d441c52178484268b79c23084a307e3910da99b","rawObjectClass":"BOYLAT","sourceStableId":"1F2B4BA7E5D60001"},"sourceKind":"official","official":true,"sourceCellId":"1R7788RI","sourceStableId":"1F2B4BA7E5D60001","pipelineFeatureId":"1R7788RI/BOYLAT/1269294550","provenance":{"cellId":"1R7788RI","checksum":"cbdea5755b9f53de9587e2fc4d441c52178484268b79c23084a307e3910da99b","readerVersion":"GDAL 3.2.2","processedAt":"2026-07-07T08:43:52.618Z"}}},{"type":"Feature","geometry":{"type":"Point","coordinates":[4.3388383,51.6643033]},"properties":{"dolphinKind":"buoy-lateral","rawObjectClass":"BOYLAT","sourceProperties":{"RCID":1269302554,"PRIM":1,"GRUP":2,"OBJL":17,"RVER":1,"AGEN":7979,"FIDN":1269302554,"FIDS":1,"LNAM":"1F2B4BA8051A0001","LNAM_REFS":["1F2B4BA805190001"],"FFPT_RIND":[2],"BOYSHP":5,"CATLAM":2,"COLOUR":["3","1","3"],"COLPAT":["1"],"CONRAD":1,"OBJNAM":"R-NV 4","SCAMIN":200000,"SORDAT":"20260402","SORIND":"NL,1R,Reprt,MD182-2026","sourceCellId":"1R7788RI","sourceChecksum":"cbdea5755b9f53de9587e2fc4d441c52178484268b79c23084a307e3910da99b","rawObjectClass":"BOYLAT","sourceStableId":"1F2B4BA8051A0001"},"sourceKind":"official","official":true,"sourceCellId":"1R7788RI","sourceStableId":"1F2B4BA8051A0001","pipelineFeatureId":"1R7788RI/BOYLAT/1269302554","provenance":{"cellId":"1R7788RI","checksum":"cbdea5755b9f53de9587e2fc4d441c52178484268b79c23084a307e3910da99b","readerVersion":"GDAL 3.2.2","processedAt":"2026-07-07T08:43:52.618Z"}}},{"type":"Feature","geometry":{"type":"Point","coordinates":[4.3427533,51.665495]},"properties":{"dolphinKind":"buoy-lateral","rawObjectClass":"BOYLAT","sourceProperties":{"RCID":1269305406,"PRIM":1,"GRUP":2,"OBJL":17,"RVER":1,"AGEN":7979,"FIDN":1269305406,"FIDS":1,"LNAM":"1F2B4BA8103E0001","LNAM_REFS":["1F2B4BA8103D0001"],"FFPT_RIND":[2],"BOYSHP":5,"CATLAM":2,"COLOUR":["3","1","3"],"COLPAT":["1"],"CONRAD":1,"OBJNAM":"R-NV 6","SCAMIN":200000,"SORDAT":"20260402","SORIND":"NL,1R,Reprt,MD182-2026","sourceCellId":"1R7788RI","sourceChecksum":"cbdea5755b9f53de9587e2fc4d441c52178484268b79c23084a307e3910da99b","rawObjectClass":"BOYLAT","sourceStableId":"1F2B4BA8103E0001"},"sourceKind":"official","official":true,"sourceCellId":"1R7788RI","sourceStableId":"1F2B4BA8103E0001","pipelineFeatureId":"1R7788RI/BOYLAT/1269305406","provenance":{"cellId":"1R7788RI","checksum":"cbdea5755b9f53de9587e2fc4d441c52178484268b79c23084a307e3910da99b","readerVersion":"GDAL 3.2.2","processedAt":"2026-07-07T08:43:52.618Z"}}},{"type":"Feature","geometry":{"type":"Point","coordinates":[4.34666,51.66666]},"properties":{"dolphinKind":"buoy-lateral","rawObjectClass":"BOYLAT","sourceProperties":{"RCID":1269305508,"PRIM":1,"GRUP":2,"OBJL":17,"RVER":1,"AGEN":7979,"FIDN":1269305508,"FIDS":1,"LNAM":"1F2B4BA810A40001","LNAM_REFS":["1F2B4BA810A30001"],"FFPT_RIND":[2],"BOYSHP":5,"CATLAM":2,"COLOUR":["3","1","3"],"COLPAT":["1"],"CONRAD":1,"OBJNAM":"R-NV 8","SCAMIN":200000,"SORDAT":"20260402","SORIND":"NL,1R,Reprt,MD182-2026","sourceCellId":"1R7788RI","sourceChecksum":"cbdea5755b9f53de9587e2fc4d441c52178484268b79c23084a307e3910da99b","rawObjectClass":"BOYLAT","sourceStableId":"1F2B4BA810A40001"},"sourceKind":"official","official":true,"sourceCellId":"1R7788RI","sourceStableId":"1F2B4BA810A40001","pipelineFeatureId":"1R7788RI/BOYLAT/1269305508","provenance":{"cellId":"1R7788RI","checksum":"cbdea5755b9f53de9587e2fc4d441c52178484268b79c23084a307e3910da99b","readerVersion":"GDAL 3.2.2","processedAt":"2026-07-07T08:43:52.618Z"}}},{"type":"Feature","geometry":{"type":"Point","coordinates":[4.350715,51.6678117]},"properties":{"dolphinKind":"buoy-lateral","rawObjectClass":"BOYLAT","sourceProperties":{"RCID":1269305510,"PRIM":1,"GRUP":2,"OBJL":17,"RVER":1,"AGEN":7979,"FIDN":1269305510,"FIDS":1,"LNAM":"1F2B4BA810A60001","LNAM_REFS":["1F2B4BA810A50001"],"FFPT_RIND":[2],"BOYSHP":5,"CATLAM":2,"COLOUR":["3","1","3"],"COLPAT":["1"],"CONRAD":1,"OBJNAM":"R-NV 10","SCAMIN":200000,"SORDAT":"20260402","SORIND":"NL,1R,Reprt,MD182-2026","sourceCellId":"1R7788RI","sourceChecksum":"cbdea5755b9f53de9587e2fc4d441c52178484268b79c23084a307e3910da99b","rawObjectClass":"BOYLAT","sourceStableId":"1F2B4BA810A60001"},"sourceKind":"official","official":true,"sourceCellId":"1R7788RI","sourceStableId":"1F2B4BA810A60001","pipelineFeatureId":"1R7788RI/BOYLAT/1269305510","provenance":{"cellId":"1R7788RI","checksum":"cbdea5755b9f53de9587e2fc4d441c52178484268b79c23084a307e3910da99b","readerVersion":"GDAL 3.2.2","processedAt":"2026-07-07T08:43:52.618Z"}}},{"type":"Feature","geometry":{"type":"Point","coordinates":[4.3547817,51.669035]},"properties":{"dolphinKind":"buoy-lateral","rawObjectClass":"BOYLAT","sourceProperties":{"RCID":1269305512,"PRIM":1,"GRUP":2,"OBJL":17,"RVER":1,"AGEN":7979,"FIDN":1269305512,"FIDS":1,"LNAM":"1F2B4BA810A80001","LNAM_REFS":["1F2B4BA810A70001"],"FFPT_RIND":[2],"BOYSHP":5,"CATLAM":2,"COLOUR":["3","1","3"],"COLPAT":["1"],"CONRAD":1,"OBJNAM":"R-HG 2","SCAMIN":200000,"SORDAT":"20260402","SORIND":"NL,1R,Reprt,MD182-2026","sourceCellId":"1R7788RI","sourceChecksum":"cbdea5755b9f53de9587e2fc4d441c52178484268b79c23084a307e3910da99b","rawObjectClass":"BOYLAT","sourceStableId":"1F2B4BA810A80001"},"sourceKind":"official","official":true,"sourceCellId":"1R7788RI","sourceStableId":"1F2B4BA810A80001","pipelineFeatureId":"1R7788RI/BOYLAT/1269305512","provenance":{"cellId":"1R7788RI","checksum":"cbdea5755b9f53de9587e2fc4d441c52178484268b79c23084a307e3910da99b","readerVersion":"GDAL 3.2.2","processedAt":"2026-07-07T08:43:52.618Z"}}},{"type":"Feature","geometry":{"type":"Point","coordinates":[4.35874,51.67028]},"properties":{"dolphinKind":"buoy-lateral","rawObjectClass":"BOYLAT","sourceProperties":{"RCID":1269306814,"PRIM":1,"GRUP":2,"OBJL":17,"RVER":1,"AGEN":7979,"FIDN":1269306814,"FIDS":1,"LNAM":"1F2B4BA815BE0001","LNAM_REFS":["1F2B4BA815BD0001"],"FFPT_RIND":[2],"BOYSHP":5,"CATLAM":2,"COLOUR":["3","1","3"],"COLPAT":["1"],"CONRAD":1,"OBJNAM":"R-HG 4","SCAMIN":200000,"SORDAT":"20260402","SORIND":"NL,1R,Reprt,MD182-2026","sourceCellId":"1R7788RI","sourceChecksum":"cbdea5755b9f53de9587e2fc4d441c52178484268b79c23084a307e3910da99b","rawObjectClass":"BOYLAT","sourceStableId":"1F2B4BA815BE0001"},"sourceKind":"official","official":true,"sourceCellId":"1R7788RI","sourceStableId":"1F2B4BA815BE0001","pipelineFeatureId":"1R7788RI/BOYLAT/1269306814","provenance":{"cellId":"1R7788RI","checksum":"cbdea5755b9f53de9587e2fc4d441c52178484268b79c23084a307e3910da99b","readerVersion":"GDAL 3.2.2","processedAt":"2026-07-07T08:43:52.618Z"}}},{"type":"Feature","geometry":{"type":"Point","coordinates":[4.3617017,51.672315]},"properties":{"dolphinKind":"buoy-lateral","rawObjectClass":"BOYLAT","sourceProperties":{"RCID":1269306816,"PRIM":1,"GRUP":2,"OBJL":17,"RVER":1,"AGEN":7979,"FIDN":1269306816,"FIDS":1,"LNAM":"1F2B4BA815C00001","LNAM_REFS":["1F2B4BA815BF0001"],"FFPT_RIND":[2],"BOYSHP":5,"CATLAM":2,"COLOUR":["3","1","3"],"COLPAT":["1"],"CONRAD":1,"OBJNAM":"R-HG 6","SCAMIN":200000,"SORDAT":"20260402","SORIND":"NL,1R,Reprt,MD182-2026","sourceCellId":"1R7788RI","sourceChecksum":"cbdea5755b9f53de9587e2fc4d441c52178484268b79c23084a307e3910da99b","rawObjectClass":"BOYLAT","sourceStableId":"1F2B4BA815C00001"},"sourceKind":"official","official":true,"sourceCellId":"1R7788RI","sourceStableId":"1F2B4BA815C00001","pipelineFeatureId":"1R7788RI/BOYLAT/1269306816","provenance":{"cellId":"1R7788RI","checksum":"cbdea5755b9f53de9587e2fc4d441c52178484268b79c23084a307e3910da99b","readerVersion":"GDAL 3.2.2","processedAt":"2026-07-07T08:43:52.618Z"}}},{"type":"Feature","geometry":{"type":"Point","coordinates":[4.3642217,51.674545]},"properties":{"dolphinKind":"buoy-lateral","rawObjectClass":"BOYLAT","sourceProperties":{"RCID":1269312618,"PRIM":1,"GRUP":2,"OBJL":17,"RVER":1,"AGEN":7979,"FIDN":1269312618,"FIDS":1,"LNAM":"1F2B4BA82C6A0001","LNAM_REFS":["1F2B4BA82C690001"],"FFPT_RIND":[2],"BOYSHP":5,"CATLAM":2,"COLOUR":["3","1","3"],"COLPAT":["1"],"CONRAD":1,"OBJNAM":"R-HG 8","SCAMIN":200000,"SORDAT":"20260402","SORIND":"NL,1R,Reprt,MD182-2026","sourceCellId":"1R7788RI","sourceChecksum":"cbdea5755b9f53de9587e2fc4d441c52178484268b79c23084a307e3910da99b","rawObjectClass":"BOYLAT","sourceStableId":"1F2B4BA82C6A0001"},"sourceKind":"official","official":true,"sourceCellId":"1R7788RI","sourceStableId":"1F2B4BA82C6A0001","pipelineFeatureId":"1R7788RI/BOYLAT/1269312618","provenance":{"cellId":"1R7788RI","checksum":"cbdea5755b9f53de9587e2fc4d441c52178484268b79c23084a307e3910da99b","readerVersion":"GDAL 3.2.2","processedAt":"2026-07-07T08:43:52.618Z"}}},{"type":"Feature","geometry":{"type":"Point","coordinates":[4.335135,51.646565]},"properties":{"dolphinKind":"buoy-special","rawObjectClass":"BOYSPP","sourceProperties":{"RCID":23826773,"PRIM":1,"GRUP":2,"OBJL":19,"RVER":1,"AGEN":7979,"FIDN":23826773,"FIDS":1,"LNAM":"1F2B016B91550001","LNAM_REFS":["1F2B016B91540001"],"FFPT_RIND":[2],"BOYSHP":5,"CATSPM":["50"],"COLOUR":["6"],"CONRAD":3,"OBJNAM":"DG-OW 25","SCAMIN":200000,"SORDAT":"20260402","SORIND":"NL,1R,reprt,MD181-2026","sourceCellId":"1R7788RI","sourceChecksum":"cbdea5755b9f53de9587e2fc4d441c52178484268b79c23084a307e3910da99b","rawObjectClass":"BOYSPP","sourceStableId":"1F2B016B91550001"},"sourceKind":"official","official":true,"sourceCellId":"1R7788RI","sourceStableId":"1F2B016B91550001","pipelineFeatureId":"1R7788RI/BOYSPP/23826773","provenance":{"cellId":"1R7788RI","checksum":"cbdea5755b9f53de9587e2fc4d441c52178484268b79c23084a307e3910da99b","readerVersion":"GDAL 3.2.2","processedAt":"2026-07-07T08:43:52.618Z"}}},{"type":"Feature","geometry":{"type":"Point","coordinates":[4.345895,51.651695]},"properties":{"dolphinKind":"buoy-special","rawObjectClass":"BOYSPP","sourceProperties":{"RCID":24156806,"PRIM":1,"GRUP":2,"OBJL":19,"RVER":1,"AGEN":7979,"FIDN":24156806,"FIDS":1,"LNAM":"1F2B01709A860001","BOYSHP":5,"CATSPM":["27"],"COLOUR":["6"],"CONRAD":3,"OBJNAM":"SM-16","PEREND":"--1001","PERSTA":"--0301","SCAMIN":200000,"SORDAT":"20260227","SORIND":"NL,1R,Reprt,MD 061-2026","sourceCellId":"1R7788RI","sourceChecksum":"cbdea5755b9f53de9587e2fc4d441c52178484268b79c23084a307e3910da99b","rawObjectClass":"BOYSPP","sourceStableId":"1F2B01709A860001"},"sourceKind":"official","official":true,"sourceCellId":"1R7788RI","sourceStableId":"1F2B01709A860001","pipelineFeatureId":"1R7788RI/BOYSPP/24156806","provenance":{"cellId":"1R7788RI","checksum":"cbdea5755b9f53de9587e2fc4d441c52178484268b79c23084a307e3910da99b","readerVersion":"GDAL 3.2.2","processedAt":"2026-07-07T08:43:52.618Z"}}},{"type":"Feature","geometry":{"type":"Point","coordinates":[4.34956,51.654575]},"properties":{"dolphinKind":"buoy-special","rawObjectClass":"BOYSPP","sourceProperties":{"RCID":24156808,"PRIM":1,"GRUP":2,"OBJL":19,"RVER":1,"AGEN":7979,"FIDN":24156808,"FIDS":1,"LNAM":"1F2B01709A880001","BOYSHP":5,"CATSPM":["27"],"COLOUR":["6"],"CONRAD":3,"OBJNAM":"SM-15","PEREND":"--1001","PERSTA":"--0301","SCAMIN":200000,"SORDAT":"20260227","SORIND":"NL,1R,Reprt,MD 061-2026","sourceCellId":"1R7788RI","sourceChecksum":"cbdea5755b9f53de9587e2fc4d441c52178484268b79c23084a307e3910da99b","rawObjectClass":"BOYSPP","sourceStableId":"1F2B01709A880001"},"sourceKind":"official","official":true,"sourceCellId":"1R7788RI","sourceStableId":"1F2B01709A880001","pipelineFeatureId":"1R7788RI/BOYSPP/24156808","provenance":{"cellId":"1R7788RI","checksum":"cbdea5755b9f53de9587e2fc4d441c52178484268b79c23084a307e3910da99b","readerVersion":"GDAL 3.2.2","processedAt":"2026-07-07T08:43:52.618Z"}}},{"type":"Feature","geometry":{"type":"Point","coordinates":[4.3386717,51.656945]},"properties":{"dolphinKind":"buoy-special","rawObjectClass":"BOYSPP","sourceProperties":{"RCID":24156810,"PRIM":1,"GRUP":2,"OBJL":19,"RVER":1,"AGEN":7979,"FIDN":24156810,"FIDS":1,"LNAM":"1F2B01709A8A0001","BOYSHP":5,"CATSPM":["27"],"COLOUR":["6"],"CONRAD":3,"OBJNAM":"SM-13","PEREND":"--1001","PERSTA":"--0301","SCAMIN":200000,"SORDAT":"20260227","SORIND":"NL,1R,Reprt,MD 061-2026","sourceCellId":"1R7788RI","sourceChecksum":"cbdea5755b9f53de9587e2fc4d441c52178484268b79c23084a307e3910da99b","rawObjectClass":"BOYSPP","sourceStableId":"1F2B01709A8A0001"},"sourceKind":"official","official":true,"sourceCellId":"1R7788RI","sourceStableId":"1F2B01709A8A0001","pipelineFeatureId":"1R7788RI/BOYSPP/24156810","provenance":{"cellId":"1R7788RI","checksum":"cbdea5755b9f53de9587e2fc4d441c52178484268b79c23084a307e3910da99b","readerVersion":"GDAL 3.2.2","processedAt":"2026-07-07T08:43:52.618Z"}}},{"type":"Feature","geometry":{"type":"Point","coordinates":[4.353395,51.6575283]},"properties":{"dolphinKind":"buoy-special","rawObjectClass":"BOYSPP","sourceProperties":{"RCID":24156811,"PRIM":1,"GRUP":2,"OBJL":19,"RVER":1,"AGEN":7979,"FIDN":24156811,"FIDS":1,"LNAM":"1F2B01709A8B0001","BOYSHP":5,"CATSPM":["27"],"COLOUR":["6"],"CONRAD":3,"OBJNAM":"SM-14","PEREND":"--1001","PERSTA":"--0301","SCAMIN":200000,"SORDAT":"20260227","SORIND":"NL,1R,Reprt,MD 061-2026","sourceCellId":"1R7788RI","sourceChecksum":"cbdea5755b9f53de9587e2fc4d441c52178484268b79c23084a307e3910da99b","rawObjectClass":"BOYSPP","sourceStableId":"1F2B01709A8B0001"},"sourceKind":"official","official":true,"sourceCellId":"1R7788RI","sourceStableId":"1F2B01709A8B0001","pipelineFeatureId":"1R7788RI/BOYSPP/24156811","provenance":{"cellId":"1R7788RI","checksum":"cbdea5755b9f53de9587e2fc4d441c52178484268b79c23084a307e3910da99b","readerVersion":"GDAL 3.2.2","processedAt":"2026-07-07T08:43:52.618Z"}}},{"type":"Feature","geometry":{"type":"Point","coordinates":[4.3621717,51.6661383]},"properties":{"dolphinKind":"light","rawObjectClass":"LIGHTS","sourceProperties":{"RCID":18701,"PRIM":1,"GRUP":2,"OBJL":75,"RVER":1,"AGEN":7979,"FIDN":1106834729,"FIDS":439,"LNAM":"1F2B41F8F52901B7","COLOUR":["3"],"LITCHR":2,"SIGGRP":"(2+1)","SIGPER":1,"SCAMIN":200000,"SORDAT":"20031115","sourceCellId":"1R7788RI","sourceChecksum":"cbdea5755b9f53de9587e2fc4d441c52178484268b79c23084a307e3910da99b","rawObjectClass":"LIGHTS","sourceStableId":"1F2B41F8F52901B7"},"sourceKind":"official","official":true,"sourceCellId":"1R7788RI","sourceStableId":"1F2B41F8F52901B7","pipelineFeatureId":"1R7788RI/LIGHTS/18701","provenance":{"cellId":"1R7788RI","checksum":"cbdea5755b9f53de9587e2fc4d441c52178484268b79c23084a307e3910da99b","readerVersion":"GDAL 3.2.2","processedAt":"2026-07-07T08:43:52.618Z"}}},{"type":"Feature","geometry":{"type":"Point","coordinates":[4.3375883,51.6571117]},"properties":{"dolphinKind":"light","rawObjectClass":"LIGHTS","sourceProperties":{"RCID":18706,"PRIM":1,"GRUP":2,"OBJL":75,"RVER":1,"AGEN":7979,"FIDN":1106834729,"FIDS":444,"LNAM":"1F2B41F8F52901BC","COLOUR":["4"],"LITCHR":3,"SIGGRP":"(1)","SIGPER":8,"SCAMIN":200000,"SORDAT":"20031115","sourceCellId":"1R7788RI","sourceChecksum":"cbdea5755b9f53de9587e2fc4d441c52178484268b79c23084a307e3910da99b","rawObjectClass":"LIGHTS","sourceStableId":"1F2B41F8F52901BC"},"sourceKind":"official","official":true,"sourceCellId":"1R7788RI","sourceStableId":"1F2B41F8F52901BC","pipelineFeatureId":"1R7788RI/LIGHTS/18706","provenance":{"cellId":"1R7788RI","checksum":"cbdea5755b9f53de9587e2fc4d441c52178484268b79c23084a307e3910da99b","readerVersion":"GDAL 3.2.2","processedAt":"2026-07-07T08:43:52.618Z"}}},{"type":"Feature","geometry":{"type":"Point","coordinates":[4.3502283,51.657805]},"properties":{"dolphinKind":"light","rawObjectClass":"LIGHTS","sourceProperties":{"RCID":18707,"PRIM":1,"GRUP":2,"OBJL":75,"RVER":1,"AGEN":7979,"FIDN":1106834729,"FIDS":445,"LNAM":"1F2B41F8F52901BD","COLOUR":["4"],"LITCHR":3,"SIGGRP":"(1)","SIGPER":5,"SCAMIN":200000,"SORDAT":"20031115","sourceCellId":"1R7788RI","sourceChecksum":"cbdea5755b9f53de9587e2fc4d441c52178484268b79c23084a307e3910da99b","rawObjectClass":"LIGHTS","sourceStableId":"1F2B41F8F52901BD"},"sourceKind":"official","official":true,"sourceCellId":"1R7788RI","sourceStableId":"1F2B41F8F52901BD","pipelineFeatureId":"1R7788RI/LIGHTS/18707","provenance":{"cellId":"1R7788RI","checksum":"cbdea5755b9f53de9587e2fc4d441c52178484268b79c23084a307e3910da99b","readerVersion":"GDAL 3.2.2","processedAt":"2026-07-07T08:43:52.618Z"}}},{"type":"Feature","geometry":{"type":"Point","coordinates":[4.3509217,51.66225]},"properties":{"dolphinKind":"light","rawObjectClass":"LIGHTS","sourceProperties":{"RCID":18708,"PRIM":1,"GRUP":2,"OBJL":75,"RVER":1,"AGEN":7979,"FIDN":1106834729,"FIDS":446,"LNAM":"1F2B41F8F52901BE","COLOUR":["3"],"LITCHR":3,"SIGGRP":"(1)","SIGPER":5,"SCAMIN":200000,"SORDAT":"20031115","sourceCellId":"1R7788RI","sourceChecksum":"cbdea5755b9f53de9587e2fc4d441c52178484268b79c23084a307e3910da99b","rawObjectClass":"LIGHTS","sourceStableId":"1F2B41F8F52901BE"},"sourceKind":"official","official":true,"sourceCellId":"1R7788RI","sourceStableId":"1F2B41F8F52901BE","pipelineFeatureId":"1R7788RI/LIGHTS/18708","provenance":{"cellId":"1R7788RI","checksum":"cbdea5755b9f53de9587e2fc4d441c52178484268b79c23084a307e3910da99b","readerVersion":"GDAL 3.2.2","processedAt":"2026-07-07T08:43:52.618Z"}}},{"type":"Feature","geometry":{"type":"Point","coordinates":[4.3814783,51.67017]},"properties":{"dolphinKind":"light","rawObjectClass":"LIGHTS","sourceProperties":{"RCID":18709,"PRIM":1,"GRUP":2,"OBJL":75,"RVER":1,"AGEN":7979,"FIDN":1106834729,"FIDS":447,"LNAM":"1F2B41F8F52901BF","COLOUR":["4"],"LITCHR":3,"SIGGRP":"(1)","SIGPER":5,"SCAMIN":200000,"SORDAT":"20031115","sourceCellId":"1R7788RI","sourceChecksum":"cbdea5755b9f53de9587e2fc4d441c52178484268b79c23084a307e3910da99b","rawObjectClass":"LIGHTS","sourceStableId":"1F2B41F8F52901BF"},"sourceKind":"official","official":true,"sourceCellId":"1R7788RI","sourceStableId":"1F2B41F8F52901BF","pipelineFeatureId":"1R7788RI/LIGHTS/18709","provenance":{"cellId":"1R7788RI","checksum":"cbdea5755b9f53de9587e2fc4d441c52178484268b79c23084a307e3910da99b","readerVersion":"GDAL 3.2.2","processedAt":"2026-07-07T08:43:52.618Z"}}},{"type":"Feature","geometry":{"type":"Point","coordinates":[4.3785617,51.6715583]},"properties":{"dolphinKind":"light","rawObjectClass":"LIGHTS","sourceProperties":{"RCID":18712,"PRIM":1,"GRUP":2,"OBJL":75,"RVER":1,"AGEN":7979,"FIDN":1106834729,"FIDS":450,"LNAM":"1F2B41F8F52901C2","COLOUR":["3"],"LITCHR":3,"SIGGRP":"(1)","SIGPER":5,"SCAMIN":200000,"SORDAT":"20031115","sourceCellId":"1R7788RI","sourceChecksum":"cbdea5755b9f53de9587e2fc4d441c52178484268b79c23084a307e3910da99b","rawObjectClass":"LIGHTS","sourceStableId":"1F2B41F8F52901C2"},"sourceKind":"official","official":true,"sourceCellId":"1R7788RI","sourceStableId":"1F2B41F8F52901C2","pipelineFeatureId":"1R7788RI/LIGHTS/18712","provenance":{"cellId":"1R7788RI","checksum":"cbdea5755b9f53de9587e2fc4d441c52178484268b79c23084a307e3910da99b","readerVersion":"GDAL 3.2.2","processedAt":"2026-07-07T08:43:52.618Z"}}},{"type":"Feature","geometry":{"type":"Point","coordinates":[4.3653667,51.6625283]},"properties":{"dolphinKind":"light","rawObjectClass":"LIGHTS","sourceProperties":{"RCID":18786,"PRIM":1,"GRUP":2,"OBJL":75,"RVER":1,"AGEN":7979,"FIDN":1106834730,"FIDS":269,"LNAM":"1F2B41F8F52A010D","COLOUR":["4"],"LITCHR":4,"SIGGRP":"(1)","SCAMIN":200000,"SORDAT":"20031115","sourceCellId":"1R7788RI","sourceChecksum":"cbdea5755b9f53de9587e2fc4d441c52178484268b79c23084a307e3910da99b","rawObjectClass":"LIGHTS","sourceStableId":"1F2B41F8F52A010D"},"sourceKind":"official","official":true,"sourceCellId":"1R7788RI","sourceStableId":"1F2B41F8F52A010D","pipelineFeatureId":"1R7788RI/LIGHTS/18786","provenance":{"cellId":"1R7788RI","checksum":"cbdea5755b9f53de9587e2fc4d441c52178484268b79c23084a307e3910da99b","readerVersion":"GDAL 3.2.2","processedAt":"2026-07-07T08:43:52.618Z"}}},{"type":"Feature","geometry":{"type":"Point","coordinates":[4.3716167,51.6692]},"properties":{"dolphinKind":"light","rawObjectClass":"LIGHTS","sourceProperties":{"RCID":19691,"PRIM":1,"GRUP":2,"OBJL":75,"RVER":1,"AGEN":7979,"FIDN":1106834753,"FIDS":392,"LNAM":"1F2B41F8F5410188","COLOUR":["3"],"LITCHR":3,"SIGGRP":"(1)","SIGPER":8,"SCAMIN":200000,"sourceCellId":"1R7788RI","sourceChecksum":"cbdea5755b9f53de9587e2fc4d441c52178484268b79c23084a307e3910da99b","rawObjectClass":"LIGHTS","sourceStableId":"1F2B41F8F5410188"},"sourceKind":"official","official":true,"sourceCellId":"1R7788RI","sourceStableId":"1F2B41F8F5410188","pipelineFeatureId":"1R7788RI/LIGHTS/19691","provenance":{"cellId":"1R7788RI","checksum":"cbdea5755b9f53de9587e2fc4d441c52178484268b79c23084a307e3910da99b","readerVersion":"GDAL 3.2.2","processedAt":"2026-07-07T08:43:52.618Z"}}},{"type":"Feature","geometry":{"type":"Point","coordinates":[4.3375883,51.661695]},"properties":{"dolphinKind":"light","rawObjectClass":"LIGHTS","sourceProperties":{"RCID":19692,"PRIM":1,"GRUP":2,"OBJL":75,"RVER":1,"AGEN":7979,"FIDN":1106834753,"FIDS":393,"LNAM":"1F2B41F8F5410189","COLOUR":["3"],"LITCHR":3,"SIGGRP":"(1)","SIGPER":8,"INFORM":"NV 8","SCAMIN":200000,"SORDAT":"20160801","SORIND":"NL,1R,Reprt,Topdesk M160801734","sourceCellId":"1R7788RI","sourceChecksum":"cbdea5755b9f53de9587e2fc4d441c52178484268b79c23084a307e3910da99b","rawObjectClass":"LIGHTS","sourceStableId":"1F2B41F8F5410189"},"sourceKind":"official","official":true,"sourceCellId":"1R7788RI","sourceStableId":"1F2B41F8F5410189","pipelineFeatureId":"1R7788RI/LIGHTS/19692","provenance":{"cellId":"1R7788RI","checksum":"cbdea5755b9f53de9587e2fc4d441c52178484268b79c23084a307e3910da99b","readerVersion":"GDAL 3.2.2","processedAt":"2026-07-07T08:43:52.618Z"}}},{"type":"Feature","geometry":{"type":"Point","coordinates":[4.3680105,51.6582603]},"properties":{"dolphinKind":"light","rawObjectClass":"LIGHTS","sourceProperties":{"RCID":19702,"PRIM":1,"GRUP":2,"OBJL":75,"RVER":1,"AGEN":7979,"FIDN":1106834753,"FIDS":403,"LNAM":"1F2B41F8F5410193","COLOUR":["4"],"HEIGHT":8,"LITCHR":1,"SCAMIN":200000,"sourceCellId":"1R7788RI","sourceChecksum":"cbdea5755b9f53de9587e2fc4d441c52178484268b79c23084a307e3910da99b","rawObjectClass":"LIGHTS","sourceStableId":"1F2B41F8F5410193"},"sourceKind":"official","official":true,"sourceCellId":"1R7788RI","sourceStableId":"1F2B41F8F5410193","pipelineFeatureId":"1R7788RI/LIGHTS/19702","provenance":{"cellId":"1R7788RI","checksum":"cbdea5755b9f53de9587e2fc4d441c52178484268b79c23084a307e3910da99b","readerVersion":"GDAL 3.2.2","processedAt":"2026-07-07T08:43:52.618Z"}}},{"type":"Feature","geometry":{"type":"Point","coordinates":[4.3697062,51.6590835]},"properties":{"dolphinKind":"light","rawObjectClass":"LIGHTS","sourceProperties":{"RCID":19703,"PRIM":1,"GRUP":2,"OBJL":75,"RVER":1,"AGEN":7979,"FIDN":1106834753,"FIDS":404,"LNAM":"1F2B41F8F5410194","COLOUR":["3"],"HEIGHT":8,"LITCHR":1,"INFORM":"In fog: F.Y.","SCAMIN":200000,"sourceCellId":"1R7788RI","sourceChecksum":"cbdea5755b9f53de9587e2fc4d441c52178484268b79c23084a307e3910da99b","rawObjectClass":"LIGHTS","sourceStableId":"1F2B41F8F5410194"},"sourceKind":"official","official":true,"sourceCellId":"1R7788RI","sourceStableId":"1F2B41F8F5410194","pipelineFeatureId":"1R7788RI/LIGHTS/19703","provenance":{"cellId":"1R7788RI","checksum":"cbdea5755b9f53de9587e2fc4d441c52178484268b79c23084a307e3910da99b","readerVersion":"GDAL 3.2.2","processedAt":"2026-07-07T08:43:52.618Z"}}},{"type":"Feature","geometry":{"type":"Point","coordinates":[4.3753667,51.6658633]},"properties":{"dolphinKind":"light","rawObjectClass":"LIGHTS","sourceProperties":{"RCID":23813881,"PRIM":1,"GRUP":2,"OBJL":75,"RVER":1,"AGEN":7979,"FIDN":23813881,"FIDS":1,"LNAM":"1F2B016B5EF90001","COLOUR":["4"],"LITCHR":3,"SIGGRP":"(1)","SIGPER":8,"SCAMIN":200000,"sourceCellId":"1R7788RI","sourceChecksum":"cbdea5755b9f53de9587e2fc4d441c52178484268b79c23084a307e3910da99b","rawObjectClass":"LIGHTS","sourceStableId":"1F2B016B5EF90001"},"sourceKind":"official","official":true,"sourceCellId":"1R7788RI","sourceStableId":"1F2B016B5EF90001","pipelineFeatureId":"1R7788RI/LIGHTS/23813881","provenance":{"cellId":"1R7788RI","checksum":"cbdea5755b9f53de9587e2fc4d441c52178484268b79c23084a307e3910da99b","readerVersion":"GDAL 3.2.2","processedAt":"2026-07-07T08:43:52.618Z"}}},{"type":"Feature","geometry":{"type":"Point","coordinates":[4.3746561,51.6546012]},"properties":{"dolphinKind":"light","rawObjectClass":"LIGHTS","sourceProperties":{"RCID":299410554,"PRIM":1,"GRUP":2,"OBJL":75,"RVER":1,"AGEN":7979,"FIDN":299410554,"FIDS":1,"LNAM":"1F2B11D8A47A0001","COLOUR":["1"],"LITCHR":1,"SCAMIN":200000,"SORDAT":"20190319","SORIND":"NL,1R,Reprt,Topdesk - M190313304","sourceCellId":"1R7788RI","sourceChecksum":"cbdea5755b9f53de9587e2fc4d441c52178484268b79c23084a307e3910da99b","rawObjectClass":"LIGHTS","sourceStableId":"1F2B11D8A47A0001"},"sourceKind":"official","official":true,"sourceCellId":"1R7788RI","sourceStableId":"1F2B11D8A47A0001","pipelineFeatureId":"1R7788RI/LIGHTS/299410554","provenance":{"cellId":"1R7788RI","checksum":"cbdea5755b9f53de9587e2fc4d441c52178484268b79c23084a307e3910da99b","readerVersion":"GDAL 3.2.2","processedAt":"2026-07-07T08:43:52.618Z"}}},{"type":"Feature","geometry":{"type":"Point","coordinates":[4.3653667,51.6625283]},"properties":{"dolphinKind":"topmark","rawObjectClass":"TOPMAR","sourceProperties":{"RCID":18972,"PRIM":1,"GRUP":2,"OBJL":144,"RVER":1,"AGEN":7979,"FIDN":1106834730,"FIDS":455,"LNAM":"1F2B41F8F52A01C7","COLOUR":["4"],"TOPSHP":33,"INFORM":"cone point up over sphere","SCAMIN":200000,"SORDAT":"20220415","SORIND":"NL,1R,reprt,MD 247-22","sourceCellId":"1R7788RI","sourceChecksum":"cbdea5755b9f53de9587e2fc4d441c52178484268b79c23084a307e3910da99b","rawObjectClass":"TOPMAR","sourceStableId":"1F2B41F8F52A01C7"},"sourceKind":"official","official":true,"sourceCellId":"1R7788RI","sourceStableId":"1F2B41F8F52A01C7","pipelineFeatureId":"1R7788RI/TOPMAR/18972","provenance":{"cellId":"1R7788RI","checksum":"cbdea5755b9f53de9587e2fc4d441c52178484268b79c23084a307e3910da99b","readerVersion":"GDAL 3.2.2","processedAt":"2026-07-07T08:43:52.618Z"},"associationRefsVerifiedInGdalOutput":false}},{"type":"Feature","geometry":{"type":"Point","coordinates":[4.3621717,51.6661383]},"properties":{"dolphinKind":"topmark","rawObjectClass":"TOPMAR","sourceProperties":{"RCID":18975,"PRIM":1,"GRUP":2,"OBJL":144,"RVER":1,"AGEN":7979,"FIDN":1106834730,"FIDS":458,"LNAM":"1F2B41F8F52A01CA","COLOUR":["3"],"TOPSHP":33,"INFORM":"cylinder over sphere","SCAMIN":200000,"SORDAT":"20220415","SORIND":"NL,1R,reprt,MD 247-22","sourceCellId":"1R7788RI","sourceChecksum":"cbdea5755b9f53de9587e2fc4d441c52178484268b79c23084a307e3910da99b","rawObjectClass":"TOPMAR","sourceStableId":"1F2B41F8F52A01CA"},"sourceKind":"official","official":true,"sourceCellId":"1R7788RI","sourceStableId":"1F2B41F8F52A01CA","pipelineFeatureId":"1R7788RI/TOPMAR/18975","provenance":{"cellId":"1R7788RI","checksum":"cbdea5755b9f53de9587e2fc4d441c52178484268b79c23084a307e3910da99b","readerVersion":"GDAL 3.2.2","processedAt":"2026-07-07T08:43:52.618Z"},"associationRefsVerifiedInGdalOutput":false}},{"type":"Feature","geometry":{"type":"Point","coordinates":[4.3659435,51.6597527]},"properties":{"dolphinKind":"topmark","rawObjectClass":"TOPMAR","sourceProperties":{"RCID":18977,"PRIM":1,"GRUP":2,"OBJL":144,"RVER":1,"AGEN":7979,"FIDN":1106834730,"FIDS":460,"LNAM":"1F2B41F8F52A01CC","COLOUR":["4"],"TOPSHP":1,"SCAMIN":200000,"sourceCellId":"1R7788RI","sourceChecksum":"cbdea5755b9f53de9587e2fc4d441c52178484268b79c23084a307e3910da99b","rawObjectClass":"TOPMAR","sourceStableId":"1F2B41F8F52A01CC"},"sourceKind":"official","official":true,"sourceCellId":"1R7788RI","sourceStableId":"1F2B41F8F52A01CC","pipelineFeatureId":"1R7788RI/TOPMAR/18977","provenance":{"cellId":"1R7788RI","checksum":"cbdea5755b9f53de9587e2fc4d441c52178484268b79c23084a307e3910da99b","readerVersion":"GDAL 3.2.2","processedAt":"2026-07-07T08:43:52.618Z"},"associationRefsVerifiedInGdalOutput":false}},{"type":"Feature","geometry":{"type":"Point","coordinates":[4.3578877,51.6675307]},"properties":{"dolphinKind":"topmark","rawObjectClass":"TOPMAR","sourceProperties":{"RCID":18978,"PRIM":1,"GRUP":2,"OBJL":144,"RVER":1,"AGEN":7979,"FIDN":1106834730,"FIDS":461,"LNAM":"1F2B41F8F52A01CD","COLOUR":["3"],"TOPSHP":5,"SCAMIN":200000,"sourceCellId":"1R7788RI","sourceChecksum":"cbdea5755b9f53de9587e2fc4d441c52178484268b79c23084a307e3910da99b","rawObjectClass":"TOPMAR","sourceStableId":"1F2B41F8F52A01CD"},"sourceKind":"official","official":true,"sourceCellId":"1R7788RI","sourceStableId":"1F2B41F8F52A01CD","pipelineFeatureId":"1R7788RI/TOPMAR/18978","provenance":{"cellId":"1R7788RI","checksum":"cbdea5755b9f53de9587e2fc4d441c52178484268b79c23084a307e3910da99b","readerVersion":"GDAL 3.2.2","processedAt":"2026-07-07T08:43:52.618Z"},"associationRefsVerifiedInGdalOutput":false}},{"type":"Feature","geometry":{"type":"Point","coordinates":[4.335135,51.646565]},"properties":{"dolphinKind":"topmark","rawObjectClass":"TOPMAR","sourceProperties":{"RCID":23826772,"PRIM":1,"GRUP":2,"OBJL":144,"RVER":1,"AGEN":7979,"FIDN":23826772,"FIDS":1,"LNAM":"1F2B016B91540001","COLOUR":["3","1","3"],"COLPAT":["1"],"TOPSHP":5,"SCAMIN":200000,"SORDAT":"20090121","sourceCellId":"1R7788RI","sourceChecksum":"cbdea5755b9f53de9587e2fc4d441c52178484268b79c23084a307e3910da99b","rawObjectClass":"TOPMAR","sourceStableId":"1F2B016B91540001"},"sourceKind":"official","official":true,"sourceCellId":"1R7788RI","sourceStableId":"1F2B016B91540001","pipelineFeatureId":"1R7788RI/TOPMAR/23826772","provenance":{"cellId":"1R7788RI","checksum":"cbdea5755b9f53de9587e2fc4d441c52178484268b79c23084a307e3910da99b","readerVersion":"GDAL 3.2.2","processedAt":"2026-07-07T08:43:52.618Z"},"associationRefsVerifiedInGdalOutput":false}},{"type":"Feature","geometry":{"type":"Point","coordinates":[4.3341917,51.663]},"properties":{"dolphinKind":"topmark","rawObjectClass":"TOPMAR","sourceProperties":{"RCID":1269298951,"PRIM":1,"GRUP":2,"OBJL":144,"RVER":1,"AGEN":7979,"FIDN":1269298951,"FIDS":1,"LNAM":"1F2B4BA7F7070001","COLOUR":["3"],"TOPSHP":5,"SCAMIN":200000,"sourceCellId":"1R7788RI","sourceChecksum":"cbdea5755b9f53de9587e2fc4d441c52178484268b79c23084a307e3910da99b","rawObjectClass":"TOPMAR","sourceStableId":"1F2B4BA7F7070001"},"sourceKind":"official","official":true,"sourceCellId":"1R7788RI","sourceStableId":"1F2B4BA7F7070001","pipelineFeatureId":"1R7788RI/TOPMAR/1269298951","provenance":{"cellId":"1R7788RI","checksum":"cbdea5755b9f53de9587e2fc4d441c52178484268b79c23084a307e3910da99b","readerVersion":"GDAL 3.2.2","processedAt":"2026-07-07T08:43:52.618Z"},"associationRefsVerifiedInGdalOutput":false}},{"type":"Feature","geometry":{"type":"Point","coordinates":[4.3388383,51.6643033]},"properties":{"dolphinKind":"topmark","rawObjectClass":"TOPMAR","sourceProperties":{"RCID":1269302553,"PRIM":1,"GRUP":2,"OBJL":144,"RVER":1,"AGEN":7979,"FIDN":1269302553,"FIDS":1,"LNAM":"1F2B4BA805190001","COLOUR":["3"],"TOPSHP":5,"SCAMIN":200000,"sourceCellId":"1R7788RI","sourceChecksum":"cbdea5755b9f53de9587e2fc4d441c52178484268b79c23084a307e3910da99b","rawObjectClass":"TOPMAR","sourceStableId":"1F2B4BA805190001"},"sourceKind":"official","official":true,"sourceCellId":"1R7788RI","sourceStableId":"1F2B4BA805190001","pipelineFeatureId":"1R7788RI/TOPMAR/1269302553","provenance":{"cellId":"1R7788RI","checksum":"cbdea5755b9f53de9587e2fc4d441c52178484268b79c23084a307e3910da99b","readerVersion":"GDAL 3.2.2","processedAt":"2026-07-07T08:43:52.618Z"},"associationRefsVerifiedInGdalOutput":false}},{"type":"Feature","geometry":{"type":"Point","coordinates":[4.3427533,51.665495]},"properties":{"dolphinKind":"topmark","rawObjectClass":"TOPMAR","sourceProperties":{"RCID":1269305405,"PRIM":1,"GRUP":2,"OBJL":144,"RVER":1,"AGEN":7979,"FIDN":1269305405,"FIDS":1,"LNAM":"1F2B4BA8103D0001","COLOUR":["3"],"TOPSHP":5,"SCAMIN":200000,"sourceCellId":"1R7788RI","sourceChecksum":"cbdea5755b9f53de9587e2fc4d441c52178484268b79c23084a307e3910da99b","rawObjectClass":"TOPMAR","sourceStableId":"1F2B4BA8103D0001"},"sourceKind":"official","official":true,"sourceCellId":"1R7788RI","sourceStableId":"1F2B4BA8103D0001","pipelineFeatureId":"1R7788RI/TOPMAR/1269305405","provenance":{"cellId":"1R7788RI","checksum":"cbdea5755b9f53de9587e2fc4d441c52178484268b79c23084a307e3910da99b","readerVersion":"GDAL 3.2.2","processedAt":"2026-07-07T08:43:52.618Z"},"associationRefsVerifiedInGdalOutput":false}},{"type":"Feature","geometry":{"type":"Point","coordinates":[4.34666,51.66666]},"properties":{"dolphinKind":"topmark","rawObjectClass":"TOPMAR","sourceProperties":{"RCID":1269305507,"PRIM":1,"GRUP":2,"OBJL":144,"RVER":1,"AGEN":7979,"FIDN":1269305507,"FIDS":1,"LNAM":"1F2B4BA810A30001","COLOUR":["3"],"TOPSHP":5,"SCAMIN":200000,"sourceCellId":"1R7788RI","sourceChecksum":"cbdea5755b9f53de9587e2fc4d441c52178484268b79c23084a307e3910da99b","rawObjectClass":"TOPMAR","sourceStableId":"1F2B4BA810A30001"},"sourceKind":"official","official":true,"sourceCellId":"1R7788RI","sourceStableId":"1F2B4BA810A30001","pipelineFeatureId":"1R7788RI/TOPMAR/1269305507","provenance":{"cellId":"1R7788RI","checksum":"cbdea5755b9f53de9587e2fc4d441c52178484268b79c23084a307e3910da99b","readerVersion":"GDAL 3.2.2","processedAt":"2026-07-07T08:43:52.618Z"},"associationRefsVerifiedInGdalOutput":false}},{"type":"Feature","geometry":{"type":"Point","coordinates":[4.350715,51.6678117]},"properties":{"dolphinKind":"topmark","rawObjectClass":"TOPMAR","sourceProperties":{"RCID":1269305509,"PRIM":1,"GRUP":2,"OBJL":144,"RVER":1,"AGEN":7979,"FIDN":1269305509,"FIDS":1,"LNAM":"1F2B4BA810A50001","COLOUR":["3"],"TOPSHP":5,"SCAMIN":200000,"sourceCellId":"1R7788RI","sourceChecksum":"cbdea5755b9f53de9587e2fc4d441c52178484268b79c23084a307e3910da99b","rawObjectClass":"TOPMAR","sourceStableId":"1F2B4BA810A50001"},"sourceKind":"official","official":true,"sourceCellId":"1R7788RI","sourceStableId":"1F2B4BA810A50001","pipelineFeatureId":"1R7788RI/TOPMAR/1269305509","provenance":{"cellId":"1R7788RI","checksum":"cbdea5755b9f53de9587e2fc4d441c52178484268b79c23084a307e3910da99b","readerVersion":"GDAL 3.2.2","processedAt":"2026-07-07T08:43:52.618Z"},"associationRefsVerifiedInGdalOutput":false}},{"type":"Feature","geometry":{"type":"Point","coordinates":[4.3547817,51.669035]},"properties":{"dolphinKind":"topmark","rawObjectClass":"TOPMAR","sourceProperties":{"RCID":1269305511,"PRIM":1,"GRUP":2,"OBJL":144,"RVER":1,"AGEN":7979,"FIDN":1269305511,"FIDS":1,"LNAM":"1F2B4BA810A70001","COLOUR":["3"],"TOPSHP":5,"SCAMIN":200000,"sourceCellId":"1R7788RI","sourceChecksum":"cbdea5755b9f53de9587e2fc4d441c52178484268b79c23084a307e3910da99b","rawObjectClass":"TOPMAR","sourceStableId":"1F2B4BA810A70001"},"sourceKind":"official","official":true,"sourceCellId":"1R7788RI","sourceStableId":"1F2B4BA810A70001","pipelineFeatureId":"1R7788RI/TOPMAR/1269305511","provenance":{"cellId":"1R7788RI","checksum":"cbdea5755b9f53de9587e2fc4d441c52178484268b79c23084a307e3910da99b","readerVersion":"GDAL 3.2.2","processedAt":"2026-07-07T08:43:52.618Z"},"associationRefsVerifiedInGdalOutput":false}},{"type":"Feature","geometry":{"type":"Point","coordinates":[4.35874,51.67028]},"properties":{"dolphinKind":"topmark","rawObjectClass":"TOPMAR","sourceProperties":{"RCID":1269306813,"PRIM":1,"GRUP":2,"OBJL":144,"RVER":1,"AGEN":7979,"FIDN":1269306813,"FIDS":1,"LNAM":"1F2B4BA815BD0001","COLOUR":["3"],"TOPSHP":5,"SCAMIN":200000,"sourceCellId":"1R7788RI","sourceChecksum":"cbdea5755b9f53de9587e2fc4d441c52178484268b79c23084a307e3910da99b","rawObjectClass":"TOPMAR","sourceStableId":"1F2B4BA815BD0001"},"sourceKind":"official","official":true,"sourceCellId":"1R7788RI","sourceStableId":"1F2B4BA815BD0001","pipelineFeatureId":"1R7788RI/TOPMAR/1269306813","provenance":{"cellId":"1R7788RI","checksum":"cbdea5755b9f53de9587e2fc4d441c52178484268b79c23084a307e3910da99b","readerVersion":"GDAL 3.2.2","processedAt":"2026-07-07T08:43:52.618Z"},"associationRefsVerifiedInGdalOutput":false}},{"type":"Feature","geometry":{"type":"Point","coordinates":[4.3617017,51.672315]},"properties":{"dolphinKind":"topmark","rawObjectClass":"TOPMAR","sourceProperties":{"RCID":1269306815,"PRIM":1,"GRUP":2,"OBJL":144,"RVER":1,"AGEN":7979,"FIDN":1269306815,"FIDS":1,"LNAM":"1F2B4BA815BF0001","COLOUR":["3"],"TOPSHP":5,"SCAMIN":200000,"sourceCellId":"1R7788RI","sourceChecksum":"cbdea5755b9f53de9587e2fc4d441c52178484268b79c23084a307e3910da99b","rawObjectClass":"TOPMAR","sourceStableId":"1F2B4BA815BF0001"},"sourceKind":"official","official":true,"sourceCellId":"1R7788RI","sourceStableId":"1F2B4BA815BF0001","pipelineFeatureId":"1R7788RI/TOPMAR/1269306815","provenance":{"cellId":"1R7788RI","checksum":"cbdea5755b9f53de9587e2fc4d441c52178484268b79c23084a307e3910da99b","readerVersion":"GDAL 3.2.2","processedAt":"2026-07-07T08:43:52.618Z"},"associationRefsVerifiedInGdalOutput":false}},{"type":"Feature","geometry":{"type":"Point","coordinates":[4.3642217,51.674545]},"properties":{"dolphinKind":"topmark","rawObjectClass":"TOPMAR","sourceProperties":{"RCID":1269312617,"PRIM":1,"GRUP":2,"OBJL":144,"RVER":1,"AGEN":7979,"FIDN":1269312617,"FIDS":1,"LNAM":"1F2B4BA82C690001","COLOUR":["3"],"TOPSHP":5,"SCAMIN":200000,"sourceCellId":"1R7788RI","sourceChecksum":"cbdea5755b9f53de9587e2fc4d441c52178484268b79c23084a307e3910da99b","rawObjectClass":"TOPMAR","sourceStableId":"1F2B4BA82C690001"},"sourceKind":"official","official":true,"sourceCellId":"1R7788RI","sourceStableId":"1F2B4BA82C690001","pipelineFeatureId":"1R7788RI/TOPMAR/1269312617","provenance":{"cellId":"1R7788RI","checksum":"cbdea5755b9f53de9587e2fc4d441c52178484268b79c23084a307e3910da99b","readerVersion":"GDAL 3.2.2","processedAt":"2026-07-07T08:43:52.618Z"},"associationRefsVerifiedInGdalOutput":false}}]}