{"type":"FeatureCollection","features":[{"type":"Feature","geometry":{"type":"Point","coordinates":[3.804305,51.2244983]},"properties":{"dolphinKind":"light","rawObjectClass":"LIGHTS","sourceProperties":{"RCID":16627,"PRIM":1,"GRUP":2,"OBJL":75,"RVER":1,"AGEN":7979,"FIDN":1106834597,"FIDS":258,"LNAM":"1F2B41F8F4A50102","COLOUR":["4"],"HEIGHT":6.7,"LITCHR":7,"SIGGRP":"(1)","SIGPER":4,"VALNMR":2.4,"SCAMIN":200000,"SORDAT":"20211215","SORIND":"NL,1R,reprt,MD 691-21","sourceCellId":"1R76879I","sourceChecksum":"231226be2fb4a53d7e8f84e15016e7354783c06a0b14cae3cb613e5c726d7389","rawObjectClass":"LIGHTS","sourceStableId":"1F2B41F8F4A50102"},"sourceKind":"official","official":true,"sourceCellId":"1R76879I","sourceStableId":"1F2B41F8F4A50102","pipelineFeatureId":"1R76879I/LIGHTS/16627","provenance":{"cellId":"1R76879I","checksum":"231226be2fb4a53d7e8f84e15016e7354783c06a0b14cae3cb613e5c726d7389","readerVersion":"GDAL 3.2.2","processedAt":"2026-08-11T13:43:44.753Z"}}},{"type":"Feature","geometry":{"type":"Point","coordinates":[3.80739,51.2238833]},"properties":{"dolphinKind":"light","rawObjectClass":"LIGHTS","sourceProperties":{"RCID":167280954,"PRIM":1,"GRUP":2,"OBJL":75,"RVER":1,"AGEN":7979,"FIDN":167280954,"FIDS":1,"LNAM":"1F2B09F8813A0001","COLOUR":["3"],"HEIGHT":6.7,"LITCHR":7,"SIGGRP":"(1)","SIGPER":4,"VALNMR":2.4,"SCAMIN":200000,"SORDAT":"20211215","SORIND":"NL,1R,reprt,MD 691-21","sourceCellId":"1R76879I","sourceChecksum":"231226be2fb4a53d7e8f84e15016e7354783c06a0b14cae3cb613e5c726d7389","rawObjectClass":"LIGHTS","sourceStableId":"1F2B09F8813A0001"},"sourceKind":"official","official":true,"sourceCellId":"1R76879I","sourceStableId":"1F2B09F8813A0001","pipelineFeatureId":"1R76879I/LIGHTS/167280954","provenance":{"cellId":"1R76879I","checksum":"231226be2fb4a53d7e8f84e15016e7354783c06a0b14cae3cb613e5c726d7389","readerVersion":"GDAL 3.2.2","processedAt":"2026-08-11T13:43:44.753Z"}}},{"type":"Feature","geometry":{"type":"Point","coordinates":[3.8020939,51.2138386]},"properties":{"dolphinKind":"light","rawObjectClass":"LIGHTS","sourceProperties":{"RCID":167280977,"PRIM":1,"GRUP":2,"OBJL":75,"RVER":1,"AGEN":7979,"FIDN":167280977,"FIDS":1,"LNAM":"1F2B09F881510001","COLOUR":["4"],"HEIGHT":6.7,"LITCHR":7,"SIGGRP":"(1)","SIGPER":4,"VALNMR":2.4,"SCAMIN":200000,"SORDAT":"20211215","SORIND":"NL,1R,reprt,MD 691-21","sourceCellId":"1R76879I","sourceChecksum":"231226be2fb4a53d7e8f84e15016e7354783c06a0b14cae3cb613e5c726d7389","rawObjectClass":"LIGHTS","sourceStableId":"1F2B09F881510001"},"sourceKind":"official","official":true,"sourceCellId":"1R76879I","sourceStableId":"1F2B09F881510001","pipelineFeatureId":"1R76879I/LIGHTS/167280977","provenance":{"cellId":"1R76879I","checksum":"231226be2fb4a53d7e8f84e15016e7354783c06a0b14cae3cb613e5c726d7389","readerVersion":"GDAL 3.2.2","processedAt":"2026-08-11T13:43:44.753Z"}}},{"type":"Feature","geometry":{"type":"Point","coordinates":[3.8030172,51.2227308]},"properties":{"dolphinKind":"light","rawObjectClass":"LIGHTS","sourceProperties":{"RCID":505777969,"PRIM":1,"GRUP":2,"OBJL":75,"RVER":1,"AGEN":7979,"FIDN":505777969,"FIDS":1,"LNAM":"1F2B1E258F310001","COLOUR":["4"],"LITCHR":7,"SIGGRP":"(1)","SIGPER":4,"SCAMIN":200000,"SORDAT":"20230312","SORIND":"NL,1R,Reprt,NSP","sourceCellId":"1R76879I","sourceChecksum":"231226be2fb4a53d7e8f84e15016e7354783c06a0b14cae3cb613e5c726d7389","rawObjectClass":"LIGHTS","sourceStableId":"1F2B1E258F310001"},"sourceKind":"official","official":true,"sourceCellId":"1R76879I","sourceStableId":"1F2B1E258F310001","pipelineFeatureId":"1R76879I/LIGHTS/505777969","provenance":{"cellId":"1R76879I","checksum":"231226be2fb4a53d7e8f84e15016e7354783c06a0b14cae3cb613e5c726d7389","readerVersion":"GDAL 3.2.2","processedAt":"2026-08-11T13:43:44.753Z"}}},{"type":"Feature","geometry":{"type":"Point","coordinates":[3.8025133,51.2223773]},"properties":{"dolphinKind":"light","rawObjectClass":"LIGHTS","sourceProperties":{"RCID":505777970,"PRIM":1,"GRUP":2,"OBJL":75,"RVER":1,"AGEN":7979,"FIDN":505777970,"FIDS":1,"LNAM":"1F2B1E258F320001","COLOUR":["3"],"LITCHR":7,"SIGGRP":"(1)","SCAMIN":200000,"SORDAT":"20230312","SORIND":"NL,1R,Reprt,NSP","sourceCellId":"1R76879I","sourceChecksum":"231226be2fb4a53d7e8f84e15016e7354783c06a0b14cae3cb613e5c726d7389","rawObjectClass":"LIGHTS","sourceStableId":"1F2B1E258F320001"},"sourceKind":"official","official":true,"sourceCellId":"1R76879I","sourceStableId":"1F2B1E258F320001","pipelineFeatureId":"1R76879I/LIGHTS/505777970","provenance":{"cellId":"1R76879I","checksum":"231226be2fb4a53d7e8f84e15016e7354783c06a0b14cae3cb613e5c726d7389","readerVersion":"GDAL 3.2.2","processedAt":"2026-08-11T13:43:44.753Z"}}}]}