{"type":"FeatureCollection","features":[{"type":"Feature","geometry":{"type":"Point","coordinates":[3.8060861,51.2195155]},"properties":{"chartedValueMetres":1.8,"chartedValueRelationToDatum":"below","depthDatum":"Approximate LAT","depthDatumCode":42,"depthDatumStatus":"VERIFIED_FROM_OFFICIAL_DOCUMENTATION","verticalDatum":"Local Datum","verticalDatumCode":24,"napIdentityStatus":"UNVERIFIED","sourceFeatureLnam":"1F2B6A394BB47537","sourceCellId":"1R76879I","sourceChecksum":"231226be2fb4a53d7e8f84e15016e7354783c06a0b14cae3cb613e5c726d7389","pipelineFeatureId":"1R76879I/SOUNDG/1279477026/0","provenance":{"cellId":"1R76879I","checksum":"231226be2fb4a53d7e8f84e15016e7354783c06a0b14cae3cb613e5c726d7389","readerVersion":"GDAL 3.2.2","processedAt":"2026-08-11T13:43:44.753Z"}}},{"type":"Feature","geometry":{"type":"Point","coordinates":[3.8070033,51.2228364]},"properties":{"chartedValueMetres":2.1,"chartedValueRelationToDatum":"below","depthDatum":"Approximate LAT","depthDatumCode":42,"depthDatumStatus":"VERIFIED_FROM_OFFICIAL_DOCUMENTATION","verticalDatum":"Local Datum","verticalDatumCode":24,"napIdentityStatus":"UNVERIFIED","sourceFeatureLnam":"1F2B6A394BB47538","sourceCellId":"1R76879I","sourceChecksum":"231226be2fb4a53d7e8f84e15016e7354783c06a0b14cae3cb613e5c726d7389","pipelineFeatureId":"1R76879I/SOUNDG/1279477027/0","provenance":{"cellId":"1R76879I","checksum":"231226be2fb4a53d7e8f84e15016e7354783c06a0b14cae3cb613e5c726d7389","readerVersion":"GDAL 3.2.2","processedAt":"2026-08-11T13:43:44.753Z"}}},{"type":"Feature","geometry":{"type":"Point","coordinates":[3.8051705,51.2162846]},"properties":{"chartedValueMetres":2.4,"chartedValueRelationToDatum":"below","depthDatum":"Approximate LAT","depthDatumCode":42,"depthDatumStatus":"VERIFIED_FROM_OFFICIAL_DOCUMENTATION","verticalDatum":"Local Datum","verticalDatumCode":24,"napIdentityStatus":"UNVERIFIED","sourceFeatureLnam":"1F2B6A394BB47538","sourceCellId":"1R76879I","sourceChecksum":"231226be2fb4a53d7e8f84e15016e7354783c06a0b14cae3cb613e5c726d7389","pipelineFeatureId":"1R76879I/SOUNDG/1279477027/1","provenance":{"cellId":"1R76879I","checksum":"231226be2fb4a53d7e8f84e15016e7354783c06a0b14cae3cb613e5c726d7389","readerVersion":"GDAL 3.2.2","processedAt":"2026-08-11T13:43:44.753Z"}}},{"type":"Feature","geometry":{"type":"Point","coordinates":[3.8012052,51.2105567]},"properties":{"chartedValueMetres":5.4,"chartedValueRelationToDatum":"below","depthDatum":"Approximate LAT","depthDatumCode":42,"depthDatumStatus":"VERIFIED_FROM_OFFICIAL_DOCUMENTATION","verticalDatum":"Local Datum","verticalDatumCode":24,"napIdentityStatus":"UNVERIFIED","sourceFeatureLnam":"1F2B6A394BB47538","sourceCellId":"1R76879I","sourceChecksum":"231226be2fb4a53d7e8f84e15016e7354783c06a0b14cae3cb613e5c726d7389","pipelineFeatureId":"1R76879I/SOUNDG/1279477027/2","provenance":{"cellId":"1R76879I","checksum":"231226be2fb4a53d7e8f84e15016e7354783c06a0b14cae3cb613e5c726d7389","readerVersion":"GDAL 3.2.2","processedAt":"2026-08-11T13:43:44.753Z"}}},{"type":"Feature","geometry":{"type":"Point","coordinates":[3.8074611,51.2244518]},"properties":{"chartedValueMetres":2.1,"chartedValueRelationToDatum":"below","depthDatum":"Approximate LAT","depthDatumCode":42,"depthDatumStatus":"VERIFIED_FROM_OFFICIAL_DOCUMENTATION","verticalDatum":"Local Datum","verticalDatumCode":24,"napIdentityStatus":"UNVERIFIED","sourceFeatureLnam":"1F2B6A394BB47539","sourceCellId":"1R76879I","sourceChecksum":"231226be2fb4a53d7e8f84e15016e7354783c06a0b14cae3cb613e5c726d7389","pipelineFeatureId":"1R76879I/SOUNDG/1279477028/0","provenance":{"cellId":"1R76879I","checksum":"231226be2fb4a53d7e8f84e15016e7354783c06a0b14cae3cb613e5c726d7389","readerVersion":"GDAL 3.2.2","processedAt":"2026-08-11T13:43:44.753Z"}}},{"type":"Feature","geometry":{"type":"Point","coordinates":[3.8047128,51.2146691]},"properties":{"chartedValueMetres":2.7,"chartedValueRelationToDatum":"below","depthDatum":"Approximate LAT","depthDatumCode":42,"depthDatumStatus":"VERIFIED_FROM_OFFICIAL_DOCUMENTATION","verticalDatum":"Local Datum","verticalDatumCode":24,"napIdentityStatus":"UNVERIFIED","sourceFeatureLnam":"1F2B6A394BB47539","sourceCellId":"1R76879I","sourceChecksum":"231226be2fb4a53d7e8f84e15016e7354783c06a0b14cae3cb613e5c726d7389","pipelineFeatureId":"1R76879I/SOUNDG/1279477028/1","provenance":{"cellId":"1R76879I","checksum":"231226be2fb4a53d7e8f84e15016e7354783c06a0b14cae3cb613e5c726d7389","readerVersion":"GDAL 3.2.2","processedAt":"2026-08-11T13:43:44.753Z"}}},{"type":"Feature","geometry":{"type":"Point","coordinates":[3.8029472,51.2201666]},"properties":{"chartedValueMetres":3.9,"chartedValueRelationToDatum":"below","depthDatum":"Approximate LAT","depthDatumCode":42,"depthDatumStatus":"VERIFIED_FROM_OFFICIAL_DOCUMENTATION","verticalDatum":"Local Datum","verticalDatumCode":24,"napIdentityStatus":"UNVERIFIED","sourceFeatureLnam":"1F2B6A394BB47539","sourceCellId":"1R76879I","sourceChecksum":"231226be2fb4a53d7e8f84e15016e7354783c06a0b14cae3cb613e5c726d7389","pipelineFeatureId":"1R76879I/SOUNDG/1279477028/2","provenance":{"cellId":"1R76879I","checksum":"231226be2fb4a53d7e8f84e15016e7354783c06a0b14cae3cb613e5c726d7389","readerVersion":"GDAL 3.2.2","processedAt":"2026-08-11T13:43:44.753Z"}}},{"type":"Feature","geometry":{"type":"Point","coordinates":[3.802919,51.2185481]},"properties":{"chartedValueMetres":4.3,"chartedValueRelationToDatum":"below","depthDatum":"Approximate LAT","depthDatumCode":42,"depthDatumStatus":"VERIFIED_FROM_OFFICIAL_DOCUMENTATION","verticalDatum":"Local Datum","verticalDatumCode":24,"napIdentityStatus":"UNVERIFIED","sourceFeatureLnam":"1F2B6A394BB47539","sourceCellId":"1R76879I","sourceChecksum":"231226be2fb4a53d7e8f84e15016e7354783c06a0b14cae3cb613e5c726d7389","pipelineFeatureId":"1R76879I/SOUNDG/1279477028/3","provenance":{"cellId":"1R76879I","checksum":"231226be2fb4a53d7e8f84e15016e7354783c06a0b14cae3cb613e5c726d7389","readerVersion":"GDAL 3.2.2","processedAt":"2026-08-11T13:43:44.753Z"}}},{"type":"Feature","geometry":{"type":"Point","coordinates":[3.8025748,51.2152233]},"properties":{"chartedValueMetres":5.4,"chartedValueRelationToDatum":"below","depthDatum":"Approximate LAT","depthDatumCode":42,"depthDatumStatus":"VERIFIED_FROM_OFFICIAL_DOCUMENTATION","verticalDatum":"Local Datum","verticalDatumCode":24,"napIdentityStatus":"UNVERIFIED","sourceFeatureLnam":"1F2B6A394BB47539","sourceCellId":"1R76879I","sourceChecksum":"231226be2fb4a53d7e8f84e15016e7354783c06a0b14cae3cb613e5c726d7389","pipelineFeatureId":"1R76879I/SOUNDG/1279477028/4","provenance":{"cellId":"1R76879I","checksum":"231226be2fb4a53d7e8f84e15016e7354783c06a0b14cae3cb613e5c726d7389","readerVersion":"GDAL 3.2.2","processedAt":"2026-08-11T13:43:44.753Z"}}},{"type":"Feature","geometry":{"type":"Point","coordinates":[3.8015165,51.2119933]},"properties":{"chartedValueMetres":5.6,"chartedValueRelationToDatum":"below","depthDatum":"Approximate LAT","depthDatumCode":42,"depthDatumStatus":"VERIFIED_FROM_OFFICIAL_DOCUMENTATION","verticalDatum":"Local Datum","verticalDatumCode":24,"napIdentityStatus":"UNVERIFIED","sourceFeatureLnam":"1F2B6A394BB47539","sourceCellId":"1R76879I","sourceChecksum":"231226be2fb4a53d7e8f84e15016e7354783c06a0b14cae3cb613e5c726d7389","pipelineFeatureId":"1R76879I/SOUNDG/1279477028/5","provenance":{"cellId":"1R76879I","checksum":"231226be2fb4a53d7e8f84e15016e7354783c06a0b14cae3cb613e5c726d7389","readerVersion":"GDAL 3.2.2","processedAt":"2026-08-11T13:43:44.753Z"}}},{"type":"Feature","geometry":{"type":"Point","coordinates":[3.803505,51.2110805]},"properties":{"chartedValueMetres":8,"chartedValueRelationToDatum":"below","depthDatum":"Approximate LAT","depthDatumCode":42,"depthDatumStatus":"VERIFIED_FROM_OFFICIAL_DOCUMENTATION","verticalDatum":"Local Datum","verticalDatumCode":24,"napIdentityStatus":"UNVERIFIED","sourceFeatureLnam":"1F2B6A394BB47539","sourceCellId":"1R76879I","sourceChecksum":"231226be2fb4a53d7e8f84e15016e7354783c06a0b14cae3cb613e5c726d7389","pipelineFeatureId":"1R76879I/SOUNDG/1279477028/6","provenance":{"cellId":"1R76879I","checksum":"231226be2fb4a53d7e8f84e15016e7354783c06a0b14cae3cb613e5c726d7389","readerVersion":"GDAL 3.2.2","processedAt":"2026-08-11T13:43:44.753Z"}}},{"type":"Feature","geometry":{"type":"Point","coordinates":[3.8035418,51.2214214]},"properties":{"chartedValueMetres":8.2,"chartedValueRelationToDatum":"below","depthDatum":"Approximate LAT","depthDatumCode":42,"depthDatumStatus":"VERIFIED_FROM_OFFICIAL_DOCUMENTATION","verticalDatum":"Local Datum","verticalDatumCode":24,"napIdentityStatus":"UNVERIFIED","sourceFeatureLnam":"1F2B6A394BB47539","sourceCellId":"1R76879I","sourceChecksum":"231226be2fb4a53d7e8f84e15016e7354783c06a0b14cae3cb613e5c726d7389","pipelineFeatureId":"1R76879I/SOUNDG/1279477028/7","provenance":{"cellId":"1R76879I","checksum":"231226be2fb4a53d7e8f84e15016e7354783c06a0b14cae3cb613e5c726d7389","readerVersion":"GDAL 3.2.2","processedAt":"2026-08-11T13:43:44.753Z"}}},{"type":"Feature","geometry":{"type":"Point","coordinates":[3.8051576,51.2237483]},"properties":{"chartedValueMetres":8.6,"chartedValueRelationToDatum":"below","depthDatum":"Approximate LAT","depthDatumCode":42,"depthDatumStatus":"VERIFIED_FROM_OFFICIAL_DOCUMENTATION","verticalDatum":"Local Datum","verticalDatumCode":24,"napIdentityStatus":"UNVERIFIED","sourceFeatureLnam":"1F2B6A394BB47539","sourceCellId":"1R76879I","sourceChecksum":"231226be2fb4a53d7e8f84e15016e7354783c06a0b14cae3cb613e5c726d7389","pipelineFeatureId":"1R76879I/SOUNDG/1279477028/8","provenance":{"cellId":"1R76879I","checksum":"231226be2fb4a53d7e8f84e15016e7354783c06a0b14cae3cb613e5c726d7389","readerVersion":"GDAL 3.2.2","processedAt":"2026-08-11T13:43:44.753Z"}}},{"type":"Feature","geometry":{"type":"Point","coordinates":[3.8048492,51.2224915]},"properties":{"chartedValueMetres":9.2,"chartedValueRelationToDatum":"below","depthDatum":"Approximate LAT","depthDatumCode":42,"depthDatumStatus":"VERIFIED_FROM_OFFICIAL_DOCUMENTATION","verticalDatum":"Local Datum","verticalDatumCode":24,"napIdentityStatus":"UNVERIFIED","sourceFeatureLnam":"1F2B6A394BB47539","sourceCellId":"1R76879I","sourceChecksum":"231226be2fb4a53d7e8f84e15016e7354783c06a0b14cae3cb613e5c726d7389","pipelineFeatureId":"1R76879I/SOUNDG/1279477028/9","provenance":{"cellId":"1R76879I","checksum":"231226be2fb4a53d7e8f84e15016e7354783c06a0b14cae3cb613e5c726d7389","readerVersion":"GDAL 3.2.2","processedAt":"2026-08-11T13:43:44.753Z"}}},{"type":"Feature","geometry":{"type":"Point","coordinates":[3.8050556,51.217904]},"properties":{"chartedValueMetres":9.7,"chartedValueRelationToDatum":"below","depthDatum":"Approximate LAT","depthDatumCode":42,"depthDatumStatus":"VERIFIED_FROM_OFFICIAL_DOCUMENTATION","verticalDatum":"Local Datum","verticalDatumCode":24,"napIdentityStatus":"UNVERIFIED","sourceFeatureLnam":"1F2B6A394BB47539","sourceCellId":"1R76879I","sourceChecksum":"231226be2fb4a53d7e8f84e15016e7354783c06a0b14cae3cb613e5c726d7389","pipelineFeatureId":"1R76879I/SOUNDG/1279477028/10","provenance":{"cellId":"1R76879I","checksum":"231226be2fb4a53d7e8f84e15016e7354783c06a0b14cae3cb613e5c726d7389","readerVersion":"GDAL 3.2.2","processedAt":"2026-08-11T13:43:44.753Z"}}},{"type":"Feature","geometry":{"type":"Point","coordinates":[3.8037398,51.2245674]},"properties":{"chartedValueMetres":1.6,"chartedValueRelationToDatum":"below","depthDatum":"Approximate LAT","depthDatumCode":42,"depthDatumStatus":"VERIFIED_FROM_OFFICIAL_DOCUMENTATION","verticalDatum":"Local Datum","verticalDatumCode":24,"napIdentityStatus":"UNVERIFIED","sourceFeatureLnam":"1F2B6A394BB4753A","sourceCellId":"1R76879I","sourceChecksum":"231226be2fb4a53d7e8f84e15016e7354783c06a0b14cae3cb613e5c726d7389","pipelineFeatureId":"1R76879I/SOUNDG/1279477029/0","provenance":{"cellId":"1R76879I","checksum":"231226be2fb4a53d7e8f84e15016e7354783c06a0b14cae3cb613e5c726d7389","readerVersion":"GDAL 3.2.2","processedAt":"2026-08-11T13:43:44.753Z"}}},{"type":"Feature","geometry":{"type":"Point","coordinates":[3.8050164,51.2156562]},"properties":{"chartedValueMetres":1.9,"chartedValueRelationToDatum":"below","depthDatum":"Approximate LAT","depthDatumCode":42,"depthDatumStatus":"VERIFIED_FROM_OFFICIAL_DOCUMENTATION","verticalDatum":"Local Datum","verticalDatumCode":24,"napIdentityStatus":"UNVERIFIED","sourceFeatureLnam":"1F2B6A394BB4753A","sourceCellId":"1R76879I","sourceChecksum":"231226be2fb4a53d7e8f84e15016e7354783c06a0b14cae3cb613e5c726d7389","pipelineFeatureId":"1R76879I/SOUNDG/1279477029/1","provenance":{"cellId":"1R76879I","checksum":"231226be2fb4a53d7e8f84e15016e7354783c06a0b14cae3cb613e5c726d7389","readerVersion":"GDAL 3.2.2","processedAt":"2026-08-11T13:43:44.753Z"}}},{"type":"Feature","geometry":{"type":"Point","coordinates":[3.8045587,51.2140407]},"properties":{"chartedValueMetres":2,"chartedValueRelationToDatum":"below","depthDatum":"Approximate LAT","depthDatumCode":42,"depthDatumStatus":"VERIFIED_FROM_OFFICIAL_DOCUMENTATION","verticalDatum":"Local Datum","verticalDatumCode":24,"napIdentityStatus":"UNVERIFIED","sourceFeatureLnam":"1F2B6A394BB4753A","sourceCellId":"1R76879I","sourceChecksum":"231226be2fb4a53d7e8f84e15016e7354783c06a0b14cae3cb613e5c726d7389","pipelineFeatureId":"1R76879I/SOUNDG/1279477029/2","provenance":{"cellId":"1R76879I","checksum":"231226be2fb4a53d7e8f84e15016e7354783c06a0b14cae3cb613e5c726d7389","readerVersion":"GDAL 3.2.2","processedAt":"2026-08-11T13:43:44.753Z"}}},{"type":"Feature","geometry":{"type":"Point","coordinates":[3.8057809,51.2184386]},"properties":{"chartedValueMetres":2.3,"chartedValueRelationToDatum":"below","depthDatum":"Approximate LAT","depthDatumCode":42,"depthDatumStatus":"VERIFIED_FROM_OFFICIAL_DOCUMENTATION","verticalDatum":"Local Datum","verticalDatumCode":24,"napIdentityStatus":"UNVERIFIED","sourceFeatureLnam":"1F2B6A394BB4753A","sourceCellId":"1R76879I","sourceChecksum":"231226be2fb4a53d7e8f84e15016e7354783c06a0b14cae3cb613e5c726d7389","pipelineFeatureId":"1R76879I/SOUNDG/1279477029/3","provenance":{"cellId":"1R76879I","checksum":"231226be2fb4a53d7e8f84e15016e7354783c06a0b14cae3cb613e5c726d7389","readerVersion":"GDAL 3.2.2","processedAt":"2026-08-11T13:43:44.753Z"}}},{"type":"Feature","geometry":{"type":"Point","coordinates":[3.8054757,51.2173616]},"properties":{"chartedValueMetres":2.3,"chartedValueRelationToDatum":"below","depthDatum":"Approximate LAT","depthDatumCode":42,"depthDatumStatus":"VERIFIED_FROM_OFFICIAL_DOCUMENTATION","verticalDatum":"Local Datum","verticalDatumCode":24,"napIdentityStatus":"UNVERIFIED","sourceFeatureLnam":"1F2B6A394BB4753A","sourceCellId":"1R76879I","sourceChecksum":"231226be2fb4a53d7e8f84e15016e7354783c06a0b14cae3cb613e5c726d7389","pipelineFeatureId":"1R76879I/SOUNDG/1279477029/4","provenance":{"cellId":"1R76879I","checksum":"231226be2fb4a53d7e8f84e15016e7354783c06a0b14cae3cb613e5c726d7389","readerVersion":"GDAL 3.2.2","processedAt":"2026-08-11T13:43:44.753Z"}}},{"type":"Feature","geometry":{"type":"Point","coordinates":[3.8071638,51.2238244]},"properties":{"chartedValueMetres":2.5,"chartedValueRelationToDatum":"below","depthDatum":"Approximate LAT","depthDatumCode":42,"depthDatumStatus":"VERIFIED_FROM_OFFICIAL_DOCUMENTATION","verticalDatum":"Local Datum","verticalDatumCode":24,"napIdentityStatus":"UNVERIFIED","sourceFeatureLnam":"1F2B6A394BB4753A","sourceCellId":"1R76879I","sourceChecksum":"231226be2fb4a53d7e8f84e15016e7354783c06a0b14cae3cb613e5c726d7389","pipelineFeatureId":"1R76879I/SOUNDG/1279477029/5","provenance":{"cellId":"1R76879I","checksum":"231226be2fb4a53d7e8f84e15016e7354783c06a0b14cae3cb613e5c726d7389","readerVersion":"GDAL 3.2.2","processedAt":"2026-08-11T13:43:44.753Z"}}},{"type":"Feature","geometry":{"type":"Point","coordinates":[3.8062465,51.2205036]},"properties":{"chartedValueMetres":2.6,"chartedValueRelationToDatum":"below","depthDatum":"Approximate LAT","depthDatumCode":42,"depthDatumStatus":"VERIFIED_FROM_OFFICIAL_DOCUMENTATION","verticalDatum":"Local Datum","verticalDatumCode":24,"napIdentityStatus":"UNVERIFIED","sourceFeatureLnam":"1F2B6A394BB4753A","sourceCellId":"1R76879I","sourceChecksum":"231226be2fb4a53d7e8f84e15016e7354783c06a0b14cae3cb613e5c726d7389","pipelineFeatureId":"1R76879I/SOUNDG/1279477029/6","provenance":{"cellId":"1R76879I","checksum":"231226be2fb4a53d7e8f84e15016e7354783c06a0b14cae3cb613e5c726d7389","readerVersion":"GDAL 3.2.2","processedAt":"2026-08-11T13:43:44.753Z"}}},{"type":"Feature","geometry":{"type":"Point","coordinates":[3.80293,51.2191775]},"properties":{"chartedValueMetres":4.1,"chartedValueRelationToDatum":"below","depthDatum":"Approximate LAT","depthDatumCode":42,"depthDatumStatus":"VERIFIED_FROM_OFFICIAL_DOCUMENTATION","verticalDatum":"Local Datum","verticalDatumCode":24,"napIdentityStatus":"UNVERIFIED","sourceFeatureLnam":"1F2B6A394BB4753A","sourceCellId":"1R76879I","sourceChecksum":"231226be2fb4a53d7e8f84e15016e7354783c06a0b14cae3cb613e5c726d7389","pipelineFeatureId":"1R76879I/SOUNDG/1279477029/7","provenance":{"cellId":"1R76879I","checksum":"231226be2fb4a53d7e8f84e15016e7354783c06a0b14cae3cb613e5c726d7389","readerVersion":"GDAL 3.2.2","processedAt":"2026-08-11T13:43:44.753Z"}}},{"type":"Feature","geometry":{"type":"Point","coordinates":[3.8047421,51.2245605]},"properties":{"chartedValueMetres":4.6,"chartedValueRelationToDatum":"below","depthDatum":"Approximate LAT","depthDatumCode":42,"depthDatumStatus":"VERIFIED_FROM_OFFICIAL_DOCUMENTATION","verticalDatum":"Local Datum","verticalDatumCode":24,"napIdentityStatus":"UNVERIFIED","sourceFeatureLnam":"1F2B6A394BB4753A","sourceCellId":"1R76879I","sourceChecksum":"231226be2fb4a53d7e8f84e15016e7354783c06a0b14cae3cb613e5c726d7389","pipelineFeatureId":"1R76879I/SOUNDG/1279477029/8","provenance":{"cellId":"1R76879I","checksum":"231226be2fb4a53d7e8f84e15016e7354783c06a0b14cae3cb613e5c726d7389","readerVersion":"GDAL 3.2.2","processedAt":"2026-08-11T13:43:44.753Z"}}},{"type":"Feature","geometry":{"type":"Point","coordinates":[3.8019694,51.2133391]},"properties":{"chartedValueMetres":5.6,"chartedValueRelationToDatum":"below","depthDatum":"Approximate LAT","depthDatumCode":42,"depthDatumStatus":"VERIFIED_FROM_OFFICIAL_DOCUMENTATION","verticalDatum":"Local Datum","verticalDatumCode":24,"napIdentityStatus":"UNVERIFIED","sourceFeatureLnam":"1F2B6A394BB4753A","sourceCellId":"1R76879I","sourceChecksum":"231226be2fb4a53d7e8f84e15016e7354783c06a0b14cae3cb613e5c726d7389","pipelineFeatureId":"1R76879I/SOUNDG/1279477029/9","provenance":{"cellId":"1R76879I","checksum":"231226be2fb4a53d7e8f84e15016e7354783c06a0b14cae3cb613e5c726d7389","readerVersion":"GDAL 3.2.2","processedAt":"2026-08-11T13:43:44.753Z"}}},{"type":"Feature","geometry":{"type":"Point","coordinates":[3.8043031,51.224024]},"properties":{"chartedValueMetres":5.8,"chartedValueRelationToDatum":"below","depthDatum":"Approximate LAT","depthDatumCode":42,"depthDatumStatus":"VERIFIED_FROM_OFFICIAL_DOCUMENTATION","verticalDatum":"Local Datum","verticalDatumCode":24,"napIdentityStatus":"UNVERIFIED","sourceFeatureLnam":"1F2B6A394BB4753A","sourceCellId":"1R76879I","sourceChecksum":"231226be2fb4a53d7e8f84e15016e7354783c06a0b14cae3cb613e5c726d7389","pipelineFeatureId":"1R76879I/SOUNDG/1279477029/10","provenance":{"cellId":"1R76879I","checksum":"231226be2fb4a53d7e8f84e15016e7354783c06a0b14cae3cb613e5c726d7389","readerVersion":"GDAL 3.2.2","processedAt":"2026-08-11T13:43:44.753Z"}}},{"type":"Feature","geometry":{"type":"Point","coordinates":[3.8025639,51.2145939]},"properties":{"chartedValueMetres":5.8,"chartedValueRelationToDatum":"below","depthDatum":"Approximate LAT","depthDatumCode":42,"depthDatumStatus":"VERIFIED_FROM_OFFICIAL_DOCUMENTATION","verticalDatum":"Local Datum","verticalDatumCode":24,"napIdentityStatus":"UNVERIFIED","sourceFeatureLnam":"1F2B6A394BB4753A","sourceCellId":"1R76879I","sourceChecksum":"231226be2fb4a53d7e8f84e15016e7354783c06a0b14cae3cb613e5c726d7389","pipelineFeatureId":"1R76879I/SOUNDG/1279477029/11","provenance":{"cellId":"1R76879I","checksum":"231226be2fb4a53d7e8f84e15016e7354783c06a0b14cae3cb613e5c726d7389","readerVersion":"GDAL 3.2.2","processedAt":"2026-08-11T13:43:44.753Z"}}},{"type":"Feature","geometry":{"type":"Point","coordinates":[3.8040666,51.2104471]},"properties":{"chartedValueMetres":5.9,"chartedValueRelationToDatum":"below","depthDatum":"Approximate LAT","depthDatumCode":42,"depthDatumStatus":"VERIFIED_FROM_OFFICIAL_DOCUMENTATION","verticalDatum":"Local Datum","verticalDatumCode":24,"napIdentityStatus":"UNVERIFIED","sourceFeatureLnam":"1F2B6A394BB4753A","sourceCellId":"1R76879I","sourceChecksum":"231226be2fb4a53d7e8f84e15016e7354783c06a0b14cae3cb613e5c726d7389","pipelineFeatureId":"1R76879I/SOUNDG/1279477029/12","provenance":{"cellId":"1R76879I","checksum":"231226be2fb4a53d7e8f84e15016e7354783c06a0b14cae3cb613e5c726d7389","readerVersion":"GDAL 3.2.2","processedAt":"2026-08-11T13:43:44.753Z"}}},{"type":"Feature","geometry":{"type":"Point","coordinates":[3.8013624,51.2113649]},"properties":{"chartedValueMetres":5.9,"chartedValueRelationToDatum":"below","depthDatum":"Approximate LAT","depthDatumCode":42,"depthDatumStatus":"VERIFIED_FROM_OFFICIAL_DOCUMENTATION","verticalDatum":"Local Datum","verticalDatumCode":24,"napIdentityStatus":"UNVERIFIED","sourceFeatureLnam":"1F2B6A394BB4753A","sourceCellId":"1R76879I","sourceChecksum":"231226be2fb4a53d7e8f84e15016e7354783c06a0b14cae3cb613e5c726d7389","pipelineFeatureId":"1R76879I/SOUNDG/1279477029/13","provenance":{"cellId":"1R76879I","checksum":"231226be2fb4a53d7e8f84e15016e7354783c06a0b14cae3cb613e5c726d7389","readerVersion":"GDAL 3.2.2","processedAt":"2026-08-11T13:43:44.753Z"}}},{"type":"Feature","geometry":{"type":"Point","coordinates":[3.802743,51.216661]},"properties":{"chartedValueMetres":6.1,"chartedValueRelationToDatum":"below","depthDatum":"Approximate LAT","depthDatumCode":42,"depthDatumStatus":"VERIFIED_FROM_OFFICIAL_DOCUMENTATION","verticalDatum":"Local Datum","verticalDatumCode":24,"napIdentityStatus":"UNVERIFIED","sourceFeatureLnam":"1F2B6A394BB4753A","sourceCellId":"1R76879I","sourceChecksum":"231226be2fb4a53d7e8f84e15016e7354783c06a0b14cae3cb613e5c726d7389","pipelineFeatureId":"1R76879I/SOUNDG/1279477029/14","provenance":{"cellId":"1R76879I","checksum":"231226be2fb4a53d7e8f84e15016e7354783c06a0b14cae3cb613e5c726d7389","readerVersion":"GDAL 3.2.2","processedAt":"2026-08-11T13:43:44.753Z"}}},{"type":"Feature","geometry":{"type":"Point","coordinates":[3.804149,51.2233956]},"properties":{"chartedValueMetres":6.9,"chartedValueRelationToDatum":"below","depthDatum":"Approximate LAT","depthDatumCode":42,"depthDatumStatus":"VERIFIED_FROM_OFFICIAL_DOCUMENTATION","verticalDatum":"Local Datum","verticalDatumCode":24,"napIdentityStatus":"UNVERIFIED","sourceFeatureLnam":"1F2B6A394BB4753A","sourceCellId":"1R76879I","sourceChecksum":"231226be2fb4a53d7e8f84e15016e7354783c06a0b14cae3cb613e5c726d7389","pipelineFeatureId":"1R76879I/SOUNDG/1279477029/15","provenance":{"cellId":"1R76879I","checksum":"231226be2fb4a53d7e8f84e15016e7354783c06a0b14cae3cb613e5c726d7389","readerVersion":"GDAL 3.2.2","processedAt":"2026-08-11T13:43:44.753Z"}}},{"type":"Feature","geometry":{"type":"Point","coordinates":[3.8039438,51.211617]},"properties":{"chartedValueMetres":7.4,"chartedValueRelationToDatum":"below","depthDatum":"Approximate LAT","depthDatumCode":42,"depthDatumStatus":"VERIFIED_FROM_OFFICIAL_DOCUMENTATION","verticalDatum":"Local Datum","verticalDatumCode":24,"napIdentityStatus":"UNVERIFIED","sourceFeatureLnam":"1F2B6A394BB4753A","sourceCellId":"1R76879I","sourceChecksum":"231226be2fb4a53d7e8f84e15016e7354783c06a0b14cae3cb613e5c726d7389","pipelineFeatureId":"1R76879I/SOUNDG/1279477029/16","provenance":{"cellId":"1R76879I","checksum":"231226be2fb4a53d7e8f84e15016e7354783c06a0b14cae3cb613e5c726d7389","readerVersion":"GDAL 3.2.2","processedAt":"2026-08-11T13:43:44.753Z"}}},{"type":"Feature","geometry":{"type":"Point","coordinates":[3.802552,51.2221476]},"properties":{"chartedValueMetres":7.5,"chartedValueRelationToDatum":"below","depthDatum":"Approximate LAT","depthDatumCode":42,"depthDatumStatus":"VERIFIED_FROM_OFFICIAL_DOCUMENTATION","verticalDatum":"Local Datum","verticalDatumCode":24,"napIdentityStatus":"UNVERIFIED","sourceFeatureLnam":"1F2B6A394BB4753A","sourceCellId":"1R76879I","sourceChecksum":"231226be2fb4a53d7e8f84e15016e7354783c06a0b14cae3cb613e5c726d7389","pipelineFeatureId":"1R76879I/SOUNDG/1279477029/17","provenance":{"cellId":"1R76879I","checksum":"231226be2fb4a53d7e8f84e15016e7354783c06a0b14cae3cb613e5c726d7389","readerVersion":"GDAL 3.2.2","processedAt":"2026-08-11T13:43:44.753Z"}}},{"type":"Feature","geometry":{"type":"Point","coordinates":[3.8039948,51.2227672]},"properties":{"chartedValueMetres":7.8,"chartedValueRelationToDatum":"below","depthDatum":"Approximate LAT","depthDatumCode":42,"depthDatumStatus":"VERIFIED_FROM_OFFICIAL_DOCUMENTATION","verticalDatum":"Local Datum","verticalDatumCode":24,"napIdentityStatus":"UNVERIFIED","sourceFeatureLnam":"1F2B6A394BB4753A","sourceCellId":"1R76879I","sourceChecksum":"231226be2fb4a53d7e8f84e15016e7354783c06a0b14cae3cb613e5c726d7389","pipelineFeatureId":"1R76879I/SOUNDG/1279477029/18","provenance":{"cellId":"1R76879I","checksum":"231226be2fb4a53d7e8f84e15016e7354783c06a0b14cae3cb613e5c726d7389","readerVersion":"GDAL 3.2.2","processedAt":"2026-08-11T13:43:44.753Z"}}},{"type":"Feature","geometry":{"type":"Point","coordinates":[3.8039823,51.2220479]},"properties":{"chartedValueMetres":8.2,"chartedValueRelationToDatum":"below","depthDatum":"Approximate LAT","depthDatumCode":42,"depthDatumStatus":"VERIFIED_FROM_OFFICIAL_DOCUMENTATION","verticalDatum":"Local Datum","verticalDatumCode":24,"napIdentityStatus":"UNVERIFIED","sourceFeatureLnam":"1F2B6A394BB4753A","sourceCellId":"1R76879I","sourceChecksum":"231226be2fb4a53d7e8f84e15016e7354783c06a0b14cae3cb613e5c726d7389","pipelineFeatureId":"1R76879I/SOUNDG/1279477029/19","provenance":{"cellId":"1R76879I","checksum":"231226be2fb4a53d7e8f84e15016e7354783c06a0b14cae3cb613e5c726d7389","readerVersion":"GDAL 3.2.2","processedAt":"2026-08-11T13:43:44.753Z"}}},{"type":"Feature","geometry":{"type":"Point","coordinates":[3.8036709,51.2206112]},"properties":{"chartedValueMetres":8.3,"chartedValueRelationToDatum":"below","depthDatum":"Approximate LAT","depthDatumCode":42,"depthDatumStatus":"VERIFIED_FROM_OFFICIAL_DOCUMENTATION","verticalDatum":"Local Datum","verticalDatumCode":24,"napIdentityStatus":"UNVERIFIED","sourceFeatureLnam":"1F2B6A394BB4753A","sourceCellId":"1R76879I","sourceChecksum":"231226be2fb4a53d7e8f84e15016e7354783c06a0b14cae3cb613e5c726d7389","pipelineFeatureId":"1R76879I/SOUNDG/1279477029/20","provenance":{"cellId":"1R76879I","checksum":"231226be2fb4a53d7e8f84e15016e7354783c06a0b14cae3cb613e5c726d7389","readerVersion":"GDAL 3.2.2","processedAt":"2026-08-11T13:43:44.753Z"}}},{"type":"Feature","geometry":{"type":"Point","coordinates":[3.8036537,51.2196222]},"properties":{"chartedValueMetres":8.3,"chartedValueRelationToDatum":"below","depthDatum":"Approximate LAT","depthDatumCode":42,"depthDatumStatus":"VERIFIED_FROM_OFFICIAL_DOCUMENTATION","verticalDatum":"Local Datum","verticalDatumCode":24,"napIdentityStatus":"UNVERIFIED","sourceFeatureLnam":"1F2B6A394BB4753A","sourceCellId":"1R76879I","sourceChecksum":"231226be2fb4a53d7e8f84e15016e7354783c06a0b14cae3cb613e5c726d7389","pipelineFeatureId":"1R76879I/SOUNDG/1279477029/21","provenance":{"cellId":"1R76879I","checksum":"231226be2fb4a53d7e8f84e15016e7354783c06a0b14cae3cb613e5c726d7389","readerVersion":"GDAL 3.2.2","processedAt":"2026-08-11T13:43:44.753Z"}}},{"type":"Feature","geometry":{"type":"Point","coordinates":[3.8037843,51.2189019]},"properties":{"chartedValueMetres":8.6,"chartedValueRelationToDatum":"below","depthDatum":"Approximate LAT","depthDatumCode":42,"depthDatumStatus":"VERIFIED_FROM_OFFICIAL_DOCUMENTATION","verticalDatum":"Local Datum","verticalDatumCode":24,"napIdentityStatus":"UNVERIFIED","sourceFeatureLnam":"1F2B6A394BB4753A","sourceCellId":"1R76879I","sourceChecksum":"231226be2fb4a53d7e8f84e15016e7354783c06a0b14cae3cb613e5c726d7389","pipelineFeatureId":"1R76879I/SOUNDG/1279477029/22","provenance":{"cellId":"1R76879I","checksum":"231226be2fb4a53d7e8f84e15016e7354783c06a0b14cae3cb613e5c726d7389","readerVersion":"GDAL 3.2.2","processedAt":"2026-08-11T13:43:44.753Z"}}},{"type":"Feature","geometry":{"type":"Point","coordinates":[3.8050034,51.2231199]},"properties":{"chartedValueMetres":8.8,"chartedValueRelationToDatum":"below","depthDatum":"Approximate LAT","depthDatumCode":42,"depthDatumStatus":"VERIFIED_FROM_OFFICIAL_DOCUMENTATION","verticalDatum":"Local Datum","verticalDatumCode":24,"napIdentityStatus":"UNVERIFIED","sourceFeatureLnam":"1F2B6A394BB4753A","sourceCellId":"1R76879I","sourceChecksum":"231226be2fb4a53d7e8f84e15016e7354783c06a0b14cae3cb613e5c726d7389","pipelineFeatureId":"1R76879I/SOUNDG/1279477029/23","provenance":{"cellId":"1R76879I","checksum":"231226be2fb4a53d7e8f84e15016e7354783c06a0b14cae3cb613e5c726d7389","readerVersion":"GDAL 3.2.2","processedAt":"2026-08-11T13:43:44.753Z"}}},{"type":"Feature","geometry":{"type":"Point","coordinates":[3.8043962,51.2211458]},"properties":{"chartedValueMetres":9,"chartedValueRelationToDatum":"below","depthDatum":"Approximate LAT","depthDatumCode":42,"depthDatumStatus":"VERIFIED_FROM_OFFICIAL_DOCUMENTATION","verticalDatum":"Local Datum","verticalDatumCode":24,"napIdentityStatus":"UNVERIFIED","sourceFeatureLnam":"1F2B6A394BB4753A","sourceCellId":"1R76879I","sourceChecksum":"231226be2fb4a53d7e8f84e15016e7354783c06a0b14cae3cb613e5c726d7389","pipelineFeatureId":"1R76879I/SOUNDG/1279477029/24","provenance":{"cellId":"1R76879I","checksum":"231226be2fb4a53d7e8f84e15016e7354783c06a0b14cae3cb613e5c726d7389","readerVersion":"GDAL 3.2.2","processedAt":"2026-08-11T13:43:44.753Z"}}},{"type":"Feature","geometry":{"type":"Point","coordinates":[3.8036192,51.2176441]},"properties":{"chartedValueMetres":9,"chartedValueRelationToDatum":"below","depthDatum":"Approximate LAT","depthDatumCode":42,"depthDatumStatus":"VERIFIED_FROM_OFFICIAL_DOCUMENTATION","verticalDatum":"Local Datum","verticalDatumCode":24,"napIdentityStatus":"UNVERIFIED","sourceFeatureLnam":"1F2B6A394BB4753A","sourceCellId":"1R76879I","sourceChecksum":"231226be2fb4a53d7e8f84e15016e7354783c06a0b14cae3cb613e5c726d7389","pipelineFeatureId":"1R76879I/SOUNDG/1279477029/25","provenance":{"cellId":"1R76879I","checksum":"231226be2fb4a53d7e8f84e15016e7354783c06a0b14cae3cb613e5c726d7389","readerVersion":"GDAL 3.2.2","processedAt":"2026-08-11T13:43:44.753Z"}}},{"type":"Feature","geometry":{"type":"Point","coordinates":[3.8036716,51.2124282]},"properties":{"chartedValueMetres":9.3,"chartedValueRelationToDatum":"below","depthDatum":"Approximate LAT","depthDatumCode":42,"depthDatumStatus":"VERIFIED_FROM_OFFICIAL_DOCUMENTATION","verticalDatum":"Local Datum","verticalDatumCode":24,"napIdentityStatus":"UNVERIFIED","sourceFeatureLnam":"1F2B6A394BB4753A","sourceCellId":"1R76879I","sourceChecksum":"231226be2fb4a53d7e8f84e15016e7354783c06a0b14cae3cb613e5c726d7389","pipelineFeatureId":"1R76879I/SOUNDG/1279477029/26","provenance":{"cellId":"1R76879I","checksum":"231226be2fb4a53d7e8f84e15016e7354783c06a0b14cae3cb613e5c726d7389","readerVersion":"GDAL 3.2.2","processedAt":"2026-08-11T13:43:44.753Z"}}},{"type":"Feature","geometry":{"type":"Point","coordinates":[3.8037733,51.2182725]},"properties":{"chartedValueMetres":9.3,"chartedValueRelationToDatum":"below","depthDatum":"Approximate LAT","depthDatumCode":42,"depthDatumStatus":"VERIFIED_FROM_OFFICIAL_DOCUMENTATION","verticalDatum":"Local Datum","verticalDatumCode":24,"napIdentityStatus":"UNVERIFIED","sourceFeatureLnam":"1F2B6A394BB4753A","sourceCellId":"1R76879I","sourceChecksum":"231226be2fb4a53d7e8f84e15016e7354783c06a0b14cae3cb613e5c726d7389","pipelineFeatureId":"1R76879I/SOUNDG/1279477029/27","provenance":{"cellId":"1R76879I","checksum":"231226be2fb4a53d7e8f84e15016e7354783c06a0b14cae3cb613e5c726d7389","readerVersion":"GDAL 3.2.2","processedAt":"2026-08-11T13:43:44.753Z"}}},{"type":"Feature","geometry":{"type":"Point","coordinates":[3.8053608,51.218981]},"properties":{"chartedValueMetres":9.6,"chartedValueRelationToDatum":"below","depthDatum":"Approximate LAT","depthDatumCode":42,"depthDatumStatus":"VERIFIED_FROM_OFFICIAL_DOCUMENTATION","verticalDatum":"Local Datum","verticalDatumCode":24,"napIdentityStatus":"UNVERIFIED","sourceFeatureLnam":"1F2B6A394BB4753A","sourceCellId":"1R76879I","sourceChecksum":"231226be2fb4a53d7e8f84e15016e7354783c06a0b14cae3cb613e5c726d7389","pipelineFeatureId":"1R76879I/SOUNDG/1279477029/28","provenance":{"cellId":"1R76879I","checksum":"231226be2fb4a53d7e8f84e15016e7354783c06a0b14cae3cb613e5c726d7389","readerVersion":"GDAL 3.2.2","processedAt":"2026-08-11T13:43:44.753Z"}}},{"type":"Feature","geometry":{"type":"Point","coordinates":[3.8047504,51.216827]},"properties":{"chartedValueMetres":9.8,"chartedValueRelationToDatum":"below","depthDatum":"Approximate LAT","depthDatumCode":42,"depthDatumStatus":"VERIFIED_FROM_OFFICIAL_DOCUMENTATION","verticalDatum":"Local Datum","verticalDatumCode":24,"napIdentityStatus":"UNVERIFIED","sourceFeatureLnam":"1F2B6A394BB4753A","sourceCellId":"1R76879I","sourceChecksum":"231226be2fb4a53d7e8f84e15016e7354783c06a0b14cae3cb613e5c726d7389","pipelineFeatureId":"1R76879I/SOUNDG/1279477029/29","provenance":{"cellId":"1R76879I","checksum":"231226be2fb4a53d7e8f84e15016e7354783c06a0b14cae3cb613e5c726d7389","readerVersion":"GDAL 3.2.2","processedAt":"2026-08-11T13:43:44.753Z"}}},{"type":"Feature","geometry":{"type":"Point","coordinates":[3.8042928,51.2152115]},"properties":{"chartedValueMetres":10.5,"chartedValueRelationToDatum":"below","depthDatum":"Approximate LAT","depthDatumCode":42,"depthDatumStatus":"VERIFIED_FROM_OFFICIAL_DOCUMENTATION","verticalDatum":"Local Datum","verticalDatumCode":24,"napIdentityStatus":"UNVERIFIED","sourceFeatureLnam":"1F2B6A394BB4753A","sourceCellId":"1R76879I","sourceChecksum":"231226be2fb4a53d7e8f84e15016e7354783c06a0b14cae3cb613e5c726d7389","pipelineFeatureId":"1R76879I/SOUNDG/1279477029/30","provenance":{"cellId":"1R76879I","checksum":"231226be2fb4a53d7e8f84e15016e7354783c06a0b14cae3cb613e5c726d7389","readerVersion":"GDAL 3.2.2","processedAt":"2026-08-11T13:43:44.753Z"}}},{"type":"Feature","geometry":{"type":"Point","coordinates":[3.8043789,51.2201567]},"properties":{"chartedValueMetres":10.5,"chartedValueRelationToDatum":"below","depthDatum":"Approximate LAT","depthDatumCode":42,"depthDatumStatus":"VERIFIED_FROM_OFFICIAL_DOCUMENTATION","verticalDatum":"Local Datum","verticalDatumCode":24,"napIdentityStatus":"UNVERIFIED","sourceFeatureLnam":"1F2B6A394BB4753A","sourceCellId":"1R76879I","sourceChecksum":"231226be2fb4a53d7e8f84e15016e7354783c06a0b14cae3cb613e5c726d7389","pipelineFeatureId":"1R76879I/SOUNDG/1279477029/31","provenance":{"cellId":"1R76879I","checksum":"231226be2fb4a53d7e8f84e15016e7354783c06a0b14cae3cb613e5c726d7389","readerVersion":"GDAL 3.2.2","processedAt":"2026-08-11T13:43:44.753Z"}}},{"type":"Feature","geometry":{"type":"Point","coordinates":[3.8048367,51.2217722]},"properties":{"chartedValueMetres":10.7,"chartedValueRelationToDatum":"below","depthDatum":"Approximate LAT","depthDatumCode":42,"depthDatumStatus":"VERIFIED_FROM_OFFICIAL_DOCUMENTATION","verticalDatum":"Local Datum","verticalDatumCode":24,"napIdentityStatus":"UNVERIFIED","sourceFeatureLnam":"1F2B6A394BB4753A","sourceCellId":"1R76879I","sourceChecksum":"231226be2fb4a53d7e8f84e15016e7354783c06a0b14cae3cb613e5c726d7389","pipelineFeatureId":"1R76879I/SOUNDG/1279477029/32","provenance":{"cellId":"1R76879I","checksum":"231226be2fb4a53d7e8f84e15016e7354783c06a0b14cae3cb613e5c726d7389","readerVersion":"GDAL 3.2.2","processedAt":"2026-08-11T13:43:44.753Z"}}},{"type":"Feature","geometry":{"type":"Point","coordinates":[3.8055965,51.2242848]},"properties":{"chartedValueMetres":10.7,"chartedValueRelationToDatum":"below","depthDatum":"Approximate LAT","depthDatumCode":42,"depthDatumStatus":"VERIFIED_FROM_OFFICIAL_DOCUMENTATION","verticalDatum":"Local Datum","verticalDatumCode":24,"napIdentityStatus":"UNVERIFIED","sourceFeatureLnam":"1F2B6A394BB4753A","sourceCellId":"1R76879I","sourceChecksum":"231226be2fb4a53d7e8f84e15016e7354783c06a0b14cae3cb613e5c726d7389","pipelineFeatureId":"1R76879I/SOUNDG/1279477029/33","provenance":{"cellId":"1R76879I","checksum":"231226be2fb4a53d7e8f84e15016e7354783c06a0b14cae3cb613e5c726d7389","readerVersion":"GDAL 3.2.2","processedAt":"2026-08-11T13:43:44.753Z"}}},{"type":"Feature","geometry":{"type":"Point","coordinates":[3.8036083,51.2170147]},"properties":{"chartedValueMetres":10.8,"chartedValueRelationToDatum":"below","depthDatum":"Approximate LAT","depthDatumCode":42,"depthDatumStatus":"VERIFIED_FROM_OFFICIAL_DOCUMENTATION","verticalDatum":"Local Datum","verticalDatumCode":24,"napIdentityStatus":"UNVERIFIED","sourceFeatureLnam":"1F2B6A394BB4753A","sourceCellId":"1R76879I","sourceChecksum":"231226be2fb4a53d7e8f84e15016e7354783c06a0b14cae3cb613e5c726d7389","pipelineFeatureId":"1R76879I/SOUNDG/1279477029/34","provenance":{"cellId":"1R76879I","checksum":"231226be2fb4a53d7e8f84e15016e7354783c06a0b14cae3cb613e5c726d7389","readerVersion":"GDAL 3.2.2","processedAt":"2026-08-11T13:43:44.753Z"}}},{"type":"Feature","geometry":{"type":"Point","coordinates":[3.8055228,51.220059]},"properties":{"chartedValueMetres":11.8,"chartedValueRelationToDatum":"below","depthDatum":"Approximate LAT","depthDatumCode":42,"depthDatumStatus":"VERIFIED_FROM_OFFICIAL_DOCUMENTATION","verticalDatum":"Local Datum","verticalDatumCode":24,"napIdentityStatus":"UNVERIFIED","sourceFeatureLnam":"1F2B6A394BB4753A","sourceCellId":"1R76879I","sourceChecksum":"231226be2fb4a53d7e8f84e15016e7354783c06a0b14cae3cb613e5c726d7389","pipelineFeatureId":"1R76879I/SOUNDG/1279477029/35","provenance":{"cellId":"1R76879I","checksum":"231226be2fb4a53d7e8f84e15016e7354783c06a0b14cae3cb613e5c726d7389","readerVersion":"GDAL 3.2.2","processedAt":"2026-08-11T13:43:44.753Z"}}},{"type":"Feature","geometry":{"type":"Point","coordinates":[3.80644,51.2233798]},"properties":{"chartedValueMetres":12.1,"chartedValueRelationToDatum":"below","depthDatum":"Approximate LAT","depthDatumCode":42,"depthDatumStatus":"VERIFIED_FROM_OFFICIAL_DOCUMENTATION","verticalDatum":"Local Datum","verticalDatumCode":24,"napIdentityStatus":"UNVERIFIED","sourceFeatureLnam":"1F2B6A394BB4753A","sourceCellId":"1R76879I","sourceChecksum":"231226be2fb4a53d7e8f84e15016e7354783c06a0b14cae3cb613e5c726d7389","pipelineFeatureId":"1R76879I/SOUNDG/1279477029/36","provenance":{"cellId":"1R76879I","checksum":"231226be2fb4a53d7e8f84e15016e7354783c06a0b14cae3cb613e5c726d7389","readerVersion":"GDAL 3.2.2","processedAt":"2026-08-11T13:43:44.753Z"}}},{"type":"Feature","geometry":{"type":"Point","coordinates":[3.8020688,51.2108205]},"properties":{"chartedValueMetres":12.8,"chartedValueRelationToDatum":"below","depthDatum":"Approximate LAT","depthDatumCode":42,"depthDatumStatus":"VERIFIED_FROM_OFFICIAL_DOCUMENTATION","verticalDatum":"Local Datum","verticalDatumCode":24,"napIdentityStatus":"UNVERIFIED","sourceFeatureLnam":"1F2B6A394BB4753A","sourceCellId":"1R76879I","sourceChecksum":"231226be2fb4a53d7e8f84e15016e7354783c06a0b14cae3cb613e5c726d7389","pipelineFeatureId":"1R76879I/SOUNDG/1279477029/37","provenance":{"cellId":"1R76879I","checksum":"231226be2fb4a53d7e8f84e15016e7354783c06a0b14cae3cb613e5c726d7389","readerVersion":"GDAL 3.2.2","processedAt":"2026-08-11T13:43:44.753Z"}}},{"type":"Feature","geometry":{"type":"Point","coordinates":[3.8026773,51.2128846]},"properties":{"chartedValueMetres":13,"chartedValueRelationToDatum":"below","depthDatum":"Approximate LAT","depthDatumCode":42,"depthDatumStatus":"VERIFIED_FROM_OFFICIAL_DOCUMENTATION","verticalDatum":"Local Datum","verticalDatumCode":24,"napIdentityStatus":"UNVERIFIED","sourceFeatureLnam":"1F2B6A394BB4753A","sourceCellId":"1R76879I","sourceChecksum":"231226be2fb4a53d7e8f84e15016e7354783c06a0b14cae3cb613e5c726d7389","pipelineFeatureId":"1R76879I/SOUNDG/1279477029/38","provenance":{"cellId":"1R76879I","checksum":"231226be2fb4a53d7e8f84e15016e7354783c06a0b14cae3cb613e5c726d7389","readerVersion":"GDAL 3.2.2","processedAt":"2026-08-11T13:43:44.753Z"}}},{"type":"Feature","geometry":{"type":"Point","coordinates":[3.8035973,51.2163853]},"properties":{"chartedValueMetres":13,"chartedValueRelationToDatum":"below","depthDatum":"Approximate LAT","depthDatumCode":42,"depthDatumStatus":"VERIFIED_FROM_OFFICIAL_DOCUMENTATION","verticalDatum":"Local Datum","verticalDatumCode":24,"napIdentityStatus":"UNVERIFIED","sourceFeatureLnam":"1F2B6A394BB4753A","sourceCellId":"1R76879I","sourceChecksum":"231226be2fb4a53d7e8f84e15016e7354783c06a0b14cae3cb613e5c726d7389","pipelineFeatureId":"1R76879I/SOUNDG/1279477029/39","provenance":{"cellId":"1R76879I","checksum":"231226be2fb4a53d7e8f84e15016e7354783c06a0b14cae3cb613e5c726d7389","readerVersion":"GDAL 3.2.2","processedAt":"2026-08-11T13:43:44.753Z"}}},{"type":"Feature","geometry":{"type":"Point","coordinates":[3.8025232,51.2122562]},"properties":{"chartedValueMetres":13,"chartedValueRelationToDatum":"below","depthDatum":"Approximate LAT","depthDatumCode":42,"depthDatumStatus":"VERIFIED_FROM_OFFICIAL_DOCUMENTATION","verticalDatum":"Local Datum","verticalDatumCode":24,"napIdentityStatus":"UNVERIFIED","sourceFeatureLnam":"1F2B6A394BB4753A","sourceCellId":"1R76879I","sourceChecksum":"231226be2fb4a53d7e8f84e15016e7354783c06a0b14cae3cb613e5c726d7389","pipelineFeatureId":"1R76879I/SOUNDG/1279477029/40","provenance":{"cellId":"1R76879I","checksum":"231226be2fb4a53d7e8f84e15016e7354783c06a0b14cae3cb613e5c726d7389","readerVersion":"GDAL 3.2.2","processedAt":"2026-08-11T13:43:44.753Z"}}},{"type":"Feature","geometry":{"type":"Point","coordinates":[3.8034432,51.2157569]},"properties":{"chartedValueMetres":13,"chartedValueRelationToDatum":"below","depthDatum":"Approximate LAT","depthDatumCode":42,"depthDatumStatus":"VERIFIED_FROM_OFFICIAL_DOCUMENTATION","verticalDatum":"Local Datum","verticalDatumCode":24,"napIdentityStatus":"UNVERIFIED","sourceFeatureLnam":"1F2B6A394BB4753A","sourceCellId":"1R76879I","sourceChecksum":"231226be2fb4a53d7e8f84e15016e7354783c06a0b14cae3cb613e5c726d7389","pipelineFeatureId":"1R76879I/SOUNDG/1279477029/41","provenance":{"cellId":"1R76879I","checksum":"231226be2fb4a53d7e8f84e15016e7354783c06a0b14cae3cb613e5c726d7389","readerVersion":"GDAL 3.2.2","processedAt":"2026-08-11T13:43:44.753Z"}}},{"type":"Feature","geometry":{"type":"Point","coordinates":[3.8023691,51.2116278]},"properties":{"chartedValueMetres":13.1,"chartedValueRelationToDatum":"below","depthDatum":"Approximate LAT","depthDatumCode":42,"depthDatumStatus":"VERIFIED_FROM_OFFICIAL_DOCUMENTATION","verticalDatum":"Local Datum","verticalDatumCode":24,"napIdentityStatus":"UNVERIFIED","sourceFeatureLnam":"1F2B6A394BB4753A","sourceCellId":"1R76879I","sourceChecksum":"231226be2fb4a53d7e8f84e15016e7354783c06a0b14cae3cb613e5c726d7389","pipelineFeatureId":"1R76879I/SOUNDG/1279477029/42","provenance":{"cellId":"1R76879I","checksum":"231226be2fb4a53d7e8f84e15016e7354783c06a0b14cae3cb613e5c726d7389","readerVersion":"GDAL 3.2.2","processedAt":"2026-08-11T13:43:44.753Z"}}},{"type":"Feature","geometry":{"type":"Point","coordinates":[3.8035409,51.2131485]},"properties":{"chartedValueMetres":13.3,"chartedValueRelationToDatum":"below","depthDatum":"Approximate LAT","depthDatumCode":42,"depthDatumStatus":"VERIFIED_FROM_OFFICIAL_DOCUMENTATION","verticalDatum":"Local Datum","verticalDatumCode":24,"napIdentityStatus":"UNVERIFIED","sourceFeatureLnam":"1F2B6A394BB4753A","sourceCellId":"1R76879I","sourceChecksum":"231226be2fb4a53d7e8f84e15016e7354783c06a0b14cae3cb613e5c726d7389","pipelineFeatureId":"1R76879I/SOUNDG/1279477029/43","provenance":{"cellId":"1R76879I","checksum":"231226be2fb4a53d7e8f84e15016e7354783c06a0b14cae3cb613e5c726d7389","readerVersion":"GDAL 3.2.2","processedAt":"2026-08-11T13:43:44.753Z"}}},{"type":"Feature","geometry":{"type":"Point","coordinates":[3.8061394,51.2225726]},"properties":{"chartedValueMetres":13.3,"chartedValueRelationToDatum":"below","depthDatum":"Approximate LAT","depthDatumCode":42,"depthDatumStatus":"VERIFIED_FROM_OFFICIAL_DOCUMENTATION","verticalDatum":"Local Datum","verticalDatumCode":24,"napIdentityStatus":"UNVERIFIED","sourceFeatureLnam":"1F2B6A394BB4753A","sourceCellId":"1R76879I","sourceChecksum":"231226be2fb4a53d7e8f84e15016e7354783c06a0b14cae3cb613e5c726d7389","pipelineFeatureId":"1R76879I/SOUNDG/1279477029/44","provenance":{"cellId":"1R76879I","checksum":"231226be2fb4a53d7e8f84e15016e7354783c06a0b14cae3cb613e5c726d7389","readerVersion":"GDAL 3.2.2","processedAt":"2026-08-11T13:43:44.753Z"}}},{"type":"Feature","geometry":{"type":"Point","coordinates":[3.8058389,51.2217653]},"properties":{"chartedValueMetres":13.3,"chartedValueRelationToDatum":"below","depthDatum":"Approximate LAT","depthDatumCode":42,"depthDatumStatus":"VERIFIED_FROM_OFFICIAL_DOCUMENTATION","verticalDatum":"Local Datum","verticalDatumCode":24,"napIdentityStatus":"UNVERIFIED","sourceFeatureLnam":"1F2B6A394BB4753A","sourceCellId":"1R76879I","sourceChecksum":"231226be2fb4a53d7e8f84e15016e7354783c06a0b14cae3cb613e5c726d7389","pipelineFeatureId":"1R76879I/SOUNDG/1279477029/45","provenance":{"cellId":"1R76879I","checksum":"231226be2fb4a53d7e8f84e15016e7354783c06a0b14cae3cb613e5c726d7389","readerVersion":"GDAL 3.2.2","processedAt":"2026-08-11T13:43:44.753Z"}}},{"type":"Feature","geometry":{"type":"Point","coordinates":[3.8055416,51.2211379]},"properties":{"chartedValueMetres":13.3,"chartedValueRelationToDatum":"below","depthDatum":"Approximate LAT","depthDatumCode":42,"depthDatumStatus":"VERIFIED_FROM_OFFICIAL_DOCUMENTATION","verticalDatum":"Local Datum","verticalDatumCode":24,"napIdentityStatus":"UNVERIFIED","sourceFeatureLnam":"1F2B6A394BB4753A","sourceCellId":"1R76879I","sourceChecksum":"231226be2fb4a53d7e8f84e15016e7354783c06a0b14cae3cb613e5c726d7389","pipelineFeatureId":"1R76879I/SOUNDG/1279477029/46","provenance":{"cellId":"1R76879I","checksum":"231226be2fb4a53d7e8f84e15016e7354783c06a0b14cae3cb613e5c726d7389","readerVersion":"GDAL 3.2.2","processedAt":"2026-08-11T13:43:44.753Z"}}},{"type":"Feature","geometry":{"type":"Point","coordinates":[3.8066067,51.2247275]},"properties":{"chartedValueMetres":13.4,"chartedValueRelationToDatum":"below","depthDatum":"Approximate LAT","depthDatumCode":42,"depthDatumStatus":"VERIFIED_FROM_OFFICIAL_DOCUMENTATION","verticalDatum":"Local Datum","verticalDatumCode":24,"napIdentityStatus":"UNVERIFIED","sourceFeatureLnam":"1F2B6A394BB4753A","sourceCellId":"1R76879I","sourceChecksum":"231226be2fb4a53d7e8f84e15016e7354783c06a0b14cae3cb613e5c726d7389","pipelineFeatureId":"1R76879I/SOUNDG/1279477029/47","provenance":{"cellId":"1R76879I","checksum":"231226be2fb4a53d7e8f84e15016e7354783c06a0b14cae3cb613e5c726d7389","readerVersion":"GDAL 3.2.2","processedAt":"2026-08-11T13:43:44.753Z"}}},{"type":"Feature","geometry":{"type":"Point","coordinates":[3.8037045,51.2143163]},"properties":{"chartedValueMetres":13.7,"chartedValueRelationToDatum":"below","depthDatum":"Approximate LAT","depthDatumCode":42,"depthDatumStatus":"VERIFIED_FROM_OFFICIAL_DOCUMENTATION","verticalDatum":"Local Datum","verticalDatumCode":24,"napIdentityStatus":"UNVERIFIED","sourceFeatureLnam":"1F2B6A394BB4753A","sourceCellId":"1R76879I","sourceChecksum":"231226be2fb4a53d7e8f84e15016e7354783c06a0b14cae3cb613e5c726d7389","pipelineFeatureId":"1R76879I/SOUNDG/1279477029/48","provenance":{"cellId":"1R76879I","checksum":"231226be2fb4a53d7e8f84e15016e7354783c06a0b14cae3cb613e5c726d7389","readerVersion":"GDAL 3.2.2","processedAt":"2026-08-11T13:43:44.753Z"}}},{"type":"Feature","geometry":{"type":"Point","coordinates":[3.804508,51.2193465]},"properties":{"chartedValueMetres":13.7,"chartedValueRelationToDatum":"below","depthDatum":"Approximate LAT","depthDatumCode":42,"depthDatumStatus":"VERIFIED_FROM_OFFICIAL_DOCUMENTATION","verticalDatum":"Local Datum","verticalDatumCode":24,"napIdentityStatus":"UNVERIFIED","sourceFeatureLnam":"1F2B6A394BB4753A","sourceCellId":"1R76879I","sourceChecksum":"231226be2fb4a53d7e8f84e15016e7354783c06a0b14cae3cb613e5c726d7389","pipelineFeatureId":"1R76879I/SOUNDG/1279477029/49","provenance":{"cellId":"1R76879I","checksum":"231226be2fb4a53d7e8f84e15016e7354783c06a0b14cae3cb613e5c726d7389","readerVersion":"GDAL 3.2.2","processedAt":"2026-08-11T13:43:44.753Z"}}},{"type":"Feature","geometry":{"type":"Point","coordinates":[3.8034291,51.2149477]},"properties":{"chartedValueMetres":13.7,"chartedValueRelationToDatum":"below","depthDatum":"Approximate LAT","depthDatumCode":42,"depthDatumStatus":"VERIFIED_FROM_OFFICIAL_DOCUMENTATION","verticalDatum":"Local Datum","verticalDatumCode":24,"napIdentityStatus":"UNVERIFIED","sourceFeatureLnam":"1F2B6A394BB4753A","sourceCellId":"1R76879I","sourceChecksum":"231226be2fb4a53d7e8f84e15016e7354783c06a0b14cae3cb613e5c726d7389","pipelineFeatureId":"1R76879I/SOUNDG/1279477029/50","provenance":{"cellId":"1R76879I","checksum":"231226be2fb4a53d7e8f84e15016e7354783c06a0b14cae3cb613e5c726d7389","readerVersion":"GDAL 3.2.2","processedAt":"2026-08-11T13:43:44.753Z"}}},{"type":"Feature","geometry":{"type":"Point","coordinates":[3.8031209,51.2136909]},"properties":{"chartedValueMetres":13.8,"chartedValueRelationToDatum":"below","depthDatum":"Approximate LAT","depthDatumCode":42,"depthDatumStatus":"VERIFIED_FROM_OFFICIAL_DOCUMENTATION","verticalDatum":"Local Datum","verticalDatumCode":24,"napIdentityStatus":"UNVERIFIED","sourceFeatureLnam":"1F2B6A394BB4753A","sourceCellId":"1R76879I","sourceChecksum":"231226be2fb4a53d7e8f84e15016e7354783c06a0b14cae3cb613e5c726d7389","pipelineFeatureId":"1R76879I/SOUNDG/1279477029/51","provenance":{"cellId":"1R76879I","checksum":"231226be2fb4a53d7e8f84e15016e7354783c06a0b14cae3cb613e5c726d7389","readerVersion":"GDAL 3.2.2","processedAt":"2026-08-11T13:43:44.753Z"}}},{"type":"Feature","geometry":{"type":"Point","coordinates":[3.8046371,51.2185363]},"properties":{"chartedValueMetres":14.1,"chartedValueRelationToDatum":"below","depthDatum":"Approximate LAT","depthDatumCode":42,"depthDatumStatus":"VERIFIED_FROM_OFFICIAL_DOCUMENTATION","verticalDatum":"Local Datum","verticalDatumCode":24,"napIdentityStatus":"UNVERIFIED","sourceFeatureLnam":"1F2B6A394BB4753A","sourceCellId":"1R76879I","sourceChecksum":"231226be2fb4a53d7e8f84e15016e7354783c06a0b14cae3cb613e5c726d7389","pipelineFeatureId":"1R76879I/SOUNDG/1279477029/52","provenance":{"cellId":"1R76879I","checksum":"231226be2fb4a53d7e8f84e15016e7354783c06a0b14cae3cb613e5c726d7389","readerVersion":"GDAL 3.2.2","processedAt":"2026-08-11T13:43:44.753Z"}}},{"type":"Feature","geometry":{"type":"Point","coordinates":[3.8051027,51.2206014]},"properties":{"chartedValueMetres":14.2,"chartedValueRelationToDatum":"below","depthDatum":"Approximate LAT","depthDatumCode":42,"depthDatumStatus":"VERIFIED_FROM_OFFICIAL_DOCUMENTATION","verticalDatum":"Local Datum","verticalDatumCode":24,"napIdentityStatus":"UNVERIFIED","sourceFeatureLnam":"1F2B6A394BB4753A","sourceCellId":"1R76879I","sourceChecksum":"231226be2fb4a53d7e8f84e15016e7354783c06a0b14cae3cb613e5c726d7389","pipelineFeatureId":"1R76879I/SOUNDG/1279477029/53","provenance":{"cellId":"1R76879I","checksum":"231226be2fb4a53d7e8f84e15016e7354783c06a0b14cae3cb613e5c726d7389","readerVersion":"GDAL 3.2.2","processedAt":"2026-08-11T13:43:44.753Z"}}}]}