{"type":"FeatureCollection","features":[{"type":"Feature","geometry":{"type":"Point","coordinates":[3.44965,51.7116667]},"properties":{"dolphinKind":"buoy-lateral","rawObjectClass":"BOYLAT","sourceProperties":{"RCID":17586,"PRIM":1,"GRUP":2,"OBJL":17,"RVER":1,"AGEN":7979,"FIDN":1106834684,"FIDS":392,"LNAM":"1F2B41F8F4FC0188","LNAM_REFS":["1F2B41F8F4FC0189"],"FFPT_RIND":[2],"BOYSHP":1,"CATLAM":2,"COLOUR":["4"],"CONRAD":3,"OBJNAM":"MD 3","SCAMIN":200000,"SORDAT":"20030930","sourceCellId":"1R75K8XI","sourceChecksum":"f360a58a5002c58ad10863314e9df33603147e7c2e005791b76bb585224a8689","rawObjectClass":"BOYLAT","sourceStableId":"1F2B41F8F4FC0188"},"sourceKind":"official","official":true,"sourceCellId":"1R75K8XI","sourceStableId":"1F2B41F8F4FC0188","pipelineFeatureId":"1R75K8XI/BOYLAT/17586","provenance":{"cellId":"1R75K8XI","checksum":"f360a58a5002c58ad10863314e9df33603147e7c2e005791b76bb585224a8689","readerVersion":"GDAL 3.2.2","processedAt":"2026-08-11T18:29:20.995Z"}}},{"type":"Feature","geometry":{"type":"Point","coordinates":[3.44965,51.7116667]},"properties":{"dolphinKind":"light","rawObjectClass":"LIGHTS","sourceProperties":{"RCID":17587,"PRIM":1,"GRUP":2,"OBJL":75,"RVER":1,"AGEN":7979,"FIDN":1106834684,"FIDS":393,"LNAM":"1F2B41F8F4FC0189","COLOUR":["4"],"LITCHR":2,"SIGGRP":"(1)","SIGPER":5,"SCAMIN":200000,"SORDAT":"20030930","sourceCellId":"1R75K8XI","sourceChecksum":"f360a58a5002c58ad10863314e9df33603147e7c2e005791b76bb585224a8689","rawObjectClass":"LIGHTS","sourceStableId":"1F2B41F8F4FC0189"},"sourceKind":"official","official":true,"sourceCellId":"1R75K8XI","sourceStableId":"1F2B41F8F4FC0189","pipelineFeatureId":"1R75K8XI/LIGHTS/17587","provenance":{"cellId":"1R75K8XI","checksum":"f360a58a5002c58ad10863314e9df33603147e7c2e005791b76bb585224a8689","readerVersion":"GDAL 3.2.2","processedAt":"2026-08-11T18:29:20.995Z"}}},{"type":"Feature","geometry":{"type":"Point","coordinates":[3.4714,51.6867667]},"properties":{"dolphinKind":"topmark","rawObjectClass":"TOPMAR","sourceProperties":{"RCID":17584,"PRIM":1,"GRUP":2,"OBJL":144,"RVER":1,"AGEN":7979,"FIDN":1106834684,"FIDS":390,"LNAM":"1F2B41F8F4FC0186","COLOUR":["2"],"TOPSHP":10,"SCAMIN":200000,"SORDAT":"20030930","sourceCellId":"1R75K8XI","sourceChecksum":"f360a58a5002c58ad10863314e9df33603147e7c2e005791b76bb585224a8689","rawObjectClass":"TOPMAR","sourceStableId":"1F2B41F8F4FC0186"},"sourceKind":"official","official":true,"sourceCellId":"1R75K8XI","sourceStableId":"1F2B41F8F4FC0186","pipelineFeatureId":"1R75K8XI/TOPMAR/17584","provenance":{"cellId":"1R75K8XI","checksum":"f360a58a5002c58ad10863314e9df33603147e7c2e005791b76bb585224a8689","readerVersion":"GDAL 3.2.2","processedAt":"2026-08-11T18:29:20.995Z"},"associationRefsVerifiedInGdalOutput":false}},{"type":"Feature","geometry":{"type":"Point","coordinates":[3.4442167,51.6865]},"properties":{"dolphinKind":"topmark","rawObjectClass":"TOPMAR","sourceProperties":{"RCID":17606,"PRIM":1,"GRUP":2,"OBJL":144,"RVER":1,"AGEN":7979,"FIDN":1106834684,"FIDS":412,"LNAM":"1F2B41F8F4FC019C","COLOUR":["2"],"TOPSHP":11,"SCAMIN":200000,"SORDAT":"20030930","sourceCellId":"1R75K8XI","sourceChecksum":"f360a58a5002c58ad10863314e9df33603147e7c2e005791b76bb585224a8689","rawObjectClass":"TOPMAR","sourceStableId":"1F2B41F8F4FC019C"},"sourceKind":"official","official":true,"sourceCellId":"1R75K8XI","sourceStableId":"1F2B41F8F4FC019C","pipelineFeatureId":"1R75K8XI/TOPMAR/17606","provenance":{"cellId":"1R75K8XI","checksum":"f360a58a5002c58ad10863314e9df33603147e7c2e005791b76bb585224a8689","readerVersion":"GDAL 3.2.2","processedAt":"2026-08-11T18:29:20.995Z"},"associationRefsVerifiedInGdalOutput":false}},{"type":"Feature","geometry":{"type":"Point","coordinates":[3.4712167,51.6977333]},"properties":{"dolphinKind":"topmark","rawObjectClass":"TOPMAR","sourceProperties":{"RCID":26697344,"PRIM":1,"GRUP":2,"OBJL":144,"RVER":1,"AGEN":7979,"FIDN":26697344,"FIDS":1,"LNAM":"1F2B01975E800001","COLOUR":["2"],"TOPSHP":14,"SCAMIN":200000,"SORDAT":"20090309","SORIND":"NL,1R,reprt,Bass-020/09","sourceCellId":"1R75K8XI","sourceChecksum":"f360a58a5002c58ad10863314e9df33603147e7c2e005791b76bb585224a8689","rawObjectClass":"TOPMAR","sourceStableId":"1F2B01975E800001"},"sourceKind":"official","official":true,"sourceCellId":"1R75K8XI","sourceStableId":"1F2B01975E800001","pipelineFeatureId":"1R75K8XI/TOPMAR/26697344","provenance":{"cellId":"1R75K8XI","checksum":"f360a58a5002c58ad10863314e9df33603147e7c2e005791b76bb585224a8689","readerVersion":"GDAL 3.2.2","processedAt":"2026-08-11T18:29:20.995Z"},"associationRefsVerifiedInGdalOutput":false}}]}