{"type":"FeatureCollection","features":[{"type":"Feature","geometry":{"type":"Point","coordinates":[3.213,51.7923333]},"properties":{"dolphinKind":"buoy-lateral","rawObjectClass":"BOYLAT","sourceProperties":{"RCID":300086729,"PRIM":1,"GRUP":2,"OBJL":17,"RVER":1,"AGEN":7979,"FIDN":300086729,"FIDS":1,"LNAM":"1F2B11E2F5C90001","LNAM_REFS":["1F2B11E2F5C80001"],"FFPT_RIND":[2],"BOYSHP":1,"CATLAM":2,"COLOUR":["4"],"CONRAD":3,"OBJNAM":"SNW 1","SCAMIN":200000,"SORDAT":"20190325","sourceCellId":"1R75899I","sourceChecksum":"02a0227c3e39478efa3b2d7e454e1e394ca3d61412d3328686df78793a0992da","rawObjectClass":"BOYLAT","sourceStableId":"1F2B11E2F5C90001"},"sourceKind":"official","official":true,"sourceCellId":"1R75899I","sourceStableId":"1F2B11E2F5C90001","pipelineFeatureId":"1R75899I/BOYLAT/300086729","provenance":{"cellId":"1R75899I","checksum":"02a0227c3e39478efa3b2d7e454e1e394ca3d61412d3328686df78793a0992da","readerVersion":"GDAL 3.2.2","processedAt":"2026-08-11T18:29:20.995Z"}}},{"type":"Feature","geometry":{"type":"Point","coordinates":[3.3041667,51.793]},"properties":{"dolphinKind":"buoy-lateral","rawObjectClass":"BOYLAT","sourceProperties":{"RCID":300108734,"PRIM":1,"GRUP":2,"OBJL":17,"RVER":1,"AGEN":7979,"FIDN":300108734,"FIDS":1,"LNAM":"1F2B11E34BBE0001","LNAM_REFS":["1F2B11E34BBF0001"],"FFPT_RIND":[2],"BOYSHP":1,"CATLAM":2,"COLOUR":["4"],"CONRAD":3,"OBJNAM":"SNE 1","SCAMIN":200000,"SORDAT":"20190325","sourceCellId":"1R75899I","sourceChecksum":"02a0227c3e39478efa3b2d7e454e1e394ca3d61412d3328686df78793a0992da","rawObjectClass":"BOYLAT","sourceStableId":"1F2B11E34BBE0001"},"sourceKind":"official","official":true,"sourceCellId":"1R75899I","sourceStableId":"1F2B11E34BBE0001","pipelineFeatureId":"1R75899I/BOYLAT/300108734","provenance":{"cellId":"1R75899I","checksum":"02a0227c3e39478efa3b2d7e454e1e394ca3d61412d3328686df78793a0992da","readerVersion":"GDAL 3.2.2","processedAt":"2026-08-11T18:29:20.995Z"}}},{"type":"Feature","geometry":{"type":"Point","coordinates":[3.213,51.7923333]},"properties":{"dolphinKind":"light","rawObjectClass":"LIGHTS","sourceProperties":{"RCID":300086728,"PRIM":1,"GRUP":2,"OBJL":75,"RVER":1,"AGEN":7979,"FIDN":300086728,"FIDS":1,"LNAM":"1F2B11E2F5C80001","COLOUR":["4"],"LITCHR":3,"SIGGRP":"(1)","SIGPER":8,"SCAMIN":200000,"SORIND":"20190325","sourceCellId":"1R75899I","sourceChecksum":"02a0227c3e39478efa3b2d7e454e1e394ca3d61412d3328686df78793a0992da","rawObjectClass":"LIGHTS","sourceStableId":"1F2B11E2F5C80001"},"sourceKind":"official","official":true,"sourceCellId":"1R75899I","sourceStableId":"1F2B11E2F5C80001","pipelineFeatureId":"1R75899I/LIGHTS/300086728","provenance":{"cellId":"1R75899I","checksum":"02a0227c3e39478efa3b2d7e454e1e394ca3d61412d3328686df78793a0992da","readerVersion":"GDAL 3.2.2","processedAt":"2026-08-11T18:29:20.995Z"}}},{"type":"Feature","geometry":{"type":"Point","coordinates":[3.2563333,51.81]},"properties":{"dolphinKind":"light","rawObjectClass":"LIGHTS","sourceProperties":{"RCID":300106681,"PRIM":1,"GRUP":2,"OBJL":75,"RVER":1,"AGEN":7979,"FIDN":300106681,"FIDS":1,"LNAM":"1F2B11E343B90001","COLOUR":["1"],"LITCHR":5,"SIGGRP":"(3)","SIGPER":5,"SCAMIN":200000,"SORDAT":"20190325","sourceCellId":"1R75899I","sourceChecksum":"02a0227c3e39478efa3b2d7e454e1e394ca3d61412d3328686df78793a0992da","rawObjectClass":"LIGHTS","sourceStableId":"1F2B11E343B90001"},"sourceKind":"official","official":true,"sourceCellId":"1R75899I","sourceStableId":"1F2B11E343B90001","pipelineFeatureId":"1R75899I/LIGHTS/300106681","provenance":{"cellId":"1R75899I","checksum":"02a0227c3e39478efa3b2d7e454e1e394ca3d61412d3328686df78793a0992da","readerVersion":"GDAL 3.2.2","processedAt":"2026-08-11T18:29:20.995Z"}}},{"type":"Feature","geometry":{"type":"Point","coordinates":[3.3041667,51.793]},"properties":{"dolphinKind":"light","rawObjectClass":"LIGHTS","sourceProperties":{"RCID":300108735,"PRIM":1,"GRUP":2,"OBJL":75,"RVER":1,"AGEN":7979,"FIDN":300108735,"FIDS":1,"LNAM":"1F2B11E34BBF0001","COLOUR":["4"],"LITCHR":3,"SIGGRP":"(1)","SIGPER":8,"SCAMIN":200000,"SORDAT":"20190325","sourceCellId":"1R75899I","sourceChecksum":"02a0227c3e39478efa3b2d7e454e1e394ca3d61412d3328686df78793a0992da","rawObjectClass":"LIGHTS","sourceStableId":"1F2B11E34BBF0001"},"sourceKind":"official","official":true,"sourceCellId":"1R75899I","sourceStableId":"1F2B11E34BBF0001","pipelineFeatureId":"1R75899I/LIGHTS/300108735","provenance":{"cellId":"1R75899I","checksum":"02a0227c3e39478efa3b2d7e454e1e394ca3d61412d3328686df78793a0992da","readerVersion":"GDAL 3.2.2","processedAt":"2026-08-11T18:29:20.995Z"}}},{"type":"Feature","geometry":{"type":"Point","coordinates":[3.2563333,51.81]},"properties":{"dolphinKind":"topmark","rawObjectClass":"TOPMAR","sourceProperties":{"RCID":300106680,"PRIM":1,"GRUP":2,"OBJL":144,"RVER":1,"AGEN":7979,"FIDN":300106680,"FIDS":1,"LNAM":"1F2B11E343B80001","COLOUR":["2"],"TOPSHP":11,"SCAMIN":200000,"SORDAT":"20190325","sourceCellId":"1R75899I","sourceChecksum":"02a0227c3e39478efa3b2d7e454e1e394ca3d61412d3328686df78793a0992da","rawObjectClass":"TOPMAR","sourceStableId":"1F2B11E343B80001"},"sourceKind":"official","official":true,"sourceCellId":"1R75899I","sourceStableId":"1F2B11E343B80001","pipelineFeatureId":"1R75899I/TOPMAR/300106680","provenance":{"cellId":"1R75899I","checksum":"02a0227c3e39478efa3b2d7e454e1e394ca3d61412d3328686df78793a0992da","readerVersion":"GDAL 3.2.2","processedAt":"2026-08-11T18:29:20.995Z"},"associationRefsVerifiedInGdalOutput":false}}]}