{"type":"FeatureCollection","features":[{"type":"Feature","geometry":{"type":"Point","coordinates":[4.1654129,51.6142456]},"properties":{"dolphinKind":"beacon-special","rawObjectClass":"BCNSPP","sourceProperties":{"RCID":12362,"PRIM":1,"GRUP":2,"OBJL":9,"RVER":1,"AGEN":7979,"FIDN":1106210685,"FIDS":404,"LNAM":"1F2B41EF6F7D0194","BCNSHP":1,"CATSPM":["6"],"COLOUR":["2"],"SCAMIN":200000,"sourceCellId":"1R76W8LI","sourceChecksum":"1228405ba65ba70afec00c3b0ef5f459dd166a6df588805434383b3b731245ea","rawObjectClass":"BCNSPP","sourceStableId":"1F2B41EF6F7D0194"},"sourceKind":"official","official":true,"sourceCellId":"1R76W8LI","sourceStableId":"1F2B41EF6F7D0194","pipelineFeatureId":"1R76W8LI/BCNSPP/12362","provenance":{"cellId":"1R76W8LI","checksum":"1228405ba65ba70afec00c3b0ef5f459dd166a6df588805434383b3b731245ea","readerVersion":"GDAL 3.2.2","processedAt":"2026-08-10T09:47:03.733Z"}}},{"type":"Feature","geometry":{"type":"Point","coordinates":[4.1673279,51.6054343]},"properties":{"dolphinKind":"beacon-special","rawObjectClass":"BCNSPP","sourceProperties":{"RCID":12363,"PRIM":1,"GRUP":2,"OBJL":9,"RVER":1,"AGEN":7979,"FIDN":1106210685,"FIDS":405,"LNAM":"1F2B41EF6F7D0195","BCNSHP":1,"CATSPM":["6"],"COLOUR":["2"],"SCAMIN":200000,"sourceCellId":"1R76W8LI","sourceChecksum":"1228405ba65ba70afec00c3b0ef5f459dd166a6df588805434383b3b731245ea","rawObjectClass":"BCNSPP","sourceStableId":"1F2B41EF6F7D0195"},"sourceKind":"official","official":true,"sourceCellId":"1R76W8LI","sourceStableId":"1F2B41EF6F7D0195","pipelineFeatureId":"1R76W8LI/BCNSPP/12363","provenance":{"cellId":"1R76W8LI","checksum":"1228405ba65ba70afec00c3b0ef5f459dd166a6df588805434383b3b731245ea","readerVersion":"GDAL 3.2.2","processedAt":"2026-08-10T09:47:03.733Z"}}},{"type":"Feature","geometry":{"type":"Point","coordinates":[4.2013722,51.5852]},"properties":{"dolphinKind":"light","rawObjectClass":"LIGHTS","sourceProperties":{"RCID":16858,"PRIM":1,"GRUP":2,"OBJL":75,"RVER":1,"AGEN":7979,"FIDN":1106834597,"FIDS":489,"LNAM":"1F2B41F8F4A501E9","COLOUR":["6"],"LITCHR":2,"SIGGRP":"(1)","SIGPER":5,"SCAMIN":200000,"sourceCellId":"1R76W8LI","sourceChecksum":"1228405ba65ba70afec00c3b0ef5f459dd166a6df588805434383b3b731245ea","rawObjectClass":"LIGHTS","sourceStableId":"1F2B41F8F4A501E9"},"sourceKind":"official","official":true,"sourceCellId":"1R76W8LI","sourceStableId":"1F2B41F8F4A501E9","pipelineFeatureId":"1R76W8LI/LIGHTS/16858","provenance":{"cellId":"1R76W8LI","checksum":"1228405ba65ba70afec00c3b0ef5f459dd166a6df588805434383b3b731245ea","readerVersion":"GDAL 3.2.2","processedAt":"2026-08-10T09:47:03.733Z"}}},{"type":"Feature","geometry":{"type":"Point","coordinates":[4.1934167,51.5936683]},"properties":{"dolphinKind":"light","rawObjectClass":"LIGHTS","sourceProperties":{"RCID":19612,"PRIM":1,"GRUP":2,"OBJL":75,"RVER":1,"AGEN":7979,"FIDN":1106834753,"FIDS":313,"LNAM":"1F2B41F8F5410139","COLOUR":["4"],"LITCHR":7,"SIGGRP":"(1)","SIGPER":4,"SCAMIN":200000,"SORDAT":"20180507","SORIND":"NL,1R,Reprt,MD 204-18","sourceCellId":"1R76W8LI","sourceChecksum":"1228405ba65ba70afec00c3b0ef5f459dd166a6df588805434383b3b731245ea","rawObjectClass":"LIGHTS","sourceStableId":"1F2B41F8F5410139"},"sourceKind":"official","official":true,"sourceCellId":"1R76W8LI","sourceStableId":"1F2B41F8F5410139","pipelineFeatureId":"1R76W8LI/LIGHTS/19612","provenance":{"cellId":"1R76W8LI","checksum":"1228405ba65ba70afec00c3b0ef5f459dd166a6df588805434383b3b731245ea","readerVersion":"GDAL 3.2.2","processedAt":"2026-08-10T09:47:03.733Z"}}},{"type":"Feature","geometry":{"type":"Point","coordinates":[4.1913688,51.5932351]},"properties":{"dolphinKind":"light","rawObjectClass":"LIGHTS","sourceProperties":{"RCID":19614,"PRIM":1,"GRUP":2,"OBJL":75,"RVER":1,"AGEN":7979,"FIDN":1106834753,"FIDS":315,"LNAM":"1F2B41F8F541013B","COLOUR":["3"],"LITCHR":7,"SIGGRP":"(1)","SIGPER":4,"SCAMIN":200000,"sourceCellId":"1R76W8LI","sourceChecksum":"1228405ba65ba70afec00c3b0ef5f459dd166a6df588805434383b3b731245ea","rawObjectClass":"LIGHTS","sourceStableId":"1F2B41F8F541013B"},"sourceKind":"official","official":true,"sourceCellId":"1R76W8LI","sourceStableId":"1F2B41F8F541013B","pipelineFeatureId":"1R76W8LI/LIGHTS/19614","provenance":{"cellId":"1R76W8LI","checksum":"1228405ba65ba70afec00c3b0ef5f459dd166a6df588805434383b3b731245ea","readerVersion":"GDAL 3.2.2","processedAt":"2026-08-10T09:47:03.733Z"}}},{"type":"Feature","geometry":{"type":"Point","coordinates":[4.2092539,51.6247504]},"properties":{"dolphinKind":"light","rawObjectClass":"LIGHTS","sourceProperties":{"RCID":19630,"PRIM":1,"GRUP":2,"OBJL":75,"RVER":1,"AGEN":7979,"FIDN":1106834753,"FIDS":331,"LNAM":"1F2B41F8F541014B","COLOUR":["4"],"LITCHR":7,"SIGGRP":"(1)","SIGPER":4,"SCAMIN":200000,"sourceCellId":"1R76W8LI","sourceChecksum":"1228405ba65ba70afec00c3b0ef5f459dd166a6df588805434383b3b731245ea","rawObjectClass":"LIGHTS","sourceStableId":"1F2B41F8F541014B"},"sourceKind":"official","official":true,"sourceCellId":"1R76W8LI","sourceStableId":"1F2B41F8F541014B","pipelineFeatureId":"1R76W8LI/LIGHTS/19630","provenance":{"cellId":"1R76W8LI","checksum":"1228405ba65ba70afec00c3b0ef5f459dd166a6df588805434383b3b731245ea","readerVersion":"GDAL 3.2.2","processedAt":"2026-08-10T09:47:03.733Z"}}},{"type":"Feature","geometry":{"type":"Point","coordinates":[4.1994333,51.6184]},"properties":{"dolphinKind":"light","rawObjectClass":"LIGHTS","sourceProperties":{"RCID":46122649,"PRIM":1,"GRUP":2,"OBJL":75,"RVER":1,"AGEN":7979,"FIDN":46122649,"FIDS":1,"LNAM":"1F2B02BFC6990001","COLOUR":["4"],"LITCHR":7,"SIGGRP":"(1)","SIGPER":4,"SCAMIN":200000,"SORDAT":"20100413","SORIND":"NL,1R,reprt,DZD-BAS-2010/37","sourceCellId":"1R76W8LI","sourceChecksum":"1228405ba65ba70afec00c3b0ef5f459dd166a6df588805434383b3b731245ea","rawObjectClass":"LIGHTS","sourceStableId":"1F2B02BFC6990001"},"sourceKind":"official","official":true,"sourceCellId":"1R76W8LI","sourceStableId":"1F2B02BFC6990001","pipelineFeatureId":"1R76W8LI/LIGHTS/46122649","provenance":{"cellId":"1R76W8LI","checksum":"1228405ba65ba70afec00c3b0ef5f459dd166a6df588805434383b3b731245ea","readerVersion":"GDAL 3.2.2","processedAt":"2026-08-10T09:47:03.733Z"}}},{"type":"Feature","geometry":{"type":"Point","coordinates":[4.2090683,51.5791967]},"properties":{"dolphinKind":"light","rawObjectClass":"LIGHTS","sourceProperties":{"RCID":179277053,"PRIM":1,"GRUP":2,"OBJL":75,"RVER":1,"AGEN":7979,"FIDN":179277053,"FIDS":1,"LNAM":"1F2B0AAF8CFD0001","COLOUR":["4"],"LITCHR":7,"SIGGRP":"(1)","SIGPER":4,"SCAMIN":200000,"SORDAT":"20150115","SORIND":"NL,1R,reprt,DZD-BAS-2015/06","sourceCellId":"1R76W8LI","sourceChecksum":"1228405ba65ba70afec00c3b0ef5f459dd166a6df588805434383b3b731245ea","rawObjectClass":"LIGHTS","sourceStableId":"1F2B0AAF8CFD0001"},"sourceKind":"official","official":true,"sourceCellId":"1R76W8LI","sourceStableId":"1F2B0AAF8CFD0001","pipelineFeatureId":"1R76W8LI/LIGHTS/179277053","provenance":{"cellId":"1R76W8LI","checksum":"1228405ba65ba70afec00c3b0ef5f459dd166a6df588805434383b3b731245ea","readerVersion":"GDAL 3.2.2","processedAt":"2026-08-10T09:47:03.733Z"}}},{"type":"Feature","geometry":{"type":"Point","coordinates":[4.191725,51.6063117]},"properties":{"dolphinKind":"light","rawObjectClass":"LIGHTS","sourceProperties":{"RCID":213526701,"PRIM":1,"GRUP":2,"OBJL":75,"RVER":1,"AGEN":7979,"FIDN":213526701,"FIDS":1,"LNAM":"1F2B0CBA28AD0001","COLOUR":["4"],"LITCHR":7,"SIGGRP":"(1)","SIGPER":4,"SCAMIN":200000,"sourceCellId":"1R76W8LI","sourceChecksum":"1228405ba65ba70afec00c3b0ef5f459dd166a6df588805434383b3b731245ea","rawObjectClass":"LIGHTS","sourceStableId":"1F2B0CBA28AD0001"},"sourceKind":"official","official":true,"sourceCellId":"1R76W8LI","sourceStableId":"1F2B0CBA28AD0001","pipelineFeatureId":"1R76W8LI/LIGHTS/213526701","provenance":{"cellId":"1R76W8LI","checksum":"1228405ba65ba70afec00c3b0ef5f459dd166a6df588805434383b3b731245ea","readerVersion":"GDAL 3.2.2","processedAt":"2026-08-10T09:47:03.733Z"}}},{"type":"Feature","geometry":{"type":"Point","coordinates":[4.2024017,51.6227733]},"properties":{"dolphinKind":"light","rawObjectClass":"LIGHTS","sourceProperties":{"RCID":389487745,"PRIM":1,"GRUP":2,"OBJL":75,"RVER":1,"AGEN":7979,"FIDN":389487745,"FIDS":1,"LNAM":"1F2B17371C810001","COLOUR":["3"],"LITCHR":7,"SIGGRP":"(1)","SIGPER":4,"SCAMIN":200000,"sourceCellId":"1R76W8LI","sourceChecksum":"1228405ba65ba70afec00c3b0ef5f459dd166a6df588805434383b3b731245ea","rawObjectClass":"LIGHTS","sourceStableId":"1F2B17371C810001"},"sourceKind":"official","official":true,"sourceCellId":"1R76W8LI","sourceStableId":"1F2B17371C810001","pipelineFeatureId":"1R76W8LI/LIGHTS/389487745","provenance":{"cellId":"1R76W8LI","checksum":"1228405ba65ba70afec00c3b0ef5f459dd166a6df588805434383b3b731245ea","readerVersion":"GDAL 3.2.2","processedAt":"2026-08-10T09:47:03.733Z"}}},{"type":"Feature","geometry":{"type":"Point","coordinates":[4.1769261,51.6148406]},"properties":{"dolphinKind":"light","rawObjectClass":"LIGHTS","sourceProperties":{"RCID":428357794,"PRIM":1,"GRUP":2,"OBJL":75,"RVER":1,"AGEN":7979,"FIDN":428357794,"FIDS":1,"LNAM":"1F2B198838A20001","COLOUR":["3"],"LITCHR":1,"INFORM":"Spuilicht","SCAMIN":200000,"SORDAT":"20231025","SORIND":"NL,1R,rprt,ENCverbetering","sourceCellId":"1R76W8LI","sourceChecksum":"1228405ba65ba70afec00c3b0ef5f459dd166a6df588805434383b3b731245ea","rawObjectClass":"LIGHTS","sourceStableId":"1F2B198838A20001"},"sourceKind":"official","official":true,"sourceCellId":"1R76W8LI","sourceStableId":"1F2B198838A20001","pipelineFeatureId":"1R76W8LI/LIGHTS/428357794","provenance":{"cellId":"1R76W8LI","checksum":"1228405ba65ba70afec00c3b0ef5f459dd166a6df588805434383b3b731245ea","readerVersion":"GDAL 3.2.2","processedAt":"2026-08-10T09:47:03.733Z"}}},{"type":"Feature","geometry":{"type":"Point","coordinates":[4.1931383,51.610315]},"properties":{"dolphinKind":"light","rawObjectClass":"LIGHTS","sourceProperties":{"RCID":467737947,"PRIM":1,"GRUP":2,"OBJL":75,"RVER":1,"AGEN":7979,"FIDN":467737947,"FIDS":1,"LNAM":"1F2B1BE11D5B0001","COLOUR":["4"],"LITCHR":7,"SIGGRP":"(1)","SIGPER":4,"SCAMIN":200000,"sourceCellId":"1R76W8LI","sourceChecksum":"1228405ba65ba70afec00c3b0ef5f459dd166a6df588805434383b3b731245ea","rawObjectClass":"LIGHTS","sourceStableId":"1F2B1BE11D5B0001"},"sourceKind":"official","official":true,"sourceCellId":"1R76W8LI","sourceStableId":"1F2B1BE11D5B0001","pipelineFeatureId":"1R76W8LI/LIGHTS/467737947","provenance":{"cellId":"1R76W8LI","checksum":"1228405ba65ba70afec00c3b0ef5f459dd166a6df588805434383b3b731245ea","readerVersion":"GDAL 3.2.2","processedAt":"2026-08-10T09:47:03.733Z"}}},{"type":"Feature","geometry":{"type":"Point","coordinates":[4.1897933,51.5977533]},"properties":{"dolphinKind":"light","rawObjectClass":"LIGHTS","sourceProperties":{"RCID":470104655,"PRIM":1,"GRUP":2,"OBJL":75,"RVER":1,"AGEN":7979,"FIDN":470104655,"FIDS":1,"LNAM":"1F2B1C053A4F0001","COLOUR":["3"],"LITCHR":7,"SIGGRP":"(1)","SIGPER":4,"SCAMIN":200000,"SORDAT":"20220722","SORIND":"NL,1R,reprt,MD 399-22","sourceCellId":"1R76W8LI","sourceChecksum":"1228405ba65ba70afec00c3b0ef5f459dd166a6df588805434383b3b731245ea","rawObjectClass":"LIGHTS","sourceStableId":"1F2B1C053A4F0001"},"sourceKind":"official","official":true,"sourceCellId":"1R76W8LI","sourceStableId":"1F2B1C053A4F0001","pipelineFeatureId":"1R76W8LI/LIGHTS/470104655","provenance":{"cellId":"1R76W8LI","checksum":"1228405ba65ba70afec00c3b0ef5f459dd166a6df588805434383b3b731245ea","readerVersion":"GDAL 3.2.2","processedAt":"2026-08-10T09:47:03.733Z"}}},{"type":"Feature","geometry":{"type":"Point","coordinates":[4.20763,51.578445]},"properties":{"dolphinKind":"light","rawObjectClass":"LIGHTS","sourceProperties":{"RCID":1178869624,"PRIM":1,"GRUP":2,"OBJL":75,"RVER":1,"AGEN":7979,"FIDN":1178869624,"FIDS":1,"LNAM":"1F2B46441F780001","COLOUR":["3"],"LITCHR":7,"SIGGRP":"(1)","SIGPER":4,"SCAMIN":200000,"SORDAT":"20240212","SORIND":"NL,1R,reprt,MD 072-24","sourceCellId":"1R76W8LI","sourceChecksum":"1228405ba65ba70afec00c3b0ef5f459dd166a6df588805434383b3b731245ea","rawObjectClass":"LIGHTS","sourceStableId":"1F2B46441F780001"},"sourceKind":"official","official":true,"sourceCellId":"1R76W8LI","sourceStableId":"1F2B46441F780001","pipelineFeatureId":"1R76W8LI/LIGHTS/1178869624","provenance":{"cellId":"1R76W8LI","checksum":"1228405ba65ba70afec00c3b0ef5f459dd166a6df588805434383b3b731245ea","readerVersion":"GDAL 3.2.2","processedAt":"2026-08-10T09:47:03.733Z"}}},{"type":"Feature","geometry":{"type":"Point","coordinates":[4.198385,51.5854333]},"properties":{"dolphinKind":"light","rawObjectClass":"LIGHTS","sourceProperties":{"RCID":1178869625,"PRIM":1,"GRUP":2,"OBJL":75,"RVER":1,"AGEN":7979,"FIDN":1178869625,"FIDS":1,"LNAM":"1F2B46441F790001","COLOUR":["3"],"LITCHR":7,"SIGGRP":"(1)","SIGPER":4,"SCAMIN":200000,"SORDAT":"20240212","SORIND":"NL,1R,reprt,MD 072-24","sourceCellId":"1R76W8LI","sourceChecksum":"1228405ba65ba70afec00c3b0ef5f459dd166a6df588805434383b3b731245ea","rawObjectClass":"LIGHTS","sourceStableId":"1F2B46441F790001"},"sourceKind":"official","official":true,"sourceCellId":"1R76W8LI","sourceStableId":"1F2B46441F790001","pipelineFeatureId":"1R76W8LI/LIGHTS/1178869625","provenance":{"cellId":"1R76W8LI","checksum":"1228405ba65ba70afec00c3b0ef5f459dd166a6df588805434383b3b731245ea","readerVersion":"GDAL 3.2.2","processedAt":"2026-08-10T09:47:03.733Z"}}},{"type":"Feature","geometry":{"type":"Point","coordinates":[4.189245,51.602055]},"properties":{"dolphinKind":"light","rawObjectClass":"LIGHTS","sourceProperties":{"RCID":1178869626,"PRIM":1,"GRUP":2,"OBJL":75,"RVER":1,"AGEN":7979,"FIDN":1178869626,"FIDS":1,"LNAM":"1F2B46441F7A0001","COLOUR":["3"],"LITCHR":7,"SIGGRP":"(1)","SIGPER":4,"SCAMIN":200000,"SORDAT":"20240212","SORIND":"NL,1R,reprt,MD 072-24","sourceCellId":"1R76W8LI","sourceChecksum":"1228405ba65ba70afec00c3b0ef5f459dd166a6df588805434383b3b731245ea","rawObjectClass":"LIGHTS","sourceStableId":"1F2B46441F7A0001"},"sourceKind":"official","official":true,"sourceCellId":"1R76W8LI","sourceStableId":"1F2B46441F7A0001","pipelineFeatureId":"1R76W8LI/LIGHTS/1178869626","provenance":{"cellId":"1R76W8LI","checksum":"1228405ba65ba70afec00c3b0ef5f459dd166a6df588805434383b3b731245ea","readerVersion":"GDAL 3.2.2","processedAt":"2026-08-10T09:47:03.733Z"}}},{"type":"Feature","geometry":{"type":"Point","coordinates":[4.1914467,51.6108617]},"properties":{"dolphinKind":"light","rawObjectClass":"LIGHTS","sourceProperties":{"RCID":1178880081,"PRIM":1,"GRUP":2,"OBJL":75,"RVER":1,"AGEN":7979,"FIDN":1178880081,"FIDS":1,"LNAM":"1F2B464448510001","COLOUR":["3"],"LITCHR":7,"SIGGRP":"(1)","SIGPER":4,"SCAMIN":200000,"sourceCellId":"1R76W8LI","sourceChecksum":"1228405ba65ba70afec00c3b0ef5f459dd166a6df588805434383b3b731245ea","rawObjectClass":"LIGHTS","sourceStableId":"1F2B464448510001"},"sourceKind":"official","official":true,"sourceCellId":"1R76W8LI","sourceStableId":"1F2B464448510001","pipelineFeatureId":"1R76W8LI/LIGHTS/1178880081","provenance":{"cellId":"1R76W8LI","checksum":"1228405ba65ba70afec00c3b0ef5f459dd166a6df588805434383b3b731245ea","readerVersion":"GDAL 3.2.2","processedAt":"2026-08-10T09:47:03.733Z"}}},{"type":"Feature","geometry":{"type":"Point","coordinates":[4.1940933,51.6150967]},"properties":{"dolphinKind":"light","rawObjectClass":"LIGHTS","sourceProperties":{"RCID":1178880082,"PRIM":1,"GRUP":2,"OBJL":75,"RVER":1,"AGEN":7979,"FIDN":1178880082,"FIDS":1,"LNAM":"1F2B464448520001","COLOUR":["3"],"LITCHR":7,"SIGGRP":"(1)","SIGPER":4,"SCAMIN":200000,"sourceCellId":"1R76W8LI","sourceChecksum":"1228405ba65ba70afec00c3b0ef5f459dd166a6df588805434383b3b731245ea","rawObjectClass":"LIGHTS","sourceStableId":"1F2B464448520001"},"sourceKind":"official","official":true,"sourceCellId":"1R76W8LI","sourceStableId":"1F2B464448520001","pipelineFeatureId":"1R76W8LI/LIGHTS/1178880082","provenance":{"cellId":"1R76W8LI","checksum":"1228405ba65ba70afec00c3b0ef5f459dd166a6df588805434383b3b731245ea","readerVersion":"GDAL 3.2.2","processedAt":"2026-08-10T09:47:03.733Z"}}},{"type":"Feature","geometry":{"type":"Point","coordinates":[4.2038033,51.6219633]},"properties":{"dolphinKind":"light","rawObjectClass":"LIGHTS","sourceProperties":{"RCID":1178903591,"PRIM":1,"GRUP":2,"OBJL":75,"RVER":1,"AGEN":7979,"FIDN":1178903591,"FIDS":1,"LNAM":"1F2B4644A4270001","COLOUR":["4"],"LITCHR":7,"SIGGRP":"(1)","SIGPER":4,"SCAMIN":200000,"sourceCellId":"1R76W8LI","sourceChecksum":"1228405ba65ba70afec00c3b0ef5f459dd166a6df588805434383b3b731245ea","rawObjectClass":"LIGHTS","sourceStableId":"1F2B4644A4270001"},"sourceKind":"official","official":true,"sourceCellId":"1R76W8LI","sourceStableId":"1F2B4644A4270001","pipelineFeatureId":"1R76W8LI/LIGHTS/1178903591","provenance":{"cellId":"1R76W8LI","checksum":"1228405ba65ba70afec00c3b0ef5f459dd166a6df588805434383b3b731245ea","readerVersion":"GDAL 3.2.2","processedAt":"2026-08-10T09:47:03.733Z"}}},{"type":"Feature","geometry":{"type":"Point","coordinates":[4.1958467,51.6146183]},"properties":{"dolphinKind":"light","rawObjectClass":"LIGHTS","sourceProperties":{"RCID":1178903592,"PRIM":1,"GRUP":2,"OBJL":75,"RVER":1,"AGEN":7979,"FIDN":1178903592,"FIDS":1,"LNAM":"1F2B4644A4280001","COLOUR":["4"],"LITCHR":7,"SIGGRP":"(1)","SIGPER":4,"SCAMIN":200000,"sourceCellId":"1R76W8LI","sourceChecksum":"1228405ba65ba70afec00c3b0ef5f459dd166a6df588805434383b3b731245ea","rawObjectClass":"LIGHTS","sourceStableId":"1F2B4644A4280001"},"sourceKind":"official","official":true,"sourceCellId":"1R76W8LI","sourceStableId":"1F2B4644A4280001","pipelineFeatureId":"1R76W8LI/LIGHTS/1178903592","provenance":{"cellId":"1R76W8LI","checksum":"1228405ba65ba70afec00c3b0ef5f459dd166a6df588805434383b3b731245ea","readerVersion":"GDAL 3.2.2","processedAt":"2026-08-10T09:47:03.733Z"}}},{"type":"Feature","geometry":{"type":"Point","coordinates":[4.1916983,51.5978117]},"properties":{"dolphinKind":"light","rawObjectClass":"LIGHTS","sourceProperties":{"RCID":1178929348,"PRIM":1,"GRUP":2,"OBJL":75,"RVER":1,"AGEN":7979,"FIDN":1178929348,"FIDS":1,"LNAM":"1F2B464508C40001","COLOUR":["4"],"LITCHR":7,"SIGGRP":"(1)","SIGPER":4,"SCAMIN":200000,"sourceCellId":"1R76W8LI","sourceChecksum":"1228405ba65ba70afec00c3b0ef5f459dd166a6df588805434383b3b731245ea","rawObjectClass":"LIGHTS","sourceStableId":"1F2B464508C40001"},"sourceKind":"official","official":true,"sourceCellId":"1R76W8LI","sourceStableId":"1F2B464508C40001","pipelineFeatureId":"1R76W8LI/LIGHTS/1178929348","provenance":{"cellId":"1R76W8LI","checksum":"1228405ba65ba70afec00c3b0ef5f459dd166a6df588805434383b3b731245ea","readerVersion":"GDAL 3.2.2","processedAt":"2026-08-10T09:47:03.733Z"}}},{"type":"Feature","geometry":{"type":"Point","coordinates":[4.19621,51.58977]},"properties":{"dolphinKind":"light","rawObjectClass":"LIGHTS","sourceProperties":{"RCID":1178929349,"PRIM":1,"GRUP":2,"OBJL":75,"RVER":1,"AGEN":7979,"FIDN":1178929349,"FIDS":1,"LNAM":"1F2B464508C50001","COLOUR":["4"],"LITCHR":7,"SIGGRP":"(1)","SIGPER":4,"SCAMIN":200000,"sourceCellId":"1R76W8LI","sourceChecksum":"1228405ba65ba70afec00c3b0ef5f459dd166a6df588805434383b3b731245ea","rawObjectClass":"LIGHTS","sourceStableId":"1F2B464508C50001"},"sourceKind":"official","official":true,"sourceCellId":"1R76W8LI","sourceStableId":"1F2B464508C50001","pipelineFeatureId":"1R76W8LI/LIGHTS/1178929349","provenance":{"cellId":"1R76W8LI","checksum":"1228405ba65ba70afec00c3b0ef5f459dd166a6df588805434383b3b731245ea","readerVersion":"GDAL 3.2.2","processedAt":"2026-08-10T09:47:03.733Z"}}},{"type":"Feature","geometry":{"type":"Point","coordinates":[4.1999517,51.5861767]},"properties":{"dolphinKind":"light","rawObjectClass":"LIGHTS","sourceProperties":{"RCID":1178929350,"PRIM":1,"GRUP":2,"OBJL":75,"RVER":1,"AGEN":7979,"FIDN":1178929350,"FIDS":1,"LNAM":"1F2B464508C60001","COLOUR":["4"],"LITCHR":7,"SIGGRP":"(1)","SIGPER":4,"SCAMIN":200000,"sourceCellId":"1R76W8LI","sourceChecksum":"1228405ba65ba70afec00c3b0ef5f459dd166a6df588805434383b3b731245ea","rawObjectClass":"LIGHTS","sourceStableId":"1F2B464508C60001"},"sourceKind":"official","official":true,"sourceCellId":"1R76W8LI","sourceStableId":"1F2B464508C60001","pipelineFeatureId":"1R76W8LI/LIGHTS/1178929350","provenance":{"cellId":"1R76W8LI","checksum":"1228405ba65ba70afec00c3b0ef5f459dd166a6df588805434383b3b731245ea","readerVersion":"GDAL 3.2.2","processedAt":"2026-08-10T09:47:03.733Z"}}},{"type":"Feature","geometry":{"type":"Point","coordinates":[4.19771,51.619075]},"properties":{"dolphinKind":"light","rawObjectClass":"LIGHTS","sourceProperties":{"RCID":1191079454,"PRIM":1,"GRUP":2,"OBJL":75,"RVER":1,"AGEN":7979,"FIDN":1191079454,"FIDS":1,"LNAM":"1F2B46FE6E1E0001","COLOUR":["3"],"LITCHR":7,"SIGGRP":"(1)","SIGPER":4,"SCAMIN":200000,"sourceCellId":"1R76W8LI","sourceChecksum":"1228405ba65ba70afec00c3b0ef5f459dd166a6df588805434383b3b731245ea","rawObjectClass":"LIGHTS","sourceStableId":"1F2B46FE6E1E0001"},"sourceKind":"official","official":true,"sourceCellId":"1R76W8LI","sourceStableId":"1F2B46FE6E1E0001","pipelineFeatureId":"1R76W8LI/LIGHTS/1191079454","provenance":{"cellId":"1R76W8LI","checksum":"1228405ba65ba70afec00c3b0ef5f459dd166a6df588805434383b3b731245ea","readerVersion":"GDAL 3.2.2","processedAt":"2026-08-10T09:47:03.733Z"}}},{"type":"Feature","geometry":{"type":"Point","coordinates":[4.1897183,51.6065233]},"properties":{"dolphinKind":"light","rawObjectClass":"LIGHTS","sourceProperties":{"RCID":1191079456,"PRIM":1,"GRUP":2,"OBJL":75,"RVER":1,"AGEN":7979,"FIDN":1191079456,"FIDS":1,"LNAM":"1F2B46FE6E200001","COLOUR":["3"],"LITCHR":7,"SIGGRP":"(1)","SIGPER":4,"SCAMIN":200000,"SORDAT":"20240212","SORIND":"NL,1R,reprt,MD 072-24","sourceCellId":"1R76W8LI","sourceChecksum":"1228405ba65ba70afec00c3b0ef5f459dd166a6df588805434383b3b731245ea","rawObjectClass":"LIGHTS","sourceStableId":"1F2B46FE6E200001"},"sourceKind":"official","official":true,"sourceCellId":"1R76W8LI","sourceStableId":"1F2B46FE6E200001","pipelineFeatureId":"1R76W8LI/LIGHTS/1191079456","provenance":{"cellId":"1R76W8LI","checksum":"1228405ba65ba70afec00c3b0ef5f459dd166a6df588805434383b3b731245ea","readerVersion":"GDAL 3.2.2","processedAt":"2026-08-10T09:47:03.733Z"}}},{"type":"Feature","geometry":{"type":"Point","coordinates":[4.1945033,51.5891767]},"properties":{"dolphinKind":"light","rawObjectClass":"LIGHTS","sourceProperties":{"RCID":1191079458,"PRIM":1,"GRUP":2,"OBJL":75,"RVER":1,"AGEN":7979,"FIDN":1191079458,"FIDS":1,"LNAM":"1F2B46FE6E220001","COLOUR":["3"],"LITCHR":7,"SIGGRP":"(1)","SIGPER":4,"SCAMIN":200000,"SORDAT":"20240212","SORIND":"NL,1R,reprt,MD 072-24","sourceCellId":"1R76W8LI","sourceChecksum":"1228405ba65ba70afec00c3b0ef5f459dd166a6df588805434383b3b731245ea","rawObjectClass":"LIGHTS","sourceStableId":"1F2B46FE6E220001"},"sourceKind":"official","official":true,"sourceCellId":"1R76W8LI","sourceStableId":"1F2B46FE6E220001","pipelineFeatureId":"1R76W8LI/LIGHTS/1191079458","provenance":{"cellId":"1R76W8LI","checksum":"1228405ba65ba70afec00c3b0ef5f459dd166a6df588805434383b3b731245ea","readerVersion":"GDAL 3.2.2","processedAt":"2026-08-10T09:47:03.733Z"}}},{"type":"Feature","geometry":{"type":"Point","coordinates":[4.1911567,51.60205]},"properties":{"dolphinKind":"light","rawObjectClass":"LIGHTS","sourceProperties":{"RCID":1231416305,"PRIM":1,"GRUP":2,"OBJL":75,"RVER":1,"AGEN":7979,"FIDN":1231416305,"FIDS":1,"LNAM":"1F2B4965EBF10001","COLOUR":["4"],"LITCHR":7,"SIGGRP":"(1)","SIGPER":4,"SCAMIN":200000,"sourceCellId":"1R76W8LI","sourceChecksum":"1228405ba65ba70afec00c3b0ef5f459dd166a6df588805434383b3b731245ea","rawObjectClass":"LIGHTS","sourceStableId":"1F2B4965EBF10001"},"sourceKind":"official","official":true,"sourceCellId":"1R76W8LI","sourceStableId":"1F2B4965EBF10001","pipelineFeatureId":"1R76W8LI/LIGHTS/1231416305","provenance":{"cellId":"1R76W8LI","checksum":"1228405ba65ba70afec00c3b0ef5f459dd166a6df588805434383b3b731245ea","readerVersion":"GDAL 3.2.2","processedAt":"2026-08-10T09:47:03.733Z"}}},{"type":"Feature","geometry":{"type":"Point","coordinates":[4.1897933,51.5977533]},"properties":{"dolphinKind":"topmark","rawObjectClass":"TOPMAR","sourceProperties":{"RCID":470104657,"PRIM":1,"GRUP":2,"OBJL":144,"RVER":1,"AGEN":7979,"FIDN":470104657,"FIDS":1,"LNAM":"1F2B1C053A510001","COLOUR":["3"],"TOPSHP":5,"SCAMIN":200000,"SORDAT":"20230208","SORIND":"NL,1R,reprt,ENC verbetering","sourceCellId":"1R76W8LI","sourceChecksum":"1228405ba65ba70afec00c3b0ef5f459dd166a6df588805434383b3b731245ea","rawObjectClass":"TOPMAR","sourceStableId":"1F2B1C053A510001"},"sourceKind":"official","official":true,"sourceCellId":"1R76W8LI","sourceStableId":"1F2B1C053A510001","pipelineFeatureId":"1R76W8LI/TOPMAR/470104657","provenance":{"cellId":"1R76W8LI","checksum":"1228405ba65ba70afec00c3b0ef5f459dd166a6df588805434383b3b731245ea","readerVersion":"GDAL 3.2.2","processedAt":"2026-08-10T09:47:03.733Z"},"associationRefsVerifiedInGdalOutput":false}}]}