{"type":"FeatureCollection","features":[{"type":"Feature","geometry":{"type":"Point","coordinates":[3.1463775,51.6892264]},"properties":{"dolphinKind":"buoy-lateral","rawObjectClass":"BOYLAT","sourceProperties":{"RCID":446712433,"PRIM":1,"GRUP":2,"OBJL":17,"RVER":1,"AGEN":7979,"FIDN":446712433,"FIDS":1,"LNAM":"1F2B1AA04A710001","LNAM_REFS":["1F2B1AA04A700001"],"FFPT_RIND":[2],"BOYSHP":2,"CATLAM":1,"COLOUR":["3"],"CONRAD":1,"OBJNAM":"WFB 4","SCAMIN":200000,"SORDAT":"20230111","SORIND":"NL,1R,Reprt,NMA","sourceCellId":"1R7588XI","sourceChecksum":"14a05f2e40336405f1462f46b50b3cbd745cc7a643f14aece1398b2880211fe4","rawObjectClass":"BOYLAT","sourceStableId":"1F2B1AA04A710001"},"sourceKind":"official","official":true,"sourceCellId":"1R7588XI","sourceStableId":"1F2B1AA04A710001","pipelineFeatureId":"1R7588XI/BOYLAT/446712433","provenance":{"cellId":"1R7588XI","checksum":"14a05f2e40336405f1462f46b50b3cbd745cc7a643f14aece1398b2880211fe4","readerVersion":"GDAL 3.2.2","processedAt":"2026-08-11T13:43:44.753Z"}}},{"type":"Feature","geometry":{"type":"Point","coordinates":[3.2775157,51.7062818]},"properties":{"dolphinKind":"buoy-special","rawObjectClass":"BOYSPP","sourceProperties":{"RCID":434447429,"PRIM":1,"GRUP":2,"OBJL":19,"RVER":1,"AGEN":7979,"FIDN":434447429,"FIDS":1,"LNAM":"1F2B19E524450001","LNAM_REFS":["1F2B19E524AA0001","1F2B19E54A5D0001"],"FFPT_RIND":[2,2],"BOYSHP":5,"CATSPM":["27"],"COLOUR":["6"],"MARSYS":1,"OBJNAM":"MT 4","SCAMIN":200000,"SORDAT":"20211007","SORIND":"NL,1R,Reprt,MD 562-21","sourceCellId":"1R7588XI","sourceChecksum":"14a05f2e40336405f1462f46b50b3cbd745cc7a643f14aece1398b2880211fe4","rawObjectClass":"BOYSPP","sourceStableId":"1F2B19E524450001"},"sourceKind":"official","official":true,"sourceCellId":"1R7588XI","sourceStableId":"1F2B19E524450001","pipelineFeatureId":"1R7588XI/BOYSPP/434447429","provenance":{"cellId":"1R7588XI","checksum":"14a05f2e40336405f1462f46b50b3cbd745cc7a643f14aece1398b2880211fe4","readerVersion":"GDAL 3.2.2","processedAt":"2026-08-11T13:43:44.753Z"}}},{"type":"Feature","geometry":{"type":"Point","coordinates":[3.1465413,51.6892419]},"properties":{"dolphinKind":"buoy-special","rawObjectClass":"BOYSPP","sourceProperties":{"RCID":1203398878,"PRIM":1,"GRUP":2,"OBJL":19,"RVER":1,"AGEN":7979,"FIDN":1203398878,"FIDS":1,"LNAM":"1F2B47BA68DE0001","BOYSHP":5,"CATSPM":["9"],"COLOUR":["6"],"OBJNAM":"Wbat-B","SCAMIN":200000,"SORDAT":"20240918","SORIND":"NL,1R,Reprt, MD 493-24","sourceCellId":"1R7588XI","sourceChecksum":"14a05f2e40336405f1462f46b50b3cbd745cc7a643f14aece1398b2880211fe4","rawObjectClass":"BOYSPP","sourceStableId":"1F2B47BA68DE0001"},"sourceKind":"official","official":true,"sourceCellId":"1R7588XI","sourceStableId":"1F2B47BA68DE0001","pipelineFeatureId":"1R7588XI/BOYSPP/1203398878","provenance":{"cellId":"1R7588XI","checksum":"14a05f2e40336405f1462f46b50b3cbd745cc7a643f14aece1398b2880211fe4","readerVersion":"GDAL 3.2.2","processedAt":"2026-08-11T13:43:44.753Z"}}},{"type":"Feature","geometry":{"type":"Point","coordinates":[3.1439833,51.7214833]},"properties":{"dolphinKind":"buoy-special","rawObjectClass":"BOYSPP","sourceProperties":{"RCID":1256823158,"PRIM":1,"GRUP":2,"OBJL":19,"RVER":1,"AGEN":7979,"FIDN":1256823158,"FIDS":1,"LNAM":"1F2B4AE999760001","LNAM_REFS":["1F2B4AE999790001","1F2B4AE9997C0001"],"FFPT_RIND":[2,2],"BOYSHP":4,"CATSPM":["9"],"COLOUR":["6"],"OBJNAM":"Accurasea 4","SCAMIN":200000,"SORDAT":"20251224","SORIND":"NL,1R,Bass 2025 152","sourceCellId":"1R7588XI","sourceChecksum":"14a05f2e40336405f1462f46b50b3cbd745cc7a643f14aece1398b2880211fe4","rawObjectClass":"BOYSPP","sourceStableId":"1F2B4AE999760001"},"sourceKind":"official","official":true,"sourceCellId":"1R7588XI","sourceStableId":"1F2B4AE999760001","pipelineFeatureId":"1R7588XI/BOYSPP/1256823158","provenance":{"cellId":"1R7588XI","checksum":"14a05f2e40336405f1462f46b50b3cbd745cc7a643f14aece1398b2880211fe4","readerVersion":"GDAL 3.2.2","processedAt":"2026-08-11T13:43:44.753Z"}}},{"type":"Feature","geometry":{"type":"Point","coordinates":[3.3036833,51.68085]},"properties":{"dolphinKind":"light","rawObjectClass":"LIGHTS","sourceProperties":{"RCID":17588,"PRIM":1,"GRUP":2,"OBJL":75,"RVER":1,"AGEN":7979,"FIDN":1106834684,"FIDS":394,"LNAM":"1F2B41F8F4FC018A","COLOUR":["1"],"LITCHR":7,"SIGGRP":"(1)","SIGPER":8,"SCAMIN":200000,"SORDAT":"20030930","sourceCellId":"1R7588XI","sourceChecksum":"14a05f2e40336405f1462f46b50b3cbd745cc7a643f14aece1398b2880211fe4","rawObjectClass":"LIGHTS","sourceStableId":"1F2B41F8F4FC018A"},"sourceKind":"official","official":true,"sourceCellId":"1R7588XI","sourceStableId":"1F2B41F8F4FC018A","pipelineFeatureId":"1R7588XI/LIGHTS/17588","provenance":{"cellId":"1R7588XI","checksum":"14a05f2e40336405f1462f46b50b3cbd745cc7a643f14aece1398b2880211fe4","readerVersion":"GDAL 3.2.2","processedAt":"2026-08-11T13:43:44.753Z"}}},{"type":"Feature","geometry":{"type":"Point","coordinates":[3.2770167,51.7075167]},"properties":{"dolphinKind":"light","rawObjectClass":"LIGHTS","sourceProperties":{"RCID":17624,"PRIM":1,"GRUP":2,"OBJL":75,"RVER":1,"AGEN":7979,"FIDN":1106834684,"FIDS":430,"LNAM":"1F2B41F8F4FC01AE","COLOUR":["1"],"LITCHR":26,"SIGGRP":"(6)(1)","SIGPER":10,"SCAMIN":200000,"SORDAT":"20030930","sourceCellId":"1R7588XI","sourceChecksum":"14a05f2e40336405f1462f46b50b3cbd745cc7a643f14aece1398b2880211fe4","rawObjectClass":"LIGHTS","sourceStableId":"1F2B41F8F4FC01AE"},"sourceKind":"official","official":true,"sourceCellId":"1R7588XI","sourceStableId":"1F2B41F8F4FC01AE","pipelineFeatureId":"1R7588XI/LIGHTS/17624","provenance":{"cellId":"1R7588XI","checksum":"14a05f2e40336405f1462f46b50b3cbd745cc7a643f14aece1398b2880211fe4","readerVersion":"GDAL 3.2.2","processedAt":"2026-08-11T13:43:44.753Z"}}},{"type":"Feature","geometry":{"type":"Point","coordinates":[3.2775157,51.7062818]},"properties":{"dolphinKind":"light","rawObjectClass":"LIGHTS","sourceProperties":{"RCID":434447530,"PRIM":1,"GRUP":2,"OBJL":75,"RVER":1,"AGEN":7979,"FIDN":434447530,"FIDS":1,"LNAM":"1F2B19E524AA0001","COLOUR":["6"],"LITCHR":2,"SIGGRP":"(5)","SIGPER":20,"SCAMIN":200000,"SORDAT":"20211007","SORIND":"NL,1R,reprt,MD 562-21","sourceCellId":"1R7588XI","sourceChecksum":"14a05f2e40336405f1462f46b50b3cbd745cc7a643f14aece1398b2880211fe4","rawObjectClass":"LIGHTS","sourceStableId":"1F2B19E524AA0001"},"sourceKind":"official","official":true,"sourceCellId":"1R7588XI","sourceStableId":"1F2B19E524AA0001","pipelineFeatureId":"1R7588XI/LIGHTS/434447530","provenance":{"cellId":"1R7588XI","checksum":"14a05f2e40336405f1462f46b50b3cbd745cc7a643f14aece1398b2880211fe4","readerVersion":"GDAL 3.2.2","processedAt":"2026-08-11T13:43:44.753Z"}}},{"type":"Feature","geometry":{"type":"Point","coordinates":[3.1463775,51.6892264]},"properties":{"dolphinKind":"light","rawObjectClass":"LIGHTS","sourceProperties":{"RCID":446712432,"PRIM":1,"GRUP":2,"OBJL":75,"RVER":1,"AGEN":7979,"FIDN":446712432,"FIDS":1,"LNAM":"1F2B1AA04A700001","COLOUR":["3"],"LITCHR":7,"SIGGRP":"(1)","SIGPER":4,"SCAMIN":200000,"SORDAT":"20220513","SORIND":"NL,1R,Reprt, melding kaartfout","sourceCellId":"1R7588XI","sourceChecksum":"14a05f2e40336405f1462f46b50b3cbd745cc7a643f14aece1398b2880211fe4","rawObjectClass":"LIGHTS","sourceStableId":"1F2B1AA04A700001"},"sourceKind":"official","official":true,"sourceCellId":"1R7588XI","sourceStableId":"1F2B1AA04A700001","pipelineFeatureId":"1R7588XI/LIGHTS/446712432","provenance":{"cellId":"1R7588XI","checksum":"14a05f2e40336405f1462f46b50b3cbd745cc7a643f14aece1398b2880211fe4","readerVersion":"GDAL 3.2.2","processedAt":"2026-08-11T13:43:44.753Z"}}},{"type":"Feature","geometry":{"type":"Point","coordinates":[3.1439833,51.7214833]},"properties":{"dolphinKind":"light","rawObjectClass":"LIGHTS","sourceProperties":{"RCID":1256823161,"PRIM":1,"GRUP":2,"OBJL":75,"RVER":1,"AGEN":7979,"FIDN":1256823161,"FIDS":1,"LNAM":"1F2B4AE999790001","COLOUR":["6"],"LITCHR":2,"SIGGRP":"(5)","SIGPER":20,"SCAMIN":200000,"sourceCellId":"1R7588XI","sourceChecksum":"14a05f2e40336405f1462f46b50b3cbd745cc7a643f14aece1398b2880211fe4","rawObjectClass":"LIGHTS","sourceStableId":"1F2B4AE999790001"},"sourceKind":"official","official":true,"sourceCellId":"1R7588XI","sourceStableId":"1F2B4AE999790001","pipelineFeatureId":"1R7588XI/LIGHTS/1256823161","provenance":{"cellId":"1R7588XI","checksum":"14a05f2e40336405f1462f46b50b3cbd745cc7a643f14aece1398b2880211fe4","readerVersion":"GDAL 3.2.2","processedAt":"2026-08-11T13:43:44.753Z"}}},{"type":"Feature","geometry":{"type":"Point","coordinates":[3.2770167,51.7075167]},"properties":{"dolphinKind":"topmark","rawObjectClass":"TOPMAR","sourceProperties":{"RCID":17625,"PRIM":1,"GRUP":2,"OBJL":144,"RVER":1,"AGEN":7979,"FIDN":1106834684,"FIDS":431,"LNAM":"1F2B41F8F4FC01AF","COLOUR":["2"],"TOPSHP":14,"SCAMIN":200000,"SORDAT":"20030930","sourceCellId":"1R7588XI","sourceChecksum":"14a05f2e40336405f1462f46b50b3cbd745cc7a643f14aece1398b2880211fe4","rawObjectClass":"TOPMAR","sourceStableId":"1F2B41F8F4FC01AF"},"sourceKind":"official","official":true,"sourceCellId":"1R7588XI","sourceStableId":"1F2B41F8F4FC01AF","pipelineFeatureId":"1R7588XI/TOPMAR/17625","provenance":{"cellId":"1R7588XI","checksum":"14a05f2e40336405f1462f46b50b3cbd745cc7a643f14aece1398b2880211fe4","readerVersion":"GDAL 3.2.2","processedAt":"2026-08-11T13:43:44.753Z"},"associationRefsVerifiedInGdalOutput":false}},{"type":"Feature","geometry":{"type":"Point","coordinates":[3.2775157,51.7062818]},"properties":{"dolphinKind":"topmark","rawObjectClass":"TOPMAR","sourceProperties":{"RCID":434457181,"PRIM":1,"GRUP":2,"OBJL":144,"RVER":1,"AGEN":7979,"FIDN":434457181,"FIDS":1,"LNAM":"1F2B19E54A5D0001","COLOUR":["6"],"TOPSHP":7,"SCAMIN":200000,"SORDAT":"20211007","SORIND":"NL,1R,reprt,MD 562-21","sourceCellId":"1R7588XI","sourceChecksum":"14a05f2e40336405f1462f46b50b3cbd745cc7a643f14aece1398b2880211fe4","rawObjectClass":"TOPMAR","sourceStableId":"1F2B19E54A5D0001"},"sourceKind":"official","official":true,"sourceCellId":"1R7588XI","sourceStableId":"1F2B19E54A5D0001","pipelineFeatureId":"1R7588XI/TOPMAR/434457181","provenance":{"cellId":"1R7588XI","checksum":"14a05f2e40336405f1462f46b50b3cbd745cc7a643f14aece1398b2880211fe4","readerVersion":"GDAL 3.2.2","processedAt":"2026-08-11T13:43:44.753Z"},"associationRefsVerifiedInGdalOutput":false}},{"type":"Feature","geometry":{"type":"Point","coordinates":[3.1439833,51.7214833]},"properties":{"dolphinKind":"topmark","rawObjectClass":"TOPMAR","sourceProperties":{"RCID":1256823164,"PRIM":1,"GRUP":2,"OBJL":144,"RVER":1,"AGEN":7979,"FIDN":1256823164,"FIDS":1,"LNAM":"1F2B4AE9997C0001","COLOUR":["6"],"TOPSHP":7,"SCAMIN":200000,"sourceCellId":"1R7588XI","sourceChecksum":"14a05f2e40336405f1462f46b50b3cbd745cc7a643f14aece1398b2880211fe4","rawObjectClass":"TOPMAR","sourceStableId":"1F2B4AE9997C0001"},"sourceKind":"official","official":true,"sourceCellId":"1R7588XI","sourceStableId":"1F2B4AE9997C0001","pipelineFeatureId":"1R7588XI/TOPMAR/1256823164","provenance":{"cellId":"1R7588XI","checksum":"14a05f2e40336405f1462f46b50b3cbd745cc7a643f14aece1398b2880211fe4","readerVersion":"GDAL 3.2.2","processedAt":"2026-08-11T13:43:44.753Z"},"associationRefsVerifiedInGdalOutput":false}}]}