{"type":"FeatureCollection","features":[{"type":"Feature","geometry":{"type":"Point","coordinates":[3.3370083,51.73752]},"properties":{"dolphinKind":"buoy-lateral","rawObjectClass":"BOYLAT","sourceProperties":{"RCID":17626,"PRIM":1,"GRUP":2,"OBJL":17,"RVER":1,"AGEN":7979,"FIDN":1106834684,"FIDS":432,"LNAM":"1F2B41F8F4FC01B0","BOYSHP":5,"CATLAM":1,"COLOUR":["3"],"CONRAD":3,"OBJNAM":"SD 2","SCAMIN":200000,"SORDAT":"20151216","SORIND":"NL,1R,reprt,MD 0517-14","sourceCellId":"1R75K93I","sourceChecksum":"bf83e35a11ac9177993acc1eb609167a43d7903c9527eff4ba96577a6cf1418d","rawObjectClass":"BOYLAT","sourceStableId":"1F2B41F8F4FC01B0"},"sourceKind":"official","official":true,"sourceCellId":"1R75K93I","sourceStableId":"1F2B41F8F4FC01B0","pipelineFeatureId":"1R75K93I/BOYLAT/17626","provenance":{"cellId":"1R75K93I","checksum":"bf83e35a11ac9177993acc1eb609167a43d7903c9527eff4ba96577a6cf1418d","readerVersion":"GDAL 3.2.2","processedAt":"2026-08-11T13:43:44.753Z"}}},{"type":"Feature","geometry":{"type":"Point","coordinates":[3.4006833,51.7424167]},"properties":{"dolphinKind":"light","rawObjectClass":"LIGHTS","sourceProperties":{"RCID":17596,"PRIM":1,"GRUP":2,"OBJL":75,"RVER":1,"AGEN":7979,"FIDN":1106834684,"FIDS":402,"LNAM":"1F2B41F8F4FC0192","COLOUR":["1"],"LITCHR":4,"SIGGRP":"(9)","SIGPER":15,"SCAMIN":200000,"SORDAT":"20030930","sourceCellId":"1R75K93I","sourceChecksum":"bf83e35a11ac9177993acc1eb609167a43d7903c9527eff4ba96577a6cf1418d","rawObjectClass":"LIGHTS","sourceStableId":"1F2B41F8F4FC0192"},"sourceKind":"official","official":true,"sourceCellId":"1R75K93I","sourceStableId":"1F2B41F8F4FC0192","pipelineFeatureId":"1R75K93I/LIGHTS/17596","provenance":{"cellId":"1R75K93I","checksum":"bf83e35a11ac9177993acc1eb609167a43d7903c9527eff4ba96577a6cf1418d","readerVersion":"GDAL 3.2.2","processedAt":"2026-08-11T13:43:44.753Z"}}},{"type":"Feature","geometry":{"type":"Point","coordinates":[3.4006833,51.7424167]},"properties":{"dolphinKind":"topmark","rawObjectClass":"TOPMAR","sourceProperties":{"RCID":17598,"PRIM":1,"GRUP":2,"OBJL":144,"RVER":1,"AGEN":7979,"FIDN":1106834684,"FIDS":404,"LNAM":"1F2B41F8F4FC0194","COLOUR":["2"],"TOPSHP":10,"SCAMIN":200000,"SORDAT":"20030930","sourceCellId":"1R75K93I","sourceChecksum":"bf83e35a11ac9177993acc1eb609167a43d7903c9527eff4ba96577a6cf1418d","rawObjectClass":"TOPMAR","sourceStableId":"1F2B41F8F4FC0194"},"sourceKind":"official","official":true,"sourceCellId":"1R75K93I","sourceStableId":"1F2B41F8F4FC0194","pipelineFeatureId":"1R75K93I/TOPMAR/17598","provenance":{"cellId":"1R75K93I","checksum":"bf83e35a11ac9177993acc1eb609167a43d7903c9527eff4ba96577a6cf1418d","readerVersion":"GDAL 3.2.2","processedAt":"2026-08-11T13:43:44.753Z"},"associationRefsVerifiedInGdalOutput":false}},{"type":"Feature","geometry":{"type":"Point","coordinates":[3.5292,51.7409167]},"properties":{"dolphinKind":"topmark","rawObjectClass":"TOPMAR","sourceProperties":{"RCID":17601,"PRIM":1,"GRUP":2,"OBJL":144,"RVER":1,"AGEN":7979,"FIDN":1106834684,"FIDS":407,"LNAM":"1F2B41F8F4FC0197","COLOUR":["2"],"TOPSHP":10,"SCAMIN":200000,"SORDAT":"20030930","sourceCellId":"1R75K93I","sourceChecksum":"bf83e35a11ac9177993acc1eb609167a43d7903c9527eff4ba96577a6cf1418d","rawObjectClass":"TOPMAR","sourceStableId":"1F2B41F8F4FC0197"},"sourceKind":"official","official":true,"sourceCellId":"1R75K93I","sourceStableId":"1F2B41F8F4FC0197","pipelineFeatureId":"1R75K93I/TOPMAR/17601","provenance":{"cellId":"1R75K93I","checksum":"bf83e35a11ac9177993acc1eb609167a43d7903c9527eff4ba96577a6cf1418d","readerVersion":"GDAL 3.2.2","processedAt":"2026-08-11T13:43:44.753Z"},"associationRefsVerifiedInGdalOutput":false}}]}