{"type":"FeatureCollection","features":[{"type":"Feature","geometry":{"type":"Point","coordinates":[3.4374767,51.630245]},"properties":{"dolphinKind":"buoy-lateral","rawObjectClass":"BOYLAT","sourceProperties":{"RCID":17520,"PRIM":1,"GRUP":2,"OBJL":17,"RVER":1,"AGEN":7979,"FIDN":1106834684,"FIDS":326,"LNAM":"1F2B41F8F4FC0146","LNAM_REFS":["1F2B41F8F4FC0145","1F2B1EA911970001"],"FFPT_RIND":[2,2],"BOYSHP":1,"CATLAM":2,"COLOUR":["4"],"OBJNAM":"WG 1","SCAMIN":200000,"SORDAT":"20230510","SORIND":"NL,1R,reprt,MD 257-23","sourceCellId":"1R75K8RI","sourceChecksum":"12e4988797a298b39defb845ae4b44c50b6ae57d658b935d63e9401c87d5dfc4","rawObjectClass":"BOYLAT","sourceStableId":"1F2B41F8F4FC0146"},"sourceKind":"official","official":true,"sourceCellId":"1R75K8RI","sourceStableId":"1F2B41F8F4FC0146","pipelineFeatureId":"1R75K8RI/BOYLAT/17520","provenance":{"cellId":"1R75K8RI","checksum":"12e4988797a298b39defb845ae4b44c50b6ae57d658b935d63e9401c87d5dfc4","readerVersion":"GDAL 3.2.2","processedAt":"2026-08-11T13:43:44.753Z"}}},{"type":"Feature","geometry":{"type":"Point","coordinates":[3.5030083,51.6411667]},"properties":{"dolphinKind":"buoy-lateral","rawObjectClass":"BOYLAT","sourceProperties":{"RCID":17523,"PRIM":1,"GRUP":2,"OBJL":17,"RVER":1,"AGEN":7979,"FIDN":1106834684,"FIDS":329,"LNAM":"1F2B41F8F4FC0149","BOYSHP":5,"CATLAM":2,"COLOUR":["4"],"CONRAD":3,"OBJNAM":"WG 5","SCAMIN":150000,"SORDAT":"20230510","SORIND":"NL,1R,reprt,MD 257-23","sourceCellId":"1R75K8RI","sourceChecksum":"12e4988797a298b39defb845ae4b44c50b6ae57d658b935d63e9401c87d5dfc4","rawObjectClass":"BOYLAT","sourceStableId":"1F2B41F8F4FC0149"},"sourceKind":"official","official":true,"sourceCellId":"1R75K8RI","sourceStableId":"1F2B41F8F4FC0149","pipelineFeatureId":"1R75K8RI/BOYLAT/17523","provenance":{"cellId":"1R75K8RI","checksum":"12e4988797a298b39defb845ae4b44c50b6ae57d658b935d63e9401c87d5dfc4","readerVersion":"GDAL 3.2.2","processedAt":"2026-08-11T13:43:44.753Z"}}},{"type":"Feature","geometry":{"type":"Point","coordinates":[3.525495,51.6497417]},"properties":{"dolphinKind":"buoy-lateral","rawObjectClass":"BOYLAT","sourceProperties":{"RCID":17524,"PRIM":1,"GRUP":2,"OBJL":17,"RVER":1,"AGEN":7979,"FIDN":1106834684,"FIDS":330,"LNAM":"1F2B41F8F4FC014A","BOYSHP":5,"CATLAM":2,"COLOUR":["4"],"CONRAD":3,"OBJNAM":"WG 7","SCAMIN":150000,"SORDAT":"20230510","SORIND":"NL,1R,reprt,MD 257-23","sourceCellId":"1R75K8RI","sourceChecksum":"12e4988797a298b39defb845ae4b44c50b6ae57d658b935d63e9401c87d5dfc4","rawObjectClass":"BOYLAT","sourceStableId":"1F2B41F8F4FC014A"},"sourceKind":"official","official":true,"sourceCellId":"1R75K8RI","sourceStableId":"1F2B41F8F4FC014A","pipelineFeatureId":"1R75K8RI/BOYLAT/17524","provenance":{"cellId":"1R75K8RI","checksum":"12e4988797a298b39defb845ae4b44c50b6ae57d658b935d63e9401c87d5dfc4","readerVersion":"GDAL 3.2.2","processedAt":"2026-08-11T13:43:44.753Z"}}},{"type":"Feature","geometry":{"type":"Point","coordinates":[3.4370467,51.6385033]},"properties":{"dolphinKind":"buoy-lateral","rawObjectClass":"BOYLAT","sourceProperties":{"RCID":17528,"PRIM":1,"GRUP":2,"OBJL":17,"RVER":1,"AGEN":7979,"FIDN":1106834684,"FIDS":334,"LNAM":"1F2B41F8F4FC014E","LNAM_REFS":["1F2B41F8F4FC014D"],"FFPT_RIND":[2],"BOYSHP":5,"CATLAM":1,"COLOUR":["3"],"OBJNAM":"WG 2","SCAMIN":200000,"SORDAT":"20230510","SORIND":"NL,1R,reprt,MD 257-23","sourceCellId":"1R75K8RI","sourceChecksum":"12e4988797a298b39defb845ae4b44c50b6ae57d658b935d63e9401c87d5dfc4","rawObjectClass":"BOYLAT","sourceStableId":"1F2B41F8F4FC014E"},"sourceKind":"official","official":true,"sourceCellId":"1R75K8RI","sourceStableId":"1F2B41F8F4FC014E","pipelineFeatureId":"1R75K8RI/BOYLAT/17528","provenance":{"cellId":"1R75K8RI","checksum":"12e4988797a298b39defb845ae4b44c50b6ae57d658b935d63e9401c87d5dfc4","readerVersion":"GDAL 3.2.2","processedAt":"2026-08-11T13:43:44.753Z"}}},{"type":"Feature","geometry":{"type":"Point","coordinates":[3.498695,51.6480433]},"properties":{"dolphinKind":"buoy-lateral","rawObjectClass":"BOYLAT","sourceProperties":{"RCID":17529,"PRIM":1,"GRUP":2,"OBJL":17,"RVER":1,"AGEN":7979,"FIDN":1106834684,"FIDS":335,"LNAM":"1F2B41F8F4FC014F","BOYSHP":5,"CATLAM":1,"COLOUR":["3"],"CONRAD":3,"OBJNAM":"WG 6","SCAMIN":150000,"SORDAT":"20230510","SORIND":"NL,1R,reprt,MD 257-23","sourceCellId":"1R75K8RI","sourceChecksum":"12e4988797a298b39defb845ae4b44c50b6ae57d658b935d63e9401c87d5dfc4","rawObjectClass":"BOYLAT","sourceStableId":"1F2B41F8F4FC014F"},"sourceKind":"official","official":true,"sourceCellId":"1R75K8RI","sourceStableId":"1F2B41F8F4FC014F","pipelineFeatureId":"1R75K8RI/BOYLAT/17529","provenance":{"cellId":"1R75K8RI","checksum":"12e4988797a298b39defb845ae4b44c50b6ae57d658b935d63e9401c87d5dfc4","readerVersion":"GDAL 3.2.2","processedAt":"2026-08-11T13:43:44.753Z"}}},{"type":"Feature","geometry":{"type":"Point","coordinates":[3.3803666,51.6678]},"properties":{"dolphinKind":"buoy-lateral","rawObjectClass":"BOYLAT","sourceProperties":{"RCID":17585,"PRIM":1,"GRUP":2,"OBJL":17,"RVER":1,"AGEN":7979,"FIDN":1106834684,"FIDS":391,"LNAM":"1F2B41F8F4FC0187","BOYSHP":1,"CATLAM":2,"COLOUR":["4"],"OBJNAM":"MD 1","SCAMIN":200000,"SORDAT":"20030930","sourceCellId":"1R75K8RI","sourceChecksum":"12e4988797a298b39defb845ae4b44c50b6ae57d658b935d63e9401c87d5dfc4","rawObjectClass":"BOYLAT","sourceStableId":"1F2B41F8F4FC0187"},"sourceKind":"official","official":true,"sourceCellId":"1R75K8RI","sourceStableId":"1F2B41F8F4FC0187","pipelineFeatureId":"1R75K8RI/BOYLAT/17585","provenance":{"cellId":"1R75K8RI","checksum":"12e4988797a298b39defb845ae4b44c50b6ae57d658b935d63e9401c87d5dfc4","readerVersion":"GDAL 3.2.2","processedAt":"2026-08-11T13:43:44.753Z"}}},{"type":"Feature","geometry":{"type":"Point","coordinates":[3.4987383,51.6260633]},"properties":{"dolphinKind":"buoy-lateral","rawObjectClass":"BOYLAT","sourceProperties":{"RCID":17721,"PRIM":1,"GRUP":2,"OBJL":17,"RVER":1,"AGEN":7979,"FIDN":1106834685,"FIDS":272,"LNAM":"1F2B41F8F4FD0110","BOYSHP":5,"CATLAM":1,"COLOUR":["3"],"NATCON":["8"],"OBJNAM":"R 4","SCAMIN":200000,"SORDAT":"20230510","SORIND":"NL,1R,reprt,MD 261-23","sourceCellId":"1R75K8RI","sourceChecksum":"12e4988797a298b39defb845ae4b44c50b6ae57d658b935d63e9401c87d5dfc4","rawObjectClass":"BOYLAT","sourceStableId":"1F2B41F8F4FD0110"},"sourceKind":"official","official":true,"sourceCellId":"1R75K8RI","sourceStableId":"1F2B41F8F4FD0110","pipelineFeatureId":"1R75K8RI/BOYLAT/17721","provenance":{"cellId":"1R75K8RI","checksum":"12e4988797a298b39defb845ae4b44c50b6ae57d658b935d63e9401c87d5dfc4","readerVersion":"GDAL 3.2.2","processedAt":"2026-08-11T13:43:44.753Z"}}},{"type":"Feature","geometry":{"type":"Point","coordinates":[3.4833317,51.64148]},"properties":{"dolphinKind":"buoy-lateral","rawObjectClass":"BOYLAT","sourceProperties":{"RCID":476945496,"PRIM":1,"GRUP":2,"OBJL":17,"RVER":1,"AGEN":7979,"FIDN":476945496,"FIDS":1,"LNAM":"1F2B1C6D9C580001","LNAM_REFS":["1F2B1CFDA48F0001","1F2B1CFDA4900001"],"FFPT_RIND":[2,2],"BOYSHP":2,"CATLAM":1,"COLOUR":["3"],"CONRAD":3,"OBJNAM":"WG 4","SCAMIN":150000,"SORDAT":"20220915","SORIND":"NL,1R,Reprt, MD 448-22","sourceCellId":"1R75K8RI","sourceChecksum":"12e4988797a298b39defb845ae4b44c50b6ae57d658b935d63e9401c87d5dfc4","rawObjectClass":"BOYLAT","sourceStableId":"1F2B1C6D9C580001"},"sourceKind":"official","official":true,"sourceCellId":"1R75K8RI","sourceStableId":"1F2B1C6D9C580001","pipelineFeatureId":"1R75K8RI/BOYLAT/476945496","provenance":{"cellId":"1R75K8RI","checksum":"12e4988797a298b39defb845ae4b44c50b6ae57d658b935d63e9401c87d5dfc4","readerVersion":"GDAL 3.2.2","processedAt":"2026-08-11T13:43:44.753Z"}}},{"type":"Feature","geometry":{"type":"Point","coordinates":[3.5198583,51.656375]},"properties":{"dolphinKind":"buoy-lateral","rawObjectClass":"BOYLAT","sourceProperties":{"RCID":514421268,"PRIM":1,"GRUP":2,"OBJL":17,"RVER":1,"AGEN":7979,"FIDN":514421268,"FIDS":1,"LNAM":"1F2B1EA972140001","BOYSHP":5,"CATLAM":1,"COLOUR":["3"],"CONRAD":3,"OBJNAM":"WG 8","SCAMIN":150000,"SORDAT":"20230510","SORIND":"NL,1R,reprt,MD 257-23","sourceCellId":"1R75K8RI","sourceChecksum":"12e4988797a298b39defb845ae4b44c50b6ae57d658b935d63e9401c87d5dfc4","rawObjectClass":"BOYLAT","sourceStableId":"1F2B1EA972140001"},"sourceKind":"official","official":true,"sourceCellId":"1R75K8RI","sourceStableId":"1F2B1EA972140001","pipelineFeatureId":"1R75K8RI/BOYLAT/514421268","provenance":{"cellId":"1R75K8RI","checksum":"12e4988797a298b39defb845ae4b44c50b6ae57d658b935d63e9401c87d5dfc4","readerVersion":"GDAL 3.2.2","processedAt":"2026-08-11T13:43:44.753Z"}}},{"type":"Feature","geometry":{"type":"Point","coordinates":[3.4374767,51.630245]},"properties":{"dolphinKind":"light","rawObjectClass":"LIGHTS","sourceProperties":{"RCID":17519,"PRIM":1,"GRUP":2,"OBJL":75,"RVER":1,"AGEN":7979,"FIDN":1106834684,"FIDS":325,"LNAM":"1F2B41F8F4FC0145","COLOUR":["4"],"LITCHR":7,"SIGGRP":"(1)","SIGPER":8,"SCAMIN":200000,"SORDAT":"20230510","SORIND":"NL,1R,reprt,MD 257-23","sourceCellId":"1R75K8RI","sourceChecksum":"12e4988797a298b39defb845ae4b44c50b6ae57d658b935d63e9401c87d5dfc4","rawObjectClass":"LIGHTS","sourceStableId":"1F2B41F8F4FC0145"},"sourceKind":"official","official":true,"sourceCellId":"1R75K8RI","sourceStableId":"1F2B41F8F4FC0145","pipelineFeatureId":"1R75K8RI/LIGHTS/17519","provenance":{"cellId":"1R75K8RI","checksum":"12e4988797a298b39defb845ae4b44c50b6ae57d658b935d63e9401c87d5dfc4","readerVersion":"GDAL 3.2.2","processedAt":"2026-08-11T13:43:44.753Z"}}},{"type":"Feature","geometry":{"type":"Point","coordinates":[3.3386667,51.6436667]},"properties":{"dolphinKind":"light","rawObjectClass":"LIGHTS","sourceProperties":{"RCID":17593,"PRIM":1,"GRUP":2,"OBJL":75,"RVER":1,"AGEN":7979,"FIDN":1106834684,"FIDS":399,"LNAM":"1F2B41F8F4FC018F","COLOUR":["1"],"LITCHR":4,"SIGGRP":"(9)","SIGPER":15,"SCAMIN":200000,"SORDAT":"20030930","sourceCellId":"1R75K8RI","sourceChecksum":"12e4988797a298b39defb845ae4b44c50b6ae57d658b935d63e9401c87d5dfc4","rawObjectClass":"LIGHTS","sourceStableId":"1F2B41F8F4FC018F"},"sourceKind":"official","official":true,"sourceCellId":"1R75K8RI","sourceStableId":"1F2B41F8F4FC018F","pipelineFeatureId":"1R75K8RI/LIGHTS/17593","provenance":{"cellId":"1R75K8RI","checksum":"12e4988797a298b39defb845ae4b44c50b6ae57d658b935d63e9401c87d5dfc4","readerVersion":"GDAL 3.2.2","processedAt":"2026-08-11T13:43:44.753Z"}}},{"type":"Feature","geometry":{"type":"Point","coordinates":[3.4833317,51.64148]},"properties":{"dolphinKind":"light","rawObjectClass":"LIGHTS","sourceProperties":{"RCID":486384783,"PRIM":1,"GRUP":2,"OBJL":75,"RVER":1,"AGEN":7979,"FIDN":486384783,"FIDS":1,"LNAM":"1F2B1CFDA48F0001","COLOUR":["3"],"LITCHR":7,"SIGGRP":"(1)","SIGPER":8,"SCAMIN":200000,"SORDAT":"20221123","SORIND":"NL,1R,reprt,MD 448-22","sourceCellId":"1R75K8RI","sourceChecksum":"12e4988797a298b39defb845ae4b44c50b6ae57d658b935d63e9401c87d5dfc4","rawObjectClass":"LIGHTS","sourceStableId":"1F2B1CFDA48F0001"},"sourceKind":"official","official":true,"sourceCellId":"1R75K8RI","sourceStableId":"1F2B1CFDA48F0001","pipelineFeatureId":"1R75K8RI/LIGHTS/486384783","provenance":{"cellId":"1R75K8RI","checksum":"12e4988797a298b39defb845ae4b44c50b6ae57d658b935d63e9401c87d5dfc4","readerVersion":"GDAL 3.2.2","processedAt":"2026-08-11T13:43:44.753Z"}}},{"type":"Feature","geometry":{"type":"Point","coordinates":[3.48451,51.6347867]},"properties":{"dolphinKind":"light","rawObjectClass":"LIGHTS","sourceProperties":{"RCID":1136477430,"PRIM":1,"GRUP":2,"OBJL":75,"RVER":1,"AGEN":7979,"FIDN":1136477430,"FIDS":1,"LNAM":"1F2B43BD44F60001","COLOUR":["1"],"LITCHR":4,"SIGGRP":"(1)","SCAMIN":200000,"SORDAT":"20230510","SORIND":"NL,1R,reprt,MD 257-23","sourceCellId":"1R75K8RI","sourceChecksum":"12e4988797a298b39defb845ae4b44c50b6ae57d658b935d63e9401c87d5dfc4","rawObjectClass":"LIGHTS","sourceStableId":"1F2B43BD44F60001"},"sourceKind":"official","official":true,"sourceCellId":"1R75K8RI","sourceStableId":"1F2B43BD44F60001","pipelineFeatureId":"1R75K8RI/LIGHTS/1136477430","provenance":{"cellId":"1R75K8RI","checksum":"12e4988797a298b39defb845ae4b44c50b6ae57d658b935d63e9401c87d5dfc4","readerVersion":"GDAL 3.2.2","processedAt":"2026-08-11T13:43:44.753Z"}}},{"type":"Feature","geometry":{"type":"Point","coordinates":[3.480331,51.64329]},"properties":{"dolphinKind":"light","rawObjectClass":"LIGHTS","sourceProperties":{"RCID":1173016901,"PRIM":1,"GRUP":2,"OBJL":75,"RVER":1,"AGEN":7979,"FIDN":1173016901,"FIDS":1,"LNAM":"1F2B45EAD1450001","COLOUR":["6"],"LITCHR":2,"SIGGRP":"(5)","SIGPER":20,"SCAMIN":200000,"SORDAT":"20240103","sourceCellId":"1R75K8RI","sourceChecksum":"12e4988797a298b39defb845ae4b44c50b6ae57d658b935d63e9401c87d5dfc4","rawObjectClass":"LIGHTS","sourceStableId":"1F2B45EAD1450001"},"sourceKind":"official","official":true,"sourceCellId":"1R75K8RI","sourceStableId":"1F2B45EAD1450001","pipelineFeatureId":"1R75K8RI/LIGHTS/1173016901","provenance":{"cellId":"1R75K8RI","checksum":"12e4988797a298b39defb845ae4b44c50b6ae57d658b935d63e9401c87d5dfc4","readerVersion":"GDAL 3.2.2","processedAt":"2026-08-11T13:43:44.753Z"}}},{"type":"Feature","geometry":{"type":"Point","coordinates":[3.48451,51.6347867]},"properties":{"dolphinKind":"topmark","rawObjectClass":"TOPMAR","sourceProperties":{"RCID":17522,"PRIM":1,"GRUP":2,"OBJL":144,"RVER":1,"AGEN":7979,"FIDN":1106834684,"FIDS":328,"LNAM":"1F2B41F8F4FC0148","COLOUR":["2"],"TOPSHP":13,"SCAMIN":200000,"SORDAT":"20221123","sourceCellId":"1R75K8RI","sourceChecksum":"12e4988797a298b39defb845ae4b44c50b6ae57d658b935d63e9401c87d5dfc4","rawObjectClass":"TOPMAR","sourceStableId":"1F2B41F8F4FC0148"},"sourceKind":"official","official":true,"sourceCellId":"1R75K8RI","sourceStableId":"1F2B41F8F4FC0148","pipelineFeatureId":"1R75K8RI/TOPMAR/17522","provenance":{"cellId":"1R75K8RI","checksum":"12e4988797a298b39defb845ae4b44c50b6ae57d658b935d63e9401c87d5dfc4","readerVersion":"GDAL 3.2.2","processedAt":"2026-08-11T13:43:44.753Z"},"associationRefsVerifiedInGdalOutput":false}},{"type":"Feature","geometry":{"type":"Point","coordinates":[3.4370467,51.6385033]},"properties":{"dolphinKind":"topmark","rawObjectClass":"TOPMAR","sourceProperties":{"RCID":17527,"PRIM":1,"GRUP":2,"OBJL":144,"RVER":1,"AGEN":7979,"FIDN":1106834684,"FIDS":333,"LNAM":"1F2B41F8F4FC014D","COLOUR":["3"],"TOPSHP":5,"SCAMIN":200000,"SORDAT":"20230510","SORIND":"NL,1R,reprt,MD 257-23","sourceCellId":"1R75K8RI","sourceChecksum":"12e4988797a298b39defb845ae4b44c50b6ae57d658b935d63e9401c87d5dfc4","rawObjectClass":"TOPMAR","sourceStableId":"1F2B41F8F4FC014D"},"sourceKind":"official","official":true,"sourceCellId":"1R75K8RI","sourceStableId":"1F2B41F8F4FC014D","pipelineFeatureId":"1R75K8RI/TOPMAR/17527","provenance":{"cellId":"1R75K8RI","checksum":"12e4988797a298b39defb845ae4b44c50b6ae57d658b935d63e9401c87d5dfc4","readerVersion":"GDAL 3.2.2","processedAt":"2026-08-11T13:43:44.753Z"},"associationRefsVerifiedInGdalOutput":false}},{"type":"Feature","geometry":{"type":"Point","coordinates":[3.3386667,51.6436667]},"properties":{"dolphinKind":"topmark","rawObjectClass":"TOPMAR","sourceProperties":{"RCID":17595,"PRIM":1,"GRUP":2,"OBJL":144,"RVER":1,"AGEN":7979,"FIDN":1106834684,"FIDS":401,"LNAM":"1F2B41F8F4FC0191","COLOUR":["2"],"TOPSHP":10,"SCAMIN":200000,"SORDAT":"20030930","sourceCellId":"1R75K8RI","sourceChecksum":"12e4988797a298b39defb845ae4b44c50b6ae57d658b935d63e9401c87d5dfc4","rawObjectClass":"TOPMAR","sourceStableId":"1F2B41F8F4FC0191"},"sourceKind":"official","official":true,"sourceCellId":"1R75K8RI","sourceStableId":"1F2B41F8F4FC0191","pipelineFeatureId":"1R75K8RI/TOPMAR/17595","provenance":{"cellId":"1R75K8RI","checksum":"12e4988797a298b39defb845ae4b44c50b6ae57d658b935d63e9401c87d5dfc4","readerVersion":"GDAL 3.2.2","processedAt":"2026-08-11T13:43:44.753Z"},"associationRefsVerifiedInGdalOutput":false}},{"type":"Feature","geometry":{"type":"Point","coordinates":[3.3970333,51.6425167]},"properties":{"dolphinKind":"topmark","rawObjectClass":"TOPMAR","sourceProperties":{"RCID":17636,"PRIM":1,"GRUP":2,"OBJL":144,"RVER":1,"AGEN":7979,"FIDN":1106834684,"FIDS":442,"LNAM":"1F2B41F8F4FC01BA","COLOUR":["2"],"TOPSHP":10,"SCAMIN":200000,"SORDAT":"20030930","sourceCellId":"1R75K8RI","sourceChecksum":"12e4988797a298b39defb845ae4b44c50b6ae57d658b935d63e9401c87d5dfc4","rawObjectClass":"TOPMAR","sourceStableId":"1F2B41F8F4FC01BA"},"sourceKind":"official","official":true,"sourceCellId":"1R75K8RI","sourceStableId":"1F2B41F8F4FC01BA","pipelineFeatureId":"1R75K8RI/TOPMAR/17636","provenance":{"cellId":"1R75K8RI","checksum":"12e4988797a298b39defb845ae4b44c50b6ae57d658b935d63e9401c87d5dfc4","readerVersion":"GDAL 3.2.2","processedAt":"2026-08-11T13:43:44.753Z"},"associationRefsVerifiedInGdalOutput":false}},{"type":"Feature","geometry":{"type":"Point","coordinates":[3.4833317,51.64148]},"properties":{"dolphinKind":"topmark","rawObjectClass":"TOPMAR","sourceProperties":{"RCID":486384784,"PRIM":1,"GRUP":2,"OBJL":144,"RVER":1,"AGEN":7979,"FIDN":486384784,"FIDS":1,"LNAM":"1F2B1CFDA4900001","COLOUR":["3"],"TOPSHP":5,"SCAMIN":200000,"SORDAT":"20221123","SORIND":"NL,1R,reprt,MD 448-22","sourceCellId":"1R75K8RI","sourceChecksum":"12e4988797a298b39defb845ae4b44c50b6ae57d658b935d63e9401c87d5dfc4","rawObjectClass":"TOPMAR","sourceStableId":"1F2B1CFDA4900001"},"sourceKind":"official","official":true,"sourceCellId":"1R75K8RI","sourceStableId":"1F2B1CFDA4900001","pipelineFeatureId":"1R75K8RI/TOPMAR/486384784","provenance":{"cellId":"1R75K8RI","checksum":"12e4988797a298b39defb845ae4b44c50b6ae57d658b935d63e9401c87d5dfc4","readerVersion":"GDAL 3.2.2","processedAt":"2026-08-11T13:43:44.753Z"},"associationRefsVerifiedInGdalOutput":false}},{"type":"Feature","geometry":{"type":"Point","coordinates":[3.4374767,51.630245]},"properties":{"dolphinKind":"topmark","rawObjectClass":"TOPMAR","sourceProperties":{"RCID":514396567,"PRIM":1,"GRUP":2,"OBJL":144,"RVER":1,"AGEN":7979,"FIDN":514396567,"FIDS":1,"LNAM":"1F2B1EA911970001","COLOUR":["4"],"TOPSHP":1,"SCAMIN":200000,"SORDAT":"20230510","SORIND":"NL,1R,reprt,MD 257-23","sourceCellId":"1R75K8RI","sourceChecksum":"12e4988797a298b39defb845ae4b44c50b6ae57d658b935d63e9401c87d5dfc4","rawObjectClass":"TOPMAR","sourceStableId":"1F2B1EA911970001"},"sourceKind":"official","official":true,"sourceCellId":"1R75K8RI","sourceStableId":"1F2B1EA911970001","pipelineFeatureId":"1R75K8RI/TOPMAR/514396567","provenance":{"cellId":"1R75K8RI","checksum":"12e4988797a298b39defb845ae4b44c50b6ae57d658b935d63e9401c87d5dfc4","readerVersion":"GDAL 3.2.2","processedAt":"2026-08-11T13:43:44.753Z"},"associationRefsVerifiedInGdalOutput":false}}]}