{"type":"FeatureCollection","features":[{"type":"Feature","geometry":{"type":"Point","coordinates":[3.74885,51.3939833]},"properties":{"dolphinKind":"buoy-lateral","rawObjectClass":"BOYLAT","sourceProperties":{"RCID":16952,"PRIM":1,"GRUP":2,"OBJL":17,"RVER":1,"AGEN":7979,"FIDN":1106834682,"FIDS":268,"LNAM":"1F2B41F8F4FA010C","LNAM_REFS":["1F2B00C7B3FB0001"],"FFPT_RIND":[2],"BOYSHP":1,"CATLAM":2,"COLOUR":["4"],"CONRAD":3,"OBJNAM":"E 3B","SCAMIN":200000,"SORDAT":"20100923","SORIND":"NL,1R,reprt,Bass091/10","sourceCellId":"1R7687XI","sourceChecksum":"c84d7912957898bce00849c8b339f67ba82b63c4143cab57edd3c5723a3a122e","rawObjectClass":"BOYLAT","sourceStableId":"1F2B41F8F4FA010C"},"sourceKind":"official","official":true,"sourceCellId":"1R7687XI","sourceStableId":"1F2B41F8F4FA010C","pipelineFeatureId":"1R7687XI/BOYLAT/16952","provenance":{"cellId":"1R7687XI","checksum":"c84d7912957898bce00849c8b339f67ba82b63c4143cab57edd3c5723a3a122e","readerVersion":"GDAL 3.2.2","processedAt":"2026-08-11T18:29:20.995Z"}}},{"type":"Feature","geometry":{"type":"Point","coordinates":[3.7600667,51.3897833]},"properties":{"dolphinKind":"buoy-lateral","rawObjectClass":"BOYLAT","sourceProperties":{"RCID":16953,"PRIM":1,"GRUP":2,"OBJL":17,"RVER":1,"AGEN":7979,"FIDN":1106834682,"FIDS":269,"LNAM":"1F2B41F8F4FA010D","BOYSHP":5,"CATLAM":2,"COLOUR":["4"],"CONRAD":3,"OBJNAM":"E 3C","SCAMIN":200000,"SORDAT":"20230719","SORIND":"NL,1R,reprt,NDB verbetering","sourceCellId":"1R7687XI","sourceChecksum":"c84d7912957898bce00849c8b339f67ba82b63c4143cab57edd3c5723a3a122e","rawObjectClass":"BOYLAT","sourceStableId":"1F2B41F8F4FA010D"},"sourceKind":"official","official":true,"sourceCellId":"1R7687XI","sourceStableId":"1F2B41F8F4FA010D","pipelineFeatureId":"1R7687XI/BOYLAT/16953","provenance":{"cellId":"1R7687XI","checksum":"c84d7912957898bce00849c8b339f67ba82b63c4143cab57edd3c5723a3a122e","readerVersion":"GDAL 3.2.2","processedAt":"2026-08-11T18:29:20.995Z"}}},{"type":"Feature","geometry":{"type":"Point","coordinates":[3.7966731,51.3785141]},"properties":{"dolphinKind":"buoy-lateral","rawObjectClass":"BOYLAT","sourceProperties":{"RCID":17059,"PRIM":1,"GRUP":2,"OBJL":17,"RVER":1,"AGEN":7979,"FIDN":1106834682,"FIDS":375,"LNAM":"1F2B41F8F4FA0177","LNAM_REFS":["1F2B41F8F4FA018C"],"FFPT_RIND":[2],"BOYSHP":1,"CATLAM":2,"COLOUR":["4"],"CONRAD":3,"OBJNAM":"E 5","SCAMIN":200000,"SORDAT":"20120522","SORIND":"NL,1R,reprt,NavBer 2012/MZ72","sourceCellId":"1R7687XI","sourceChecksum":"c84d7912957898bce00849c8b339f67ba82b63c4143cab57edd3c5723a3a122e","rawObjectClass":"BOYLAT","sourceStableId":"1F2B41F8F4FA0177"},"sourceKind":"official","official":true,"sourceCellId":"1R7687XI","sourceStableId":"1F2B41F8F4FA0177","pipelineFeatureId":"1R7687XI/BOYLAT/17059","provenance":{"cellId":"1R7687XI","checksum":"c84d7912957898bce00849c8b339f67ba82b63c4143cab57edd3c5723a3a122e","readerVersion":"GDAL 3.2.2","processedAt":"2026-08-11T18:29:20.995Z"}}},{"type":"Feature","geometry":{"type":"Point","coordinates":[3.7416,51.4075]},"properties":{"dolphinKind":"buoy-lateral","rawObjectClass":"BOYLAT","sourceProperties":{"RCID":17120,"PRIM":1,"GRUP":2,"OBJL":17,"RVER":1,"AGEN":7979,"FIDN":1106834682,"FIDS":436,"LNAM":"1F2B41F8F4FA01B4","LNAM_REFS":["1F2B4879CAA40001"],"FFPT_RIND":[2],"BOYSHP":5,"CATLAM":1,"COLOUR":["3"],"CONRAD":3,"OBJNAM":"E 2A","SCAMIN":200000,"SORDAT":"20160504","SORIND":"NL,1R,reprt,MD044-16","sourceCellId":"1R7687XI","sourceChecksum":"c84d7912957898bce00849c8b339f67ba82b63c4143cab57edd3c5723a3a122e","rawObjectClass":"BOYLAT","sourceStableId":"1F2B41F8F4FA01B4"},"sourceKind":"official","official":true,"sourceCellId":"1R7687XI","sourceStableId":"1F2B41F8F4FA01B4","pipelineFeatureId":"1R7687XI/BOYLAT/17120","provenance":{"cellId":"1R7687XI","checksum":"c84d7912957898bce00849c8b339f67ba82b63c4143cab57edd3c5723a3a122e","readerVersion":"GDAL 3.2.2","processedAt":"2026-08-11T18:29:20.995Z"}}},{"type":"Feature","geometry":{"type":"Point","coordinates":[3.7559,51.4016]},"properties":{"dolphinKind":"buoy-lateral","rawObjectClass":"BOYLAT","sourceProperties":{"RCID":17121,"PRIM":1,"GRUP":2,"OBJL":17,"RVER":1,"AGEN":7979,"FIDN":1106834682,"FIDS":437,"LNAM":"1F2B41F8F4FA01B5","LNAM_REFS":["1F2B41F8F4FA01B6"],"FFPT_RIND":[2],"BOYSHP":2,"CATLAM":1,"COLOUR":["3"],"CONRAD":3,"OBJNAM":"E 2B","SCAMIN":200000,"SORDAT":"20100923","SORIND":"NL,1R,reprt,Bass 091/10","sourceCellId":"1R7687XI","sourceChecksum":"c84d7912957898bce00849c8b339f67ba82b63c4143cab57edd3c5723a3a122e","rawObjectClass":"BOYLAT","sourceStableId":"1F2B41F8F4FA01B5"},"sourceKind":"official","official":true,"sourceCellId":"1R7687XI","sourceStableId":"1F2B41F8F4FA01B5","pipelineFeatureId":"1R7687XI/BOYLAT/17121","provenance":{"cellId":"1R7687XI","checksum":"c84d7912957898bce00849c8b339f67ba82b63c4143cab57edd3c5723a3a122e","readerVersion":"GDAL 3.2.2","processedAt":"2026-08-11T18:29:20.995Z"}}},{"type":"Feature","geometry":{"type":"Point","coordinates":[3.7911833,51.3896667]},"properties":{"dolphinKind":"buoy-lateral","rawObjectClass":"BOYLAT","sourceProperties":{"RCID":17124,"PRIM":1,"GRUP":2,"OBJL":17,"RVER":1,"AGEN":7979,"FIDN":1106834682,"FIDS":440,"LNAM":"1F2B41F8F4FA01B8","BOYSHP":5,"CATLAM":1,"COLOUR":["3"],"CONRAD":3,"OBJNAM":"E 2E","SCAMIN":200000,"SORDAT":"20160504","SORIND":"NL,1R,reprt,MD044-16","sourceCellId":"1R7687XI","sourceChecksum":"c84d7912957898bce00849c8b339f67ba82b63c4143cab57edd3c5723a3a122e","rawObjectClass":"BOYLAT","sourceStableId":"1F2B41F8F4FA01B8"},"sourceKind":"official","official":true,"sourceCellId":"1R7687XI","sourceStableId":"1F2B41F8F4FA01B8","pipelineFeatureId":"1R7687XI/BOYLAT/17124","provenance":{"cellId":"1R7687XI","checksum":"c84d7912957898bce00849c8b339f67ba82b63c4143cab57edd3c5723a3a122e","readerVersion":"GDAL 3.2.2","processedAt":"2026-08-11T18:29:20.995Z"}}},{"type":"Feature","geometry":{"type":"Point","coordinates":[3.7719833,51.3858167]},"properties":{"dolphinKind":"buoy-lateral","rawObjectClass":"BOYLAT","sourceProperties":{"RCID":17127,"PRIM":1,"GRUP":2,"OBJL":17,"RVER":1,"AGEN":7979,"FIDN":1106834682,"FIDS":443,"LNAM":"1F2B41F8F4FA01BB","LNAM_REFS":["1F2B00C7B3FC0001"],"FFPT_RIND":[2],"BOYSHP":1,"CATLAM":2,"COLOUR":["4"],"CONRAD":3,"OBJNAM":"E 3D","SCAMIN":200000,"SORDAT":"20100923","SORIND":"NL,1R,reprt,Bass091/10","sourceCellId":"1R7687XI","sourceChecksum":"c84d7912957898bce00849c8b339f67ba82b63c4143cab57edd3c5723a3a122e","rawObjectClass":"BOYLAT","sourceStableId":"1F2B41F8F4FA01BB"},"sourceKind":"official","official":true,"sourceCellId":"1R7687XI","sourceStableId":"1F2B41F8F4FA01BB","pipelineFeatureId":"1R7687XI/BOYLAT/17127","provenance":{"cellId":"1R7687XI","checksum":"c84d7912957898bce00849c8b339f67ba82b63c4143cab57edd3c5723a3a122e","readerVersion":"GDAL 3.2.2","processedAt":"2026-08-11T18:29:20.995Z"}}},{"type":"Feature","geometry":{"type":"Point","coordinates":[3.7789833,51.3933667]},"properties":{"dolphinKind":"buoy-lateral","rawObjectClass":"BOYLAT","sourceProperties":{"RCID":17128,"PRIM":1,"GRUP":2,"OBJL":17,"RVER":1,"AGEN":7979,"FIDN":1106834682,"FIDS":444,"LNAM":"1F2B41F8F4FA01BC","LNAM_REFS":["1F2B41F8F4FA01BD"],"FFPT_RIND":[2],"BOYSHP":2,"CATLAM":1,"COLOUR":["3"],"CONRAD":3,"OBJNAM":"E 2D","SCAMIN":200000,"SORDAT":"20100923","SORIND":"NL,1R,reprt,Bass091/10","sourceCellId":"1R7687XI","sourceChecksum":"c84d7912957898bce00849c8b339f67ba82b63c4143cab57edd3c5723a3a122e","rawObjectClass":"BOYLAT","sourceStableId":"1F2B41F8F4FA01BC"},"sourceKind":"official","official":true,"sourceCellId":"1R7687XI","sourceStableId":"1F2B41F8F4FA01BC","pipelineFeatureId":"1R7687XI/BOYLAT/17128","provenance":{"cellId":"1R7687XI","checksum":"c84d7912957898bce00849c8b339f67ba82b63c4143cab57edd3c5723a3a122e","readerVersion":"GDAL 3.2.2","processedAt":"2026-08-11T18:29:20.995Z"}}},{"type":"Feature","geometry":{"type":"Point","coordinates":[3.7676167,51.39775]},"properties":{"dolphinKind":"buoy-lateral","rawObjectClass":"BOYLAT","sourceProperties":{"RCID":17130,"PRIM":1,"GRUP":2,"OBJL":17,"RVER":1,"AGEN":7979,"FIDN":1106834682,"FIDS":446,"LNAM":"1F2B41F8F4FA01BE","BOYSHP":5,"CATLAM":1,"COLOUR":["3"],"CONRAD":3,"OBJNAM":"E 2C","SCAMIN":200000,"SORDAT":"20160504","SORIND":"NL,1R,reprt,MD044-16","sourceCellId":"1R7687XI","sourceChecksum":"c84d7912957898bce00849c8b339f67ba82b63c4143cab57edd3c5723a3a122e","rawObjectClass":"BOYLAT","sourceStableId":"1F2B41F8F4FA01BE"},"sourceKind":"official","official":true,"sourceCellId":"1R7687XI","sourceStableId":"1F2B41F8F4FA01BE","pipelineFeatureId":"1R7687XI/BOYLAT/17130","provenance":{"cellId":"1R7687XI","checksum":"c84d7912957898bce00849c8b339f67ba82b63c4143cab57edd3c5723a3a122e","readerVersion":"GDAL 3.2.2","processedAt":"2026-08-11T18:29:20.995Z"}}},{"type":"Feature","geometry":{"type":"Point","coordinates":[3.8850633,51.3758867]},"properties":{"dolphinKind":"buoy-lateral","rawObjectClass":"BOYLAT","sourceProperties":{"RCID":17188,"PRIM":1,"GRUP":2,"OBJL":17,"RVER":1,"AGEN":7979,"FIDN":1106834682,"FIDS":504,"LNAM":"1F2B41F8F4FA01F8","LNAM_REFS":["1F2B0087C7710001"],"FFPT_RIND":[2],"BOYSHP":2,"CATLAM":1,"COLOUR":["3"],"CONRAD":3,"OBJNAM":"E 14","SCAMIN":200000,"SORDAT":"20260618","SORIND":"NL,1R,rerpt,MD 294-26","sourceCellId":"1R7687XI","sourceChecksum":"c84d7912957898bce00849c8b339f67ba82b63c4143cab57edd3c5723a3a122e","rawObjectClass":"BOYLAT","sourceStableId":"1F2B41F8F4FA01F8"},"sourceKind":"official","official":true,"sourceCellId":"1R7687XI","sourceStableId":"1F2B41F8F4FA01F8","pipelineFeatureId":"1R7687XI/BOYLAT/17188","provenance":{"cellId":"1R7687XI","checksum":"c84d7912957898bce00849c8b339f67ba82b63c4143cab57edd3c5723a3a122e","readerVersion":"GDAL 3.2.2","processedAt":"2026-08-11T18:29:20.995Z"}}},{"type":"Feature","geometry":{"type":"Point","coordinates":[3.8993667,51.3888333]},"properties":{"dolphinKind":"buoy-lateral","rawObjectClass":"BOYLAT","sourceProperties":{"RCID":17190,"PRIM":1,"GRUP":2,"OBJL":17,"RVER":1,"AGEN":7979,"FIDN":1106834682,"FIDS":506,"LNAM":"1F2B41F8F4FA01FA","LNAM_REFS":["1F2B01EC92950001","1F2B1B44D62E0001"],"FFPT_RIND":[2,2],"BOYSHP":2,"CATLAM":1,"COLOUR":["3"],"CONRAD":3,"OBJNAM":"E 18","SCAMIN":200000,"SORDAT":"20220405","SORIND":"NL,1R,reprt,MD 206-22","sourceCellId":"1R7687XI","sourceChecksum":"c84d7912957898bce00849c8b339f67ba82b63c4143cab57edd3c5723a3a122e","rawObjectClass":"BOYLAT","sourceStableId":"1F2B41F8F4FA01FA"},"sourceKind":"official","official":true,"sourceCellId":"1R7687XI","sourceStableId":"1F2B41F8F4FA01FA","pipelineFeatureId":"1R7687XI/BOYLAT/17190","provenance":{"cellId":"1R7687XI","checksum":"c84d7912957898bce00849c8b339f67ba82b63c4143cab57edd3c5723a3a122e","readerVersion":"GDAL 3.2.2","processedAt":"2026-08-11T18:29:20.995Z"}}},{"type":"Feature","geometry":{"type":"Point","coordinates":[3.9210167,51.425]},"properties":{"dolphinKind":"buoy-lateral","rawObjectClass":"BOYLAT","sourceProperties":{"RCID":17393,"PRIM":1,"GRUP":2,"OBJL":17,"RVER":1,"AGEN":7979,"FIDN":1106834683,"FIDS":454,"LNAM":"1F2B41F8F4FB01C6","BOYSHP":5,"CATLAM":1,"COLOUR":["3"],"CONRAD":3,"OBJNAM":"MG 6","SCAMIN":200000,"SORDAT":"20191018","SORIND":"NL,1R,Reprt,email F. de Pooter 03102019","sourceCellId":"1R7687XI","sourceChecksum":"c84d7912957898bce00849c8b339f67ba82b63c4143cab57edd3c5723a3a122e","rawObjectClass":"BOYLAT","sourceStableId":"1F2B41F8F4FB01C6"},"sourceKind":"official","official":true,"sourceCellId":"1R7687XI","sourceStableId":"1F2B41F8F4FB01C6","pipelineFeatureId":"1R7687XI/BOYLAT/17393","provenance":{"cellId":"1R7687XI","checksum":"c84d7912957898bce00849c8b339f67ba82b63c4143cab57edd3c5723a3a122e","readerVersion":"GDAL 3.2.2","processedAt":"2026-08-11T18:29:20.995Z"}}},{"type":"Feature","geometry":{"type":"Point","coordinates":[3.9091166,51.4058833]},"properties":{"dolphinKind":"buoy-lateral","rawObjectClass":"BOYLAT","sourceProperties":{"RCID":17394,"PRIM":1,"GRUP":2,"OBJL":17,"RVER":1,"AGEN":7979,"FIDN":1106834683,"FIDS":455,"LNAM":"1F2B41F8F4FB01C7","BOYSHP":5,"CATLAM":1,"COLOUR":["3"],"CONRAD":3,"OBJNAM":"MG 4","SCAMIN":200000,"SORDAT":"20090420","SORIND":"NL,1R,reprt,NavBer 36","sourceCellId":"1R7687XI","sourceChecksum":"c84d7912957898bce00849c8b339f67ba82b63c4143cab57edd3c5723a3a122e","rawObjectClass":"BOYLAT","sourceStableId":"1F2B41F8F4FB01C7"},"sourceKind":"official","official":true,"sourceCellId":"1R7687XI","sourceStableId":"1F2B41F8F4FB01C7","pipelineFeatureId":"1R7687XI/BOYLAT/17394","provenance":{"cellId":"1R7687XI","checksum":"c84d7912957898bce00849c8b339f67ba82b63c4143cab57edd3c5723a3a122e","readerVersion":"GDAL 3.2.2","processedAt":"2026-08-11T18:29:20.995Z"}}},{"type":"Feature","geometry":{"type":"Point","coordinates":[3.904235,51.3974083]},"properties":{"dolphinKind":"buoy-lateral","rawObjectClass":"BOYLAT","sourceProperties":{"RCID":17395,"PRIM":1,"GRUP":2,"OBJL":17,"RVER":1,"AGEN":7979,"FIDN":1106834683,"FIDS":456,"LNAM":"1F2B41F8F4FB01C8","LNAM_REFS":["1F2B01EEF2990001"],"FFPT_RIND":[2],"BOYSHP":5,"CATLAM":1,"COLOUR":["3"],"CONRAD":3,"OBJNAM":"MG 2","SCAMIN":200000,"SORDAT":"20220405","SORIND":"NL,1R,reprt,MD 206-22","sourceCellId":"1R7687XI","sourceChecksum":"c84d7912957898bce00849c8b339f67ba82b63c4143cab57edd3c5723a3a122e","rawObjectClass":"BOYLAT","sourceStableId":"1F2B41F8F4FB01C8"},"sourceKind":"official","official":true,"sourceCellId":"1R7687XI","sourceStableId":"1F2B41F8F4FB01C8","pipelineFeatureId":"1R7687XI/BOYLAT/17395","provenance":{"cellId":"1R7687XI","checksum":"c84d7912957898bce00849c8b339f67ba82b63c4143cab57edd3c5723a3a122e","readerVersion":"GDAL 3.2.2","processedAt":"2026-08-11T18:29:20.995Z"}}},{"type":"Feature","geometry":{"type":"Point","coordinates":[3.9260167,51.4238]},"properties":{"dolphinKind":"buoy-lateral","rawObjectClass":"BOYLAT","sourceProperties":{"RCID":17407,"PRIM":1,"GRUP":2,"OBJL":17,"RVER":1,"AGEN":7979,"FIDN":1106834683,"FIDS":468,"LNAM":"1F2B41F8F4FB01D4","LNAM_REFS":["1F2B41F8F4FB01D5"],"FFPT_RIND":[2],"BOYSHP":1,"CATLAM":2,"COLOUR":["4"],"CONRAD":3,"OBJNAM":"MG 7","SCAMIN":200000,"SORDAT":"20260504","SORIND":"NL,1R,Reprt,email F. de Pooter 03102019","sourceCellId":"1R7687XI","sourceChecksum":"c84d7912957898bce00849c8b339f67ba82b63c4143cab57edd3c5723a3a122e","rawObjectClass":"BOYLAT","sourceStableId":"1F2B41F8F4FB01D4"},"sourceKind":"official","official":true,"sourceCellId":"1R7687XI","sourceStableId":"1F2B41F8F4FB01D4","pipelineFeatureId":"1R7687XI/BOYLAT/17407","provenance":{"cellId":"1R7687XI","checksum":"c84d7912957898bce00849c8b339f67ba82b63c4143cab57edd3c5723a3a122e","readerVersion":"GDAL 3.2.2","processedAt":"2026-08-11T18:29:20.995Z"}}},{"type":"Feature","geometry":{"type":"Point","coordinates":[3.9213667,51.414]},"properties":{"dolphinKind":"buoy-lateral","rawObjectClass":"BOYLAT","sourceProperties":{"RCID":17409,"PRIM":1,"GRUP":2,"OBJL":17,"RVER":1,"AGEN":7979,"FIDN":1106834683,"FIDS":470,"LNAM":"1F2B41F8F4FB01D6","BOYSHP":5,"CATLAM":2,"COLOUR":["4"],"CONRAD":3,"OBJNAM":"MG 5","SCAMIN":200000,"SORDAT":"20191018","SORIND":"NL,1R,Reprt,email F. de Pooter 03102019","sourceCellId":"1R7687XI","sourceChecksum":"c84d7912957898bce00849c8b339f67ba82b63c4143cab57edd3c5723a3a122e","rawObjectClass":"BOYLAT","sourceStableId":"1F2B41F8F4FB01D6"},"sourceKind":"official","official":true,"sourceCellId":"1R7687XI","sourceStableId":"1F2B41F8F4FB01D6","pipelineFeatureId":"1R7687XI/BOYLAT/17409","provenance":{"cellId":"1R7687XI","checksum":"c84d7912957898bce00849c8b339f67ba82b63c4143cab57edd3c5723a3a122e","readerVersion":"GDAL 3.2.2","processedAt":"2026-08-11T18:29:20.995Z"}}},{"type":"Feature","geometry":{"type":"Point","coordinates":[3.916,51.4044833]},"properties":{"dolphinKind":"buoy-lateral","rawObjectClass":"BOYLAT","sourceProperties":{"RCID":17410,"PRIM":1,"GRUP":2,"OBJL":17,"RVER":1,"AGEN":7979,"FIDN":1106834683,"FIDS":471,"LNAM":"1F2B41F8F4FB01D7","LNAM_REFS":["1F2B41F8F4FB01D8"],"FFPT_RIND":[2],"BOYSHP":1,"CATLAM":2,"COLOUR":["4"],"CONRAD":3,"OBJNAM":"MG 3","SCAMIN":200000,"SORDAT":"20090420","SORIND":"NL,1R,reprt,NavBer 36","sourceCellId":"1R7687XI","sourceChecksum":"c84d7912957898bce00849c8b339f67ba82b63c4143cab57edd3c5723a3a122e","rawObjectClass":"BOYLAT","sourceStableId":"1F2B41F8F4FB01D7"},"sourceKind":"official","official":true,"sourceCellId":"1R7687XI","sourceStableId":"1F2B41F8F4FB01D7","pipelineFeatureId":"1R7687XI/BOYLAT/17410","provenance":{"cellId":"1R7687XI","checksum":"c84d7912957898bce00849c8b339f67ba82b63c4143cab57edd3c5723a3a122e","readerVersion":"GDAL 3.2.2","processedAt":"2026-08-11T18:29:20.995Z"}}},{"type":"Feature","geometry":{"type":"Point","coordinates":[3.91175,51.39575]},"properties":{"dolphinKind":"buoy-lateral","rawObjectClass":"BOYLAT","sourceProperties":{"RCID":17412,"PRIM":1,"GRUP":2,"OBJL":17,"RVER":1,"AGEN":7979,"FIDN":1106834683,"FIDS":473,"LNAM":"1F2B41F8F4FB01D9","LNAM_REFS":["1F2B01B0E1930001"],"FFPT_RIND":[2],"BOYSHP":5,"CATLAM":2,"COLOUR":["4"],"CONRAD":3,"OBJNAM":"MG 1","SCAMIN":200000,"SORDAT":"20120127","SORIND":"NL,1R,reprt,MZ 8","sourceCellId":"1R7687XI","sourceChecksum":"c84d7912957898bce00849c8b339f67ba82b63c4143cab57edd3c5723a3a122e","rawObjectClass":"BOYLAT","sourceStableId":"1F2B41F8F4FB01D9"},"sourceKind":"official","official":true,"sourceCellId":"1R7687XI","sourceStableId":"1F2B41F8F4FB01D9","pipelineFeatureId":"1R7687XI/BOYLAT/17412","provenance":{"cellId":"1R7687XI","checksum":"c84d7912957898bce00849c8b339f67ba82b63c4143cab57edd3c5723a3a122e","readerVersion":"GDAL 3.2.2","processedAt":"2026-08-11T18:29:20.995Z"}}},{"type":"Feature","geometry":{"type":"Point","coordinates":[3.7830667,51.3812]},"properties":{"dolphinKind":"buoy-lateral","rawObjectClass":"BOYLAT","sourceProperties":{"RCID":25237,"PRIM":1,"GRUP":2,"OBJL":17,"RVER":1,"AGEN":7979,"FIDN":1107856852,"FIDS":1,"LNAM":"1F2B42088DD40001","BOYSHP":5,"CATLAM":2,"COLOUR":["4"],"CONRAD":3,"OBJNAM":"E 3E","SCAMIN":200000,"SORDAT":"20230719","SORIND":"NL,1R,reprt,NDB verbetering","sourceCellId":"1R7687XI","sourceChecksum":"c84d7912957898bce00849c8b339f67ba82b63c4143cab57edd3c5723a3a122e","rawObjectClass":"BOYLAT","sourceStableId":"1F2B42088DD40001"},"sourceKind":"official","official":true,"sourceCellId":"1R7687XI","sourceStableId":"1F2B42088DD40001","pipelineFeatureId":"1R7687XI/BOYLAT/25237","provenance":{"cellId":"1R7687XI","checksum":"c84d7912957898bce00849c8b339f67ba82b63c4143cab57edd3c5723a3a122e","readerVersion":"GDAL 3.2.2","processedAt":"2026-08-11T18:29:20.995Z"}}},{"type":"Feature","geometry":{"type":"Point","coordinates":[3.8124167,51.38345]},"properties":{"dolphinKind":"buoy-lateral","rawObjectClass":"BOYLAT","sourceProperties":{"RCID":12118410,"PRIM":1,"GRUP":2,"OBJL":17,"RVER":1,"AGEN":7979,"FIDN":12118410,"FIDS":1,"LNAM":"1F2B00B8E98A0001","LNAM_REFS":["1F2B12D7C27D0001"],"FFPT_RIND":[2],"BOYSHP":2,"CATLAM":1,"COLOUR":["3"],"CONRAD":3,"OBJNAM":"E 4","SCAMIN":200000,"SORDAT":"20190626","SORIND":"NL,1R,Reprt,MD311-19","sourceCellId":"1R7687XI","sourceChecksum":"c84d7912957898bce00849c8b339f67ba82b63c4143cab57edd3c5723a3a122e","rawObjectClass":"BOYLAT","sourceStableId":"1F2B00B8E98A0001"},"sourceKind":"official","official":true,"sourceCellId":"1R7687XI","sourceStableId":"1F2B00B8E98A0001","pipelineFeatureId":"1R7687XI/BOYLAT/12118410","provenance":{"cellId":"1R7687XI","checksum":"c84d7912957898bce00849c8b339f67ba82b63c4143cab57edd3c5723a3a122e","readerVersion":"GDAL 3.2.2","processedAt":"2026-08-11T18:29:20.995Z"}}},{"type":"Feature","geometry":{"type":"Point","coordinates":[3.8991117,51.3803483]},"properties":{"dolphinKind":"buoy-lateral","rawObjectClass":"BOYLAT","sourceProperties":{"RCID":28369303,"PRIM":1,"GRUP":2,"OBJL":17,"RVER":1,"AGEN":7979,"FIDN":28369303,"FIDS":1,"LNAM":"1F2B01B0E1970001","BOYSHP":5,"CATLAM":2,"COLOUR":["4"],"CONRAD":3,"OBJNAM":"E 19","SCAMIN":200000,"SORDAT":"20260618","SORIND":"NL,1R,rerpt,MD 294-26","sourceCellId":"1R7687XI","sourceChecksum":"c84d7912957898bce00849c8b339f67ba82b63c4143cab57edd3c5723a3a122e","rawObjectClass":"BOYLAT","sourceStableId":"1F2B01B0E1970001"},"sourceKind":"official","official":true,"sourceCellId":"1R7687XI","sourceStableId":"1F2B01B0E1970001","pipelineFeatureId":"1R7687XI/BOYLAT/28369303","provenance":{"cellId":"1R7687XI","checksum":"c84d7912957898bce00849c8b339f67ba82b63c4143cab57edd3c5723a3a122e","readerVersion":"GDAL 3.2.2","processedAt":"2026-08-11T18:29:20.995Z"}}},{"type":"Feature","geometry":{"type":"Point","coordinates":[3.8926433,51.3835133]},"properties":{"dolphinKind":"buoy-lateral","rawObjectClass":"BOYLAT","sourceProperties":{"RCID":32281238,"PRIM":1,"GRUP":2,"OBJL":17,"RVER":1,"AGEN":7979,"FIDN":32281238,"FIDS":1,"LNAM":"1F2B01EC92960001","BOYSHP":5,"CATLAM":1,"COLOUR":["3"],"CONRAD":3,"OBJNAM":"E 16","SCAMIN":200000,"SORDAT":"20260618","SORIND":"NL,1R,rerpt,MD 294-26","sourceCellId":"1R7687XI","sourceChecksum":"c84d7912957898bce00849c8b339f67ba82b63c4143cab57edd3c5723a3a122e","rawObjectClass":"BOYLAT","sourceStableId":"1F2B01EC92960001"},"sourceKind":"official","official":true,"sourceCellId":"1R7687XI","sourceStableId":"1F2B01EC92960001","pipelineFeatureId":"1R7687XI/BOYLAT/32281238","provenance":{"cellId":"1R7687XI","checksum":"c84d7912957898bce00849c8b339f67ba82b63c4143cab57edd3c5723a3a122e","readerVersion":"GDAL 3.2.2","processedAt":"2026-08-11T18:29:20.995Z"}}},{"type":"Feature","geometry":{"type":"Point","coordinates":[3.8250883,51.37691]},"properties":{"dolphinKind":"buoy-lateral","rawObjectClass":"BOYLAT","sourceProperties":{"RCID":439553538,"PRIM":1,"GRUP":2,"OBJL":17,"RVER":1,"AGEN":7979,"FIDN":439553538,"FIDS":1,"LNAM":"1F2B1A330E020001","LNAM_REFS":["1F2B1A330E010001"],"FFPT_RIND":[2],"BOYSHP":2,"CATLAM":1,"COLOUR":["3"],"CONRAD":3,"OBJNAM":"E 4A","SCAMIN":200000,"SORDAT":"20240405","SORIND":"NL,1R,Reprt,MD234-24","sourceCellId":"1R7687XI","sourceChecksum":"c84d7912957898bce00849c8b339f67ba82b63c4143cab57edd3c5723a3a122e","rawObjectClass":"BOYLAT","sourceStableId":"1F2B1A330E020001"},"sourceKind":"official","official":true,"sourceCellId":"1R7687XI","sourceStableId":"1F2B1A330E020001","pipelineFeatureId":"1R7687XI/BOYLAT/439553538","provenance":{"cellId":"1R7687XI","checksum":"c84d7912957898bce00849c8b339f67ba82b63c4143cab57edd3c5723a3a122e","readerVersion":"GDAL 3.2.2","processedAt":"2026-08-11T18:29:20.995Z"}}},{"type":"Feature","geometry":{"type":"Point","coordinates":[3.9058167,51.3878167]},"properties":{"dolphinKind":"buoy-lateral","rawObjectClass":"BOYLAT","sourceProperties":{"RCID":454894460,"PRIM":1,"GRUP":2,"OBJL":17,"RVER":1,"AGEN":7979,"FIDN":454894460,"FIDS":1,"LNAM":"1F2B1B1D237C0001","LNAM_REFS":["1F2B1B1D237B0001","1F2B4BDDC5040001"],"FFPT_RIND":[2,2],"BOYSHP":1,"CATLAM":2,"COLOUR":["4"],"CONRAD":3,"OBJNAM":"E 21","SCAMIN":200000,"SORDAT":"20220405","SORIND":"NL,1R,reprt,MD 206-22","sourceCellId":"1R7687XI","sourceChecksum":"c84d7912957898bce00849c8b339f67ba82b63c4143cab57edd3c5723a3a122e","rawObjectClass":"BOYLAT","sourceStableId":"1F2B1B1D237C0001"},"sourceKind":"official","official":true,"sourceCellId":"1R7687XI","sourceStableId":"1F2B1B1D237C0001","pipelineFeatureId":"1R7687XI/BOYLAT/454894460","provenance":{"cellId":"1R7687XI","checksum":"c84d7912957898bce00849c8b339f67ba82b63c4143cab57edd3c5723a3a122e","readerVersion":"GDAL 3.2.2","processedAt":"2026-08-11T18:29:20.995Z"}}},{"type":"Feature","geometry":{"type":"Point","coordinates":[3.7902033,51.376445]},"properties":{"dolphinKind":"buoy-special","rawObjectClass":"BOYSPP","sourceProperties":{"RCID":17043,"PRIM":1,"GRUP":2,"OBJL":19,"RVER":1,"AGEN":7979,"FIDN":1106834682,"FIDS":359,"LNAM":"1F2B41F8F4FA0167","BOYSHP":5,"CATSPM":["40"],"COLOUR":["6"],"CONRAD":3,"NATCON":["8"],"OBJNAM":"SPER 5<150kV>","SCAMIN":200000,"SORDAT":"20201102","SORIND":"NL,1R,reprt,MD 509-20","sourceCellId":"1R7687XI","sourceChecksum":"c84d7912957898bce00849c8b339f67ba82b63c4143cab57edd3c5723a3a122e","rawObjectClass":"BOYSPP","sourceStableId":"1F2B41F8F4FA0167"},"sourceKind":"official","official":true,"sourceCellId":"1R7687XI","sourceStableId":"1F2B41F8F4FA0167","pipelineFeatureId":"1R7687XI/BOYSPP/17043","provenance":{"cellId":"1R7687XI","checksum":"c84d7912957898bce00849c8b339f67ba82b63c4143cab57edd3c5723a3a122e","readerVersion":"GDAL 3.2.2","processedAt":"2026-08-11T18:29:20.995Z"}}},{"type":"Feature","geometry":{"type":"Point","coordinates":[3.789705,51.3759]},"properties":{"dolphinKind":"buoy-special","rawObjectClass":"BOYSPP","sourceProperties":{"RCID":17044,"PRIM":1,"GRUP":2,"OBJL":19,"RVER":1,"AGEN":7979,"FIDN":1106834682,"FIDS":360,"LNAM":"1F2B41F8F4FA0168","BOYSHP":5,"CATSPM":["40"],"COLOUR":["6"],"CONRAD":3,"NATCON":["8"],"OBJNAM":"SPER 3<150kV>","SCAMIN":200000,"SORDAT":"20201102","SORIND":"NL,1R,reprt,MD 509-20","sourceCellId":"1R7687XI","sourceChecksum":"c84d7912957898bce00849c8b339f67ba82b63c4143cab57edd3c5723a3a122e","rawObjectClass":"BOYSPP","sourceStableId":"1F2B41F8F4FA0168"},"sourceKind":"official","official":true,"sourceCellId":"1R7687XI","sourceStableId":"1F2B41F8F4FA0168","pipelineFeatureId":"1R7687XI/BOYSPP/17044","provenance":{"cellId":"1R7687XI","checksum":"c84d7912957898bce00849c8b339f67ba82b63c4143cab57edd3c5723a3a122e","readerVersion":"GDAL 3.2.2","processedAt":"2026-08-11T18:29:20.995Z"}}},{"type":"Feature","geometry":{"type":"Point","coordinates":[3.7892367,51.3753533]},"properties":{"dolphinKind":"buoy-special","rawObjectClass":"BOYSPP","sourceProperties":{"RCID":17046,"PRIM":1,"GRUP":2,"OBJL":19,"RVER":1,"AGEN":7979,"FIDN":1106834682,"FIDS":362,"LNAM":"1F2B41F8F4FA016A","BOYSHP":5,"CATSPM":["40"],"COLOUR":["6"],"CONRAD":3,"NATCON":["8"],"OBJNAM":"SPER 1<150kV>","SCAMIN":200000,"SORDAT":"20201102","SORIND":"NL,1R,reprt,MD 509-20","sourceCellId":"1R7687XI","sourceChecksum":"c84d7912957898bce00849c8b339f67ba82b63c4143cab57edd3c5723a3a122e","rawObjectClass":"BOYSPP","sourceStableId":"1F2B41F8F4FA016A"},"sourceKind":"official","official":true,"sourceCellId":"1R7687XI","sourceStableId":"1F2B41F8F4FA016A","pipelineFeatureId":"1R7687XI/BOYSPP/17046","provenance":{"cellId":"1R7687XI","checksum":"c84d7912957898bce00849c8b339f67ba82b63c4143cab57edd3c5723a3a122e","readerVersion":"GDAL 3.2.2","processedAt":"2026-08-11T18:29:20.995Z"}}},{"type":"Feature","geometry":{"type":"Point","coordinates":[3.7947667,51.3754333]},"properties":{"dolphinKind":"buoy-special","rawObjectClass":"BOYSPP","sourceProperties":{"RCID":17067,"PRIM":1,"GRUP":2,"OBJL":19,"RVER":1,"AGEN":7979,"FIDN":1106834682,"FIDS":383,"LNAM":"1F2B41F8F4FA017F","BOYSHP":5,"CATSPM":["40"],"COLOUR":["6"],"CONRAD":3,"NATCON":["8"],"OBJNAM":"SPER 9<150kV>","SCAMIN":200000,"SORDAT":"20151208","SORIND":"NL,1R,reprt,MD 513-15","sourceCellId":"1R7687XI","sourceChecksum":"c84d7912957898bce00849c8b339f67ba82b63c4143cab57edd3c5723a3a122e","rawObjectClass":"BOYSPP","sourceStableId":"1F2B41F8F4FA017F"},"sourceKind":"official","official":true,"sourceCellId":"1R7687XI","sourceStableId":"1F2B41F8F4FA017F","pipelineFeatureId":"1R7687XI/BOYSPP/17067","provenance":{"cellId":"1R7687XI","checksum":"c84d7912957898bce00849c8b339f67ba82b63c4143cab57edd3c5723a3a122e","readerVersion":"GDAL 3.2.2","processedAt":"2026-08-11T18:29:20.995Z"}}},{"type":"Feature","geometry":{"type":"Point","coordinates":[3.8973133,51.3891033]},"properties":{"dolphinKind":"buoy-special","rawObjectClass":"BOYSPP","sourceProperties":{"RCID":223323600,"PRIM":1,"GRUP":2,"OBJL":19,"RVER":1,"AGEN":7979,"FIDN":223323600,"FIDS":1,"LNAM":"1F2B0D4FA5D00001","BOYSHP":5,"CATSPM":["12"],"COLOUR":["6"],"CONRAD":3,"OBJNAM":"BA-A","INFORM":"Kitesurf Area","NINFOM":"Kitesurf Gebied","SCAMIN":200000,"SORDAT":"20180320","SORIND":"NL,1R,reprt,MD 102-18","sourceCellId":"1R7687XI","sourceChecksum":"c84d7912957898bce00849c8b339f67ba82b63c4143cab57edd3c5723a3a122e","rawObjectClass":"BOYSPP","sourceStableId":"1F2B0D4FA5D00001"},"sourceKind":"official","official":true,"sourceCellId":"1R7687XI","sourceStableId":"1F2B0D4FA5D00001","pipelineFeatureId":"1R7687XI/BOYSPP/223323600","provenance":{"cellId":"1R7687XI","checksum":"c84d7912957898bce00849c8b339f67ba82b63c4143cab57edd3c5723a3a122e","readerVersion":"GDAL 3.2.2","processedAt":"2026-08-11T18:29:20.995Z"}}},{"type":"Feature","geometry":{"type":"Point","coordinates":[3.90142,51.394055]},"properties":{"dolphinKind":"buoy-special","rawObjectClass":"BOYSPP","sourceProperties":{"RCID":223323602,"PRIM":1,"GRUP":2,"OBJL":19,"RVER":1,"AGEN":7979,"FIDN":223323602,"FIDS":1,"LNAM":"1F2B0D4FA5D20001","BOYSHP":5,"CATSPM":["12"],"COLOUR":["6"],"CONRAD":3,"OBJNAM":"BA-B","INFORM":"Kitesurf Area","NINFOM":"Kitesurf Gebied","SCAMIN":200000,"SORDAT":"20230322","SORIND":"NL,1R,reprt,MD 148-23","sourceCellId":"1R7687XI","sourceChecksum":"c84d7912957898bce00849c8b339f67ba82b63c4143cab57edd3c5723a3a122e","rawObjectClass":"BOYSPP","sourceStableId":"1F2B0D4FA5D20001"},"sourceKind":"official","official":true,"sourceCellId":"1R7687XI","sourceStableId":"1F2B0D4FA5D20001","pipelineFeatureId":"1R7687XI/BOYSPP/223323602","provenance":{"cellId":"1R7687XI","checksum":"c84d7912957898bce00849c8b339f67ba82b63c4143cab57edd3c5723a3a122e","readerVersion":"GDAL 3.2.2","processedAt":"2026-08-11T18:29:20.995Z"}}},{"type":"Feature","geometry":{"type":"Point","coordinates":[3.7925917,51.3759383]},"properties":{"dolphinKind":"buoy-special","rawObjectClass":"BOYSPP","sourceProperties":{"RCID":388935642,"PRIM":1,"GRUP":2,"OBJL":19,"RVER":1,"AGEN":7979,"FIDN":388935642,"FIDS":1,"LNAM":"1F2B172EAFDA0001","BOYSHP":5,"CATSPM":["40"],"COLOUR":["6"],"CONRAD":3,"NATCON":["8"],"OBJNAM":"SPER 7<150kV>","SCAMIN":200000,"SORDAT":"20201102","SORIND":"NL,1R,reprt,MD 509-20","sourceCellId":"1R7687XI","sourceChecksum":"c84d7912957898bce00849c8b339f67ba82b63c4143cab57edd3c5723a3a122e","rawObjectClass":"BOYSPP","sourceStableId":"1F2B172EAFDA0001"},"sourceKind":"official","official":true,"sourceCellId":"1R7687XI","sourceStableId":"1F2B172EAFDA0001","pipelineFeatureId":"1R7687XI/BOYSPP/388935642","provenance":{"cellId":"1R7687XI","checksum":"c84d7912957898bce00849c8b339f67ba82b63c4143cab57edd3c5723a3a122e","readerVersion":"GDAL 3.2.2","processedAt":"2026-08-11T18:29:20.995Z"}}},{"type":"Feature","geometry":{"type":"Point","coordinates":[3.9120656,51.3781184]},"properties":{"dolphinKind":"buoy-special","rawObjectClass":"BOYSPP","sourceProperties":{"RCID":1279968423,"PRIM":1,"GRUP":2,"OBJL":19,"RVER":1,"AGEN":7979,"FIDN":1279968423,"FIDS":1,"LNAM":"1F2B4C4AC4A70001","BOYSHP":3,"CATSPM":["27"],"COLOUR":["6"],"NOBJNM":"Overloop van Hansweert","OBJNAM":"OVHW","INFORM":"Wave measurement buoy","NINFOM":"Golfmeetboei","SCAMIN":200000,"SORDAT":"20170627","SORIND":"NL,1R,reprt,OVHW","sourceCellId":"1R7687XI","sourceChecksum":"c84d7912957898bce00849c8b339f67ba82b63c4143cab57edd3c5723a3a122e","rawObjectClass":"BOYSPP","sourceStableId":"1F2B4C4AC4A70001"},"sourceKind":"official","official":true,"sourceCellId":"1R7687XI","sourceStableId":"1F2B4C4AC4A70001","pipelineFeatureId":"1R7687XI/BOYSPP/1279968423","provenance":{"cellId":"1R7687XI","checksum":"c84d7912957898bce00849c8b339f67ba82b63c4143cab57edd3c5723a3a122e","readerVersion":"GDAL 3.2.2","processedAt":"2026-08-11T18:29:20.995Z"}}},{"type":"Feature","geometry":{"type":"Point","coordinates":[3.9161666,51.4188333]},"properties":{"dolphinKind":"light","rawObjectClass":"LIGHTS","sourceProperties":{"RCID":16838,"PRIM":1,"GRUP":2,"OBJL":75,"RVER":1,"AGEN":7979,"FIDN":1106834597,"FIDS":469,"LNAM":"1F2B41F8F4A501D5","COLOUR":["3"],"LITCHR":8,"SECTR1":190,"SECTR2":205.5,"SIGGRP":"(1)","SIGPER":9,"VALNMR":6,"INFORM":"4.60 m boven begane grond","SCAMIN":250000,"SORDAT":"20201218","SORIND":"NL,1R,Reprt,MD 587-20","sourceCellId":"1R7687XI","sourceChecksum":"c84d7912957898bce00849c8b339f67ba82b63c4143cab57edd3c5723a3a122e","rawObjectClass":"LIGHTS","sourceStableId":"1F2B41F8F4A501D5"},"sourceKind":"official","official":true,"sourceCellId":"1R7687XI","sourceStableId":"1F2B41F8F4A501D5","pipelineFeatureId":"1R7687XI/LIGHTS/16838","provenance":{"cellId":"1R7687XI","checksum":"c84d7912957898bce00849c8b339f67ba82b63c4143cab57edd3c5723a3a122e","readerVersion":"GDAL 3.2.2","processedAt":"2026-08-11T18:29:20.995Z"}}},{"type":"Feature","geometry":{"type":"Point","coordinates":[3.9161666,51.4188333]},"properties":{"dolphinKind":"light","rawObjectClass":"LIGHTS","sourceProperties":{"RCID":16839,"PRIM":1,"GRUP":2,"OBJL":75,"RVER":1,"AGEN":7979,"FIDN":1106834597,"FIDS":470,"LNAM":"1F2B41F8F4A501D6","COLOUR":["1"],"LITCHR":8,"SECTR1":205.5,"SECTR2":208.5,"SIGGRP":"(1)","SIGPER":9,"VALNMR":6,"INFORM":"4.60 m boven begane grond","SCAMIN":250000,"SORDAT":"20201218","SORIND":"NL,1R,Reprt,MD 587-20","sourceCellId":"1R7687XI","sourceChecksum":"c84d7912957898bce00849c8b339f67ba82b63c4143cab57edd3c5723a3a122e","rawObjectClass":"LIGHTS","sourceStableId":"1F2B41F8F4A501D6"},"sourceKind":"official","official":true,"sourceCellId":"1R7687XI","sourceStableId":"1F2B41F8F4A501D6","pipelineFeatureId":"1R7687XI/LIGHTS/16839","provenance":{"cellId":"1R7687XI","checksum":"c84d7912957898bce00849c8b339f67ba82b63c4143cab57edd3c5723a3a122e","readerVersion":"GDAL 3.2.2","processedAt":"2026-08-11T18:29:20.995Z"}}},{"type":"Feature","geometry":{"type":"Point","coordinates":[3.9161666,51.4188333]},"properties":{"dolphinKind":"light","rawObjectClass":"LIGHTS","sourceProperties":{"RCID":16840,"PRIM":1,"GRUP":2,"OBJL":75,"RVER":1,"AGEN":7979,"FIDN":1106834597,"FIDS":471,"LNAM":"1F2B41F8F4A501D7","COLOUR":["4"],"LITCHR":8,"SECTR1":208.5,"SECTR2":230.5,"SIGGRP":"(1)","SIGPER":9,"VALNMR":6,"INFORM":"4.60 m boven begane grond","SCAMIN":250000,"SORDAT":"20201218","SORIND":"NL,1R,Reprt,MD 587-20","sourceCellId":"1R7687XI","sourceChecksum":"c84d7912957898bce00849c8b339f67ba82b63c4143cab57edd3c5723a3a122e","rawObjectClass":"LIGHTS","sourceStableId":"1F2B41F8F4A501D7"},"sourceKind":"official","official":true,"sourceCellId":"1R7687XI","sourceStableId":"1F2B41F8F4A501D7","pipelineFeatureId":"1R7687XI/LIGHTS/16840","provenance":{"cellId":"1R7687XI","checksum":"c84d7912957898bce00849c8b339f67ba82b63c4143cab57edd3c5723a3a122e","readerVersion":"GDAL 3.2.2","processedAt":"2026-08-11T18:29:20.995Z"}}},{"type":"Feature","geometry":{"type":"Point","coordinates":[3.9161666,51.4188333]},"properties":{"dolphinKind":"light","rawObjectClass":"LIGHTS","sourceProperties":{"RCID":16841,"PRIM":1,"GRUP":2,"OBJL":75,"RVER":1,"AGEN":7979,"FIDN":1106834597,"FIDS":472,"LNAM":"1F2B41F8F4A501D8","COLOUR":["1"],"LITCHR":8,"SECTR1":230.5,"SECTR2":326,"SIGGRP":"(1)","SIGPER":9,"VALNMR":6,"INFORM":"4.60 m boven begane grond","SCAMIN":250000,"SORDAT":"20201218","SORIND":"NL,1R,Reprt,MD 587-20","sourceCellId":"1R7687XI","sourceChecksum":"c84d7912957898bce00849c8b339f67ba82b63c4143cab57edd3c5723a3a122e","rawObjectClass":"LIGHTS","sourceStableId":"1F2B41F8F4A501D8"},"sourceKind":"official","official":true,"sourceCellId":"1R7687XI","sourceStableId":"1F2B41F8F4A501D8","pipelineFeatureId":"1R7687XI/LIGHTS/16841","provenance":{"cellId":"1R7687XI","checksum":"c84d7912957898bce00849c8b339f67ba82b63c4143cab57edd3c5723a3a122e","readerVersion":"GDAL 3.2.2","processedAt":"2026-08-11T18:29:20.995Z"}}},{"type":"Feature","geometry":{"type":"Point","coordinates":[3.9161666,51.4188333]},"properties":{"dolphinKind":"light","rawObjectClass":"LIGHTS","sourceProperties":{"RCID":16842,"PRIM":1,"GRUP":2,"OBJL":75,"RVER":1,"AGEN":7979,"FIDN":1106834597,"FIDS":473,"LNAM":"1F2B41F8F4A501D9","COLOUR":["4"],"LITCHR":8,"SECTR1":326,"SECTR2":7,"SIGGRP":"(1)","SIGPER":9,"VALNMR":6,"INFORM":"4.60 m boven begane grond","SCAMIN":250000,"SORDAT":"20201218","SORIND":"NL,1R,Reprt,MD 587-20","sourceCellId":"1R7687XI","sourceChecksum":"c84d7912957898bce00849c8b339f67ba82b63c4143cab57edd3c5723a3a122e","rawObjectClass":"LIGHTS","sourceStableId":"1F2B41F8F4A501D9"},"sourceKind":"official","official":true,"sourceCellId":"1R7687XI","sourceStableId":"1F2B41F8F4A501D9","pipelineFeatureId":"1R7687XI/LIGHTS/16842","provenance":{"cellId":"1R7687XI","checksum":"c84d7912957898bce00849c8b339f67ba82b63c4143cab57edd3c5723a3a122e","readerVersion":"GDAL 3.2.2","processedAt":"2026-08-11T18:29:20.995Z"}}},{"type":"Feature","geometry":{"type":"Point","coordinates":[3.9161666,51.4188333]},"properties":{"dolphinKind":"light","rawObjectClass":"LIGHTS","sourceProperties":{"RCID":16843,"PRIM":1,"GRUP":2,"OBJL":75,"RVER":1,"AGEN":7979,"FIDN":1106834597,"FIDS":474,"LNAM":"1F2B41F8F4A501DA","COLOUR":["1"],"LITCHR":8,"SECTR1":7,"SECTR2":18.5,"SIGGRP":"(1)","SIGPER":9,"VALNMR":6,"INFORM":"4.60 m boven begane grond","SCAMIN":250000,"SORDAT":"20201218","SORIND":"NL,1R,Reprt,MD 587-20","sourceCellId":"1R7687XI","sourceChecksum":"c84d7912957898bce00849c8b339f67ba82b63c4143cab57edd3c5723a3a122e","rawObjectClass":"LIGHTS","sourceStableId":"1F2B41F8F4A501DA"},"sourceKind":"official","official":true,"sourceCellId":"1R7687XI","sourceStableId":"1F2B41F8F4A501DA","pipelineFeatureId":"1R7687XI/LIGHTS/16843","provenance":{"cellId":"1R7687XI","checksum":"c84d7912957898bce00849c8b339f67ba82b63c4143cab57edd3c5723a3a122e","readerVersion":"GDAL 3.2.2","processedAt":"2026-08-11T18:29:20.995Z"}}},{"type":"Feature","geometry":{"type":"Point","coordinates":[3.9161666,51.4188333]},"properties":{"dolphinKind":"light","rawObjectClass":"LIGHTS","sourceProperties":{"RCID":16844,"PRIM":1,"GRUP":2,"OBJL":75,"RVER":1,"AGEN":7979,"FIDN":1106834597,"FIDS":475,"LNAM":"1F2B41F8F4A501DB","COLOUR":["3"],"LITCHR":8,"SECTR1":18.5,"SECTR2":30,"SIGGRP":"(1)","SIGPER":9,"VALNMR":6,"INFORM":"4.60 m boven begane grond","SCAMIN":250000,"SORDAT":"20201218","SORIND":"NL,1R,Reprt,MD 587-20","sourceCellId":"1R7687XI","sourceChecksum":"c84d7912957898bce00849c8b339f67ba82b63c4143cab57edd3c5723a3a122e","rawObjectClass":"LIGHTS","sourceStableId":"1F2B41F8F4A501DB"},"sourceKind":"official","official":true,"sourceCellId":"1R7687XI","sourceStableId":"1F2B41F8F4A501DB","pipelineFeatureId":"1R7687XI/LIGHTS/16844","provenance":{"cellId":"1R7687XI","checksum":"c84d7912957898bce00849c8b339f67ba82b63c4143cab57edd3c5723a3a122e","readerVersion":"GDAL 3.2.2","processedAt":"2026-08-11T18:29:20.995Z"}}},{"type":"Feature","geometry":{"type":"Point","coordinates":[3.7966731,51.3785141]},"properties":{"dolphinKind":"light","rawObjectClass":"LIGHTS","sourceProperties":{"RCID":17080,"PRIM":1,"GRUP":2,"OBJL":75,"RVER":1,"AGEN":7979,"FIDN":1106834682,"FIDS":396,"LNAM":"1F2B41F8F4FA018C","COLOUR":["4"],"LITCHR":7,"SIGGRP":"(1)","SIGPER":8,"SCAMIN":200000,"SORDAT":"20060125","SORIND":"NL,1R,reprt,BASS 006/06","sourceCellId":"1R7687XI","sourceChecksum":"c84d7912957898bce00849c8b339f67ba82b63c4143cab57edd3c5723a3a122e","rawObjectClass":"LIGHTS","sourceStableId":"1F2B41F8F4FA018C"},"sourceKind":"official","official":true,"sourceCellId":"1R7687XI","sourceStableId":"1F2B41F8F4FA018C","pipelineFeatureId":"1R7687XI/LIGHTS/17080","provenance":{"cellId":"1R7687XI","checksum":"c84d7912957898bce00849c8b339f67ba82b63c4143cab57edd3c5723a3a122e","readerVersion":"GDAL 3.2.2","processedAt":"2026-08-11T18:29:20.995Z"}}},{"type":"Feature","geometry":{"type":"Point","coordinates":[3.7559,51.4016]},"properties":{"dolphinKind":"light","rawObjectClass":"LIGHTS","sourceProperties":{"RCID":17122,"PRIM":1,"GRUP":2,"OBJL":75,"RVER":1,"AGEN":7979,"FIDN":1106834682,"FIDS":438,"LNAM":"1F2B41F8F4FA01B6","COLOUR":["3"],"LITCHR":7,"SIGGRP":"(1)","SIGPER":8,"SCAMIN":200000,"SORDAT":"20100916","sourceCellId":"1R7687XI","sourceChecksum":"c84d7912957898bce00849c8b339f67ba82b63c4143cab57edd3c5723a3a122e","rawObjectClass":"LIGHTS","sourceStableId":"1F2B41F8F4FA01B6"},"sourceKind":"official","official":true,"sourceCellId":"1R7687XI","sourceStableId":"1F2B41F8F4FA01B6","pipelineFeatureId":"1R7687XI/LIGHTS/17122","provenance":{"cellId":"1R7687XI","checksum":"c84d7912957898bce00849c8b339f67ba82b63c4143cab57edd3c5723a3a122e","readerVersion":"GDAL 3.2.2","processedAt":"2026-08-11T18:29:20.995Z"}}},{"type":"Feature","geometry":{"type":"Point","coordinates":[3.7789833,51.3933667]},"properties":{"dolphinKind":"light","rawObjectClass":"LIGHTS","sourceProperties":{"RCID":17129,"PRIM":1,"GRUP":2,"OBJL":75,"RVER":1,"AGEN":7979,"FIDN":1106834682,"FIDS":445,"LNAM":"1F2B41F8F4FA01BD","COLOUR":["3"],"LITCHR":4,"SIGGRP":"(1)","SIGPER":1,"SCAMIN":200000,"SORDAT":"20100916","sourceCellId":"1R7687XI","sourceChecksum":"c84d7912957898bce00849c8b339f67ba82b63c4143cab57edd3c5723a3a122e","rawObjectClass":"LIGHTS","sourceStableId":"1F2B41F8F4FA01BD"},"sourceKind":"official","official":true,"sourceCellId":"1R7687XI","sourceStableId":"1F2B41F8F4FA01BD","pipelineFeatureId":"1R7687XI/LIGHTS/17129","provenance":{"cellId":"1R7687XI","checksum":"c84d7912957898bce00849c8b339f67ba82b63c4143cab57edd3c5723a3a122e","readerVersion":"GDAL 3.2.2","processedAt":"2026-08-11T18:29:20.995Z"}}},{"type":"Feature","geometry":{"type":"Point","coordinates":[3.9260167,51.4238]},"properties":{"dolphinKind":"light","rawObjectClass":"LIGHTS","sourceProperties":{"RCID":17408,"PRIM":1,"GRUP":2,"OBJL":75,"RVER":1,"AGEN":7979,"FIDN":1106834683,"FIDS":469,"LNAM":"1F2B41F8F4FB01D5","COLOUR":["4"],"LITCHR":7,"SIGGRP":"(1)","SIGPER":8,"SCAMIN":200000,"SORDAT":"20070613","sourceCellId":"1R7687XI","sourceChecksum":"c84d7912957898bce00849c8b339f67ba82b63c4143cab57edd3c5723a3a122e","rawObjectClass":"LIGHTS","sourceStableId":"1F2B41F8F4FB01D5"},"sourceKind":"official","official":true,"sourceCellId":"1R7687XI","sourceStableId":"1F2B41F8F4FB01D5","pipelineFeatureId":"1R7687XI/LIGHTS/17408","provenance":{"cellId":"1R7687XI","checksum":"c84d7912957898bce00849c8b339f67ba82b63c4143cab57edd3c5723a3a122e","readerVersion":"GDAL 3.2.2","processedAt":"2026-08-11T18:29:20.995Z"}}},{"type":"Feature","geometry":{"type":"Point","coordinates":[3.916,51.4044833]},"properties":{"dolphinKind":"light","rawObjectClass":"LIGHTS","sourceProperties":{"RCID":17411,"PRIM":1,"GRUP":2,"OBJL":75,"RVER":1,"AGEN":7979,"FIDN":1106834683,"FIDS":472,"LNAM":"1F2B41F8F4FB01D8","COLOUR":["4"],"LITCHR":7,"SIGGRP":"(1)","SIGPER":8,"SCAMIN":200000,"SORDAT":"20030930","sourceCellId":"1R7687XI","sourceChecksum":"c84d7912957898bce00849c8b339f67ba82b63c4143cab57edd3c5723a3a122e","rawObjectClass":"LIGHTS","sourceStableId":"1F2B41F8F4FB01D8"},"sourceKind":"official","official":true,"sourceCellId":"1R7687XI","sourceStableId":"1F2B41F8F4FB01D8","pipelineFeatureId":"1R7687XI/LIGHTS/17411","provenance":{"cellId":"1R7687XI","checksum":"c84d7912957898bce00849c8b339f67ba82b63c4143cab57edd3c5723a3a122e","readerVersion":"GDAL 3.2.2","processedAt":"2026-08-11T18:29:20.995Z"}}},{"type":"Feature","geometry":{"type":"Point","coordinates":[3.8850633,51.3758867]},"properties":{"dolphinKind":"light","rawObjectClass":"LIGHTS","sourceProperties":{"RCID":8898417,"PRIM":1,"GRUP":2,"OBJL":75,"RVER":1,"AGEN":7979,"FIDN":8898417,"FIDS":1,"LNAM":"1F2B0087C7710001","COLOUR":["3"],"LITCHR":7,"SIGGRP":"(1)","SIGPER":8,"SCAMIN":200000,"SORDAT":"20221202","SORIND":"NL,1R,reprt,MD 642-22","sourceCellId":"1R7687XI","sourceChecksum":"c84d7912957898bce00849c8b339f67ba82b63c4143cab57edd3c5723a3a122e","rawObjectClass":"LIGHTS","sourceStableId":"1F2B0087C7710001"},"sourceKind":"official","official":true,"sourceCellId":"1R7687XI","sourceStableId":"1F2B0087C7710001","pipelineFeatureId":"1R7687XI/LIGHTS/8898417","provenance":{"cellId":"1R7687XI","checksum":"c84d7912957898bce00849c8b339f67ba82b63c4143cab57edd3c5723a3a122e","readerVersion":"GDAL 3.2.2","processedAt":"2026-08-11T18:29:20.995Z"}}},{"type":"Feature","geometry":{"type":"Point","coordinates":[3.74885,51.3939833]},"properties":{"dolphinKind":"light","rawObjectClass":"LIGHTS","sourceProperties":{"RCID":13087739,"PRIM":1,"GRUP":2,"OBJL":75,"RVER":1,"AGEN":7979,"FIDN":13087739,"FIDS":1,"LNAM":"1F2B00C7B3FB0001","COLOUR":["4"],"LITCHR":4,"SIGGRP":"(1)","SIGPER":1,"SCAMIN":200000,"SORDAT":"20100916","sourceCellId":"1R7687XI","sourceChecksum":"c84d7912957898bce00849c8b339f67ba82b63c4143cab57edd3c5723a3a122e","rawObjectClass":"LIGHTS","sourceStableId":"1F2B00C7B3FB0001"},"sourceKind":"official","official":true,"sourceCellId":"1R7687XI","sourceStableId":"1F2B00C7B3FB0001","pipelineFeatureId":"1R7687XI/LIGHTS/13087739","provenance":{"cellId":"1R7687XI","checksum":"c84d7912957898bce00849c8b339f67ba82b63c4143cab57edd3c5723a3a122e","readerVersion":"GDAL 3.2.2","processedAt":"2026-08-11T18:29:20.995Z"}}},{"type":"Feature","geometry":{"type":"Point","coordinates":[3.7719833,51.3858167]},"properties":{"dolphinKind":"light","rawObjectClass":"LIGHTS","sourceProperties":{"RCID":13087740,"PRIM":1,"GRUP":2,"OBJL":75,"RVER":1,"AGEN":7979,"FIDN":13087740,"FIDS":1,"LNAM":"1F2B00C7B3FC0001","COLOUR":["4"],"LITCHR":7,"SIGGRP":"(1)","SIGPER":4,"SCAMIN":200000,"SORDAT":"20100916","sourceCellId":"1R7687XI","sourceChecksum":"c84d7912957898bce00849c8b339f67ba82b63c4143cab57edd3c5723a3a122e","rawObjectClass":"LIGHTS","sourceStableId":"1F2B00C7B3FC0001"},"sourceKind":"official","official":true,"sourceCellId":"1R7687XI","sourceStableId":"1F2B00C7B3FC0001","pipelineFeatureId":"1R7687XI/LIGHTS/13087740","provenance":{"cellId":"1R7687XI","checksum":"c84d7912957898bce00849c8b339f67ba82b63c4143cab57edd3c5723a3a122e","readerVersion":"GDAL 3.2.2","processedAt":"2026-08-11T18:29:20.995Z"}}},{"type":"Feature","geometry":{"type":"Point","coordinates":[3.8993667,51.3888333]},"properties":{"dolphinKind":"light","rawObjectClass":"LIGHTS","sourceProperties":{"RCID":32281237,"PRIM":1,"GRUP":2,"OBJL":75,"RVER":1,"AGEN":7979,"FIDN":32281237,"FIDS":1,"LNAM":"1F2B01EC92950001","COLOUR":["3"],"LITCHR":7,"SIGGRP":"(1)","SIGPER":4,"SCAMIN":200000,"SORDAT":"20220405","SORIND":"NL,1R,reprt,MD 206-22","sourceCellId":"1R7687XI","sourceChecksum":"c84d7912957898bce00849c8b339f67ba82b63c4143cab57edd3c5723a3a122e","rawObjectClass":"LIGHTS","sourceStableId":"1F2B01EC92950001"},"sourceKind":"official","official":true,"sourceCellId":"1R7687XI","sourceStableId":"1F2B01EC92950001","pipelineFeatureId":"1R7687XI/LIGHTS/32281237","provenance":{"cellId":"1R7687XI","checksum":"c84d7912957898bce00849c8b339f67ba82b63c4143cab57edd3c5723a3a122e","readerVersion":"GDAL 3.2.2","processedAt":"2026-08-11T18:29:20.995Z"}}},{"type":"Feature","geometry":{"type":"Point","coordinates":[3.8124167,51.38345]},"properties":{"dolphinKind":"light","rawObjectClass":"LIGHTS","sourceProperties":{"RCID":316129917,"PRIM":1,"GRUP":2,"OBJL":75,"RVER":1,"AGEN":7979,"FIDN":316129917,"FIDS":1,"LNAM":"1F2B12D7C27D0001","COLOUR":["3"],"LITCHR":4,"SIGGRP":"(1)","SCAMIN":200000,"SORDAT":"20230111","SORIND":"NL,1R,reprt,ENC verbetering","sourceCellId":"1R7687XI","sourceChecksum":"c84d7912957898bce00849c8b339f67ba82b63c4143cab57edd3c5723a3a122e","rawObjectClass":"LIGHTS","sourceStableId":"1F2B12D7C27D0001"},"sourceKind":"official","official":true,"sourceCellId":"1R7687XI","sourceStableId":"1F2B12D7C27D0001","pipelineFeatureId":"1R7687XI/LIGHTS/316129917","provenance":{"cellId":"1R7687XI","checksum":"c84d7912957898bce00849c8b339f67ba82b63c4143cab57edd3c5723a3a122e","readerVersion":"GDAL 3.2.2","processedAt":"2026-08-11T18:29:20.995Z"}}},{"type":"Feature","geometry":{"type":"Point","coordinates":[3.8044833,51.376235]},"properties":{"dolphinKind":"light","rawObjectClass":"LIGHTS","sourceProperties":{"RCID":439553535,"PRIM":1,"GRUP":2,"OBJL":75,"RVER":1,"AGEN":7979,"FIDN":439553535,"FIDS":1,"LNAM":"1F2B1A330DFF0001","COLOUR":["1"],"LITCHR":4,"SIGGRP":"(1)","SCAMIN":200000,"SORDAT":"20230111","SORIND":"NL,1R,reprt,ENC verbetering","sourceCellId":"1R7687XI","sourceChecksum":"c84d7912957898bce00849c8b339f67ba82b63c4143cab57edd3c5723a3a122e","rawObjectClass":"LIGHTS","sourceStableId":"1F2B1A330DFF0001"},"sourceKind":"official","official":true,"sourceCellId":"1R7687XI","sourceStableId":"1F2B1A330DFF0001","pipelineFeatureId":"1R7687XI/LIGHTS/439553535","provenance":{"cellId":"1R7687XI","checksum":"c84d7912957898bce00849c8b339f67ba82b63c4143cab57edd3c5723a3a122e","readerVersion":"GDAL 3.2.2","processedAt":"2026-08-11T18:29:20.995Z"}}},{"type":"Feature","geometry":{"type":"Point","coordinates":[3.8250883,51.37691]},"properties":{"dolphinKind":"light","rawObjectClass":"LIGHTS","sourceProperties":{"RCID":439553537,"PRIM":1,"GRUP":2,"OBJL":75,"RVER":1,"AGEN":7979,"FIDN":439553537,"FIDS":1,"LNAM":"1F2B1A330E010001","COLOUR":["3"],"LITCHR":7,"SIGGRP":"(1)","SIGPER":4,"SCAMIN":200000,"SORDAT":"20211210","SORIND":"NL,1R,Reprt,MD 683-21","sourceCellId":"1R7687XI","sourceChecksum":"c84d7912957898bce00849c8b339f67ba82b63c4143cab57edd3c5723a3a122e","rawObjectClass":"LIGHTS","sourceStableId":"1F2B1A330E010001"},"sourceKind":"official","official":true,"sourceCellId":"1R7687XI","sourceStableId":"1F2B1A330E010001","pipelineFeatureId":"1R7687XI/LIGHTS/439553537","provenance":{"cellId":"1R7687XI","checksum":"c84d7912957898bce00849c8b339f67ba82b63c4143cab57edd3c5723a3a122e","readerVersion":"GDAL 3.2.2","processedAt":"2026-08-11T18:29:20.995Z"}}},{"type":"Feature","geometry":{"type":"Point","coordinates":[3.9058167,51.3878167]},"properties":{"dolphinKind":"light","rawObjectClass":"LIGHTS","sourceProperties":{"RCID":454894459,"PRIM":1,"GRUP":2,"OBJL":75,"RVER":1,"AGEN":7979,"FIDN":454894459,"FIDS":1,"LNAM":"1F2B1B1D237B0001","COLOUR":["4"],"LITCHR":7,"SIGGRP":"(1)","SIGPER":4,"SCAMIN":200000,"SORDAT":"20220405","SORIND":"NL,1R,reprt,MD 206-22","sourceCellId":"1R7687XI","sourceChecksum":"c84d7912957898bce00849c8b339f67ba82b63c4143cab57edd3c5723a3a122e","rawObjectClass":"LIGHTS","sourceStableId":"1F2B1B1D237B0001"},"sourceKind":"official","official":true,"sourceCellId":"1R7687XI","sourceStableId":"1F2B1B1D237B0001","pipelineFeatureId":"1R7687XI/LIGHTS/454894459","provenance":{"cellId":"1R7687XI","checksum":"c84d7912957898bce00849c8b339f67ba82b63c4143cab57edd3c5723a3a122e","readerVersion":"GDAL 3.2.2","processedAt":"2026-08-11T18:29:20.995Z"}}},{"type":"Feature","geometry":{"type":"Point","coordinates":[3.8044833,51.376235]},"properties":{"dolphinKind":"topmark","rawObjectClass":"TOPMAR","sourceProperties":{"RCID":17090,"PRIM":1,"GRUP":2,"OBJL":144,"RVER":1,"AGEN":7979,"FIDN":1106834682,"FIDS":406,"LNAM":"1F2B41F8F4FA0196","COLOUR":["2"],"TOPSHP":13,"SCAMIN":200000,"SORDAT":"20210716","sourceCellId":"1R7687XI","sourceChecksum":"c84d7912957898bce00849c8b339f67ba82b63c4143cab57edd3c5723a3a122e","rawObjectClass":"TOPMAR","sourceStableId":"1F2B41F8F4FA0196"},"sourceKind":"official","official":true,"sourceCellId":"1R7687XI","sourceStableId":"1F2B41F8F4FA0196","pipelineFeatureId":"1R7687XI/TOPMAR/17090","provenance":{"cellId":"1R7687XI","checksum":"c84d7912957898bce00849c8b339f67ba82b63c4143cab57edd3c5723a3a122e","readerVersion":"GDAL 3.2.2","processedAt":"2026-08-11T18:29:20.995Z"},"associationRefsVerifiedInGdalOutput":false}},{"type":"Feature","geometry":{"type":"Point","coordinates":[3.7644167,51.4010333]},"properties":{"dolphinKind":"topmark","rawObjectClass":"TOPMAR","sourceProperties":{"RCID":17181,"PRIM":1,"GRUP":2,"OBJL":144,"RVER":1,"AGEN":7979,"FIDN":1106834682,"FIDS":497,"LNAM":"1F2B41F8F4FA01F1","COLOUR":["2"],"TOPSHP":14,"SCAMIN":200000,"SORDAT":"20030930","sourceCellId":"1R7687XI","sourceChecksum":"c84d7912957898bce00849c8b339f67ba82b63c4143cab57edd3c5723a3a122e","rawObjectClass":"TOPMAR","sourceStableId":"1F2B41F8F4FA01F1"},"sourceKind":"official","official":true,"sourceCellId":"1R7687XI","sourceStableId":"1F2B41F8F4FA01F1","pipelineFeatureId":"1R7687XI/TOPMAR/17181","provenance":{"cellId":"1R7687XI","checksum":"c84d7912957898bce00849c8b339f67ba82b63c4143cab57edd3c5723a3a122e","readerVersion":"GDAL 3.2.2","processedAt":"2026-08-11T18:29:20.995Z"},"associationRefsVerifiedInGdalOutput":false}},{"type":"Feature","geometry":{"type":"Point","coordinates":[3.91175,51.39575]},"properties":{"dolphinKind":"topmark","rawObjectClass":"TOPMAR","sourceProperties":{"RCID":28369299,"PRIM":1,"GRUP":2,"OBJL":144,"RVER":1,"AGEN":7979,"FIDN":28369299,"FIDS":1,"LNAM":"1F2B01B0E1930001","COLOUR":["4"],"TOPSHP":1,"SCAMIN":200000,"SORDAT":"20090420","SORIND":"NL,1R,reprt,NavBer 36","sourceCellId":"1R7687XI","sourceChecksum":"c84d7912957898bce00849c8b339f67ba82b63c4143cab57edd3c5723a3a122e","rawObjectClass":"TOPMAR","sourceStableId":"1F2B01B0E1930001"},"sourceKind":"official","official":true,"sourceCellId":"1R7687XI","sourceStableId":"1F2B01B0E1930001","pipelineFeatureId":"1R7687XI/TOPMAR/28369299","provenance":{"cellId":"1R7687XI","checksum":"c84d7912957898bce00849c8b339f67ba82b63c4143cab57edd3c5723a3a122e","readerVersion":"GDAL 3.2.2","processedAt":"2026-08-11T18:29:20.995Z"},"associationRefsVerifiedInGdalOutput":false}},{"type":"Feature","geometry":{"type":"Point","coordinates":[3.904235,51.3974083]},"properties":{"dolphinKind":"topmark","rawObjectClass":"TOPMAR","sourceProperties":{"RCID":32436889,"PRIM":1,"GRUP":2,"OBJL":144,"RVER":1,"AGEN":7979,"FIDN":32436889,"FIDS":1,"LNAM":"1F2B01EEF2990001","COLOUR":["3"],"TOPSHP":5,"SCAMIN":200000,"SORDAT":"20090720","SORIND":"NL,1R,reprt,Bass 073/09","sourceCellId":"1R7687XI","sourceChecksum":"c84d7912957898bce00849c8b339f67ba82b63c4143cab57edd3c5723a3a122e","rawObjectClass":"TOPMAR","sourceStableId":"1F2B01EEF2990001"},"sourceKind":"official","official":true,"sourceCellId":"1R7687XI","sourceStableId":"1F2B01EEF2990001","pipelineFeatureId":"1R7687XI/TOPMAR/32436889","provenance":{"cellId":"1R7687XI","checksum":"c84d7912957898bce00849c8b339f67ba82b63c4143cab57edd3c5723a3a122e","readerVersion":"GDAL 3.2.2","processedAt":"2026-08-11T18:29:20.995Z"},"associationRefsVerifiedInGdalOutput":false}},{"type":"Feature","geometry":{"type":"Point","coordinates":[3.7591,51.4007]},"properties":{"dolphinKind":"topmark","rawObjectClass":"TOPMAR","sourceProperties":{"RCID":54545345,"PRIM":1,"GRUP":2,"OBJL":144,"RVER":1,"AGEN":7979,"FIDN":54545345,"FIDS":1,"LNAM":"1F2B03404BC10001","COLOUR":["2"],"TOPSHP":14,"SCAMIN":200000,"SORDAT":"20100916","sourceCellId":"1R7687XI","sourceChecksum":"c84d7912957898bce00849c8b339f67ba82b63c4143cab57edd3c5723a3a122e","rawObjectClass":"TOPMAR","sourceStableId":"1F2B03404BC10001"},"sourceKind":"official","official":true,"sourceCellId":"1R7687XI","sourceStableId":"1F2B03404BC10001","pipelineFeatureId":"1R7687XI/TOPMAR/54545345","provenance":{"cellId":"1R7687XI","checksum":"c84d7912957898bce00849c8b339f67ba82b63c4143cab57edd3c5723a3a122e","readerVersion":"GDAL 3.2.2","processedAt":"2026-08-11T18:29:20.995Z"},"associationRefsVerifiedInGdalOutput":false}},{"type":"Feature","geometry":{"type":"Point","coordinates":[3.8993667,51.3888333]},"properties":{"dolphinKind":"topmark","rawObjectClass":"TOPMAR","sourceProperties":{"RCID":457496110,"PRIM":1,"GRUP":2,"OBJL":144,"RVER":1,"AGEN":7979,"FIDN":457496110,"FIDS":1,"LNAM":"1F2B1B44D62E0001","COLOUR":["3"],"TOPSHP":5,"SCAMIN":200000,"SORDAT":"20220423","SORIND":"NL,1R,reprt,MD 262-22","sourceCellId":"1R7687XI","sourceChecksum":"c84d7912957898bce00849c8b339f67ba82b63c4143cab57edd3c5723a3a122e","rawObjectClass":"TOPMAR","sourceStableId":"1F2B1B44D62E0001"},"sourceKind":"official","official":true,"sourceCellId":"1R7687XI","sourceStableId":"1F2B1B44D62E0001","pipelineFeatureId":"1R7687XI/TOPMAR/457496110","provenance":{"cellId":"1R7687XI","checksum":"c84d7912957898bce00849c8b339f67ba82b63c4143cab57edd3c5723a3a122e","readerVersion":"GDAL 3.2.2","processedAt":"2026-08-11T18:29:20.995Z"},"associationRefsVerifiedInGdalOutput":false}},{"type":"Feature","geometry":{"type":"Point","coordinates":[3.7416,51.4075]},"properties":{"dolphinKind":"topmark","rawObjectClass":"TOPMAR","sourceProperties":{"RCID":1215941284,"PRIM":1,"GRUP":2,"OBJL":144,"RVER":1,"AGEN":7979,"FIDN":1215941284,"FIDS":1,"LNAM":"1F2B4879CAA40001","COLOUR":["3"],"TOPSHP":5,"SCAMIN":200000,"SORDAT":"20250114","SORIND":"NL,1R,Reprt,MD 026-2025","sourceCellId":"1R7687XI","sourceChecksum":"c84d7912957898bce00849c8b339f67ba82b63c4143cab57edd3c5723a3a122e","rawObjectClass":"TOPMAR","sourceStableId":"1F2B4879CAA40001"},"sourceKind":"official","official":true,"sourceCellId":"1R7687XI","sourceStableId":"1F2B4879CAA40001","pipelineFeatureId":"1R7687XI/TOPMAR/1215941284","provenance":{"cellId":"1R7687XI","checksum":"c84d7912957898bce00849c8b339f67ba82b63c4143cab57edd3c5723a3a122e","readerVersion":"GDAL 3.2.2","processedAt":"2026-08-11T18:29:20.995Z"},"associationRefsVerifiedInGdalOutput":false}},{"type":"Feature","geometry":{"type":"Point","coordinates":[3.9058167,51.3878167]},"properties":{"dolphinKind":"topmark","rawObjectClass":"TOPMAR","sourceProperties":{"RCID":1272825092,"PRIM":1,"GRUP":2,"OBJL":144,"RVER":1,"AGEN":7979,"FIDN":1272825092,"FIDS":1,"LNAM":"1F2B4BDDC5040001","COLOUR":["4"],"TOPSHP":1,"SCAMIN":200000,"sourceCellId":"1R7687XI","sourceChecksum":"c84d7912957898bce00849c8b339f67ba82b63c4143cab57edd3c5723a3a122e","rawObjectClass":"TOPMAR","sourceStableId":"1F2B4BDDC5040001"},"sourceKind":"official","official":true,"sourceCellId":"1R7687XI","sourceStableId":"1F2B4BDDC5040001","pipelineFeatureId":"1R7687XI/TOPMAR/1272825092","provenance":{"cellId":"1R7687XI","checksum":"c84d7912957898bce00849c8b339f67ba82b63c4143cab57edd3c5723a3a122e","readerVersion":"GDAL 3.2.2","processedAt":"2026-08-11T18:29:20.995Z"},"associationRefsVerifiedInGdalOutput":false}}]}