{"type":"FeatureCollection","features":[{"type":"Feature","geometry":{"type":"Point","coordinates":[4.0987632,51.6392374]},"properties":{"dolphinKind":"beacon-special","rawObjectClass":"BCNSPP","sourceProperties":{"RCID":9270,"PRIM":1,"GRUP":2,"OBJL":9,"RVER":1,"AGEN":7979,"FIDN":1106210626,"FIDS":345,"LNAM":"1F2B41EF6F420159","LNAM_REFS":["1F2B41EF6F42015E"],"FFPT_RIND":[2],"BCNSHP":1,"CATSPM":["6"],"COLOUR":["2"],"SCAMIN":200000,"sourceCellId":"1R76K8RI","sourceChecksum":"848016a1e8039fffe59470db129a8085cf21b8af41901782129e82986809a3fd","rawObjectClass":"BCNSPP","sourceStableId":"1F2B41EF6F420159"},"sourceKind":"official","official":true,"sourceCellId":"1R76K8RI","sourceStableId":"1F2B41EF6F420159","pipelineFeatureId":"1R76K8RI/BCNSPP/9270","provenance":{"cellId":"1R76K8RI","checksum":"848016a1e8039fffe59470db129a8085cf21b8af41901782129e82986809a3fd","readerVersion":"GDAL 3.2.2","processedAt":"2026-08-11T18:29:20.995Z"}}},{"type":"Feature","geometry":{"type":"Point","coordinates":[4.0874956,51.6433425]},"properties":{"dolphinKind":"beacon-special","rawObjectClass":"BCNSPP","sourceProperties":{"RCID":9271,"PRIM":1,"GRUP":2,"OBJL":9,"RVER":1,"AGEN":7979,"FIDN":1106210626,"FIDS":346,"LNAM":"1F2B41EF6F42015A","LNAM_REFS":["1F2B41EF6F42015C"],"FFPT_RIND":[2],"BCNSHP":1,"CATSPM":["6"],"COLOUR":["2"],"SCAMIN":200000,"sourceCellId":"1R76K8RI","sourceChecksum":"848016a1e8039fffe59470db129a8085cf21b8af41901782129e82986809a3fd","rawObjectClass":"BCNSPP","sourceStableId":"1F2B41EF6F42015A"},"sourceKind":"official","official":true,"sourceCellId":"1R76K8RI","sourceStableId":"1F2B41EF6F42015A","pipelineFeatureId":"1R76K8RI/BCNSPP/9271","provenance":{"cellId":"1R76K8RI","checksum":"848016a1e8039fffe59470db129a8085cf21b8af41901782129e82986809a3fd","readerVersion":"GDAL 3.2.2","processedAt":"2026-08-11T18:29:20.995Z"}}},{"type":"Feature","geometry":{"type":"Point","coordinates":[4.0859932,51.642992]},"properties":{"dolphinKind":"beacon-special","rawObjectClass":"BCNSPP","sourceProperties":{"RCID":9272,"PRIM":1,"GRUP":2,"OBJL":9,"RVER":1,"AGEN":7979,"FIDN":1106210626,"FIDS":347,"LNAM":"1F2B41EF6F42015B","LNAM_REFS":["1F2B41EF6F42015D"],"FFPT_RIND":[2],"BCNSHP":1,"CATSPM":["6"],"COLOUR":["2"],"SCAMIN":200000,"sourceCellId":"1R76K8RI","sourceChecksum":"848016a1e8039fffe59470db129a8085cf21b8af41901782129e82986809a3fd","rawObjectClass":"BCNSPP","sourceStableId":"1F2B41EF6F42015B"},"sourceKind":"official","official":true,"sourceCellId":"1R76K8RI","sourceStableId":"1F2B41EF6F42015B","pipelineFeatureId":"1R76K8RI/BCNSPP/9272","provenance":{"cellId":"1R76K8RI","checksum":"848016a1e8039fffe59470db129a8085cf21b8af41901782129e82986809a3fd","readerVersion":"GDAL 3.2.2","processedAt":"2026-08-11T18:29:20.995Z"}}},{"type":"Feature","geometry":{"type":"Point","coordinates":[4.0423031,51.6286972]},"properties":{"dolphinKind":"beacon-special","rawObjectClass":"BCNSPP","sourceProperties":{"RCID":9281,"PRIM":1,"GRUP":2,"OBJL":9,"RVER":1,"AGEN":7979,"FIDN":1106210626,"FIDS":356,"LNAM":"1F2B41EF6F420164","LNAM_REFS":["1F2B41EF6F420165"],"FFPT_RIND":[2],"BCNSHP":1,"CATSPM":["6"],"COLOUR":["2"],"SCAMIN":200000,"sourceCellId":"1R76K8RI","sourceChecksum":"848016a1e8039fffe59470db129a8085cf21b8af41901782129e82986809a3fd","rawObjectClass":"BCNSPP","sourceStableId":"1F2B41EF6F420164"},"sourceKind":"official","official":true,"sourceCellId":"1R76K8RI","sourceStableId":"1F2B41EF6F420164","pipelineFeatureId":"1R76K8RI/BCNSPP/9281","provenance":{"cellId":"1R76K8RI","checksum":"848016a1e8039fffe59470db129a8085cf21b8af41901782129e82986809a3fd","readerVersion":"GDAL 3.2.2","processedAt":"2026-08-11T18:29:20.995Z"}}},{"type":"Feature","geometry":{"type":"Point","coordinates":[4.1025366,51.6635539]},"properties":{"dolphinKind":"buoy-lateral","rawObjectClass":"BOYLAT","sourceProperties":{"RCID":8626678,"PRIM":1,"GRUP":2,"OBJL":17,"RVER":1,"AGEN":7979,"FIDN":8626678,"FIDS":1,"LNAM":"1F2B0083A1F60001","LNAM_REFS":["1F2B0083A1FA0001"],"FFPT_RIND":[2],"BOYSHP":3,"CATLAM":4,"COLOUR":["3","4"],"COLPAT":["1"],"CONRAD":3,"OBJNAM":"ZG 6-BRU 1","SCAMIN":200000,"SORDAT":"20230627","SORIND":"NL,1R,reprt,MD331-32","sourceCellId":"1R76K8RI","sourceChecksum":"848016a1e8039fffe59470db129a8085cf21b8af41901782129e82986809a3fd","rawObjectClass":"BOYLAT","sourceStableId":"1F2B0083A1F60001"},"sourceKind":"official","official":true,"sourceCellId":"1R76K8RI","sourceStableId":"1F2B0083A1F60001","pipelineFeatureId":"1R76K8RI/BOYLAT/8626678","provenance":{"cellId":"1R76K8RI","checksum":"848016a1e8039fffe59470db129a8085cf21b8af41901782129e82986809a3fd","readerVersion":"GDAL 3.2.2","processedAt":"2026-08-11T18:29:20.995Z"}}},{"type":"Feature","geometry":{"type":"Point","coordinates":[4.1095467,51.66153]},"properties":{"dolphinKind":"buoy-lateral","rawObjectClass":"BOYLAT","sourceProperties":{"RCID":8626679,"PRIM":1,"GRUP":2,"OBJL":17,"RVER":1,"AGEN":7979,"FIDN":8626679,"FIDS":1,"LNAM":"1F2B0083A1F70001","LNAM_REFS":["1F2B0083A1FB0001","1F2B0083A1F80001"],"FFPT_RIND":[2,2],"BOYSHP":5,"CATLAM":4,"COLOUR":["3","4"],"COLPAT":["1"],"CONRAD":3,"OBJNAM":"KT 42-ZG 1","SCAMIN":200000,"SORDAT":"20210914","SORIND":"NL,1R,reprt,BASS 2021-117","sourceCellId":"1R76K8RI","sourceChecksum":"848016a1e8039fffe59470db129a8085cf21b8af41901782129e82986809a3fd","rawObjectClass":"BOYLAT","sourceStableId":"1F2B0083A1F70001"},"sourceKind":"official","official":true,"sourceCellId":"1R76K8RI","sourceStableId":"1F2B0083A1F70001","pipelineFeatureId":"1R76K8RI/BOYLAT/8626679","provenance":{"cellId":"1R76K8RI","checksum":"848016a1e8039fffe59470db129a8085cf21b8af41901782129e82986809a3fd","readerVersion":"GDAL 3.2.2","processedAt":"2026-08-11T18:29:20.995Z"}}},{"type":"Feature","geometry":{"type":"Point","coordinates":[4.0863833,51.67445]},"properties":{"dolphinKind":"buoy-lateral","rawObjectClass":"BOYLAT","sourceProperties":{"RCID":284396690,"PRIM":1,"GRUP":2,"OBJL":17,"RVER":1,"AGEN":7979,"FIDN":284396690,"FIDS":1,"LNAM":"1F2B10F38C920001","LNAM_REFS":["1F2B0083A1F90001"],"FFPT_RIND":[2],"BOYSHP":3,"CATLAM":4,"COLOUR":["4","3"],"COLPAT":["1"],"CONRAD":3,"OBJNAM":"G 1-SJ 2","SCAMIN":200000,"sourceCellId":"1R76K8RI","sourceChecksum":"848016a1e8039fffe59470db129a8085cf21b8af41901782129e82986809a3fd","rawObjectClass":"BOYLAT","sourceStableId":"1F2B10F38C920001"},"sourceKind":"official","official":true,"sourceCellId":"1R76K8RI","sourceStableId":"1F2B10F38C920001","pipelineFeatureId":"1R76K8RI/BOYLAT/284396690","provenance":{"cellId":"1R76K8RI","checksum":"848016a1e8039fffe59470db129a8085cf21b8af41901782129e82986809a3fd","readerVersion":"GDAL 3.2.2","processedAt":"2026-08-11T18:29:20.995Z"}}},{"type":"Feature","geometry":{"type":"Point","coordinates":[4.133045,51.6625517]},"properties":{"dolphinKind":"buoy-lateral","rawObjectClass":"BOYLAT","sourceProperties":{"RCID":430773823,"PRIM":1,"GRUP":2,"OBJL":17,"RVER":1,"AGEN":7979,"FIDN":430773823,"FIDS":1,"LNAM":"1F2B19AD163F0001","LNAM_REFS":["1F2B19AD163D0001","1F2B19AD163E0001"],"FFPT_RIND":[2,2],"BOYSHP":5,"CATLAM":4,"COLOUR":["3","4"],"COLPAT":["1"],"CONRAD":3,"OBJNAM":"KT 46-K 1","SCAMIN":200000,"SORDAT":"20210914","SORIND":"NL,1R,reprt,BASS 2021-117","sourceCellId":"1R76K8RI","sourceChecksum":"848016a1e8039fffe59470db129a8085cf21b8af41901782129e82986809a3fd","rawObjectClass":"BOYLAT","sourceStableId":"1F2B19AD163F0001"},"sourceKind":"official","official":true,"sourceCellId":"1R76K8RI","sourceStableId":"1F2B19AD163F0001","pipelineFeatureId":"1R76K8RI/BOYLAT/430773823","provenance":{"cellId":"1R76K8RI","checksum":"848016a1e8039fffe59470db129a8085cf21b8af41901782129e82986809a3fd","readerVersion":"GDAL 3.2.2","processedAt":"2026-08-11T18:29:20.995Z"}}},{"type":"Feature","geometry":{"type":"Point","coordinates":[4.0982501,51.6743667]},"properties":{"dolphinKind":"buoy-special","rawObjectClass":"BOYSPP","sourceProperties":{"RCID":8626695,"PRIM":1,"GRUP":2,"OBJL":19,"RVER":1,"AGEN":7979,"FIDN":8626695,"FIDS":1,"LNAM":"1F2B0083A2070001","LNAM_REFS":["1F2B49C7DED70001"],"FFPT_RIND":[2],"BOYSHP":5,"CATSPM":["27","50"],"COLOUR":["6"],"CONRAD":3,"OBJNAM":"11 GMO","PEREND":"--1001","PERSTA":"--0301","INFORM":"Speedboat area","NINFOM":"Snelle motorboot baan","SCAMIN":200000,"SORDAT":"20220318","SORIND":"NL,1R,reprt,MD 157-22","sourceCellId":"1R76K8RI","sourceChecksum":"848016a1e8039fffe59470db129a8085cf21b8af41901782129e82986809a3fd","rawObjectClass":"BOYSPP","sourceStableId":"1F2B0083A2070001"},"sourceKind":"official","official":true,"sourceCellId":"1R76K8RI","sourceStableId":"1F2B0083A2070001","pipelineFeatureId":"1R76K8RI/BOYSPP/8626695","provenance":{"cellId":"1R76K8RI","checksum":"848016a1e8039fffe59470db129a8085cf21b8af41901782129e82986809a3fd","readerVersion":"GDAL 3.2.2","processedAt":"2026-08-11T18:29:20.995Z"}}},{"type":"Feature","geometry":{"type":"Point","coordinates":[4.0979501,51.6721834]},"properties":{"dolphinKind":"buoy-special","rawObjectClass":"BOYSPP","sourceProperties":{"RCID":8626696,"PRIM":1,"GRUP":2,"OBJL":19,"RVER":1,"AGEN":7979,"FIDN":8626696,"FIDS":1,"LNAM":"1F2B0083A2080001","LNAM_REFS":["1F2B49C7DED60001"],"FFPT_RIND":[2],"BOYSHP":5,"CATSPM":["27","50"],"COLOUR":["6"],"CONRAD":3,"OBJNAM":"12 GMO","PEREND":"--1001","PERSTA":"--0301","INFORM":"Speedboat area","NINFOM":"Snelle motorboot baan","SCAMIN":200000,"SORDAT":"20220318","SORIND":"NL,1R,reprt,MD 157-22","sourceCellId":"1R76K8RI","sourceChecksum":"848016a1e8039fffe59470db129a8085cf21b8af41901782129e82986809a3fd","rawObjectClass":"BOYSPP","sourceStableId":"1F2B0083A2080001"},"sourceKind":"official","official":true,"sourceCellId":"1R76K8RI","sourceStableId":"1F2B0083A2080001","pipelineFeatureId":"1R76K8RI/BOYSPP/8626696","provenance":{"cellId":"1R76K8RI","checksum":"848016a1e8039fffe59470db129a8085cf21b8af41901782129e82986809a3fd","readerVersion":"GDAL 3.2.2","processedAt":"2026-08-11T18:29:20.995Z"}}},{"type":"Feature","geometry":{"type":"Point","coordinates":[4.0968501,51.6714]},"properties":{"dolphinKind":"buoy-special","rawObjectClass":"BOYSPP","sourceProperties":{"RCID":8626697,"PRIM":1,"GRUP":2,"OBJL":19,"RVER":1,"AGEN":7979,"FIDN":8626697,"FIDS":1,"LNAM":"1F2B0083A2090001","LNAM_REFS":["1F2B49C7DED50001"],"FFPT_RIND":[2],"BOYSHP":5,"CATSPM":["27","50"],"COLOUR":["6"],"CONRAD":3,"OBJNAM":"13 GMO","PEREND":"--1001","PERSTA":"--0301","INFORM":"Speedboat area","NINFOM":"Snelle motorboot baan","SCAMIN":200000,"SORDAT":"20220318","SORIND":"NL,1R,reprt,MD 157-22","sourceCellId":"1R76K8RI","sourceChecksum":"848016a1e8039fffe59470db129a8085cf21b8af41901782129e82986809a3fd","rawObjectClass":"BOYSPP","sourceStableId":"1F2B0083A2090001"},"sourceKind":"official","official":true,"sourceCellId":"1R76K8RI","sourceStableId":"1F2B0083A2090001","pipelineFeatureId":"1R76K8RI/BOYSPP/8626697","provenance":{"cellId":"1R76K8RI","checksum":"848016a1e8039fffe59470db129a8085cf21b8af41901782129e82986809a3fd","readerVersion":"GDAL 3.2.2","processedAt":"2026-08-11T18:29:20.995Z"}}},{"type":"Feature","geometry":{"type":"Point","coordinates":[4.0950667,51.6701833]},"properties":{"dolphinKind":"buoy-special","rawObjectClass":"BOYSPP","sourceProperties":{"RCID":8626698,"PRIM":1,"GRUP":2,"OBJL":19,"RVER":1,"AGEN":7979,"FIDN":8626698,"FIDS":1,"LNAM":"1F2B0083A20A0001","LNAM_REFS":["1F2B49C7DEE20001"],"FFPT_RIND":[2],"BOYSHP":5,"CATSPM":["27","50"],"COLOUR":["6"],"CONRAD":3,"OBJNAM":"14 GMO","PEREND":"--1001","PERSTA":"--0301","INFORM":"Speedboat area","NINFOM":"Snelle motorboot baan","SCAMIN":200000,"SORDAT":"20220318","SORIND":"NL,1R,reprt,MD 157-22","sourceCellId":"1R76K8RI","sourceChecksum":"848016a1e8039fffe59470db129a8085cf21b8af41901782129e82986809a3fd","rawObjectClass":"BOYSPP","sourceStableId":"1F2B0083A20A0001"},"sourceKind":"official","official":true,"sourceCellId":"1R76K8RI","sourceStableId":"1F2B0083A20A0001","pipelineFeatureId":"1R76K8RI/BOYSPP/8626698","provenance":{"cellId":"1R76K8RI","checksum":"848016a1e8039fffe59470db129a8085cf21b8af41901782129e82986809a3fd","readerVersion":"GDAL 3.2.2","processedAt":"2026-08-11T18:29:20.995Z"}}},{"type":"Feature","geometry":{"type":"Point","coordinates":[4.0942333,51.6723666]},"properties":{"dolphinKind":"buoy-special","rawObjectClass":"BOYSPP","sourceProperties":{"RCID":8626699,"PRIM":1,"GRUP":2,"OBJL":19,"RVER":1,"AGEN":7979,"FIDN":8626699,"FIDS":1,"LNAM":"1F2B0083A20B0001","LNAM_REFS":["1F2B49C7DEE00001"],"FFPT_RIND":[2],"BOYSHP":5,"CATSPM":["27","50"],"COLOUR":["6"],"CONRAD":3,"OBJNAM":"2 GMO","PEREND":"--1001","PERSTA":"--0301","INFORM":"Speedboat area","NINFOM":"Snelle motorboot baan","SCAMIN":200000,"SORDAT":"20220318","SORIND":"NL,1R,reprt,MD 157-22","sourceCellId":"1R76K8RI","sourceChecksum":"848016a1e8039fffe59470db129a8085cf21b8af41901782129e82986809a3fd","rawObjectClass":"BOYSPP","sourceStableId":"1F2B0083A20B0001"},"sourceKind":"official","official":true,"sourceCellId":"1R76K8RI","sourceStableId":"1F2B0083A20B0001","pipelineFeatureId":"1R76K8RI/BOYSPP/8626699","provenance":{"cellId":"1R76K8RI","checksum":"848016a1e8039fffe59470db129a8085cf21b8af41901782129e82986809a3fd","readerVersion":"GDAL 3.2.2","processedAt":"2026-08-11T18:29:20.995Z"}}},{"type":"Feature","geometry":{"type":"Point","coordinates":[4.0927167,51.6712]},"properties":{"dolphinKind":"buoy-special","rawObjectClass":"BOYSPP","sourceProperties":{"RCID":8626700,"PRIM":1,"GRUP":2,"OBJL":19,"RVER":1,"AGEN":7979,"FIDN":8626700,"FIDS":1,"LNAM":"1F2B0083A20C0001","LNAM_REFS":["1F2B49C7DEE10001"],"FFPT_RIND":[2],"BOYSHP":5,"CATSPM":["27","50"],"COLOUR":["6"],"CONRAD":3,"OBJNAM":"1 GMO","PEREND":"--1001","PERSTA":"--0301","INFORM":"Speedboat area","NINFOM":"Snelle motorboot baan","SCAMIN":200000,"SORDAT":"20220318","SORIND":"NL,1R,reprt,MD 157-22","sourceCellId":"1R76K8RI","sourceChecksum":"848016a1e8039fffe59470db129a8085cf21b8af41901782129e82986809a3fd","rawObjectClass":"BOYSPP","sourceStableId":"1F2B0083A20C0001"},"sourceKind":"official","official":true,"sourceCellId":"1R76K8RI","sourceStableId":"1F2B0083A20C0001","pipelineFeatureId":"1R76K8RI/BOYSPP/8626700","provenance":{"cellId":"1R76K8RI","checksum":"848016a1e8039fffe59470db129a8085cf21b8af41901782129e82986809a3fd","readerVersion":"GDAL 3.2.2","processedAt":"2026-08-11T18:29:20.995Z"}}},{"type":"Feature","geometry":{"type":"Point","coordinates":[4.0957167,51.6736833]},"properties":{"dolphinKind":"buoy-special","rawObjectClass":"BOYSPP","sourceProperties":{"RCID":8626701,"PRIM":1,"GRUP":2,"OBJL":19,"RVER":1,"AGEN":7979,"FIDN":8626701,"FIDS":1,"LNAM":"1F2B0083A20D0001","LNAM_REFS":["1F2B49C7DEDF0001"],"FFPT_RIND":[2],"BOYSHP":5,"CATSPM":["27","50"],"COLOUR":["6"],"CONRAD":3,"OBJNAM":"3 GMO","PEREND":"--1001","PERSTA":"--0301","INFORM":"Speedboat area","NINFOM":"Snelle motorboot baan","SCAMIN":200000,"SORDAT":"20220318","SORIND":"NL,1R,reprt,MD 157-22","sourceCellId":"1R76K8RI","sourceChecksum":"848016a1e8039fffe59470db129a8085cf21b8af41901782129e82986809a3fd","rawObjectClass":"BOYSPP","sourceStableId":"1F2B0083A20D0001"},"sourceKind":"official","official":true,"sourceCellId":"1R76K8RI","sourceStableId":"1F2B0083A20D0001","pipelineFeatureId":"1R76K8RI/BOYSPP/8626701","provenance":{"cellId":"1R76K8RI","checksum":"848016a1e8039fffe59470db129a8085cf21b8af41901782129e82986809a3fd","readerVersion":"GDAL 3.2.2","processedAt":"2026-08-11T18:29:20.995Z"}}},{"type":"Feature","geometry":{"type":"Point","coordinates":[4.1295833,51.6570833]},"properties":{"dolphinKind":"buoy-special","rawObjectClass":"BOYSPP","sourceProperties":{"RCID":29630625,"PRIM":1,"GRUP":2,"OBJL":19,"RVER":1,"AGEN":7979,"FIDN":29630625,"FIDS":1,"LNAM":"1F2B01C420A10001","LNAM_REFS":["1F2B01C420A40001"],"FFPT_RIND":[2],"BOYSHP":5,"CATSPM":["50"],"COLOUR":["6"],"CONRAD":3,"OBJNAM":"SL-A","INFORM":"Mussel seed installation","NINFOM":"Mosselzaadinvanginstallatie","SCAMIN":200000,"SORDAT":"20160108","SORIND":"NL,1R,reprt,MZI 2016","sourceCellId":"1R76K8RI","sourceChecksum":"848016a1e8039fffe59470db129a8085cf21b8af41901782129e82986809a3fd","rawObjectClass":"BOYSPP","sourceStableId":"1F2B01C420A10001"},"sourceKind":"official","official":true,"sourceCellId":"1R76K8RI","sourceStableId":"1F2B01C420A10001","pipelineFeatureId":"1R76K8RI/BOYSPP/29630625","provenance":{"cellId":"1R76K8RI","checksum":"848016a1e8039fffe59470db129a8085cf21b8af41901782129e82986809a3fd","readerVersion":"GDAL 3.2.2","processedAt":"2026-08-11T18:29:20.995Z"}}},{"type":"Feature","geometry":{"type":"Point","coordinates":[4.1305667,51.6580333]},"properties":{"dolphinKind":"buoy-special","rawObjectClass":"BOYSPP","sourceProperties":{"RCID":29630626,"PRIM":1,"GRUP":2,"OBJL":19,"RVER":1,"AGEN":7979,"FIDN":29630626,"FIDS":1,"LNAM":"1F2B01C420A20001","LNAM_REFS":["1F2B01C420A50001"],"FFPT_RIND":[2],"BOYSHP":5,"CATSPM":["50"],"COLOUR":["6"],"CONRAD":3,"OBJNAM":"SL-B","INFORM":"Mussel seed installation","NINFOM":"Mosselzaadinvanginstallatie","SCAMIN":200000,"SORDAT":"20160108","SORIND":"NL,1R,reprt,MZI 2016","sourceCellId":"1R76K8RI","sourceChecksum":"848016a1e8039fffe59470db129a8085cf21b8af41901782129e82986809a3fd","rawObjectClass":"BOYSPP","sourceStableId":"1F2B01C420A20001"},"sourceKind":"official","official":true,"sourceCellId":"1R76K8RI","sourceStableId":"1F2B01C420A20001","pipelineFeatureId":"1R76K8RI/BOYSPP/29630626","provenance":{"cellId":"1R76K8RI","checksum":"848016a1e8039fffe59470db129a8085cf21b8af41901782129e82986809a3fd","readerVersion":"GDAL 3.2.2","processedAt":"2026-08-11T18:29:20.995Z"}}},{"type":"Feature","geometry":{"type":"Point","coordinates":[4.1240833,51.66775]},"properties":{"dolphinKind":"buoy-special","rawObjectClass":"BOYSPP","sourceProperties":{"RCID":86286963,"PRIM":1,"GRUP":2,"OBJL":19,"RVER":1,"AGEN":7979,"FIDN":86286963,"FIDS":1,"LNAM":"1F2B0524A2730001","LNAM_REFS":["1F2B0524A2720001"],"FFPT_RIND":[2],"BOYSHP":2,"CATSPM":["50"],"COLOUR":["6"],"OBJNAM":"K-A","INFORM":"Mussel seed installation","NINFOM":"Mosselzaadinvanginstallatie","SCAMIN":200000,"SORDAT":"20120227","SORIND":"NL,1R,reprt,NavBer 2012/MZ36","sourceCellId":"1R76K8RI","sourceChecksum":"848016a1e8039fffe59470db129a8085cf21b8af41901782129e82986809a3fd","rawObjectClass":"BOYSPP","sourceStableId":"1F2B0524A2730001"},"sourceKind":"official","official":true,"sourceCellId":"1R76K8RI","sourceStableId":"1F2B0524A2730001","pipelineFeatureId":"1R76K8RI/BOYSPP/86286963","provenance":{"cellId":"1R76K8RI","checksum":"848016a1e8039fffe59470db129a8085cf21b8af41901782129e82986809a3fd","readerVersion":"GDAL 3.2.2","processedAt":"2026-08-11T18:29:20.995Z"}}},{"type":"Feature","geometry":{"type":"Point","coordinates":[4.1303333,51.66665]},"properties":{"dolphinKind":"buoy-special","rawObjectClass":"BOYSPP","sourceProperties":{"RCID":86286971,"PRIM":1,"GRUP":2,"OBJL":19,"RVER":1,"AGEN":7979,"FIDN":86286971,"FIDS":1,"LNAM":"1F2B0524A27B0001","LNAM_REFS":["1F2B0524A27A0001"],"FFPT_RIND":[2],"BOYSHP":2,"CATSPM":["50"],"COLOUR":["6"],"OBJNAM":"K-E","INFORM":"Mussel seed installation","NINFOM":"Mosselzaadinvanginstallatie","SCAMIN":200000,"SORDAT":"20120227","SORIND":"NL,1R,reprt,NavBer 2012/MZ36","sourceCellId":"1R76K8RI","sourceChecksum":"848016a1e8039fffe59470db129a8085cf21b8af41901782129e82986809a3fd","rawObjectClass":"BOYSPP","sourceStableId":"1F2B0524A27B0001"},"sourceKind":"official","official":true,"sourceCellId":"1R76K8RI","sourceStableId":"1F2B0524A27B0001","pipelineFeatureId":"1R76K8RI/BOYSPP/86286971","provenance":{"cellId":"1R76K8RI","checksum":"848016a1e8039fffe59470db129a8085cf21b8af41901782129e82986809a3fd","readerVersion":"GDAL 3.2.2","processedAt":"2026-08-11T18:29:20.995Z"}}},{"type":"Feature","geometry":{"type":"Point","coordinates":[4.1257333,51.66535]},"properties":{"dolphinKind":"buoy-special","rawObjectClass":"BOYSPP","sourceProperties":{"RCID":86286973,"PRIM":1,"GRUP":2,"OBJL":19,"RVER":1,"AGEN":7979,"FIDN":86286973,"FIDS":1,"LNAM":"1F2B0524A27D0001","LNAM_REFS":["1F2B0524A27C0001"],"FFPT_RIND":[2],"BOYSHP":2,"CATSPM":["50"],"COLOUR":["6"],"OBJNAM":"K-F","INFORM":"Mussel seed installation","NINFOM":"Mosselzaadinvanginstallatie","SCAMIN":200000,"SORDAT":"20120227","SORIND":"NL,1R,reprt,NavBer 2012/MZ36","sourceCellId":"1R76K8RI","sourceChecksum":"848016a1e8039fffe59470db129a8085cf21b8af41901782129e82986809a3fd","rawObjectClass":"BOYSPP","sourceStableId":"1F2B0524A27D0001"},"sourceKind":"official","official":true,"sourceCellId":"1R76K8RI","sourceStableId":"1F2B0524A27D0001","pipelineFeatureId":"1R76K8RI/BOYSPP/86286973","provenance":{"cellId":"1R76K8RI","checksum":"848016a1e8039fffe59470db129a8085cf21b8af41901782129e82986809a3fd","readerVersion":"GDAL 3.2.2","processedAt":"2026-08-11T18:29:20.995Z"}}},{"type":"Feature","geometry":{"type":"Point","coordinates":[4.0798967,51.6270233]},"properties":{"dolphinKind":"light","rawObjectClass":"LIGHTS","sourceProperties":{"RCID":18150,"PRIM":1,"GRUP":2,"OBJL":75,"RVER":1,"AGEN":7979,"FIDN":1106834727,"FIDS":398,"LNAM":"1F2B41F8F527018E","COLOUR":["4"],"LITCHR":2,"SIGGRP":"(2+1)","SIGPER":1,"SCAMIN":200000,"SORDAT":"20031115","sourceCellId":"1R76K8RI","sourceChecksum":"848016a1e8039fffe59470db129a8085cf21b8af41901782129e82986809a3fd","rawObjectClass":"LIGHTS","sourceStableId":"1F2B41F8F527018E"},"sourceKind":"official","official":true,"sourceCellId":"1R76K8RI","sourceStableId":"1F2B41F8F527018E","pipelineFeatureId":"1R76K8RI/LIGHTS/18150","provenance":{"cellId":"1R76K8RI","checksum":"848016a1e8039fffe59470db129a8085cf21b8af41901782129e82986809a3fd","readerVersion":"GDAL 3.2.2","processedAt":"2026-08-11T18:29:20.995Z"}}},{"type":"Feature","geometry":{"type":"Point","coordinates":[4.0900583,51.63721]},"properties":{"dolphinKind":"light","rawObjectClass":"LIGHTS","sourceProperties":{"RCID":18155,"PRIM":1,"GRUP":2,"OBJL":75,"RVER":1,"AGEN":7979,"FIDN":1106834727,"FIDS":403,"LNAM":"1F2B41F8F5270193","COLOUR":["4"],"LITCHR":3,"SIGGRP":"(1)","SIGPER":8,"SCAMIN":200000,"SORDAT":"20031115","sourceCellId":"1R76K8RI","sourceChecksum":"848016a1e8039fffe59470db129a8085cf21b8af41901782129e82986809a3fd","rawObjectClass":"LIGHTS","sourceStableId":"1F2B41F8F5270193"},"sourceKind":"official","official":true,"sourceCellId":"1R76K8RI","sourceStableId":"1F2B41F8F5270193","pipelineFeatureId":"1R76K8RI/LIGHTS/18155","provenance":{"cellId":"1R76K8RI","checksum":"848016a1e8039fffe59470db129a8085cf21b8af41901782129e82986809a3fd","readerVersion":"GDAL 3.2.2","processedAt":"2026-08-11T18:29:20.995Z"}}},{"type":"Feature","geometry":{"type":"Point","coordinates":[4.096535,51.6426033]},"properties":{"dolphinKind":"light","rawObjectClass":"LIGHTS","sourceProperties":{"RCID":18156,"PRIM":1,"GRUP":2,"OBJL":75,"RVER":1,"AGEN":7979,"FIDN":1106834727,"FIDS":404,"LNAM":"1F2B41F8F5270194","COLOUR":["4"],"LITCHR":3,"SIGGRP":"(1)","SIGPER":5,"SCAMIN":200000,"SORDAT":"20031115","sourceCellId":"1R76K8RI","sourceChecksum":"848016a1e8039fffe59470db129a8085cf21b8af41901782129e82986809a3fd","rawObjectClass":"LIGHTS","sourceStableId":"1F2B41F8F5270194"},"sourceKind":"official","official":true,"sourceCellId":"1R76K8RI","sourceStableId":"1F2B41F8F5270194","pipelineFeatureId":"1R76K8RI/LIGHTS/18156","provenance":{"cellId":"1R76K8RI","checksum":"848016a1e8039fffe59470db129a8085cf21b8af41901782129e82986809a3fd","readerVersion":"GDAL 3.2.2","processedAt":"2026-08-11T18:29:20.995Z"}}},{"type":"Feature","geometry":{"type":"Point","coordinates":[4.1122717,51.6559467]},"properties":{"dolphinKind":"light","rawObjectClass":"LIGHTS","sourceProperties":{"RCID":18158,"PRIM":1,"GRUP":2,"OBJL":75,"RVER":1,"AGEN":7979,"FIDN":1106834727,"FIDS":406,"LNAM":"1F2B41F8F5270196","COLOUR":["4"],"LITCHR":3,"SIGGRP":"(1)","SIGPER":5,"SCAMIN":200000,"SORDAT":"20210914","sourceCellId":"1R76K8RI","sourceChecksum":"848016a1e8039fffe59470db129a8085cf21b8af41901782129e82986809a3fd","rawObjectClass":"LIGHTS","sourceStableId":"1F2B41F8F5270196"},"sourceKind":"official","official":true,"sourceCellId":"1R76K8RI","sourceStableId":"1F2B41F8F5270196","pipelineFeatureId":"1R76K8RI/LIGHTS/18158","provenance":{"cellId":"1R76K8RI","checksum":"848016a1e8039fffe59470db129a8085cf21b8af41901782129e82986809a3fd","readerVersion":"GDAL 3.2.2","processedAt":"2026-08-11T18:29:20.995Z"}}},{"type":"Feature","geometry":{"type":"Point","coordinates":[4.1200583,51.65843]},"properties":{"dolphinKind":"light","rawObjectClass":"LIGHTS","sourceProperties":{"RCID":18160,"PRIM":1,"GRUP":2,"OBJL":75,"RVER":1,"AGEN":7979,"FIDN":1106834727,"FIDS":408,"LNAM":"1F2B41F8F5270198","COLOUR":["4"],"LITCHR":3,"SIGGRP":"(1)","SIGPER":8,"SCAMIN":200000,"SORDAT":"20210914","sourceCellId":"1R76K8RI","sourceChecksum":"848016a1e8039fffe59470db129a8085cf21b8af41901782129e82986809a3fd","rawObjectClass":"LIGHTS","sourceStableId":"1F2B41F8F5270198"},"sourceKind":"official","official":true,"sourceCellId":"1R76K8RI","sourceStableId":"1F2B41F8F5270198","pipelineFeatureId":"1R76K8RI/LIGHTS/18160","provenance":{"cellId":"1R76K8RI","checksum":"848016a1e8039fffe59470db129a8085cf21b8af41901782129e82986809a3fd","readerVersion":"GDAL 3.2.2","processedAt":"2026-08-11T18:29:20.995Z"}}},{"type":"Feature","geometry":{"type":"Point","coordinates":[4.1283583,51.6596717]},"properties":{"dolphinKind":"light","rawObjectClass":"LIGHTS","sourceProperties":{"RCID":18162,"PRIM":1,"GRUP":2,"OBJL":75,"RVER":1,"AGEN":7979,"FIDN":1106834727,"FIDS":410,"LNAM":"1F2B41F8F527019A","COLOUR":["4"],"LITCHR":3,"SIGGRP":"(1)","SIGPER":5,"SCAMIN":200000,"SORDAT":"20210914","sourceCellId":"1R76K8RI","sourceChecksum":"848016a1e8039fffe59470db129a8085cf21b8af41901782129e82986809a3fd","rawObjectClass":"LIGHTS","sourceStableId":"1F2B41F8F527019A"},"sourceKind":"official","official":true,"sourceCellId":"1R76K8RI","sourceStableId":"1F2B41F8F527019A","pipelineFeatureId":"1R76K8RI/LIGHTS/18162","provenance":{"cellId":"1R76K8RI","checksum":"848016a1e8039fffe59470db129a8085cf21b8af41901782129e82986809a3fd","readerVersion":"GDAL 3.2.2","processedAt":"2026-08-11T18:29:20.995Z"}}},{"type":"Feature","geometry":{"type":"Point","coordinates":[4.1007803,51.6530146]},"properties":{"dolphinKind":"light","rawObjectClass":"LIGHTS","sourceProperties":{"RCID":19823,"PRIM":1,"GRUP":2,"OBJL":75,"RVER":1,"AGEN":7979,"FIDN":1106834754,"FIDS":269,"LNAM":"1F2B41F8F542010D","COLOUR":["3"],"HEIGHT":8,"LITCHR":1,"INFORM":"In fog: F.Y.","SCAMIN":200000,"sourceCellId":"1R76K8RI","sourceChecksum":"848016a1e8039fffe59470db129a8085cf21b8af41901782129e82986809a3fd","rawObjectClass":"LIGHTS","sourceStableId":"1F2B41F8F542010D"},"sourceKind":"official","official":true,"sourceCellId":"1R76K8RI","sourceStableId":"1F2B41F8F542010D","pipelineFeatureId":"1R76K8RI/LIGHTS/19823","provenance":{"cellId":"1R76K8RI","checksum":"848016a1e8039fffe59470db129a8085cf21b8af41901782129e82986809a3fd","readerVersion":"GDAL 3.2.2","processedAt":"2026-08-11T18:29:20.995Z"}}},{"type":"Feature","geometry":{"type":"Point","coordinates":[4.1017147,51.6541214]},"properties":{"dolphinKind":"light","rawObjectClass":"LIGHTS","sourceProperties":{"RCID":19824,"PRIM":1,"GRUP":2,"OBJL":75,"RVER":1,"AGEN":7979,"FIDN":1106834754,"FIDS":270,"LNAM":"1F2B41F8F542010E","COLOUR":["4"],"HEIGHT":8,"LITCHR":1,"SCAMIN":200000,"sourceCellId":"1R76K8RI","sourceChecksum":"848016a1e8039fffe59470db129a8085cf21b8af41901782129e82986809a3fd","rawObjectClass":"LIGHTS","sourceStableId":"1F2B41F8F542010E"},"sourceKind":"official","official":true,"sourceCellId":"1R76K8RI","sourceStableId":"1F2B41F8F542010E","pipelineFeatureId":"1R76K8RI/LIGHTS/19824","provenance":{"cellId":"1R76K8RI","checksum":"848016a1e8039fffe59470db129a8085cf21b8af41901782129e82986809a3fd","readerVersion":"GDAL 3.2.2","processedAt":"2026-08-11T18:29:20.995Z"}}},{"type":"Feature","geometry":{"type":"Point","coordinates":[4.0984807,51.6642889]},"properties":{"dolphinKind":"light","rawObjectClass":"LIGHTS","sourceProperties":{"RCID":19825,"PRIM":1,"GRUP":2,"OBJL":75,"RVER":1,"AGEN":7979,"FIDN":1106834754,"FIDS":271,"LNAM":"1F2B41F8F542010F","COLOUR":["3"],"LITCHR":1,"SCAMIN":200000,"sourceCellId":"1R76K8RI","sourceChecksum":"848016a1e8039fffe59470db129a8085cf21b8af41901782129e82986809a3fd","rawObjectClass":"LIGHTS","sourceStableId":"1F2B41F8F542010F"},"sourceKind":"official","official":true,"sourceCellId":"1R76K8RI","sourceStableId":"1F2B41F8F542010F","pipelineFeatureId":"1R76K8RI/LIGHTS/19825","provenance":{"cellId":"1R76K8RI","checksum":"848016a1e8039fffe59470db129a8085cf21b8af41901782129e82986809a3fd","readerVersion":"GDAL 3.2.2","processedAt":"2026-08-11T18:29:20.995Z"}}},{"type":"Feature","geometry":{"type":"Point","coordinates":[4.0991814,51.6650547]},"properties":{"dolphinKind":"light","rawObjectClass":"LIGHTS","sourceProperties":{"RCID":19826,"PRIM":1,"GRUP":2,"OBJL":75,"RVER":1,"AGEN":7979,"FIDN":1106834754,"FIDS":272,"LNAM":"1F2B41F8F5420110","COLOUR":["4"],"LITCHR":1,"SCAMIN":200000,"sourceCellId":"1R76K8RI","sourceChecksum":"848016a1e8039fffe59470db129a8085cf21b8af41901782129e82986809a3fd","rawObjectClass":"LIGHTS","sourceStableId":"1F2B41F8F5420110"},"sourceKind":"official","official":true,"sourceCellId":"1R76K8RI","sourceStableId":"1F2B41F8F5420110","pipelineFeatureId":"1R76K8RI/LIGHTS/19826","provenance":{"cellId":"1R76K8RI","checksum":"848016a1e8039fffe59470db129a8085cf21b8af41901782129e82986809a3fd","readerVersion":"GDAL 3.2.2","processedAt":"2026-08-11T18:29:20.995Z"}}},{"type":"Feature","geometry":{"type":"Point","coordinates":[4.0953511,51.6649149]},"properties":{"dolphinKind":"light","rawObjectClass":"LIGHTS","sourceProperties":{"RCID":19827,"PRIM":1,"GRUP":2,"OBJL":75,"RVER":1,"AGEN":7979,"FIDN":1106834754,"FIDS":273,"LNAM":"1F2B41F8F5420111","CATLIT":["4","14"],"COLOUR":["1"],"LITCHR":7,"SIGGRP":"(1)","SIGPER":2,"SCAMIN":200000,"sourceCellId":"1R76K8RI","sourceChecksum":"848016a1e8039fffe59470db129a8085cf21b8af41901782129e82986809a3fd","rawObjectClass":"LIGHTS","sourceStableId":"1F2B41F8F5420111"},"sourceKind":"official","official":true,"sourceCellId":"1R76K8RI","sourceStableId":"1F2B41F8F5420111","pipelineFeatureId":"1R76K8RI/LIGHTS/19827","provenance":{"cellId":"1R76K8RI","checksum":"848016a1e8039fffe59470db129a8085cf21b8af41901782129e82986809a3fd","readerVersion":"GDAL 3.2.2","processedAt":"2026-08-11T18:29:20.995Z"}}},{"type":"Feature","geometry":{"type":"Point","coordinates":[4.0945101,51.6650156]},"properties":{"dolphinKind":"light","rawObjectClass":"LIGHTS","sourceProperties":{"RCID":19828,"PRIM":1,"GRUP":2,"OBJL":75,"RVER":1,"AGEN":7979,"FIDN":1106834754,"FIDS":274,"LNAM":"1F2B41F8F5420112","CATLIT":["4","15"],"COLOUR":["1"],"LITCHR":1,"SCAMIN":200000,"sourceCellId":"1R76K8RI","sourceChecksum":"848016a1e8039fffe59470db129a8085cf21b8af41901782129e82986809a3fd","rawObjectClass":"LIGHTS","sourceStableId":"1F2B41F8F5420112"},"sourceKind":"official","official":true,"sourceCellId":"1R76K8RI","sourceStableId":"1F2B41F8F5420112","pipelineFeatureId":"1R76K8RI/LIGHTS/19828","provenance":{"cellId":"1R76K8RI","checksum":"848016a1e8039fffe59470db129a8085cf21b8af41901782129e82986809a3fd","readerVersion":"GDAL 3.2.2","processedAt":"2026-08-11T18:29:20.995Z"}}},{"type":"Feature","geometry":{"type":"Point","coordinates":[4.0910834,51.6699687]},"properties":{"dolphinKind":"light","rawObjectClass":"LIGHTS","sourceProperties":{"RCID":19835,"PRIM":1,"GRUP":2,"OBJL":75,"RVER":1,"AGEN":7979,"FIDN":1106834754,"FIDS":281,"LNAM":"1F2B41F8F5420119","COLOUR":["3"],"LITCHR":1,"SCAMIN":200000,"sourceCellId":"1R76K8RI","sourceChecksum":"848016a1e8039fffe59470db129a8085cf21b8af41901782129e82986809a3fd","rawObjectClass":"LIGHTS","sourceStableId":"1F2B41F8F5420119"},"sourceKind":"official","official":true,"sourceCellId":"1R76K8RI","sourceStableId":"1F2B41F8F5420119","pipelineFeatureId":"1R76K8RI/LIGHTS/19835","provenance":{"cellId":"1R76K8RI","checksum":"848016a1e8039fffe59470db129a8085cf21b8af41901782129e82986809a3fd","readerVersion":"GDAL 3.2.2","processedAt":"2026-08-11T18:29:20.995Z"}}},{"type":"Feature","geometry":{"type":"Point","coordinates":[4.0888735,51.6706046]},"properties":{"dolphinKind":"light","rawObjectClass":"LIGHTS","sourceProperties":{"RCID":19836,"PRIM":1,"GRUP":2,"OBJL":75,"RVER":1,"AGEN":7979,"FIDN":1106834754,"FIDS":282,"LNAM":"1F2B41F8F542011A","COLOUR":["4"],"LITCHR":1,"SCAMIN":200000,"sourceCellId":"1R76K8RI","sourceChecksum":"848016a1e8039fffe59470db129a8085cf21b8af41901782129e82986809a3fd","rawObjectClass":"LIGHTS","sourceStableId":"1F2B41F8F542011A"},"sourceKind":"official","official":true,"sourceCellId":"1R76K8RI","sourceStableId":"1F2B41F8F542011A","pipelineFeatureId":"1R76K8RI/LIGHTS/19836","provenance":{"cellId":"1R76K8RI","checksum":"848016a1e8039fffe59470db129a8085cf21b8af41901782129e82986809a3fd","readerVersion":"GDAL 3.2.2","processedAt":"2026-08-11T18:29:20.995Z"}}},{"type":"Feature","geometry":{"type":"Point","coordinates":[4.0841597,51.6720789]},"properties":{"dolphinKind":"light","rawObjectClass":"LIGHTS","sourceProperties":{"RCID":20084,"PRIM":1,"GRUP":2,"OBJL":75,"RVER":1,"AGEN":7979,"FIDN":1106834755,"FIDS":275,"LNAM":"1F2B41F8F5430113","COLOUR":["3"],"LITCHR":1,"SCAMIN":200000,"sourceCellId":"1R76K8RI","sourceChecksum":"848016a1e8039fffe59470db129a8085cf21b8af41901782129e82986809a3fd","rawObjectClass":"LIGHTS","sourceStableId":"1F2B41F8F5430113"},"sourceKind":"official","official":true,"sourceCellId":"1R76K8RI","sourceStableId":"1F2B41F8F5430113","pipelineFeatureId":"1R76K8RI/LIGHTS/20084","provenance":{"cellId":"1R76K8RI","checksum":"848016a1e8039fffe59470db129a8085cf21b8af41901782129e82986809a3fd","readerVersion":"GDAL 3.2.2","processedAt":"2026-08-11T18:29:20.995Z"}}},{"type":"Feature","geometry":{"type":"Point","coordinates":[4.0838267,51.6726236]},"properties":{"dolphinKind":"light","rawObjectClass":"LIGHTS","sourceProperties":{"RCID":20086,"PRIM":1,"GRUP":2,"OBJL":75,"RVER":1,"AGEN":7979,"FIDN":1106834755,"FIDS":277,"LNAM":"1F2B41F8F5430115","COLOUR":["4"],"LITCHR":1,"SCAMIN":200000,"sourceCellId":"1R76K8RI","sourceChecksum":"848016a1e8039fffe59470db129a8085cf21b8af41901782129e82986809a3fd","rawObjectClass":"LIGHTS","sourceStableId":"1F2B41F8F5430115"},"sourceKind":"official","official":true,"sourceCellId":"1R76K8RI","sourceStableId":"1F2B41F8F5430115","pipelineFeatureId":"1R76K8RI/LIGHTS/20086","provenance":{"cellId":"1R76K8RI","checksum":"848016a1e8039fffe59470db129a8085cf21b8af41901782129e82986809a3fd","readerVersion":"GDAL 3.2.2","processedAt":"2026-08-11T18:29:20.995Z"}}},{"type":"Feature","geometry":{"type":"Point","coordinates":[4.0898203,51.6696361]},"properties":{"dolphinKind":"light","rawObjectClass":"LIGHTS","sourceProperties":{"RCID":20088,"PRIM":1,"GRUP":2,"OBJL":75,"RVER":1,"AGEN":7979,"FIDN":1106834755,"FIDS":279,"LNAM":"1F2B41F8F5430117","COLOUR":["3"],"LITCHR":7,"SIGGRP":"(1)","SIGPER":4,"SCAMIN":200000,"sourceCellId":"1R76K8RI","sourceChecksum":"848016a1e8039fffe59470db129a8085cf21b8af41901782129e82986809a3fd","rawObjectClass":"LIGHTS","sourceStableId":"1F2B41F8F5430117"},"sourceKind":"official","official":true,"sourceCellId":"1R76K8RI","sourceStableId":"1F2B41F8F5430117","pipelineFeatureId":"1R76K8RI/LIGHTS/20088","provenance":{"cellId":"1R76K8RI","checksum":"848016a1e8039fffe59470db129a8085cf21b8af41901782129e82986809a3fd","readerVersion":"GDAL 3.2.2","processedAt":"2026-08-11T18:29:20.995Z"}}},{"type":"Feature","geometry":{"type":"Point","coordinates":[4.1095467,51.66153]},"properties":{"dolphinKind":"light","rawObjectClass":"LIGHTS","sourceProperties":{"RCID":8626680,"PRIM":1,"GRUP":2,"OBJL":75,"RVER":1,"AGEN":7979,"FIDN":8626680,"FIDS":1,"LNAM":"1F2B0083A1F80001","COLOUR":["3"],"LITCHR":4,"SIGGRP":"(1)","SCAMIN":200000,"SORDAT":"20230111","SORIND":"NL,1R,reprt,ENC verbetering","sourceCellId":"1R76K8RI","sourceChecksum":"848016a1e8039fffe59470db129a8085cf21b8af41901782129e82986809a3fd","rawObjectClass":"LIGHTS","sourceStableId":"1F2B0083A1F80001"},"sourceKind":"official","official":true,"sourceCellId":"1R76K8RI","sourceStableId":"1F2B0083A1F80001","pipelineFeatureId":"1R76K8RI/LIGHTS/8626680","provenance":{"cellId":"1R76K8RI","checksum":"848016a1e8039fffe59470db129a8085cf21b8af41901782129e82986809a3fd","readerVersion":"GDAL 3.2.2","processedAt":"2026-08-11T18:29:20.995Z"}}},{"type":"Feature","geometry":{"type":"Point","coordinates":[4.0846883,51.6314533]},"properties":{"dolphinKind":"light","rawObjectClass":"LIGHTS","sourceProperties":{"RCID":430733267,"PRIM":1,"GRUP":2,"OBJL":75,"RVER":1,"AGEN":7979,"FIDN":430733267,"FIDS":1,"LNAM":"1F2B19AC77D30001","COLOUR":["4"],"LITCHR":3,"SIGGRP":"(1)","SIGPER":5,"SCAMIN":200000,"SORDAT":"20210914","sourceCellId":"1R76K8RI","sourceChecksum":"848016a1e8039fffe59470db129a8085cf21b8af41901782129e82986809a3fd","rawObjectClass":"LIGHTS","sourceStableId":"1F2B19AC77D30001"},"sourceKind":"official","official":true,"sourceCellId":"1R76K8RI","sourceStableId":"1F2B19AC77D30001","pipelineFeatureId":"1R76K8RI/LIGHTS/430733267","provenance":{"cellId":"1R76K8RI","checksum":"848016a1e8039fffe59470db129a8085cf21b8af41901782129e82986809a3fd","readerVersion":"GDAL 3.2.2","processedAt":"2026-08-11T18:29:20.995Z"}}},{"type":"Feature","geometry":{"type":"Point","coordinates":[4.1049383,51.6491583]},"properties":{"dolphinKind":"light","rawObjectClass":"LIGHTS","sourceProperties":{"RCID":430733268,"PRIM":1,"GRUP":2,"OBJL":75,"RVER":1,"AGEN":7979,"FIDN":430733268,"FIDS":1,"LNAM":"1F2B19AC77D40001","COLOUR":["4"],"LITCHR":3,"SIGGRP":"(1)","SIGPER":8,"SCAMIN":200000,"SORDAT":"20031115","sourceCellId":"1R76K8RI","sourceChecksum":"848016a1e8039fffe59470db129a8085cf21b8af41901782129e82986809a3fd","rawObjectClass":"LIGHTS","sourceStableId":"1F2B19AC77D40001"},"sourceKind":"official","official":true,"sourceCellId":"1R76K8RI","sourceStableId":"1F2B19AC77D40001","pipelineFeatureId":"1R76K8RI/LIGHTS/430733268","provenance":{"cellId":"1R76K8RI","checksum":"848016a1e8039fffe59470db129a8085cf21b8af41901782129e82986809a3fd","readerVersion":"GDAL 3.2.2","processedAt":"2026-08-11T18:29:20.995Z"}}},{"type":"Feature","geometry":{"type":"Point","coordinates":[4.1211667,51.6632]},"properties":{"dolphinKind":"light","rawObjectClass":"LIGHTS","sourceProperties":{"RCID":430773820,"PRIM":1,"GRUP":2,"OBJL":75,"RVER":1,"AGEN":7979,"FIDN":430773820,"FIDS":1,"LNAM":"1F2B19AD163C0001","COLOUR":["3"],"LITCHR":3,"SIGGRP":"(1)","SIGPER":5,"SCAMIN":200000,"SORDAT":"20210914","sourceCellId":"1R76K8RI","sourceChecksum":"848016a1e8039fffe59470db129a8085cf21b8af41901782129e82986809a3fd","rawObjectClass":"LIGHTS","sourceStableId":"1F2B19AD163C0001"},"sourceKind":"official","official":true,"sourceCellId":"1R76K8RI","sourceStableId":"1F2B19AD163C0001","pipelineFeatureId":"1R76K8RI/LIGHTS/430773820","provenance":{"cellId":"1R76K8RI","checksum":"848016a1e8039fffe59470db129a8085cf21b8af41901782129e82986809a3fd","readerVersion":"GDAL 3.2.2","processedAt":"2026-08-11T18:29:20.995Z"}}},{"type":"Feature","geometry":{"type":"Point","coordinates":[4.133045,51.6625517]},"properties":{"dolphinKind":"light","rawObjectClass":"LIGHTS","sourceProperties":{"RCID":430773822,"PRIM":1,"GRUP":2,"OBJL":75,"RVER":1,"AGEN":7979,"FIDN":430773822,"FIDS":1,"LNAM":"1F2B19AD163E0001","COLOUR":["3"],"LITCHR":4,"SIGGRP":"(1)","SCAMIN":200000,"SORDAT":"20230510","SORIND":"NL,1R,reprt,ENC verbetering","sourceCellId":"1R76K8RI","sourceChecksum":"848016a1e8039fffe59470db129a8085cf21b8af41901782129e82986809a3fd","rawObjectClass":"LIGHTS","sourceStableId":"1F2B19AD163E0001"},"sourceKind":"official","official":true,"sourceCellId":"1R76K8RI","sourceStableId":"1F2B19AD163E0001","pipelineFeatureId":"1R76K8RI/LIGHTS/430773822","provenance":{"cellId":"1R76K8RI","checksum":"848016a1e8039fffe59470db129a8085cf21b8af41901782129e82986809a3fd","readerVersion":"GDAL 3.2.2","processedAt":"2026-08-11T18:29:20.995Z"}}},{"type":"Feature","geometry":{"type":"Point","coordinates":[4.0651433,51.6252433]},"properties":{"dolphinKind":"light","rawObjectClass":"LIGHTS","sourceProperties":{"RCID":430848497,"PRIM":1,"GRUP":2,"OBJL":75,"RVER":1,"AGEN":7979,"FIDN":430848497,"FIDS":1,"LNAM":"1F2B19AE39F10001","COLOUR":["3"],"LITCHR":3,"SIGGRP":"(1)","SIGPER":8,"SCAMIN":200000,"SORDAT":"20210915","SORIND":"NL,1R,reprt,DZD-BAS-118","sourceCellId":"1R76K8RI","sourceChecksum":"848016a1e8039fffe59470db129a8085cf21b8af41901782129e82986809a3fd","rawObjectClass":"LIGHTS","sourceStableId":"1F2B19AE39F10001"},"sourceKind":"official","official":true,"sourceCellId":"1R76K8RI","sourceStableId":"1F2B19AE39F10001","pipelineFeatureId":"1R76K8RI/LIGHTS/430848497","provenance":{"cellId":"1R76K8RI","checksum":"848016a1e8039fffe59470db129a8085cf21b8af41901782129e82986809a3fd","readerVersion":"GDAL 3.2.2","processedAt":"2026-08-11T18:29:20.995Z"}}},{"type":"Feature","geometry":{"type":"Point","coordinates":[4.0714117,51.6290583]},"properties":{"dolphinKind":"light","rawObjectClass":"LIGHTS","sourceProperties":{"RCID":430848499,"PRIM":1,"GRUP":2,"OBJL":75,"RVER":1,"AGEN":7979,"FIDN":430848499,"FIDS":1,"LNAM":"1F2B19AE39F30001","COLOUR":["3"],"LITCHR":7,"SIGGRP":"(1)","SIGPER":2,"SCAMIN":200000,"SORDAT":"20210915","SORIND":"NL,1R,reprt,DZD-BAS-118","sourceCellId":"1R76K8RI","sourceChecksum":"848016a1e8039fffe59470db129a8085cf21b8af41901782129e82986809a3fd","rawObjectClass":"LIGHTS","sourceStableId":"1F2B19AE39F30001"},"sourceKind":"official","official":true,"sourceCellId":"1R76K8RI","sourceStableId":"1F2B19AE39F30001","pipelineFeatureId":"1R76K8RI/LIGHTS/430848499","provenance":{"cellId":"1R76K8RI","checksum":"848016a1e8039fffe59470db129a8085cf21b8af41901782129e82986809a3fd","readerVersion":"GDAL 3.2.2","processedAt":"2026-08-11T18:29:20.995Z"}}},{"type":"Feature","geometry":{"type":"Point","coordinates":[4.078015,51.633685]},"properties":{"dolphinKind":"light","rawObjectClass":"LIGHTS","sourceProperties":{"RCID":430848501,"PRIM":1,"GRUP":2,"OBJL":75,"RVER":1,"AGEN":7979,"FIDN":430848501,"FIDS":1,"LNAM":"1F2B19AE39F50001","COLOUR":["3"],"LITCHR":3,"SIGGRP":"(1)","SIGPER":5,"SCAMIN":200000,"SORDAT":"20210915","SORIND":"NL,1R,reprt,DZD-BAS-118","sourceCellId":"1R76K8RI","sourceChecksum":"848016a1e8039fffe59470db129a8085cf21b8af41901782129e82986809a3fd","rawObjectClass":"LIGHTS","sourceStableId":"1F2B19AE39F50001"},"sourceKind":"official","official":true,"sourceCellId":"1R76K8RI","sourceStableId":"1F2B19AE39F50001","pipelineFeatureId":"1R76K8RI/LIGHTS/430848501","provenance":{"cellId":"1R76K8RI","checksum":"848016a1e8039fffe59470db129a8085cf21b8af41901782129e82986809a3fd","readerVersion":"GDAL 3.2.2","processedAt":"2026-08-11T18:29:20.995Z"}}},{"type":"Feature","geometry":{"type":"Point","coordinates":[4.08494,51.639565]},"properties":{"dolphinKind":"light","rawObjectClass":"LIGHTS","sourceProperties":{"RCID":430848503,"PRIM":1,"GRUP":2,"OBJL":75,"RVER":1,"AGEN":7979,"FIDN":430848503,"FIDS":1,"LNAM":"1F2B19AE39F70001","COLOUR":["3"],"LITCHR":3,"SIGGRP":"(1)","SIGPER":8,"SCAMIN":200000,"SORDAT":"20210915","SORIND":"NL,1R,reprt,DZD-BAS-118","sourceCellId":"1R76K8RI","sourceChecksum":"848016a1e8039fffe59470db129a8085cf21b8af41901782129e82986809a3fd","rawObjectClass":"LIGHTS","sourceStableId":"1F2B19AE39F70001"},"sourceKind":"official","official":true,"sourceCellId":"1R76K8RI","sourceStableId":"1F2B19AE39F70001","pipelineFeatureId":"1R76K8RI/LIGHTS/430848503","provenance":{"cellId":"1R76K8RI","checksum":"848016a1e8039fffe59470db129a8085cf21b8af41901782129e82986809a3fd","readerVersion":"GDAL 3.2.2","processedAt":"2026-08-11T18:29:20.995Z"}}},{"type":"Feature","geometry":{"type":"Point","coordinates":[4.09558,51.6457017]},"properties":{"dolphinKind":"light","rawObjectClass":"LIGHTS","sourceProperties":{"RCID":430848505,"PRIM":1,"GRUP":2,"OBJL":75,"RVER":1,"AGEN":7979,"FIDN":430848505,"FIDS":1,"LNAM":"1F2B19AE39F90001","COLOUR":["3"],"LITCHR":3,"SIGGRP":"(1)","SIGPER":5,"SCAMIN":200000,"SORDAT":"20210915","SORIND":"NL,1R,reprt,DZD-BAS-118","sourceCellId":"1R76K8RI","sourceChecksum":"848016a1e8039fffe59470db129a8085cf21b8af41901782129e82986809a3fd","rawObjectClass":"LIGHTS","sourceStableId":"1F2B19AE39F90001"},"sourceKind":"official","official":true,"sourceCellId":"1R76K8RI","sourceStableId":"1F2B19AE39F90001","pipelineFeatureId":"1R76K8RI/LIGHTS/430848505","provenance":{"cellId":"1R76K8RI","checksum":"848016a1e8039fffe59470db129a8085cf21b8af41901782129e82986809a3fd","readerVersion":"GDAL 3.2.2","processedAt":"2026-08-11T18:29:20.995Z"}}},{"type":"Feature","geometry":{"type":"Point","coordinates":[4.1006533,51.6513717]},"properties":{"dolphinKind":"light","rawObjectClass":"LIGHTS","sourceProperties":{"RCID":430848507,"PRIM":1,"GRUP":2,"OBJL":75,"RVER":1,"AGEN":7979,"FIDN":430848507,"FIDS":1,"LNAM":"1F2B19AE39FB0001","COLOUR":["3"],"LITCHR":3,"SIGGRP":"(1)","SIGPER":8,"SCAMIN":200000,"SORDAT":"20210915","SORIND":"NL,1R,reprt,DZD-BAS-118","sourceCellId":"1R76K8RI","sourceChecksum":"848016a1e8039fffe59470db129a8085cf21b8af41901782129e82986809a3fd","rawObjectClass":"LIGHTS","sourceStableId":"1F2B19AE39FB0001"},"sourceKind":"official","official":true,"sourceCellId":"1R76K8RI","sourceStableId":"1F2B19AE39FB0001","pipelineFeatureId":"1R76K8RI/LIGHTS/430848507","provenance":{"cellId":"1R76K8RI","checksum":"848016a1e8039fffe59470db129a8085cf21b8af41901782129e82986809a3fd","readerVersion":"GDAL 3.2.2","processedAt":"2026-08-11T18:29:20.995Z"}}},{"type":"Feature","geometry":{"type":"Point","coordinates":[4.1070683,51.658535]},"properties":{"dolphinKind":"light","rawObjectClass":"LIGHTS","sourceProperties":{"RCID":430848509,"PRIM":1,"GRUP":2,"OBJL":75,"RVER":1,"AGEN":7979,"FIDN":430848509,"FIDS":1,"LNAM":"1F2B19AE39FD0001","COLOUR":["3"],"LITCHR":3,"SIGGRP":"(1)","SIGPER":5,"SCAMIN":200000,"SORDAT":"20210914","SORIND":"NL,1R,reprt,DZD-BAS-117","sourceCellId":"1R76K8RI","sourceChecksum":"848016a1e8039fffe59470db129a8085cf21b8af41901782129e82986809a3fd","rawObjectClass":"LIGHTS","sourceStableId":"1F2B19AE39FD0001"},"sourceKind":"official","official":true,"sourceCellId":"1R76K8RI","sourceStableId":"1F2B19AE39FD0001","pipelineFeatureId":"1R76K8RI/LIGHTS/430848509","provenance":{"cellId":"1R76K8RI","checksum":"848016a1e8039fffe59470db129a8085cf21b8af41901782129e82986809a3fd","readerVersion":"GDAL 3.2.2","processedAt":"2026-08-11T18:29:20.995Z"}}},{"type":"Feature","geometry":{"type":"Point","coordinates":[4.0874956,51.6433425]},"properties":{"dolphinKind":"topmark","rawObjectClass":"TOPMAR","sourceProperties":{"RCID":9273,"PRIM":1,"GRUP":2,"OBJL":144,"RVER":1,"AGEN":7979,"FIDN":1106210626,"FIDS":348,"LNAM":"1F2B41EF6F42015C","COLOUR":["6"],"TOPSHP":20,"SCAMIN":200000,"sourceCellId":"1R76K8RI","sourceChecksum":"848016a1e8039fffe59470db129a8085cf21b8af41901782129e82986809a3fd","rawObjectClass":"TOPMAR","sourceStableId":"1F2B41EF6F42015C"},"sourceKind":"official","official":true,"sourceCellId":"1R76K8RI","sourceStableId":"1F2B41EF6F42015C","pipelineFeatureId":"1R76K8RI/TOPMAR/9273","provenance":{"cellId":"1R76K8RI","checksum":"848016a1e8039fffe59470db129a8085cf21b8af41901782129e82986809a3fd","readerVersion":"GDAL 3.2.2","processedAt":"2026-08-11T18:29:20.995Z"},"associationRefsVerifiedInGdalOutput":false}},{"type":"Feature","geometry":{"type":"Point","coordinates":[4.0859932,51.642992]},"properties":{"dolphinKind":"topmark","rawObjectClass":"TOPMAR","sourceProperties":{"RCID":9274,"PRIM":1,"GRUP":2,"OBJL":144,"RVER":1,"AGEN":7979,"FIDN":1106210626,"FIDS":349,"LNAM":"1F2B41EF6F42015D","COLOUR":["6"],"TOPSHP":20,"SCAMIN":200000,"sourceCellId":"1R76K8RI","sourceChecksum":"848016a1e8039fffe59470db129a8085cf21b8af41901782129e82986809a3fd","rawObjectClass":"TOPMAR","sourceStableId":"1F2B41EF6F42015D"},"sourceKind":"official","official":true,"sourceCellId":"1R76K8RI","sourceStableId":"1F2B41EF6F42015D","pipelineFeatureId":"1R76K8RI/TOPMAR/9274","provenance":{"cellId":"1R76K8RI","checksum":"848016a1e8039fffe59470db129a8085cf21b8af41901782129e82986809a3fd","readerVersion":"GDAL 3.2.2","processedAt":"2026-08-11T18:29:20.995Z"},"associationRefsVerifiedInGdalOutput":false}},{"type":"Feature","geometry":{"type":"Point","coordinates":[4.0987632,51.6392374]},"properties":{"dolphinKind":"topmark","rawObjectClass":"TOPMAR","sourceProperties":{"RCID":9275,"PRIM":1,"GRUP":2,"OBJL":144,"RVER":1,"AGEN":7979,"FIDN":1106210626,"FIDS":350,"LNAM":"1F2B41EF6F42015E","COLOUR":["6"],"TOPSHP":20,"SCAMIN":200000,"sourceCellId":"1R76K8RI","sourceChecksum":"848016a1e8039fffe59470db129a8085cf21b8af41901782129e82986809a3fd","rawObjectClass":"TOPMAR","sourceStableId":"1F2B41EF6F42015E"},"sourceKind":"official","official":true,"sourceCellId":"1R76K8RI","sourceStableId":"1F2B41EF6F42015E","pipelineFeatureId":"1R76K8RI/TOPMAR/9275","provenance":{"cellId":"1R76K8RI","checksum":"848016a1e8039fffe59470db129a8085cf21b8af41901782129e82986809a3fd","readerVersion":"GDAL 3.2.2","processedAt":"2026-08-11T18:29:20.995Z"},"associationRefsVerifiedInGdalOutput":false}},{"type":"Feature","geometry":{"type":"Point","coordinates":[4.0423031,51.6286972]},"properties":{"dolphinKind":"topmark","rawObjectClass":"TOPMAR","sourceProperties":{"RCID":9282,"PRIM":1,"GRUP":2,"OBJL":144,"RVER":1,"AGEN":7979,"FIDN":1106210626,"FIDS":357,"LNAM":"1F2B41EF6F420165","COLOUR":["6"],"TOPSHP":20,"INFORM":"N. Cable Sign","NINFOM":"N. Kabelbord","SCAMIN":200000,"sourceCellId":"1R76K8RI","sourceChecksum":"848016a1e8039fffe59470db129a8085cf21b8af41901782129e82986809a3fd","rawObjectClass":"TOPMAR","sourceStableId":"1F2B41EF6F420165"},"sourceKind":"official","official":true,"sourceCellId":"1R76K8RI","sourceStableId":"1F2B41EF6F420165","pipelineFeatureId":"1R76K8RI/TOPMAR/9282","provenance":{"cellId":"1R76K8RI","checksum":"848016a1e8039fffe59470db129a8085cf21b8af41901782129e82986809a3fd","readerVersion":"GDAL 3.2.2","processedAt":"2026-08-11T18:29:20.995Z"},"associationRefsVerifiedInGdalOutput":false}},{"type":"Feature","geometry":{"type":"Point","coordinates":[4.0798967,51.6270233]},"properties":{"dolphinKind":"topmark","rawObjectClass":"TOPMAR","sourceProperties":{"RCID":18152,"PRIM":1,"GRUP":2,"OBJL":144,"RVER":1,"AGEN":7979,"FIDN":1106834727,"FIDS":400,"LNAM":"1F2B41F8F5270190","COLOUR":["4"],"TOPSHP":29,"SCAMIN":200000,"SORDAT":"20210914","sourceCellId":"1R76K8RI","sourceChecksum":"848016a1e8039fffe59470db129a8085cf21b8af41901782129e82986809a3fd","rawObjectClass":"TOPMAR","sourceStableId":"1F2B41F8F5270190"},"sourceKind":"official","official":true,"sourceCellId":"1R76K8RI","sourceStableId":"1F2B41F8F5270190","pipelineFeatureId":"1R76K8RI/TOPMAR/18152","provenance":{"cellId":"1R76K8RI","checksum":"848016a1e8039fffe59470db129a8085cf21b8af41901782129e82986809a3fd","readerVersion":"GDAL 3.2.2","processedAt":"2026-08-11T18:29:20.995Z"},"associationRefsVerifiedInGdalOutput":false}},{"type":"Feature","geometry":{"type":"Point","coordinates":[4.1192667,51.6664167]},"properties":{"dolphinKind":"topmark","rawObjectClass":"TOPMAR","sourceProperties":{"RCID":18169,"PRIM":1,"GRUP":2,"OBJL":144,"RVER":1,"AGEN":7979,"FIDN":1106834727,"FIDS":417,"LNAM":"1F2B41F8F52701A1","COLOUR":["2"],"TOPSHP":14,"INFORM":"VMD","SCAMIN":200000,"SORDAT":"20031115","sourceCellId":"1R76K8RI","sourceChecksum":"848016a1e8039fffe59470db129a8085cf21b8af41901782129e82986809a3fd","rawObjectClass":"TOPMAR","sourceStableId":"1F2B41F8F52701A1"},"sourceKind":"official","official":true,"sourceCellId":"1R76K8RI","sourceStableId":"1F2B41F8F52701A1","pipelineFeatureId":"1R76K8RI/TOPMAR/18169","provenance":{"cellId":"1R76K8RI","checksum":"848016a1e8039fffe59470db129a8085cf21b8af41901782129e82986809a3fd","readerVersion":"GDAL 3.2.2","processedAt":"2026-08-11T18:29:20.995Z"},"associationRefsVerifiedInGdalOutput":false}},{"type":"Feature","geometry":{"type":"Point","coordinates":[4.0863833,51.67445]},"properties":{"dolphinKind":"topmark","rawObjectClass":"TOPMAR","sourceProperties":{"RCID":8626681,"PRIM":1,"GRUP":2,"OBJL":144,"RVER":1,"AGEN":7979,"FIDN":8626681,"FIDS":1,"LNAM":"1F2B0083A1F90001","COLOUR":["4"],"TOPSHP":1,"SCAMIN":200000,"sourceCellId":"1R76K8RI","sourceChecksum":"848016a1e8039fffe59470db129a8085cf21b8af41901782129e82986809a3fd","rawObjectClass":"TOPMAR","sourceStableId":"1F2B0083A1F90001"},"sourceKind":"official","official":true,"sourceCellId":"1R76K8RI","sourceStableId":"1F2B0083A1F90001","pipelineFeatureId":"1R76K8RI/TOPMAR/8626681","provenance":{"cellId":"1R76K8RI","checksum":"848016a1e8039fffe59470db129a8085cf21b8af41901782129e82986809a3fd","readerVersion":"GDAL 3.2.2","processedAt":"2026-08-11T18:29:20.995Z"},"associationRefsVerifiedInGdalOutput":false}},{"type":"Feature","geometry":{"type":"Point","coordinates":[4.1025366,51.6635539]},"properties":{"dolphinKind":"topmark","rawObjectClass":"TOPMAR","sourceProperties":{"RCID":8626682,"PRIM":1,"GRUP":2,"OBJL":144,"RVER":1,"AGEN":7979,"FIDN":8626682,"FIDS":1,"LNAM":"1F2B0083A1FA0001","COLOUR":["3"],"TOPSHP":5,"INFORM":"Cylinder over a sphere","NINFOM":"Cilinder boven een Bol","SCAMIN":200000,"SORDAT":"20230627","sourceCellId":"1R76K8RI","sourceChecksum":"848016a1e8039fffe59470db129a8085cf21b8af41901782129e82986809a3fd","rawObjectClass":"TOPMAR","sourceStableId":"1F2B0083A1FA0001"},"sourceKind":"official","official":true,"sourceCellId":"1R76K8RI","sourceStableId":"1F2B0083A1FA0001","pipelineFeatureId":"1R76K8RI/TOPMAR/8626682","provenance":{"cellId":"1R76K8RI","checksum":"848016a1e8039fffe59470db129a8085cf21b8af41901782129e82986809a3fd","readerVersion":"GDAL 3.2.2","processedAt":"2026-08-11T18:29:20.995Z"},"associationRefsVerifiedInGdalOutput":false}},{"type":"Feature","geometry":{"type":"Point","coordinates":[4.1095467,51.66153]},"properties":{"dolphinKind":"topmark","rawObjectClass":"TOPMAR","sourceProperties":{"RCID":8626683,"PRIM":1,"GRUP":2,"OBJL":144,"RVER":1,"AGEN":7979,"FIDN":8626683,"FIDS":1,"LNAM":"1F2B0083A1FB0001","COLOUR":["3"],"TOPSHP":5,"INFORM":"Cylinder over a sphere","NINFOM":"Cilinder boven een Bol","SCAMIN":200000,"SORDAT":"20230628","sourceCellId":"1R76K8RI","sourceChecksum":"848016a1e8039fffe59470db129a8085cf21b8af41901782129e82986809a3fd","rawObjectClass":"TOPMAR","sourceStableId":"1F2B0083A1FB0001"},"sourceKind":"official","official":true,"sourceCellId":"1R76K8RI","sourceStableId":"1F2B0083A1FB0001","pipelineFeatureId":"1R76K8RI/TOPMAR/8626683","provenance":{"cellId":"1R76K8RI","checksum":"848016a1e8039fffe59470db129a8085cf21b8af41901782129e82986809a3fd","readerVersion":"GDAL 3.2.2","processedAt":"2026-08-11T18:29:20.995Z"},"associationRefsVerifiedInGdalOutput":false}},{"type":"Feature","geometry":{"type":"Point","coordinates":[4.0892038,51.6711163]},"properties":{"dolphinKind":"topmark","rawObjectClass":"TOPMAR","sourceProperties":{"RCID":8626684,"PRIM":1,"GRUP":2,"OBJL":144,"RVER":1,"AGEN":7979,"FIDN":8626684,"FIDS":1,"LNAM":"1F2B0083A1FC0001","COLOUR":["3"],"TOPSHP":5,"SCAMIN":200000,"sourceCellId":"1R76K8RI","sourceChecksum":"848016a1e8039fffe59470db129a8085cf21b8af41901782129e82986809a3fd","rawObjectClass":"TOPMAR","sourceStableId":"1F2B0083A1FC0001"},"sourceKind":"official","official":true,"sourceCellId":"1R76K8RI","sourceStableId":"1F2B0083A1FC0001","pipelineFeatureId":"1R76K8RI/TOPMAR/8626684","provenance":{"cellId":"1R76K8RI","checksum":"848016a1e8039fffe59470db129a8085cf21b8af41901782129e82986809a3fd","readerVersion":"GDAL 3.2.2","processedAt":"2026-08-11T18:29:20.995Z"},"associationRefsVerifiedInGdalOutput":false}},{"type":"Feature","geometry":{"type":"Point","coordinates":[4.1069368,51.6611927]},"properties":{"dolphinKind":"topmark","rawObjectClass":"TOPMAR","sourceProperties":{"RCID":8626685,"PRIM":1,"GRUP":2,"OBJL":144,"RVER":1,"AGEN":7979,"FIDN":8626685,"FIDS":1,"LNAM":"1F2B0083A1FD0001","COLOUR":["3"],"TOPSHP":5,"SCAMIN":200000,"sourceCellId":"1R76K8RI","sourceChecksum":"848016a1e8039fffe59470db129a8085cf21b8af41901782129e82986809a3fd","rawObjectClass":"TOPMAR","sourceStableId":"1F2B0083A1FD0001"},"sourceKind":"official","official":true,"sourceCellId":"1R76K8RI","sourceStableId":"1F2B0083A1FD0001","pipelineFeatureId":"1R76K8RI/TOPMAR/8626685","provenance":{"cellId":"1R76K8RI","checksum":"848016a1e8039fffe59470db129a8085cf21b8af41901782129e82986809a3fd","readerVersion":"GDAL 3.2.2","processedAt":"2026-08-11T18:29:20.995Z"},"associationRefsVerifiedInGdalOutput":false}},{"type":"Feature","geometry":{"type":"Point","coordinates":[4.1295833,51.6570833]},"properties":{"dolphinKind":"topmark","rawObjectClass":"TOPMAR","sourceProperties":{"RCID":29630628,"PRIM":1,"GRUP":2,"OBJL":144,"RVER":1,"AGEN":7979,"FIDN":29630628,"FIDS":1,"LNAM":"1F2B01C420A40001","COLOUR":["3","1","3"],"COLPAT":["1"],"TOPSHP":5,"SCAMIN":200000,"SORIND":"NL,1R,reprt,DZD-BAS-2009/30","sourceCellId":"1R76K8RI","sourceChecksum":"848016a1e8039fffe59470db129a8085cf21b8af41901782129e82986809a3fd","rawObjectClass":"TOPMAR","sourceStableId":"1F2B01C420A40001"},"sourceKind":"official","official":true,"sourceCellId":"1R76K8RI","sourceStableId":"1F2B01C420A40001","pipelineFeatureId":"1R76K8RI/TOPMAR/29630628","provenance":{"cellId":"1R76K8RI","checksum":"848016a1e8039fffe59470db129a8085cf21b8af41901782129e82986809a3fd","readerVersion":"GDAL 3.2.2","processedAt":"2026-08-11T18:29:20.995Z"},"associationRefsVerifiedInGdalOutput":false}},{"type":"Feature","geometry":{"type":"Point","coordinates":[4.1305667,51.6580333]},"properties":{"dolphinKind":"topmark","rawObjectClass":"TOPMAR","sourceProperties":{"RCID":29630629,"PRIM":1,"GRUP":2,"OBJL":144,"RVER":1,"AGEN":7979,"FIDN":29630629,"FIDS":1,"LNAM":"1F2B01C420A50001","COLOUR":["3","1","3"],"COLPAT":["1"],"TOPSHP":5,"SCAMIN":200000,"SORIND":"NL,1R,reprt,DZD-BAS-2009/30","sourceCellId":"1R76K8RI","sourceChecksum":"848016a1e8039fffe59470db129a8085cf21b8af41901782129e82986809a3fd","rawObjectClass":"TOPMAR","sourceStableId":"1F2B01C420A50001"},"sourceKind":"official","official":true,"sourceCellId":"1R76K8RI","sourceStableId":"1F2B01C420A50001","pipelineFeatureId":"1R76K8RI/TOPMAR/29630629","provenance":{"cellId":"1R76K8RI","checksum":"848016a1e8039fffe59470db129a8085cf21b8af41901782129e82986809a3fd","readerVersion":"GDAL 3.2.2","processedAt":"2026-08-11T18:29:20.995Z"},"associationRefsVerifiedInGdalOutput":false}},{"type":"Feature","geometry":{"type":"Point","coordinates":[4.1240833,51.66775]},"properties":{"dolphinKind":"topmark","rawObjectClass":"TOPMAR","sourceProperties":{"RCID":86286962,"PRIM":1,"GRUP":2,"OBJL":144,"RVER":1,"AGEN":7979,"FIDN":86286962,"FIDS":1,"LNAM":"1F2B0524A2720001","COLOUR":["3","1","3"],"COLPAT":["1"],"TOPSHP":5,"SCAMIN":200000,"SORIND":"NL,1R,reprt,NavBer 2012/MZ36","sourceCellId":"1R76K8RI","sourceChecksum":"848016a1e8039fffe59470db129a8085cf21b8af41901782129e82986809a3fd","rawObjectClass":"TOPMAR","sourceStableId":"1F2B0524A2720001"},"sourceKind":"official","official":true,"sourceCellId":"1R76K8RI","sourceStableId":"1F2B0524A2720001","pipelineFeatureId":"1R76K8RI/TOPMAR/86286962","provenance":{"cellId":"1R76K8RI","checksum":"848016a1e8039fffe59470db129a8085cf21b8af41901782129e82986809a3fd","readerVersion":"GDAL 3.2.2","processedAt":"2026-08-11T18:29:20.995Z"},"associationRefsVerifiedInGdalOutput":false}},{"type":"Feature","geometry":{"type":"Point","coordinates":[4.1303333,51.66665]},"properties":{"dolphinKind":"topmark","rawObjectClass":"TOPMAR","sourceProperties":{"RCID":86286970,"PRIM":1,"GRUP":2,"OBJL":144,"RVER":1,"AGEN":7979,"FIDN":86286970,"FIDS":1,"LNAM":"1F2B0524A27A0001","COLOUR":["3","1","3"],"COLPAT":["1"],"TOPSHP":5,"SCAMIN":200000,"SORIND":"NL,1R,reprt,NavBer 2012/MZ36","sourceCellId":"1R76K8RI","sourceChecksum":"848016a1e8039fffe59470db129a8085cf21b8af41901782129e82986809a3fd","rawObjectClass":"TOPMAR","sourceStableId":"1F2B0524A27A0001"},"sourceKind":"official","official":true,"sourceCellId":"1R76K8RI","sourceStableId":"1F2B0524A27A0001","pipelineFeatureId":"1R76K8RI/TOPMAR/86286970","provenance":{"cellId":"1R76K8RI","checksum":"848016a1e8039fffe59470db129a8085cf21b8af41901782129e82986809a3fd","readerVersion":"GDAL 3.2.2","processedAt":"2026-08-11T18:29:20.995Z"},"associationRefsVerifiedInGdalOutput":false}},{"type":"Feature","geometry":{"type":"Point","coordinates":[4.1257333,51.66535]},"properties":{"dolphinKind":"topmark","rawObjectClass":"TOPMAR","sourceProperties":{"RCID":86286972,"PRIM":1,"GRUP":2,"OBJL":144,"RVER":1,"AGEN":7979,"FIDN":86286972,"FIDS":1,"LNAM":"1F2B0524A27C0001","COLOUR":["3","1","3"],"COLPAT":["1"],"TOPSHP":5,"SCAMIN":200000,"SORIND":"NL,1R,reprt,NavBer 2012/MZ36","sourceCellId":"1R76K8RI","sourceChecksum":"848016a1e8039fffe59470db129a8085cf21b8af41901782129e82986809a3fd","rawObjectClass":"TOPMAR","sourceStableId":"1F2B0524A27C0001"},"sourceKind":"official","official":true,"sourceCellId":"1R76K8RI","sourceStableId":"1F2B0524A27C0001","pipelineFeatureId":"1R76K8RI/TOPMAR/86286972","provenance":{"cellId":"1R76K8RI","checksum":"848016a1e8039fffe59470db129a8085cf21b8af41901782129e82986809a3fd","readerVersion":"GDAL 3.2.2","processedAt":"2026-08-11T18:29:20.995Z"},"associationRefsVerifiedInGdalOutput":false}},{"type":"Feature","geometry":{"type":"Point","coordinates":[4.133045,51.6625517]},"properties":{"dolphinKind":"topmark","rawObjectClass":"TOPMAR","sourceProperties":{"RCID":430773821,"PRIM":1,"GRUP":2,"OBJL":144,"RVER":1,"AGEN":7979,"FIDN":430773821,"FIDS":1,"LNAM":"1F2B19AD163D0001","COLOUR":["3"],"TOPSHP":5,"INFORM":"Cylinder over a sphere","NINFOM":"Cilinder boven een Bol","SCAMIN":200000,"SORDAT":"20210914","sourceCellId":"1R76K8RI","sourceChecksum":"848016a1e8039fffe59470db129a8085cf21b8af41901782129e82986809a3fd","rawObjectClass":"TOPMAR","sourceStableId":"1F2B19AD163D0001"},"sourceKind":"official","official":true,"sourceCellId":"1R76K8RI","sourceStableId":"1F2B19AD163D0001","pipelineFeatureId":"1R76K8RI/TOPMAR/430773821","provenance":{"cellId":"1R76K8RI","checksum":"848016a1e8039fffe59470db129a8085cf21b8af41901782129e82986809a3fd","readerVersion":"GDAL 3.2.2","processedAt":"2026-08-11T18:29:20.995Z"},"associationRefsVerifiedInGdalOutput":false}},{"type":"Feature","geometry":{"type":"Point","coordinates":[4.080605,51.636705]},"properties":{"dolphinKind":"topmark","rawObjectClass":"TOPMAR","sourceProperties":{"RCID":430958676,"PRIM":1,"GRUP":2,"OBJL":144,"RVER":1,"AGEN":7979,"FIDN":430958676,"FIDS":1,"LNAM":"1F2B19AFE8540001","COLOUR":["3"],"TOPSHP":5,"SCAMIN":200000,"SORDAT":"20210916","SORIND":"NL,1R,reprt,DZD-BAS-119","sourceCellId":"1R76K8RI","sourceChecksum":"848016a1e8039fffe59470db129a8085cf21b8af41901782129e82986809a3fd","rawObjectClass":"TOPMAR","sourceStableId":"1F2B19AFE8540001"},"sourceKind":"official","official":true,"sourceCellId":"1R76K8RI","sourceStableId":"1F2B19AFE8540001","pipelineFeatureId":"1R76K8RI/TOPMAR/430958676","provenance":{"cellId":"1R76K8RI","checksum":"848016a1e8039fffe59470db129a8085cf21b8af41901782129e82986809a3fd","readerVersion":"GDAL 3.2.2","processedAt":"2026-08-11T18:29:20.995Z"},"associationRefsVerifiedInGdalOutput":false}},{"type":"Feature","geometry":{"type":"Point","coordinates":[4.0846883,51.6314533]},"properties":{"dolphinKind":"topmark","rawObjectClass":"TOPMAR","sourceProperties":{"RCID":482432893,"PRIM":1,"GRUP":2,"OBJL":144,"RVER":1,"AGEN":7979,"FIDN":482432893,"FIDS":1,"LNAM":"1F2B1CC1577D0001","COLOUR":["4"],"TOPSHP":1,"SCAMIN":200000,"SORDAT":"20210916","SORIND":"NL,1R,reprt, MD 527-21","sourceCellId":"1R76K8RI","sourceChecksum":"848016a1e8039fffe59470db129a8085cf21b8af41901782129e82986809a3fd","rawObjectClass":"TOPMAR","sourceStableId":"1F2B1CC1577D0001"},"sourceKind":"official","official":true,"sourceCellId":"1R76K8RI","sourceStableId":"1F2B1CC1577D0001","pipelineFeatureId":"1R76K8RI/TOPMAR/482432893","provenance":{"cellId":"1R76K8RI","checksum":"848016a1e8039fffe59470db129a8085cf21b8af41901782129e82986809a3fd","readerVersion":"GDAL 3.2.2","processedAt":"2026-08-11T18:29:20.995Z"},"associationRefsVerifiedInGdalOutput":false}},{"type":"Feature","geometry":{"type":"Point","coordinates":[4.1003116,51.6645371]},"properties":{"dolphinKind":"topmark","rawObjectClass":"TOPMAR","sourceProperties":{"RCID":1142377474,"PRIM":1,"GRUP":2,"OBJL":144,"RVER":1,"AGEN":7979,"FIDN":1142377474,"FIDS":1,"LNAM":"1F2B44174C020001","COLOUR":["4"],"TOPSHP":1,"SCAMIN":200000,"SORDAT":"20231025","SORIND":"NL,1R,Reprt,ENCverbetering","sourceCellId":"1R76K8RI","sourceChecksum":"848016a1e8039fffe59470db129a8085cf21b8af41901782129e82986809a3fd","rawObjectClass":"TOPMAR","sourceStableId":"1F2B44174C020001"},"sourceKind":"official","official":true,"sourceCellId":"1R76K8RI","sourceStableId":"1F2B44174C020001","pipelineFeatureId":"1R76K8RI/TOPMAR/1142377474","provenance":{"cellId":"1R76K8RI","checksum":"848016a1e8039fffe59470db129a8085cf21b8af41901782129e82986809a3fd","readerVersion":"GDAL 3.2.2","processedAt":"2026-08-11T18:29:20.995Z"},"associationRefsVerifiedInGdalOutput":false}},{"type":"Feature","geometry":{"type":"Point","coordinates":[4.1010333,51.6629833]},"properties":{"dolphinKind":"topmark","rawObjectClass":"TOPMAR","sourceProperties":{"RCID":1142377475,"PRIM":1,"GRUP":2,"OBJL":144,"RVER":1,"AGEN":7979,"FIDN":1142377475,"FIDS":1,"LNAM":"1F2B44174C030001","COLOUR":["4"],"TOPSHP":1,"SCAMIN":200000,"SORDAT":"20230816","SORIND":"NL,1R,Reprt,NDB-verbetering","sourceCellId":"1R76K8RI","sourceChecksum":"848016a1e8039fffe59470db129a8085cf21b8af41901782129e82986809a3fd","rawObjectClass":"TOPMAR","sourceStableId":"1F2B44174C030001"},"sourceKind":"official","official":true,"sourceCellId":"1R76K8RI","sourceStableId":"1F2B44174C030001","pipelineFeatureId":"1R76K8RI/TOPMAR/1142377475","provenance":{"cellId":"1R76K8RI","checksum":"848016a1e8039fffe59470db129a8085cf21b8af41901782129e82986809a3fd","readerVersion":"GDAL 3.2.2","processedAt":"2026-08-11T18:29:20.995Z"},"associationRefsVerifiedInGdalOutput":false}},{"type":"Feature","geometry":{"type":"Point","coordinates":[4.1034171,51.6631615]},"properties":{"dolphinKind":"topmark","rawObjectClass":"TOPMAR","sourceProperties":{"RCID":1142380576,"PRIM":1,"GRUP":2,"OBJL":144,"RVER":1,"AGEN":7979,"FIDN":1142380576,"FIDS":1,"LNAM":"1F2B441758200001","COLOUR":["3"],"TOPSHP":5,"SCAMIN":200000,"SORDAT":"20230627","sourceCellId":"1R76K8RI","sourceChecksum":"848016a1e8039fffe59470db129a8085cf21b8af41901782129e82986809a3fd","rawObjectClass":"TOPMAR","sourceStableId":"1F2B441758200001"},"sourceKind":"official","official":true,"sourceCellId":"1R76K8RI","sourceStableId":"1F2B441758200001","pipelineFeatureId":"1R76K8RI/TOPMAR/1142380576","provenance":{"cellId":"1R76K8RI","checksum":"848016a1e8039fffe59470db129a8085cf21b8af41901782129e82986809a3fd","readerVersion":"GDAL 3.2.2","processedAt":"2026-08-11T18:29:20.995Z"},"associationRefsVerifiedInGdalOutput":false}},{"type":"Feature","geometry":{"type":"Point","coordinates":[4.1018033,51.6626833]},"properties":{"dolphinKind":"topmark","rawObjectClass":"TOPMAR","sourceProperties":{"RCID":1142380577,"PRIM":1,"GRUP":2,"OBJL":144,"RVER":1,"AGEN":7979,"FIDN":1142380577,"FIDS":1,"LNAM":"1F2B441758210001","COLOUR":["3"],"TOPSHP":5,"SCAMIN":200000,"SORDAT":"20230627","sourceCellId":"1R76K8RI","sourceChecksum":"848016a1e8039fffe59470db129a8085cf21b8af41901782129e82986809a3fd","rawObjectClass":"TOPMAR","sourceStableId":"1F2B441758210001"},"sourceKind":"official","official":true,"sourceCellId":"1R76K8RI","sourceStableId":"1F2B441758210001","pipelineFeatureId":"1R76K8RI/TOPMAR/1142380577","provenance":{"cellId":"1R76K8RI","checksum":"848016a1e8039fffe59470db129a8085cf21b8af41901782129e82986809a3fd","readerVersion":"GDAL 3.2.2","processedAt":"2026-08-11T18:29:20.995Z"},"associationRefsVerifiedInGdalOutput":false}},{"type":"Feature","geometry":{"type":"Point","coordinates":[4.1008783,51.6624717]},"properties":{"dolphinKind":"topmark","rawObjectClass":"TOPMAR","sourceProperties":{"RCID":1142380578,"PRIM":1,"GRUP":2,"OBJL":144,"RVER":1,"AGEN":7979,"FIDN":1142380578,"FIDS":1,"LNAM":"1F2B441758220001","COLOUR":["3"],"TOPSHP":5,"SCAMIN":200000,"SORDAT":"20230627","sourceCellId":"1R76K8RI","sourceChecksum":"848016a1e8039fffe59470db129a8085cf21b8af41901782129e82986809a3fd","rawObjectClass":"TOPMAR","sourceStableId":"1F2B441758220001"},"sourceKind":"official","official":true,"sourceCellId":"1R76K8RI","sourceStableId":"1F2B441758220001","pipelineFeatureId":"1R76K8RI/TOPMAR/1142380578","provenance":{"cellId":"1R76K8RI","checksum":"848016a1e8039fffe59470db129a8085cf21b8af41901782129e82986809a3fd","readerVersion":"GDAL 3.2.2","processedAt":"2026-08-11T18:29:20.995Z"},"associationRefsVerifiedInGdalOutput":false}}]}