{"type":"FeatureCollection","features":[{"type":"Feature","geometry":{"type":"Point","coordinates":[4.0533829,51.6086257]},"properties":{"dolphinKind":"beacon-special","rawObjectClass":"BCNSPP","sourceProperties":{"RCID":9277,"PRIM":1,"GRUP":2,"OBJL":9,"RVER":1,"AGEN":7979,"FIDN":1106210626,"FIDS":352,"LNAM":"1F2B41EF6F420160","LNAM_REFS":["1F2B41EF6F420161"],"FFPT_RIND":[2],"BCNSHP":1,"CATSPM":["6"],"COLOUR":["2"],"SCAMIN":200000,"sourceCellId":"1R76K8LI","sourceChecksum":"23b97551e692cd94a30d017dffe3b81a843d75569b5715c4a22cb2e560ffd93d","rawObjectClass":"BCNSPP","sourceStableId":"1F2B41EF6F420160"},"sourceKind":"official","official":true,"sourceCellId":"1R76K8LI","sourceStableId":"1F2B41EF6F420160","pipelineFeatureId":"1R76K8LI/BCNSPP/9277","provenance":{"cellId":"1R76K8LI","checksum":"23b97551e692cd94a30d017dffe3b81a843d75569b5715c4a22cb2e560ffd93d","readerVersion":"GDAL 3.2.2","processedAt":"2026-08-11T13:43:44.753Z"}}},{"type":"Feature","geometry":{"type":"Point","coordinates":[4.0522189,51.6099357]},"properties":{"dolphinKind":"beacon-special","rawObjectClass":"BCNSPP","sourceProperties":{"RCID":9279,"PRIM":1,"GRUP":2,"OBJL":9,"RVER":1,"AGEN":7979,"FIDN":1106210626,"FIDS":354,"LNAM":"1F2B41EF6F420162","LNAM_REFS":["1F2B41EF6F420163"],"FFPT_RIND":[2],"BCNSHP":1,"CATSPM":["6"],"COLOUR":["2"],"SCAMIN":200000,"sourceCellId":"1R76K8LI","sourceChecksum":"23b97551e692cd94a30d017dffe3b81a843d75569b5715c4a22cb2e560ffd93d","rawObjectClass":"BCNSPP","sourceStableId":"1F2B41EF6F420162"},"sourceKind":"official","official":true,"sourceCellId":"1R76K8LI","sourceStableId":"1F2B41EF6F420162","pipelineFeatureId":"1R76K8LI/BCNSPP/9279","provenance":{"cellId":"1R76K8LI","checksum":"23b97551e692cd94a30d017dffe3b81a843d75569b5715c4a22cb2e560ffd93d","readerVersion":"GDAL 3.2.2","processedAt":"2026-08-11T13:43:44.753Z"}}},{"type":"Feature","geometry":{"type":"Point","coordinates":[4.0465432,51.6220505]},"properties":{"dolphinKind":"beacon-special","rawObjectClass":"BCNSPP","sourceProperties":{"RCID":9283,"PRIM":1,"GRUP":2,"OBJL":9,"RVER":1,"AGEN":7979,"FIDN":1106210626,"FIDS":358,"LNAM":"1F2B41EF6F420166","LNAM_REFS":["1F2B41EF6F420167"],"FFPT_RIND":[2],"BCNSHP":1,"CATSPM":["6"],"COLOUR":["2"],"SCAMIN":200000,"sourceCellId":"1R76K8LI","sourceChecksum":"23b97551e692cd94a30d017dffe3b81a843d75569b5715c4a22cb2e560ffd93d","rawObjectClass":"BCNSPP","sourceStableId":"1F2B41EF6F420166"},"sourceKind":"official","official":true,"sourceCellId":"1R76K8LI","sourceStableId":"1F2B41EF6F420166","pipelineFeatureId":"1R76K8LI/BCNSPP/9283","provenance":{"cellId":"1R76K8LI","checksum":"23b97551e692cd94a30d017dffe3b81a843d75569b5715c4a22cb2e560ffd93d","readerVersion":"GDAL 3.2.2","processedAt":"2026-08-11T13:43:44.753Z"}}},{"type":"Feature","geometry":{"type":"Point","coordinates":[3.9570265,51.6202169]},"properties":{"dolphinKind":"beacon-special","rawObjectClass":"BCNSPP","sourceProperties":{"RCID":9289,"PRIM":1,"GRUP":2,"OBJL":9,"RVER":1,"AGEN":7979,"FIDN":1106210626,"FIDS":364,"LNAM":"1F2B41EF6F42016C","LNAM_REFS":["1F2B41EF6F42016D"],"FFPT_RIND":[2],"BCNSHP":1,"CATSPM":["6"],"COLOUR":["2"],"SCAMIN":200000,"sourceCellId":"1R76K8LI","sourceChecksum":"23b97551e692cd94a30d017dffe3b81a843d75569b5715c4a22cb2e560ffd93d","rawObjectClass":"BCNSPP","sourceStableId":"1F2B41EF6F42016C"},"sourceKind":"official","official":true,"sourceCellId":"1R76K8LI","sourceStableId":"1F2B41EF6F42016C","pipelineFeatureId":"1R76K8LI/BCNSPP/9289","provenance":{"cellId":"1R76K8LI","checksum":"23b97551e692cd94a30d017dffe3b81a843d75569b5715c4a22cb2e560ffd93d","readerVersion":"GDAL 3.2.2","processedAt":"2026-08-11T13:43:44.753Z"}}},{"type":"Feature","geometry":{"type":"Point","coordinates":[3.96528,51.60695]},"properties":{"dolphinKind":"buoy-special","rawObjectClass":"BOYSPP","sourceProperties":{"RCID":12849030,"PRIM":1,"GRUP":2,"OBJL":19,"RVER":1,"AGEN":7979,"FIDN":12849030,"FIDS":1,"LNAM":"1F2B00C40F860001","LNAM_REFS":["1F2B00C40F870001"],"FFPT_RIND":[2],"BOYSHP":3,"CATSPM":["10"],"COLOUR":["6"],"OBJNAM":"KEET","INFORM":"Wave measurement buoy","NINFOM":"Golfmeetboei","SCAMIN":200000,"SORDAT":"20220225","SORIND":"NL,1R,Reprt,DZDBAS2021/ 143","sourceCellId":"1R76K8LI","sourceChecksum":"23b97551e692cd94a30d017dffe3b81a843d75569b5715c4a22cb2e560ffd93d","rawObjectClass":"BOYSPP","sourceStableId":"1F2B00C40F860001"},"sourceKind":"official","official":true,"sourceCellId":"1R76K8LI","sourceStableId":"1F2B00C40F860001","pipelineFeatureId":"1R76K8LI/BOYSPP/12849030","provenance":{"cellId":"1R76K8LI","checksum":"23b97551e692cd94a30d017dffe3b81a843d75569b5715c4a22cb2e560ffd93d","readerVersion":"GDAL 3.2.2","processedAt":"2026-08-11T13:43:44.753Z"}}},{"type":"Feature","geometry":{"type":"Point","coordinates":[3.9342067,51.6064467]},"properties":{"dolphinKind":"buoy-special","rawObjectClass":"BOYSPP","sourceProperties":{"RCID":173183155,"PRIM":1,"GRUP":2,"OBJL":19,"RVER":1,"AGEN":7979,"FIDN":173183155,"FIDS":1,"LNAM":"1F2B0A5290B30001","LNAM_REFS":["1F2B0A5290B20001"],"FFPT_RIND":[2],"BOYSHP":5,"CATSPM":["50"],"COLOUR":["6"],"CONRAD":3,"OBJNAM":"VN-C","INFORM":"Mussel seed installation","NINFOM":"Mosselzaadinvanginstallatie","SCAMIN":200000,"SORDAT":"20240131","SORIND":"NL,1R,reprt,MD 046-24","sourceCellId":"1R76K8LI","sourceChecksum":"23b97551e692cd94a30d017dffe3b81a843d75569b5715c4a22cb2e560ffd93d","rawObjectClass":"BOYSPP","sourceStableId":"1F2B0A5290B30001"},"sourceKind":"official","official":true,"sourceCellId":"1R76K8LI","sourceStableId":"1F2B0A5290B30001","pipelineFeatureId":"1R76K8LI/BOYSPP/173183155","provenance":{"cellId":"1R76K8LI","checksum":"23b97551e692cd94a30d017dffe3b81a843d75569b5715c4a22cb2e560ffd93d","readerVersion":"GDAL 3.2.2","processedAt":"2026-08-11T13:43:44.753Z"}}},{"type":"Feature","geometry":{"type":"Point","coordinates":[4.1070333,51.60865]},"properties":{"dolphinKind":"buoy-special","rawObjectClass":"BOYSPP","sourceProperties":{"RCID":308745181,"PRIM":1,"GRUP":2,"OBJL":19,"RVER":1,"AGEN":7979,"FIDN":308745181,"FIDS":1,"LNAM":"1F2B126713DD0001","BOYSHP":3,"CATSPM":["40"],"COLOUR":["6"],"OBJNAM":"WSV-SA 1","SCAMIN":200000,"SORDAT":"20190515","SORIND":"NL,1R,reprt,BAS-46","sourceCellId":"1R76K8LI","sourceChecksum":"23b97551e692cd94a30d017dffe3b81a843d75569b5715c4a22cb2e560ffd93d","rawObjectClass":"BOYSPP","sourceStableId":"1F2B126713DD0001"},"sourceKind":"official","official":true,"sourceCellId":"1R76K8LI","sourceStableId":"1F2B126713DD0001","pipelineFeatureId":"1R76K8LI/BOYSPP/308745181","provenance":{"cellId":"1R76K8LI","checksum":"23b97551e692cd94a30d017dffe3b81a843d75569b5715c4a22cb2e560ffd93d","readerVersion":"GDAL 3.2.2","processedAt":"2026-08-11T13:43:44.753Z"}}},{"type":"Feature","geometry":{"type":"Point","coordinates":[4.1079833,51.6081667]},"properties":{"dolphinKind":"buoy-special","rawObjectClass":"BOYSPP","sourceProperties":{"RCID":308756232,"PRIM":1,"GRUP":2,"OBJL":19,"RVER":1,"AGEN":7979,"FIDN":308756232,"FIDS":1,"LNAM":"1F2B12673F080001","BOYSHP":3,"CATSPM":["40"],"COLOUR":["6"],"OBJNAM":"WSV-SA 2","SCAMIN":200000,"SORDAT":"20190515","SORIND":"NL,1R,reprt,BAS-46","sourceCellId":"1R76K8LI","sourceChecksum":"23b97551e692cd94a30d017dffe3b81a843d75569b5715c4a22cb2e560ffd93d","rawObjectClass":"BOYSPP","sourceStableId":"1F2B12673F080001"},"sourceKind":"official","official":true,"sourceCellId":"1R76K8LI","sourceStableId":"1F2B12673F080001","pipelineFeatureId":"1R76K8LI/BOYSPP/308756232","provenance":{"cellId":"1R76K8LI","checksum":"23b97551e692cd94a30d017dffe3b81a843d75569b5715c4a22cb2e560ffd93d","readerVersion":"GDAL 3.2.2","processedAt":"2026-08-11T13:43:44.753Z"}}},{"type":"Feature","geometry":{"type":"Point","coordinates":[4.1088667,51.6076937]},"properties":{"dolphinKind":"buoy-special","rawObjectClass":"BOYSPP","sourceProperties":{"RCID":308757433,"PRIM":1,"GRUP":2,"OBJL":19,"RVER":1,"AGEN":7979,"FIDN":308757433,"FIDS":1,"LNAM":"1F2B126743B90001","BOYSHP":3,"CATSPM":["40"],"COLOUR":["6"],"OBJNAM":"WSV-SA 3","SCAMIN":200000,"SORDAT":"20190515","SORIND":"NL,1R,reprt,BAS-46","sourceCellId":"1R76K8LI","sourceChecksum":"23b97551e692cd94a30d017dffe3b81a843d75569b5715c4a22cb2e560ffd93d","rawObjectClass":"BOYSPP","sourceStableId":"1F2B126743B90001"},"sourceKind":"official","official":true,"sourceCellId":"1R76K8LI","sourceStableId":"1F2B126743B90001","pipelineFeatureId":"1R76K8LI/BOYSPP/308757433","provenance":{"cellId":"1R76K8LI","checksum":"23b97551e692cd94a30d017dffe3b81a843d75569b5715c4a22cb2e560ffd93d","readerVersion":"GDAL 3.2.2","processedAt":"2026-08-11T13:43:44.753Z"}}},{"type":"Feature","geometry":{"type":"Point","coordinates":[4.10975,51.6072]},"properties":{"dolphinKind":"buoy-special","rawObjectClass":"BOYSPP","sourceProperties":{"RCID":308759984,"PRIM":1,"GRUP":2,"OBJL":19,"RVER":1,"AGEN":7979,"FIDN":308759984,"FIDS":1,"LNAM":"1F2B12674DB00001","BOYSHP":3,"CATSPM":["40"],"COLOUR":["6"],"OBJNAM":"WSV-SA 4","SCAMIN":200000,"SORDAT":"20190515","SORIND":"NL,1R,reprt,BAS-46","sourceCellId":"1R76K8LI","sourceChecksum":"23b97551e692cd94a30d017dffe3b81a843d75569b5715c4a22cb2e560ffd93d","rawObjectClass":"BOYSPP","sourceStableId":"1F2B12674DB00001"},"sourceKind":"official","official":true,"sourceCellId":"1R76K8LI","sourceStableId":"1F2B12674DB00001","pipelineFeatureId":"1R76K8LI/BOYSPP/308759984","provenance":{"cellId":"1R76K8LI","checksum":"23b97551e692cd94a30d017dffe3b81a843d75569b5715c4a22cb2e560ffd93d","readerVersion":"GDAL 3.2.2","processedAt":"2026-08-11T13:43:44.753Z"}}},{"type":"Feature","geometry":{"type":"Point","coordinates":[4.1106,51.60675]},"properties":{"dolphinKind":"buoy-special","rawObjectClass":"BOYSPP","sourceProperties":{"RCID":308763335,"PRIM":1,"GRUP":2,"OBJL":19,"RVER":1,"AGEN":7979,"FIDN":308763335,"FIDS":1,"LNAM":"1F2B12675AC70001","BOYSHP":3,"CATSPM":["40"],"COLOUR":["6"],"OBJNAM":"WSV-SA 5","SCAMIN":200000,"SORDAT":"20190515","SORIND":"NL,1R,reprt,BAS-46","sourceCellId":"1R76K8LI","sourceChecksum":"23b97551e692cd94a30d017dffe3b81a843d75569b5715c4a22cb2e560ffd93d","rawObjectClass":"BOYSPP","sourceStableId":"1F2B12675AC70001"},"sourceKind":"official","official":true,"sourceCellId":"1R76K8LI","sourceStableId":"1F2B12675AC70001","pipelineFeatureId":"1R76K8LI/BOYSPP/308763335","provenance":{"cellId":"1R76K8LI","checksum":"23b97551e692cd94a30d017dffe3b81a843d75569b5715c4a22cb2e560ffd93d","readerVersion":"GDAL 3.2.2","processedAt":"2026-08-11T13:43:44.753Z"}}},{"type":"Feature","geometry":{"type":"Point","coordinates":[4.1115333,51.6063333]},"properties":{"dolphinKind":"buoy-special","rawObjectClass":"BOYSPP","sourceProperties":{"RCID":308765986,"PRIM":1,"GRUP":2,"OBJL":19,"RVER":1,"AGEN":7979,"FIDN":308765986,"FIDS":1,"LNAM":"1F2B126765220001","BOYSHP":3,"CATSPM":["40"],"COLOUR":["6"],"OBJNAM":"WSV-SA 6","SCAMIN":200000,"SORDAT":"20190515","SORIND":"NL,1R,reprt,BAS-46","sourceCellId":"1R76K8LI","sourceChecksum":"23b97551e692cd94a30d017dffe3b81a843d75569b5715c4a22cb2e560ffd93d","rawObjectClass":"BOYSPP","sourceStableId":"1F2B126765220001"},"sourceKind":"official","official":true,"sourceCellId":"1R76K8LI","sourceStableId":"1F2B126765220001","pipelineFeatureId":"1R76K8LI/BOYSPP/308765986","provenance":{"cellId":"1R76K8LI","checksum":"23b97551e692cd94a30d017dffe3b81a843d75569b5715c4a22cb2e560ffd93d","readerVersion":"GDAL 3.2.2","processedAt":"2026-08-11T13:43:44.753Z"}}},{"type":"Feature","geometry":{"type":"Point","coordinates":[3.9572983,51.6136534]},"properties":{"dolphinKind":"light","rawObjectClass":"LIGHTS","sourceProperties":{"RCID":17974,"PRIM":1,"GRUP":2,"OBJL":75,"RVER":1,"AGEN":7979,"FIDN":1106834726,"FIDS":477,"LNAM":"1F2B41F8F52601DD","COLOUR":["3"],"LITCHR":3,"SIGGRP":"(1)","SIGPER":5,"SCAMIN":200000,"SORDAT":"20031115","sourceCellId":"1R76K8LI","sourceChecksum":"23b97551e692cd94a30d017dffe3b81a843d75569b5715c4a22cb2e560ffd93d","rawObjectClass":"LIGHTS","sourceStableId":"1F2B41F8F52601DD"},"sourceKind":"official","official":true,"sourceCellId":"1R76K8LI","sourceStableId":"1F2B41F8F52601DD","pipelineFeatureId":"1R76K8LI/LIGHTS/17974","provenance":{"cellId":"1R76K8LI","checksum":"23b97551e692cd94a30d017dffe3b81a843d75569b5715c4a22cb2e560ffd93d","readerVersion":"GDAL 3.2.2","processedAt":"2026-08-11T13:43:44.753Z"}}},{"type":"Feature","geometry":{"type":"Point","coordinates":[3.9551683,51.6049617]},"properties":{"dolphinKind":"light","rawObjectClass":"LIGHTS","sourceProperties":{"RCID":17978,"PRIM":1,"GRUP":2,"OBJL":75,"RVER":1,"AGEN":7979,"FIDN":1106834726,"FIDS":481,"LNAM":"1F2B41F8F52601E1","COLOUR":["4"],"LITCHR":3,"SIGGRP":"(1)","SIGPER":5,"SCAMIN":200000,"SORDAT":"20210912","sourceCellId":"1R76K8LI","sourceChecksum":"23b97551e692cd94a30d017dffe3b81a843d75569b5715c4a22cb2e560ffd93d","rawObjectClass":"LIGHTS","sourceStableId":"1F2B41F8F52601E1"},"sourceKind":"official","official":true,"sourceCellId":"1R76K8LI","sourceStableId":"1F2B41F8F52601E1","pipelineFeatureId":"1R76K8LI/LIGHTS/17978","provenance":{"cellId":"1R76K8LI","checksum":"23b97551e692cd94a30d017dffe3b81a843d75569b5715c4a22cb2e560ffd93d","readerVersion":"GDAL 3.2.2","processedAt":"2026-08-11T13:43:44.753Z"}}},{"type":"Feature","geometry":{"type":"Point","coordinates":[3.97087,51.6054233]},"properties":{"dolphinKind":"light","rawObjectClass":"LIGHTS","sourceProperties":{"RCID":17982,"PRIM":1,"GRUP":2,"OBJL":75,"RVER":1,"AGEN":7979,"FIDN":1106834726,"FIDS":485,"LNAM":"1F2B41F8F52601E5","COLOUR":["1"],"LITCHR":12,"SIGGRP":"(A)","SIGPER":8,"SCAMIN":200000,"SORDAT":"20210912","sourceCellId":"1R76K8LI","sourceChecksum":"23b97551e692cd94a30d017dffe3b81a843d75569b5715c4a22cb2e560ffd93d","rawObjectClass":"LIGHTS","sourceStableId":"1F2B41F8F52601E5"},"sourceKind":"official","official":true,"sourceCellId":"1R76K8LI","sourceStableId":"1F2B41F8F52601E5","pipelineFeatureId":"1R76K8LI/LIGHTS/17982","provenance":{"cellId":"1R76K8LI","checksum":"23b97551e692cd94a30d017dffe3b81a843d75569b5715c4a22cb2e560ffd93d","readerVersion":"GDAL 3.2.2","processedAt":"2026-08-11T13:43:44.753Z"}}},{"type":"Feature","geometry":{"type":"Point","coordinates":[3.966395,51.6012067]},"properties":{"dolphinKind":"light","rawObjectClass":"LIGHTS","sourceProperties":{"RCID":17986,"PRIM":1,"GRUP":2,"OBJL":75,"RVER":1,"AGEN":7979,"FIDN":1106834726,"FIDS":489,"LNAM":"1F2B41F8F52601E9","COLOUR":["4"],"LITCHR":7,"SIGGRP":"(1)","SIGPER":2,"SCAMIN":200000,"SORDAT":"20031115","sourceCellId":"1R76K8LI","sourceChecksum":"23b97551e692cd94a30d017dffe3b81a843d75569b5715c4a22cb2e560ffd93d","rawObjectClass":"LIGHTS","sourceStableId":"1F2B41F8F52601E9"},"sourceKind":"official","official":true,"sourceCellId":"1R76K8LI","sourceStableId":"1F2B41F8F52601E9","pipelineFeatureId":"1R76K8LI/LIGHTS/17986","provenance":{"cellId":"1R76K8LI","checksum":"23b97551e692cd94a30d017dffe3b81a843d75569b5715c4a22cb2e560ffd93d","readerVersion":"GDAL 3.2.2","processedAt":"2026-08-11T13:43:44.753Z"}}},{"type":"Feature","geometry":{"type":"Point","coordinates":[3.9643367,51.5944033]},"properties":{"dolphinKind":"light","rawObjectClass":"LIGHTS","sourceProperties":{"RCID":17989,"PRIM":1,"GRUP":2,"OBJL":75,"RVER":1,"AGEN":7979,"FIDN":1106834726,"FIDS":492,"LNAM":"1F2B41F8F52601EC","COLOUR":["4"],"LITCHR":3,"SIGGRP":"(1)","SIGPER":5,"SCAMIN":200000,"SORDAT":"20200430","sourceCellId":"1R76K8LI","sourceChecksum":"23b97551e692cd94a30d017dffe3b81a843d75569b5715c4a22cb2e560ffd93d","rawObjectClass":"LIGHTS","sourceStableId":"1F2B41F8F52601EC"},"sourceKind":"official","official":true,"sourceCellId":"1R76K8LI","sourceStableId":"1F2B41F8F52601EC","pipelineFeatureId":"1R76K8LI/LIGHTS/17989","provenance":{"cellId":"1R76K8LI","checksum":"23b97551e692cd94a30d017dffe3b81a843d75569b5715c4a22cb2e560ffd93d","readerVersion":"GDAL 3.2.2","processedAt":"2026-08-11T13:43:44.753Z"}}},{"type":"Feature","geometry":{"type":"Point","coordinates":[3.972195,51.608305]},"properties":{"dolphinKind":"light","rawObjectClass":"LIGHTS","sourceProperties":{"RCID":17995,"PRIM":1,"GRUP":2,"OBJL":75,"RVER":1,"AGEN":7979,"FIDN":1106834726,"FIDS":498,"LNAM":"1F2B41F8F52601F2","COLOUR":["3"],"LITCHR":7,"SIGGRP":"(1)","SIGPER":2,"SCAMIN":200000,"SORDAT":"20210915","SORIND":"NL,1R,reprt,DZD-BAS-118","sourceCellId":"1R76K8LI","sourceChecksum":"23b97551e692cd94a30d017dffe3b81a843d75569b5715c4a22cb2e560ffd93d","rawObjectClass":"LIGHTS","sourceStableId":"1F2B41F8F52601F2"},"sourceKind":"official","official":true,"sourceCellId":"1R76K8LI","sourceStableId":"1F2B41F8F52601F2","pipelineFeatureId":"1R76K8LI/LIGHTS/17995","provenance":{"cellId":"1R76K8LI","checksum":"23b97551e692cd94a30d017dffe3b81a843d75569b5715c4a22cb2e560ffd93d","readerVersion":"GDAL 3.2.2","processedAt":"2026-08-11T13:43:44.753Z"}}},{"type":"Feature","geometry":{"type":"Point","coordinates":[3.966935,51.5939017]},"properties":{"dolphinKind":"light","rawObjectClass":"LIGHTS","sourceProperties":{"RCID":18001,"PRIM":1,"GRUP":2,"OBJL":75,"RVER":1,"AGEN":7979,"FIDN":1106834726,"FIDS":504,"LNAM":"1F2B41F8F52601F8","COLOUR":["3"],"LITCHR":3,"SIGGRP":"(1)","SIGPER":5,"SCAMIN":200000,"SORDAT":"20031115","sourceCellId":"1R76K8LI","sourceChecksum":"23b97551e692cd94a30d017dffe3b81a843d75569b5715c4a22cb2e560ffd93d","rawObjectClass":"LIGHTS","sourceStableId":"1F2B41F8F52601F8"},"sourceKind":"official","official":true,"sourceCellId":"1R76K8LI","sourceStableId":"1F2B41F8F52601F8","pipelineFeatureId":"1R76K8LI/LIGHTS/18001","provenance":{"cellId":"1R76K8LI","checksum":"23b97551e692cd94a30d017dffe3b81a843d75569b5715c4a22cb2e560ffd93d","readerVersion":"GDAL 3.2.2","processedAt":"2026-08-11T13:43:44.753Z"}}},{"type":"Feature","geometry":{"type":"Point","coordinates":[3.9607,51.5881333]},"properties":{"dolphinKind":"light","rawObjectClass":"LIGHTS","sourceProperties":{"RCID":18004,"PRIM":1,"GRUP":2,"OBJL":75,"RVER":1,"AGEN":7979,"FIDN":1106834726,"FIDS":507,"LNAM":"1F2B41F8F52601FB","COLOUR":["1"],"LITCHR":7,"SIGGRP":"(1)","SIGPER":2,"SCAMIN":200000,"SORDAT":"20031115","sourceCellId":"1R76K8LI","sourceChecksum":"23b97551e692cd94a30d017dffe3b81a843d75569b5715c4a22cb2e560ffd93d","rawObjectClass":"LIGHTS","sourceStableId":"1F2B41F8F52601FB"},"sourceKind":"official","official":true,"sourceCellId":"1R76K8LI","sourceStableId":"1F2B41F8F52601FB","pipelineFeatureId":"1R76K8LI/LIGHTS/18004","provenance":{"cellId":"1R76K8LI","checksum":"23b97551e692cd94a30d017dffe3b81a843d75569b5715c4a22cb2e560ffd93d","readerVersion":"GDAL 3.2.2","processedAt":"2026-08-11T13:43:44.753Z"}}},{"type":"Feature","geometry":{"type":"Point","coordinates":[3.9641,51.5876167]},"properties":{"dolphinKind":"light","rawObjectClass":"LIGHTS","sourceProperties":{"RCID":18006,"PRIM":1,"GRUP":2,"OBJL":75,"RVER":1,"AGEN":7979,"FIDN":1106834726,"FIDS":509,"LNAM":"1F2B41F8F52601FD","COLOUR":["3"],"LITCHR":3,"SIGGRP":"(1)","SIGPER":8,"SCAMIN":200000,"SORDAT":"20031115","sourceCellId":"1R76K8LI","sourceChecksum":"23b97551e692cd94a30d017dffe3b81a843d75569b5715c4a22cb2e560ffd93d","rawObjectClass":"LIGHTS","sourceStableId":"1F2B41F8F52601FD"},"sourceKind":"official","official":true,"sourceCellId":"1R76K8LI","sourceStableId":"1F2B41F8F52601FD","pipelineFeatureId":"1R76K8LI/LIGHTS/18006","provenance":{"cellId":"1R76K8LI","checksum":"23b97551e692cd94a30d017dffe3b81a843d75569b5715c4a22cb2e560ffd93d","readerVersion":"GDAL 3.2.2","processedAt":"2026-08-11T13:43:44.753Z"}}},{"type":"Feature","geometry":{"type":"Point","coordinates":[3.963955,51.5752517]},"properties":{"dolphinKind":"light","rawObjectClass":"LIGHTS","sourceProperties":{"RCID":18009,"PRIM":1,"GRUP":2,"OBJL":75,"RVER":1,"AGEN":7979,"FIDN":1106834727,"FIDS":257,"LNAM":"1F2B41F8F5270101","COLOUR":["3"],"LITCHR":3,"SIGGRP":"(1)","SIGPER":5,"SCAMIN":200000,"SORDAT":"20031115","sourceCellId":"1R76K8LI","sourceChecksum":"23b97551e692cd94a30d017dffe3b81a843d75569b5715c4a22cb2e560ffd93d","rawObjectClass":"LIGHTS","sourceStableId":"1F2B41F8F5270101"},"sourceKind":"official","official":true,"sourceCellId":"1R76K8LI","sourceStableId":"1F2B41F8F5270101","pipelineFeatureId":"1R76K8LI/LIGHTS/18009","provenance":{"cellId":"1R76K8LI","checksum":"23b97551e692cd94a30d017dffe3b81a843d75569b5715c4a22cb2e560ffd93d","readerVersion":"GDAL 3.2.2","processedAt":"2026-08-11T13:43:44.753Z"}}},{"type":"Feature","geometry":{"type":"Point","coordinates":[3.9810067,51.6053983]},"properties":{"dolphinKind":"light","rawObjectClass":"LIGHTS","sourceProperties":{"RCID":18041,"PRIM":1,"GRUP":2,"OBJL":75,"RVER":1,"AGEN":7979,"FIDN":1106834727,"FIDS":289,"LNAM":"1F2B41F8F5270121","COLOUR":["3"],"LITCHR":3,"SIGGRP":"(1)","SIGPER":8,"SCAMIN":200000,"SORDAT":"20210915","SORIND":"NL,1R,reprt,DZD-BAS-118","sourceCellId":"1R76K8LI","sourceChecksum":"23b97551e692cd94a30d017dffe3b81a843d75569b5715c4a22cb2e560ffd93d","rawObjectClass":"LIGHTS","sourceStableId":"1F2B41F8F5270121"},"sourceKind":"official","official":true,"sourceCellId":"1R76K8LI","sourceStableId":"1F2B41F8F5270121","pipelineFeatureId":"1R76K8LI/LIGHTS/18041","provenance":{"cellId":"1R76K8LI","checksum":"23b97551e692cd94a30d017dffe3b81a843d75569b5715c4a22cb2e560ffd93d","readerVersion":"GDAL 3.2.2","processedAt":"2026-08-11T13:43:44.753Z"}}},{"type":"Feature","geometry":{"type":"Point","coordinates":[4.0518133,51.6126733]},"properties":{"dolphinKind":"light","rawObjectClass":"LIGHTS","sourceProperties":{"RCID":18143,"PRIM":1,"GRUP":2,"OBJL":75,"RVER":1,"AGEN":7979,"FIDN":1106834727,"FIDS":391,"LNAM":"1F2B41F8F5270187","COLOUR":["4"],"LITCHR":3,"SIGGRP":"(1)","SIGPER":8,"SCAMIN":200000,"SORDAT":"20031115","sourceCellId":"1R76K8LI","sourceChecksum":"23b97551e692cd94a30d017dffe3b81a843d75569b5715c4a22cb2e560ffd93d","rawObjectClass":"LIGHTS","sourceStableId":"1F2B41F8F5270187"},"sourceKind":"official","official":true,"sourceCellId":"1R76K8LI","sourceStableId":"1F2B41F8F5270187","pipelineFeatureId":"1R76K8LI/LIGHTS/18143","provenance":{"cellId":"1R76K8LI","checksum":"23b97551e692cd94a30d017dffe3b81a843d75569b5715c4a22cb2e560ffd93d","readerVersion":"GDAL 3.2.2","processedAt":"2026-08-11T13:43:44.753Z"}}},{"type":"Feature","geometry":{"type":"Point","coordinates":[4.061735,51.6173433]},"properties":{"dolphinKind":"light","rawObjectClass":"LIGHTS","sourceProperties":{"RCID":18145,"PRIM":1,"GRUP":2,"OBJL":75,"RVER":1,"AGEN":7979,"FIDN":1106834727,"FIDS":393,"LNAM":"1F2B41F8F5270189","COLOUR":["4"],"LITCHR":3,"SIGGRP":"(1)","SIGPER":5,"SCAMIN":200000,"SORDAT":"20031115","sourceCellId":"1R76K8LI","sourceChecksum":"23b97551e692cd94a30d017dffe3b81a843d75569b5715c4a22cb2e560ffd93d","rawObjectClass":"LIGHTS","sourceStableId":"1F2B41F8F5270189"},"sourceKind":"official","official":true,"sourceCellId":"1R76K8LI","sourceStableId":"1F2B41F8F5270189","pipelineFeatureId":"1R76K8LI/LIGHTS/18145","provenance":{"cellId":"1R76K8LI","checksum":"23b97551e692cd94a30d017dffe3b81a843d75569b5715c4a22cb2e560ffd93d","readerVersion":"GDAL 3.2.2","processedAt":"2026-08-11T13:43:44.753Z"}}},{"type":"Feature","geometry":{"type":"Point","coordinates":[4.1095902,51.6041306]},"properties":{"dolphinKind":"light","rawObjectClass":"LIGHTS","sourceProperties":{"RCID":19819,"PRIM":1,"GRUP":2,"OBJL":75,"RVER":1,"AGEN":7979,"FIDN":1106834754,"FIDS":265,"LNAM":"1F2B41F8F5420109","COLOUR":["3"],"LITCHR":1,"SCAMIN":200000,"sourceCellId":"1R76K8LI","sourceChecksum":"23b97551e692cd94a30d017dffe3b81a843d75569b5715c4a22cb2e560ffd93d","rawObjectClass":"LIGHTS","sourceStableId":"1F2B41F8F5420109"},"sourceKind":"official","official":true,"sourceCellId":"1R76K8LI","sourceStableId":"1F2B41F8F5420109","pipelineFeatureId":"1R76K8LI/LIGHTS/19819","provenance":{"cellId":"1R76K8LI","checksum":"23b97551e692cd94a30d017dffe3b81a843d75569b5715c4a22cb2e560ffd93d","readerVersion":"GDAL 3.2.2","processedAt":"2026-08-11T13:43:44.753Z"}}},{"type":"Feature","geometry":{"type":"Point","coordinates":[4.1093471,51.6042689]},"properties":{"dolphinKind":"light","rawObjectClass":"LIGHTS","sourceProperties":{"RCID":19820,"PRIM":1,"GRUP":2,"OBJL":75,"RVER":1,"AGEN":7979,"FIDN":1106834754,"FIDS":266,"LNAM":"1F2B41F8F542010A","COLOUR":["4"],"LITCHR":1,"SCAMIN":200000,"sourceCellId":"1R76K8LI","sourceChecksum":"23b97551e692cd94a30d017dffe3b81a843d75569b5715c4a22cb2e560ffd93d","rawObjectClass":"LIGHTS","sourceStableId":"1F2B41F8F542010A"},"sourceKind":"official","official":true,"sourceCellId":"1R76K8LI","sourceStableId":"1F2B41F8F542010A","pipelineFeatureId":"1R76K8LI/LIGHTS/19820","provenance":{"cellId":"1R76K8LI","checksum":"23b97551e692cd94a30d017dffe3b81a843d75569b5715c4a22cb2e560ffd93d","readerVersion":"GDAL 3.2.2","processedAt":"2026-08-11T13:43:44.753Z"}}},{"type":"Feature","geometry":{"type":"Point","coordinates":[3.9661183,51.59746]},"properties":{"dolphinKind":"light","rawObjectClass":"LIGHTS","sourceProperties":{"RCID":25710,"PRIM":1,"GRUP":2,"OBJL":75,"RVER":1,"AGEN":7979,"FIDN":1114686590,"FIDS":257,"LNAM":"1F2B4270C47E0101","COLOUR":["4"],"LITCHR":3,"SIGGRP":"(1)","SIGPER":8,"SCAMIN":200000,"SORDAT":"20200430","sourceCellId":"1R76K8LI","sourceChecksum":"23b97551e692cd94a30d017dffe3b81a843d75569b5715c4a22cb2e560ffd93d","rawObjectClass":"LIGHTS","sourceStableId":"1F2B4270C47E0101"},"sourceKind":"official","official":true,"sourceCellId":"1R76K8LI","sourceStableId":"1F2B4270C47E0101","pipelineFeatureId":"1R76K8LI/LIGHTS/25710","provenance":{"cellId":"1R76K8LI","checksum":"23b97551e692cd94a30d017dffe3b81a843d75569b5715c4a22cb2e560ffd93d","readerVersion":"GDAL 3.2.2","processedAt":"2026-08-11T13:43:44.753Z"}}},{"type":"Feature","geometry":{"type":"Point","coordinates":[3.970165,51.6000917]},"properties":{"dolphinKind":"light","rawObjectClass":"LIGHTS","sourceProperties":{"RCID":12327282,"PRIM":1,"GRUP":2,"OBJL":75,"RVER":1,"AGEN":7979,"FIDN":12327282,"FIDS":1,"LNAM":"1F2B00BC19720001","COLOUR":["1"],"LITCHR":7,"SIGGRP":"(1)","SIGPER":2,"SCAMIN":200000,"SORDAT":"20071115","SORIND":"NL,1R,Reprt,DZD-BAS-2007/80","sourceCellId":"1R76K8LI","sourceChecksum":"23b97551e692cd94a30d017dffe3b81a843d75569b5715c4a22cb2e560ffd93d","rawObjectClass":"LIGHTS","sourceStableId":"1F2B00BC19720001"},"sourceKind":"official","official":true,"sourceCellId":"1R76K8LI","sourceStableId":"1F2B00BC19720001","pipelineFeatureId":"1R76K8LI/LIGHTS/12327282","provenance":{"cellId":"1R76K8LI","checksum":"23b97551e692cd94a30d017dffe3b81a843d75569b5715c4a22cb2e560ffd93d","readerVersion":"GDAL 3.2.2","processedAt":"2026-08-11T13:43:44.753Z"}}},{"type":"Feature","geometry":{"type":"Point","coordinates":[3.96528,51.60695]},"properties":{"dolphinKind":"light","rawObjectClass":"LIGHTS","sourceProperties":{"RCID":12849031,"PRIM":1,"GRUP":2,"OBJL":75,"RVER":1,"AGEN":7979,"FIDN":12849031,"FIDS":1,"LNAM":"1F2B00C40F870001","COLOUR":["6"],"LITCHR":2,"SIGGRP":"(5)","SIGPER":20,"SCAMIN":200000,"sourceCellId":"1R76K8LI","sourceChecksum":"23b97551e692cd94a30d017dffe3b81a843d75569b5715c4a22cb2e560ffd93d","rawObjectClass":"LIGHTS","sourceStableId":"1F2B00C40F870001"},"sourceKind":"official","official":true,"sourceCellId":"1R76K8LI","sourceStableId":"1F2B00C40F870001","pipelineFeatureId":"1R76K8LI/LIGHTS/12849031","provenance":{"cellId":"1R76K8LI","checksum":"23b97551e692cd94a30d017dffe3b81a843d75569b5715c4a22cb2e560ffd93d","readerVersion":"GDAL 3.2.2","processedAt":"2026-08-11T13:43:44.753Z"}}},{"type":"Feature","geometry":{"type":"Point","coordinates":[3.9751833,51.6146333]},"properties":{"dolphinKind":"light","rawObjectClass":"LIGHTS","sourceProperties":{"RCID":41497287,"PRIM":1,"GRUP":2,"OBJL":75,"RVER":1,"AGEN":7979,"FIDN":41497287,"FIDS":1,"LNAM":"1F2B027932C70001","CATLIT":["4","14"],"COLOUR":["3"],"HEIGHT":10.6,"LITCHR":7,"SECTR1":267,"SECTR2":309,"SIGGRP":"(1)","SIGPER":6,"SCAMIN":200000,"SORDAT":"20100112","SORIND":"NL,1R,Reprt,DZD-BAS 2010/4","sourceCellId":"1R76K8LI","sourceChecksum":"23b97551e692cd94a30d017dffe3b81a843d75569b5715c4a22cb2e560ffd93d","rawObjectClass":"LIGHTS","sourceStableId":"1F2B027932C70001"},"sourceKind":"official","official":true,"sourceCellId":"1R76K8LI","sourceStableId":"1F2B027932C70001","pipelineFeatureId":"1R76K8LI/LIGHTS/41497287","provenance":{"cellId":"1R76K8LI","checksum":"23b97551e692cd94a30d017dffe3b81a843d75569b5715c4a22cb2e560ffd93d","readerVersion":"GDAL 3.2.2","processedAt":"2026-08-11T13:43:44.753Z"}}},{"type":"Feature","geometry":{"type":"Point","coordinates":[3.9751833,51.6146333]},"properties":{"dolphinKind":"light","rawObjectClass":"LIGHTS","sourceProperties":{"RCID":41497288,"PRIM":1,"GRUP":2,"OBJL":75,"RVER":1,"AGEN":7979,"FIDN":41497288,"FIDS":1,"LNAM":"1F2B027932C80001","CATLIT":["4","14"],"COLOUR":["1"],"HEIGHT":10.6,"LITCHR":7,"SECTR1":309,"SECTR2":319,"SIGGRP":"(1)","SIGPER":6,"SCAMIN":200000,"SORDAT":"20100112","SORIND":"NL,1R,Reprt,DZD-BAS 2010/4","sourceCellId":"1R76K8LI","sourceChecksum":"23b97551e692cd94a30d017dffe3b81a843d75569b5715c4a22cb2e560ffd93d","rawObjectClass":"LIGHTS","sourceStableId":"1F2B027932C80001"},"sourceKind":"official","official":true,"sourceCellId":"1R76K8LI","sourceStableId":"1F2B027932C80001","pipelineFeatureId":"1R76K8LI/LIGHTS/41497288","provenance":{"cellId":"1R76K8LI","checksum":"23b97551e692cd94a30d017dffe3b81a843d75569b5715c4a22cb2e560ffd93d","readerVersion":"GDAL 3.2.2","processedAt":"2026-08-11T13:43:44.753Z"}}},{"type":"Feature","geometry":{"type":"Point","coordinates":[3.9751833,51.6146333]},"properties":{"dolphinKind":"light","rawObjectClass":"LIGHTS","sourceProperties":{"RCID":41497289,"PRIM":1,"GRUP":2,"OBJL":75,"RVER":1,"AGEN":7979,"FIDN":41497289,"FIDS":1,"LNAM":"1F2B027932C90001","CATLIT":["4","14"],"COLOUR":["4"],"HEIGHT":10.6,"LITCHR":7,"SECTR1":319,"SECTR2":14,"SIGGRP":"(1)","SIGPER":6,"SCAMIN":200000,"SORDAT":"20100112","SORIND":"NL,1R,Reprt,DZD-BAS 2010/4","sourceCellId":"1R76K8LI","sourceChecksum":"23b97551e692cd94a30d017dffe3b81a843d75569b5715c4a22cb2e560ffd93d","rawObjectClass":"LIGHTS","sourceStableId":"1F2B027932C90001"},"sourceKind":"official","official":true,"sourceCellId":"1R76K8LI","sourceStableId":"1F2B027932C90001","pipelineFeatureId":"1R76K8LI/LIGHTS/41497289","provenance":{"cellId":"1R76K8LI","checksum":"23b97551e692cd94a30d017dffe3b81a843d75569b5715c4a22cb2e560ffd93d","readerVersion":"GDAL 3.2.2","processedAt":"2026-08-11T13:43:44.753Z"}}},{"type":"Feature","geometry":{"type":"Point","coordinates":[3.9751833,51.6146333]},"properties":{"dolphinKind":"light","rawObjectClass":"LIGHTS","sourceProperties":{"RCID":41497290,"PRIM":1,"GRUP":2,"OBJL":75,"RVER":1,"AGEN":7979,"FIDN":41497290,"FIDS":1,"LNAM":"1F2B027932CA0001","CATLIT":["4","14"],"COLOUR":["1"],"HEIGHT":10.6,"LITCHR":7,"SECTR1":14,"SECTR2":18,"SIGGRP":"(1)","SIGPER":6,"SCAMIN":200000,"SORDAT":"20100112","SORIND":"NL,1R,Reprt,DZD-BAS 2010/4","sourceCellId":"1R76K8LI","sourceChecksum":"23b97551e692cd94a30d017dffe3b81a843d75569b5715c4a22cb2e560ffd93d","rawObjectClass":"LIGHTS","sourceStableId":"1F2B027932CA0001"},"sourceKind":"official","official":true,"sourceCellId":"1R76K8LI","sourceStableId":"1F2B027932CA0001","pipelineFeatureId":"1R76K8LI/LIGHTS/41497290","provenance":{"cellId":"1R76K8LI","checksum":"23b97551e692cd94a30d017dffe3b81a843d75569b5715c4a22cb2e560ffd93d","readerVersion":"GDAL 3.2.2","processedAt":"2026-08-11T13:43:44.753Z"}}},{"type":"Feature","geometry":{"type":"Point","coordinates":[3.9751833,51.6146333]},"properties":{"dolphinKind":"light","rawObjectClass":"LIGHTS","sourceProperties":{"RCID":41497291,"PRIM":1,"GRUP":2,"OBJL":75,"RVER":1,"AGEN":7979,"FIDN":41497291,"FIDS":1,"LNAM":"1F2B027932CB0001","CATLIT":["4","14"],"COLOUR":["4"],"HEIGHT":10.6,"LITCHR":7,"SECTR1":18,"SECTR2":68,"SIGGRP":"(1)","SIGPER":6,"SCAMIN":200000,"SORDAT":"20100112","SORIND":"NL,1R,Reprt,DZD-BAS 2010/4","sourceCellId":"1R76K8LI","sourceChecksum":"23b97551e692cd94a30d017dffe3b81a843d75569b5715c4a22cb2e560ffd93d","rawObjectClass":"LIGHTS","sourceStableId":"1F2B027932CB0001"},"sourceKind":"official","official":true,"sourceCellId":"1R76K8LI","sourceStableId":"1F2B027932CB0001","pipelineFeatureId":"1R76K8LI/LIGHTS/41497291","provenance":{"cellId":"1R76K8LI","checksum":"23b97551e692cd94a30d017dffe3b81a843d75569b5715c4a22cb2e560ffd93d","readerVersion":"GDAL 3.2.2","processedAt":"2026-08-11T13:43:44.753Z"}}},{"type":"Feature","geometry":{"type":"Point","coordinates":[3.9751833,51.6146333]},"properties":{"dolphinKind":"light","rawObjectClass":"LIGHTS","sourceProperties":{"RCID":41497292,"PRIM":1,"GRUP":2,"OBJL":75,"RVER":1,"AGEN":7979,"FIDN":41497292,"FIDS":1,"LNAM":"1F2B027932CC0001","CATLIT":["4","14"],"COLOUR":["1"],"HEIGHT":10.6,"LITCHR":7,"SECTR1":68,"SECTR2":70,"SIGGRP":"(1)","SIGPER":6,"SCAMIN":200000,"SORDAT":"20100112","SORIND":"NL,1R,Reprt,DZD-BAS 2010/4","sourceCellId":"1R76K8LI","sourceChecksum":"23b97551e692cd94a30d017dffe3b81a843d75569b5715c4a22cb2e560ffd93d","rawObjectClass":"LIGHTS","sourceStableId":"1F2B027932CC0001"},"sourceKind":"official","official":true,"sourceCellId":"1R76K8LI","sourceStableId":"1F2B027932CC0001","pipelineFeatureId":"1R76K8LI/LIGHTS/41497292","provenance":{"cellId":"1R76K8LI","checksum":"23b97551e692cd94a30d017dffe3b81a843d75569b5715c4a22cb2e560ffd93d","readerVersion":"GDAL 3.2.2","processedAt":"2026-08-11T13:43:44.753Z"}}},{"type":"Feature","geometry":{"type":"Point","coordinates":[3.9751833,51.6146333]},"properties":{"dolphinKind":"light","rawObjectClass":"LIGHTS","sourceProperties":{"RCID":41497293,"PRIM":1,"GRUP":2,"OBJL":75,"RVER":1,"AGEN":7979,"FIDN":41497293,"FIDS":1,"LNAM":"1F2B027932CD0001","CATLIT":["4","14"],"COLOUR":["4"],"HEIGHT":10.6,"LITCHR":7,"SECTR1":70,"SECTR2":84,"SIGGRP":"(1)","SIGPER":6,"SCAMIN":200000,"SORDAT":"20100112","SORIND":"NL,1R,Reprt,DZD-BAS 2010/4","sourceCellId":"1R76K8LI","sourceChecksum":"23b97551e692cd94a30d017dffe3b81a843d75569b5715c4a22cb2e560ffd93d","rawObjectClass":"LIGHTS","sourceStableId":"1F2B027932CD0001"},"sourceKind":"official","official":true,"sourceCellId":"1R76K8LI","sourceStableId":"1F2B027932CD0001","pipelineFeatureId":"1R76K8LI/LIGHTS/41497293","provenance":{"cellId":"1R76K8LI","checksum":"23b97551e692cd94a30d017dffe3b81a843d75569b5715c4a22cb2e560ffd93d","readerVersion":"GDAL 3.2.2","processedAt":"2026-08-11T13:43:44.753Z"}}},{"type":"Feature","geometry":{"type":"Point","coordinates":[3.9751833,51.6146333]},"properties":{"dolphinKind":"light","rawObjectClass":"LIGHTS","sourceProperties":{"RCID":41497294,"PRIM":1,"GRUP":2,"OBJL":75,"RVER":1,"AGEN":7979,"FIDN":41497294,"FIDS":1,"LNAM":"1F2B027932CE0001","CATLIT":["4","14"],"COLOUR":["1"],"HEIGHT":10.6,"LITCHR":7,"SECTR1":84,"SECTR2":100,"SIGGRP":"(1)","SIGPER":6,"VALNMR":0,"SCAMIN":200000,"SORDAT":"20100112","SORIND":"NL,1R,Reprt,DZD-BAS 2010/4","sourceCellId":"1R76K8LI","sourceChecksum":"23b97551e692cd94a30d017dffe3b81a843d75569b5715c4a22cb2e560ffd93d","rawObjectClass":"LIGHTS","sourceStableId":"1F2B027932CE0001"},"sourceKind":"official","official":true,"sourceCellId":"1R76K8LI","sourceStableId":"1F2B027932CE0001","pipelineFeatureId":"1R76K8LI/LIGHTS/41497294","provenance":{"cellId":"1R76K8LI","checksum":"23b97551e692cd94a30d017dffe3b81a843d75569b5715c4a22cb2e560ffd93d","readerVersion":"GDAL 3.2.2","processedAt":"2026-08-11T13:43:44.753Z"}}},{"type":"Feature","geometry":{"type":"Point","coordinates":[3.9751833,51.6146333]},"properties":{"dolphinKind":"light","rawObjectClass":"LIGHTS","sourceProperties":{"RCID":41497295,"PRIM":1,"GRUP":2,"OBJL":75,"RVER":1,"AGEN":7979,"FIDN":41497295,"FIDS":1,"LNAM":"1F2B027932CF0001","CATLIT":["4","14"],"COLOUR":["4"],"HEIGHT":10.6,"LITCHR":7,"SECTR1":100,"SECTR2":109,"SIGGRP":"(1)","SIGPER":6,"SCAMIN":200000,"SORDAT":"20100112","SORIND":"NL,1R,Reprt,DZD-BAS 2010/4","sourceCellId":"1R76K8LI","sourceChecksum":"23b97551e692cd94a30d017dffe3b81a843d75569b5715c4a22cb2e560ffd93d","rawObjectClass":"LIGHTS","sourceStableId":"1F2B027932CF0001"},"sourceKind":"official","official":true,"sourceCellId":"1R76K8LI","sourceStableId":"1F2B027932CF0001","pipelineFeatureId":"1R76K8LI/LIGHTS/41497295","provenance":{"cellId":"1R76K8LI","checksum":"23b97551e692cd94a30d017dffe3b81a843d75569b5715c4a22cb2e560ffd93d","readerVersion":"GDAL 3.2.2","processedAt":"2026-08-11T13:43:44.753Z"}}},{"type":"Feature","geometry":{"type":"Point","coordinates":[3.9751833,51.6146333]},"properties":{"dolphinKind":"light","rawObjectClass":"LIGHTS","sourceProperties":{"RCID":41497297,"PRIM":1,"GRUP":2,"OBJL":75,"RVER":1,"AGEN":7979,"FIDN":41497297,"FIDS":1,"LNAM":"1F2B027932D10001","CATLIT":["4","14"],"COLOUR":["3"],"HEIGHT":10.6,"LITCHR":7,"SECTR1":109,"SECTR2":118,"SIGGRP":"(1)","SIGPER":6,"SCAMIN":200000,"SORDAT":"20100112","SORIND":"NL,1R,Reprt,DZD-BAS 2010/4","sourceCellId":"1R76K8LI","sourceChecksum":"23b97551e692cd94a30d017dffe3b81a843d75569b5715c4a22cb2e560ffd93d","rawObjectClass":"LIGHTS","sourceStableId":"1F2B027932D10001"},"sourceKind":"official","official":true,"sourceCellId":"1R76K8LI","sourceStableId":"1F2B027932D10001","pipelineFeatureId":"1R76K8LI/LIGHTS/41497297","provenance":{"cellId":"1R76K8LI","checksum":"23b97551e692cd94a30d017dffe3b81a843d75569b5715c4a22cb2e560ffd93d","readerVersion":"GDAL 3.2.2","processedAt":"2026-08-11T13:43:44.753Z"}}},{"type":"Feature","geometry":{"type":"Point","coordinates":[3.9751833,51.6146333]},"properties":{"dolphinKind":"light","rawObjectClass":"LIGHTS","sourceProperties":{"RCID":41497298,"PRIM":1,"GRUP":2,"OBJL":75,"RVER":1,"AGEN":7979,"FIDN":41497298,"FIDS":1,"LNAM":"1F2B027932D20001","CATLIT":["4","14"],"COLOUR":["1"],"HEIGHT":10.6,"LITCHR":7,"SECTR1":118,"SECTR2":267,"SIGGRP":"(1)","SIGPER":6,"SCAMIN":200000,"SORDAT":"20100112","SORIND":"NL,1R,Reprt,DZD-BAS 2010/4","sourceCellId":"1R76K8LI","sourceChecksum":"23b97551e692cd94a30d017dffe3b81a843d75569b5715c4a22cb2e560ffd93d","rawObjectClass":"LIGHTS","sourceStableId":"1F2B027932D20001"},"sourceKind":"official","official":true,"sourceCellId":"1R76K8LI","sourceStableId":"1F2B027932D20001","pipelineFeatureId":"1R76K8LI/LIGHTS/41497298","provenance":{"cellId":"1R76K8LI","checksum":"23b97551e692cd94a30d017dffe3b81a843d75569b5715c4a22cb2e560ffd93d","readerVersion":"GDAL 3.2.2","processedAt":"2026-08-11T13:43:44.753Z"}}},{"type":"Feature","geometry":{"type":"Point","coordinates":[3.9683567,51.5970183]},"properties":{"dolphinKind":"light","rawObjectClass":"LIGHTS","sourceProperties":{"RCID":410666735,"PRIM":1,"GRUP":2,"OBJL":75,"RVER":1,"AGEN":7979,"FIDN":410666735,"FIDS":1,"LNAM":"1F2B187A46EF0001","COLOUR":["3"],"LITCHR":3,"SIGGRP":"(1)","SIGPER":8,"SCAMIN":200000,"SORDAT":"20210409","sourceCellId":"1R76K8LI","sourceChecksum":"23b97551e692cd94a30d017dffe3b81a843d75569b5715c4a22cb2e560ffd93d","rawObjectClass":"LIGHTS","sourceStableId":"1F2B187A46EF0001"},"sourceKind":"official","official":true,"sourceCellId":"1R76K8LI","sourceStableId":"1F2B187A46EF0001","pipelineFeatureId":"1R76K8LI/LIGHTS/410666735","provenance":{"cellId":"1R76K8LI","checksum":"23b97551e692cd94a30d017dffe3b81a843d75569b5715c4a22cb2e560ffd93d","readerVersion":"GDAL 3.2.2","processedAt":"2026-08-11T13:43:44.753Z"}}},{"type":"Feature","geometry":{"type":"Point","coordinates":[3.9454167,51.607585]},"properties":{"dolphinKind":"light","rawObjectClass":"LIGHTS","sourceProperties":{"RCID":411111743,"PRIM":1,"GRUP":2,"OBJL":75,"RVER":1,"AGEN":7979,"FIDN":411111743,"FIDS":1,"LNAM":"1F2B1881113F0001","COLOUR":["4"],"LITCHR":4,"SIGGRP":"(1)","SCAMIN":200000,"SORDAT":"20230111","SORIND":"NL,1R,reprt,ENC Verbetering","sourceCellId":"1R76K8LI","sourceChecksum":"23b97551e692cd94a30d017dffe3b81a843d75569b5715c4a22cb2e560ffd93d","rawObjectClass":"LIGHTS","sourceStableId":"1F2B1881113F0001"},"sourceKind":"official","official":true,"sourceCellId":"1R76K8LI","sourceStableId":"1F2B1881113F0001","pipelineFeatureId":"1R76K8LI/LIGHTS/411111743","provenance":{"cellId":"1R76K8LI","checksum":"23b97551e692cd94a30d017dffe3b81a843d75569b5715c4a22cb2e560ffd93d","readerVersion":"GDAL 3.2.2","processedAt":"2026-08-11T13:43:44.753Z"}}},{"type":"Feature","geometry":{"type":"Point","coordinates":[4.0399033,51.607895]},"properties":{"dolphinKind":"light","rawObjectClass":"LIGHTS","sourceProperties":{"RCID":430719615,"PRIM":1,"GRUP":2,"OBJL":75,"RVER":1,"AGEN":7979,"FIDN":430719615,"FIDS":1,"LNAM":"1F2B19AC427F0001","COLOUR":["4"],"LITCHR":3,"SIGGRP":"(1)","SIGPER":5,"SCAMIN":200000,"SORDAT":"20210914","sourceCellId":"1R76K8LI","sourceChecksum":"23b97551e692cd94a30d017dffe3b81a843d75569b5715c4a22cb2e560ffd93d","rawObjectClass":"LIGHTS","sourceStableId":"1F2B19AC427F0001"},"sourceKind":"official","official":true,"sourceCellId":"1R76K8LI","sourceStableId":"1F2B19AC427F0001","pipelineFeatureId":"1R76K8LI/LIGHTS/430719615","provenance":{"cellId":"1R76K8LI","checksum":"23b97551e692cd94a30d017dffe3b81a843d75569b5715c4a22cb2e560ffd93d","readerVersion":"GDAL 3.2.2","processedAt":"2026-08-11T13:43:44.753Z"}}},{"type":"Feature","geometry":{"type":"Point","coordinates":[4.072405,51.6218217]},"properties":{"dolphinKind":"light","rawObjectClass":"LIGHTS","sourceProperties":{"RCID":430725716,"PRIM":1,"GRUP":2,"OBJL":75,"RVER":1,"AGEN":7979,"FIDN":430725716,"FIDS":1,"LNAM":"1F2B19AC5A540001","COLOUR":["4"],"LITCHR":3,"SIGGRP":"(1)","SIGPER":8,"SCAMIN":200000,"SORDAT":"20210914","sourceCellId":"1R76K8LI","sourceChecksum":"23b97551e692cd94a30d017dffe3b81a843d75569b5715c4a22cb2e560ffd93d","rawObjectClass":"LIGHTS","sourceStableId":"1F2B19AC5A540001"},"sourceKind":"official","official":true,"sourceCellId":"1R76K8LI","sourceStableId":"1F2B19AC5A540001","pipelineFeatureId":"1R76K8LI/LIGHTS/430725716","provenance":{"cellId":"1R76K8LI","checksum":"23b97551e692cd94a30d017dffe3b81a843d75569b5715c4a22cb2e560ffd93d","readerVersion":"GDAL 3.2.2","processedAt":"2026-08-11T13:43:44.753Z"}}},{"type":"Feature","geometry":{"type":"Point","coordinates":[3.9778783,51.5995767]},"properties":{"dolphinKind":"light","rawObjectClass":"LIGHTS","sourceProperties":{"RCID":430848474,"PRIM":1,"GRUP":2,"OBJL":75,"RVER":1,"AGEN":7979,"FIDN":430848474,"FIDS":1,"LNAM":"1F2B19AE39DA0001","COLOUR":["4"],"LITCHR":3,"SIGGRP":"(1)","SIGPER":8,"SCAMIN":200000,"SORDAT":"20210915","SORIND":"NL,1R,reprt,DZD-BAS-118","sourceCellId":"1R76K8LI","sourceChecksum":"23b97551e692cd94a30d017dffe3b81a843d75569b5715c4a22cb2e560ffd93d","rawObjectClass":"LIGHTS","sourceStableId":"1F2B19AE39DA0001"},"sourceKind":"official","official":true,"sourceCellId":"1R76K8LI","sourceStableId":"1F2B19AE39DA0001","pipelineFeatureId":"1R76K8LI/LIGHTS/430848474","provenance":{"cellId":"1R76K8LI","checksum":"23b97551e692cd94a30d017dffe3b81a843d75569b5715c4a22cb2e560ffd93d","readerVersion":"GDAL 3.2.2","processedAt":"2026-08-11T13:43:44.753Z"}}},{"type":"Feature","geometry":{"type":"Point","coordinates":[3.9924,51.59814]},"properties":{"dolphinKind":"light","rawObjectClass":"LIGHTS","sourceProperties":{"RCID":430848475,"PRIM":1,"GRUP":2,"OBJL":75,"RVER":1,"AGEN":7979,"FIDN":430848475,"FIDS":1,"LNAM":"1F2B19AE39DB0001","COLOUR":["4"],"LITCHR":3,"SIGGRP":"(1)","SIGPER":5,"SCAMIN":200000,"SORDAT":"20210915","SORIND":"NL,1R,reprt,DZD-BAS-118","sourceCellId":"1R76K8LI","sourceChecksum":"23b97551e692cd94a30d017dffe3b81a843d75569b5715c4a22cb2e560ffd93d","rawObjectClass":"LIGHTS","sourceStableId":"1F2B19AE39DB0001"},"sourceKind":"official","official":true,"sourceCellId":"1R76K8LI","sourceStableId":"1F2B19AE39DB0001","pipelineFeatureId":"1R76K8LI/LIGHTS/430848475","provenance":{"cellId":"1R76K8LI","checksum":"23b97551e692cd94a30d017dffe3b81a843d75569b5715c4a22cb2e560ffd93d","readerVersion":"GDAL 3.2.2","processedAt":"2026-08-11T13:43:44.753Z"}}},{"type":"Feature","geometry":{"type":"Point","coordinates":[4.004985,51.5979683]},"properties":{"dolphinKind":"light","rawObjectClass":"LIGHTS","sourceProperties":{"RCID":430848477,"PRIM":1,"GRUP":2,"OBJL":75,"RVER":1,"AGEN":7979,"FIDN":430848477,"FIDS":1,"LNAM":"1F2B19AE39DD0001","COLOUR":["4"],"LITCHR":3,"SIGGRP":"(1)","SIGPER":8,"SCAMIN":200000,"SORDAT":"20210915","SORIND":"NL,1R,reprt,DZD-BAS-118","sourceCellId":"1R76K8LI","sourceChecksum":"23b97551e692cd94a30d017dffe3b81a843d75569b5715c4a22cb2e560ffd93d","rawObjectClass":"LIGHTS","sourceStableId":"1F2B19AE39DD0001"},"sourceKind":"official","official":true,"sourceCellId":"1R76K8LI","sourceStableId":"1F2B19AE39DD0001","pipelineFeatureId":"1R76K8LI/LIGHTS/430848477","provenance":{"cellId":"1R76K8LI","checksum":"23b97551e692cd94a30d017dffe3b81a843d75569b5715c4a22cb2e560ffd93d","readerVersion":"GDAL 3.2.2","processedAt":"2026-08-11T13:43:44.753Z"}}},{"type":"Feature","geometry":{"type":"Point","coordinates":[4.0174033,51.5999883]},"properties":{"dolphinKind":"light","rawObjectClass":"LIGHTS","sourceProperties":{"RCID":430848479,"PRIM":1,"GRUP":2,"OBJL":75,"RVER":1,"AGEN":7979,"FIDN":430848479,"FIDS":1,"LNAM":"1F2B19AE39DF0001","COLOUR":["4"],"LITCHR":3,"SIGGRP":"(1)","SIGPER":5,"SCAMIN":200000,"SORDAT":"20210915","SORIND":"NL,1R,reprt,DZD-BAS-118","sourceCellId":"1R76K8LI","sourceChecksum":"23b97551e692cd94a30d017dffe3b81a843d75569b5715c4a22cb2e560ffd93d","rawObjectClass":"LIGHTS","sourceStableId":"1F2B19AE39DF0001"},"sourceKind":"official","official":true,"sourceCellId":"1R76K8LI","sourceStableId":"1F2B19AE39DF0001","pipelineFeatureId":"1R76K8LI/LIGHTS/430848479","provenance":{"cellId":"1R76K8LI","checksum":"23b97551e692cd94a30d017dffe3b81a843d75569b5715c4a22cb2e560ffd93d","readerVersion":"GDAL 3.2.2","processedAt":"2026-08-11T13:43:44.753Z"}}},{"type":"Feature","geometry":{"type":"Point","coordinates":[4.0303033,51.6030617]},"properties":{"dolphinKind":"light","rawObjectClass":"LIGHTS","sourceProperties":{"RCID":430848481,"PRIM":1,"GRUP":2,"OBJL":75,"RVER":1,"AGEN":7979,"FIDN":430848481,"FIDS":1,"LNAM":"1F2B19AE39E10001","COLOUR":["4"],"LITCHR":3,"SIGGRP":"(1)","SIGPER":8,"SCAMIN":200000,"SORDAT":"20210915","SORIND":"NL,1R,reprt,DZD-BAS-118","sourceCellId":"1R76K8LI","sourceChecksum":"23b97551e692cd94a30d017dffe3b81a843d75569b5715c4a22cb2e560ffd93d","rawObjectClass":"LIGHTS","sourceStableId":"1F2B19AE39E10001"},"sourceKind":"official","official":true,"sourceCellId":"1R76K8LI","sourceStableId":"1F2B19AE39E10001","pipelineFeatureId":"1R76K8LI/LIGHTS/430848481","provenance":{"cellId":"1R76K8LI","checksum":"23b97551e692cd94a30d017dffe3b81a843d75569b5715c4a22cb2e560ffd93d","readerVersion":"GDAL 3.2.2","processedAt":"2026-08-11T13:43:44.753Z"}}},{"type":"Feature","geometry":{"type":"Point","coordinates":[3.9930033,51.6029417]},"properties":{"dolphinKind":"light","rawObjectClass":"LIGHTS","sourceProperties":{"RCID":430848483,"PRIM":1,"GRUP":2,"OBJL":75,"RVER":1,"AGEN":7979,"FIDN":430848483,"FIDS":1,"LNAM":"1F2B19AE39E30001","COLOUR":["3"],"LITCHR":3,"SIGGRP":"(1)","SIGPER":5,"SCAMIN":200000,"SORDAT":"20210915","SORIND":"NL,1R,reprt,DZD-BAS-118","sourceCellId":"1R76K8LI","sourceChecksum":"23b97551e692cd94a30d017dffe3b81a843d75569b5715c4a22cb2e560ffd93d","rawObjectClass":"LIGHTS","sourceStableId":"1F2B19AE39E30001"},"sourceKind":"official","official":true,"sourceCellId":"1R76K8LI","sourceStableId":"1F2B19AE39E30001","pipelineFeatureId":"1R76K8LI/LIGHTS/430848483","provenance":{"cellId":"1R76K8LI","checksum":"23b97551e692cd94a30d017dffe3b81a843d75569b5715c4a22cb2e560ffd93d","readerVersion":"GDAL 3.2.2","processedAt":"2026-08-11T13:43:44.753Z"}}},{"type":"Feature","geometry":{"type":"Point","coordinates":[4.0038467,51.60209]},"properties":{"dolphinKind":"light","rawObjectClass":"LIGHTS","sourceProperties":{"RCID":430848485,"PRIM":1,"GRUP":2,"OBJL":75,"RVER":1,"AGEN":7979,"FIDN":430848485,"FIDS":1,"LNAM":"1F2B19AE39E50001","COLOUR":["3"],"LITCHR":3,"SIGGRP":"(1)","SIGPER":8,"SCAMIN":200000,"SORDAT":"20210915","SORIND":"NL,1R,reprt,DZD-BAS-118","sourceCellId":"1R76K8LI","sourceChecksum":"23b97551e692cd94a30d017dffe3b81a843d75569b5715c4a22cb2e560ffd93d","rawObjectClass":"LIGHTS","sourceStableId":"1F2B19AE39E50001"},"sourceKind":"official","official":true,"sourceCellId":"1R76K8LI","sourceStableId":"1F2B19AE39E50001","pipelineFeatureId":"1R76K8LI/LIGHTS/430848485","provenance":{"cellId":"1R76K8LI","checksum":"23b97551e692cd94a30d017dffe3b81a843d75569b5715c4a22cb2e560ffd93d","readerVersion":"GDAL 3.2.2","processedAt":"2026-08-11T13:43:44.753Z"}}},{"type":"Feature","geometry":{"type":"Point","coordinates":[4.0147133,51.6035933]},"properties":{"dolphinKind":"light","rawObjectClass":"LIGHTS","sourceProperties":{"RCID":430848487,"PRIM":1,"GRUP":2,"OBJL":75,"RVER":1,"AGEN":7979,"FIDN":430848487,"FIDS":1,"LNAM":"1F2B19AE39E70001","COLOUR":["3"],"LITCHR":3,"SIGGRP":"(1)","SIGPER":5,"SCAMIN":200000,"SORDAT":"20210915","SORIND":"NL,1R,reprt,DZD-BAS-118","sourceCellId":"1R76K8LI","sourceChecksum":"23b97551e692cd94a30d017dffe3b81a843d75569b5715c4a22cb2e560ffd93d","rawObjectClass":"LIGHTS","sourceStableId":"1F2B19AE39E70001"},"sourceKind":"official","official":true,"sourceCellId":"1R76K8LI","sourceStableId":"1F2B19AE39E70001","pipelineFeatureId":"1R76K8LI/LIGHTS/430848487","provenance":{"cellId":"1R76K8LI","checksum":"23b97551e692cd94a30d017dffe3b81a843d75569b5715c4a22cb2e560ffd93d","readerVersion":"GDAL 3.2.2","processedAt":"2026-08-11T13:43:44.753Z"}}},{"type":"Feature","geometry":{"type":"Point","coordinates":[4.0253183,51.6068483]},"properties":{"dolphinKind":"light","rawObjectClass":"LIGHTS","sourceProperties":{"RCID":430848489,"PRIM":1,"GRUP":2,"OBJL":75,"RVER":1,"AGEN":7979,"FIDN":430848489,"FIDS":1,"LNAM":"1F2B19AE39E90001","COLOUR":["3"],"LITCHR":3,"SIGGRP":"(1)","SIGPER":8,"SCAMIN":200000,"SORDAT":"20210915","SORIND":"NL,1R,reprt,DZD-BAS-118","sourceCellId":"1R76K8LI","sourceChecksum":"23b97551e692cd94a30d017dffe3b81a843d75569b5715c4a22cb2e560ffd93d","rawObjectClass":"LIGHTS","sourceStableId":"1F2B19AE39E90001"},"sourceKind":"official","official":true,"sourceCellId":"1R76K8LI","sourceStableId":"1F2B19AE39E90001","pipelineFeatureId":"1R76K8LI/LIGHTS/430848489","provenance":{"cellId":"1R76K8LI","checksum":"23b97551e692cd94a30d017dffe3b81a843d75569b5715c4a22cb2e560ffd93d","readerVersion":"GDAL 3.2.2","processedAt":"2026-08-11T13:43:44.753Z"}}},{"type":"Feature","geometry":{"type":"Point","coordinates":[4.0358,51.6123417]},"properties":{"dolphinKind":"light","rawObjectClass":"LIGHTS","sourceProperties":{"RCID":430848491,"PRIM":1,"GRUP":2,"OBJL":75,"RVER":1,"AGEN":7979,"FIDN":430848491,"FIDS":1,"LNAM":"1F2B19AE39EB0001","COLOUR":["3"],"LITCHR":3,"SIGGRP":"(1)","SIGPER":5,"SCAMIN":200000,"SORDAT":"20210915","SORIND":"NL,1R,reprt,DZD-BAS-118","sourceCellId":"1R76K8LI","sourceChecksum":"23b97551e692cd94a30d017dffe3b81a843d75569b5715c4a22cb2e560ffd93d","rawObjectClass":"LIGHTS","sourceStableId":"1F2B19AE39EB0001"},"sourceKind":"official","official":true,"sourceCellId":"1R76K8LI","sourceStableId":"1F2B19AE39EB0001","pipelineFeatureId":"1R76K8LI/LIGHTS/430848491","provenance":{"cellId":"1R76K8LI","checksum":"23b97551e692cd94a30d017dffe3b81a843d75569b5715c4a22cb2e560ffd93d","readerVersion":"GDAL 3.2.2","processedAt":"2026-08-11T13:43:44.753Z"}}},{"type":"Feature","geometry":{"type":"Point","coordinates":[4.04471,51.6163067]},"properties":{"dolphinKind":"light","rawObjectClass":"LIGHTS","sourceProperties":{"RCID":430848493,"PRIM":1,"GRUP":2,"OBJL":75,"RVER":1,"AGEN":7979,"FIDN":430848493,"FIDS":1,"LNAM":"1F2B19AE39ED0001","COLOUR":["3"],"LITCHR":3,"SIGGRP":"(1)","SIGPER":8,"SCAMIN":200000,"SORDAT":"20210915","SORIND":"NL,1R,reprt,DZD-BAS-118","sourceCellId":"1R76K8LI","sourceChecksum":"23b97551e692cd94a30d017dffe3b81a843d75569b5715c4a22cb2e560ffd93d","rawObjectClass":"LIGHTS","sourceStableId":"1F2B19AE39ED0001"},"sourceKind":"official","official":true,"sourceCellId":"1R76K8LI","sourceStableId":"1F2B19AE39ED0001","pipelineFeatureId":"1R76K8LI/LIGHTS/430848493","provenance":{"cellId":"1R76K8LI","checksum":"23b97551e692cd94a30d017dffe3b81a843d75569b5715c4a22cb2e560ffd93d","readerVersion":"GDAL 3.2.2","processedAt":"2026-08-11T13:43:44.753Z"}}},{"type":"Feature","geometry":{"type":"Point","coordinates":[4.0536117,51.6204117]},"properties":{"dolphinKind":"light","rawObjectClass":"LIGHTS","sourceProperties":{"RCID":430848495,"PRIM":1,"GRUP":2,"OBJL":75,"RVER":1,"AGEN":7979,"FIDN":430848495,"FIDS":1,"LNAM":"1F2B19AE39EF0001","COLOUR":["3"],"LITCHR":3,"SIGGRP":"(1)","SIGPER":5,"SCAMIN":200000,"SORDAT":"20210915","SORIND":"NL,1R,reprt,DZD-BAS-118","sourceCellId":"1R76K8LI","sourceChecksum":"23b97551e692cd94a30d017dffe3b81a843d75569b5715c4a22cb2e560ffd93d","rawObjectClass":"LIGHTS","sourceStableId":"1F2B19AE39EF0001"},"sourceKind":"official","official":true,"sourceCellId":"1R76K8LI","sourceStableId":"1F2B19AE39EF0001","pipelineFeatureId":"1R76K8LI/LIGHTS/430848495","provenance":{"cellId":"1R76K8LI","checksum":"23b97551e692cd94a30d017dffe3b81a843d75569b5715c4a22cb2e560ffd93d","readerVersion":"GDAL 3.2.2","processedAt":"2026-08-11T13:43:44.753Z"}}},{"type":"Feature","geometry":{"type":"Point","coordinates":[4.0533829,51.6086257]},"properties":{"dolphinKind":"topmark","rawObjectClass":"TOPMAR","sourceProperties":{"RCID":9278,"PRIM":1,"GRUP":2,"OBJL":144,"RVER":1,"AGEN":7979,"FIDN":1106210626,"FIDS":353,"LNAM":"1F2B41EF6F420161","COLOUR":["6"],"TOPSHP":20,"INFORM":"N. Kabelbord","SCAMIN":200000,"SORDAT":"20170908","SORIND":"NL,1R,reprt,ENC opschonen","sourceCellId":"1R76K8LI","sourceChecksum":"23b97551e692cd94a30d017dffe3b81a843d75569b5715c4a22cb2e560ffd93d","rawObjectClass":"TOPMAR","sourceStableId":"1F2B41EF6F420161"},"sourceKind":"official","official":true,"sourceCellId":"1R76K8LI","sourceStableId":"1F2B41EF6F420161","pipelineFeatureId":"1R76K8LI/TOPMAR/9278","provenance":{"cellId":"1R76K8LI","checksum":"23b97551e692cd94a30d017dffe3b81a843d75569b5715c4a22cb2e560ffd93d","readerVersion":"GDAL 3.2.2","processedAt":"2026-08-11T13:43:44.753Z"},"associationRefsVerifiedInGdalOutput":false}},{"type":"Feature","geometry":{"type":"Point","coordinates":[4.0522189,51.6099357]},"properties":{"dolphinKind":"topmark","rawObjectClass":"TOPMAR","sourceProperties":{"RCID":9280,"PRIM":1,"GRUP":2,"OBJL":144,"RVER":1,"AGEN":7979,"FIDN":1106210626,"FIDS":355,"LNAM":"1F2B41EF6F420163","COLOUR":["6"],"TOPSHP":20,"INFORM":"N. Kabelbord","SCAMIN":200000,"SORDAT":"20170908","SORIND":"NL,1R,reprt,ENC opschonen","sourceCellId":"1R76K8LI","sourceChecksum":"23b97551e692cd94a30d017dffe3b81a843d75569b5715c4a22cb2e560ffd93d","rawObjectClass":"TOPMAR","sourceStableId":"1F2B41EF6F420163"},"sourceKind":"official","official":true,"sourceCellId":"1R76K8LI","sourceStableId":"1F2B41EF6F420163","pipelineFeatureId":"1R76K8LI/TOPMAR/9280","provenance":{"cellId":"1R76K8LI","checksum":"23b97551e692cd94a30d017dffe3b81a843d75569b5715c4a22cb2e560ffd93d","readerVersion":"GDAL 3.2.2","processedAt":"2026-08-11T13:43:44.753Z"},"associationRefsVerifiedInGdalOutput":false}},{"type":"Feature","geometry":{"type":"Point","coordinates":[4.0465432,51.6220505]},"properties":{"dolphinKind":"topmark","rawObjectClass":"TOPMAR","sourceProperties":{"RCID":9284,"PRIM":1,"GRUP":2,"OBJL":144,"RVER":1,"AGEN":7979,"FIDN":1106210626,"FIDS":359,"LNAM":"1F2B41EF6F420167","COLOUR":["6"],"TOPSHP":20,"INFORM":"N. Kabelbord","SCAMIN":200000,"SORDAT":"20170908","SORIND":"NL,1R,reprt,ENC opschonen","sourceCellId":"1R76K8LI","sourceChecksum":"23b97551e692cd94a30d017dffe3b81a843d75569b5715c4a22cb2e560ffd93d","rawObjectClass":"TOPMAR","sourceStableId":"1F2B41EF6F420167"},"sourceKind":"official","official":true,"sourceCellId":"1R76K8LI","sourceStableId":"1F2B41EF6F420167","pipelineFeatureId":"1R76K8LI/TOPMAR/9284","provenance":{"cellId":"1R76K8LI","checksum":"23b97551e692cd94a30d017dffe3b81a843d75569b5715c4a22cb2e560ffd93d","readerVersion":"GDAL 3.2.2","processedAt":"2026-08-11T13:43:44.753Z"},"associationRefsVerifiedInGdalOutput":false}},{"type":"Feature","geometry":{"type":"Point","coordinates":[3.9570265,51.6202169]},"properties":{"dolphinKind":"topmark","rawObjectClass":"TOPMAR","sourceProperties":{"RCID":9290,"PRIM":1,"GRUP":2,"OBJL":144,"RVER":1,"AGEN":7979,"FIDN":1106210626,"FIDS":365,"LNAM":"1F2B41EF6F42016D","COLOUR":["6"],"TOPSHP":20,"SCAMIN":200000,"sourceCellId":"1R76K8LI","sourceChecksum":"23b97551e692cd94a30d017dffe3b81a843d75569b5715c4a22cb2e560ffd93d","rawObjectClass":"TOPMAR","sourceStableId":"1F2B41EF6F42016D"},"sourceKind":"official","official":true,"sourceCellId":"1R76K8LI","sourceStableId":"1F2B41EF6F42016D","pipelineFeatureId":"1R76K8LI/TOPMAR/9290","provenance":{"cellId":"1R76K8LI","checksum":"23b97551e692cd94a30d017dffe3b81a843d75569b5715c4a22cb2e560ffd93d","readerVersion":"GDAL 3.2.2","processedAt":"2026-08-11T13:43:44.753Z"},"associationRefsVerifiedInGdalOutput":false}},{"type":"Feature","geometry":{"type":"Point","coordinates":[3.9454167,51.607585]},"properties":{"dolphinKind":"topmark","rawObjectClass":"TOPMAR","sourceProperties":{"RCID":18085,"PRIM":1,"GRUP":2,"OBJL":144,"RVER":1,"AGEN":7979,"FIDN":1106834727,"FIDS":333,"LNAM":"1F2B41F8F527014D","COLOUR":["4"],"TOPSHP":29,"SCAMIN":200000,"SORDAT":"20210913","SORIND":"NL,1R,reprt,BASS 2021-116","sourceCellId":"1R76K8LI","sourceChecksum":"23b97551e692cd94a30d017dffe3b81a843d75569b5715c4a22cb2e560ffd93d","rawObjectClass":"TOPMAR","sourceStableId":"1F2B41F8F527014D"},"sourceKind":"official","official":true,"sourceCellId":"1R76K8LI","sourceStableId":"1F2B41F8F527014D","pipelineFeatureId":"1R76K8LI/TOPMAR/18085","provenance":{"cellId":"1R76K8LI","checksum":"23b97551e692cd94a30d017dffe3b81a843d75569b5715c4a22cb2e560ffd93d","readerVersion":"GDAL 3.2.2","processedAt":"2026-08-11T13:43:44.753Z"},"associationRefsVerifiedInGdalOutput":false}},{"type":"Feature","geometry":{"type":"Point","coordinates":[3.940165,51.6062283]},"properties":{"dolphinKind":"topmark","rawObjectClass":"TOPMAR","sourceProperties":{"RCID":18086,"PRIM":1,"GRUP":2,"OBJL":144,"RVER":1,"AGEN":7979,"FIDN":1106834727,"FIDS":334,"LNAM":"1F2B41F8F527014E","COLOUR":["4"],"TOPSHP":1,"SCAMIN":200000,"sourceCellId":"1R76K8LI","sourceChecksum":"23b97551e692cd94a30d017dffe3b81a843d75569b5715c4a22cb2e560ffd93d","rawObjectClass":"TOPMAR","sourceStableId":"1F2B41F8F527014E"},"sourceKind":"official","official":true,"sourceCellId":"1R76K8LI","sourceStableId":"1F2B41F8F527014E","pipelineFeatureId":"1R76K8LI/TOPMAR/18086","provenance":{"cellId":"1R76K8LI","checksum":"23b97551e692cd94a30d017dffe3b81a843d75569b5715c4a22cb2e560ffd93d","readerVersion":"GDAL 3.2.2","processedAt":"2026-08-11T13:43:44.753Z"},"associationRefsVerifiedInGdalOutput":false}},{"type":"Feature","geometry":{"type":"Point","coordinates":[3.9642767,51.6111467]},"properties":{"dolphinKind":"topmark","rawObjectClass":"TOPMAR","sourceProperties":{"RCID":18087,"PRIM":1,"GRUP":2,"OBJL":144,"RVER":1,"AGEN":7979,"FIDN":1106834727,"FIDS":335,"LNAM":"1F2B41F8F527014F","COLOUR":["3"],"TOPSHP":5,"SCAMIN":200000,"SORDAT":"20210915","SORIND":"NL,1R,reprt,DZD-BAS-118","sourceCellId":"1R76K8LI","sourceChecksum":"23b97551e692cd94a30d017dffe3b81a843d75569b5715c4a22cb2e560ffd93d","rawObjectClass":"TOPMAR","sourceStableId":"1F2B41F8F527014F"},"sourceKind":"official","official":true,"sourceCellId":"1R76K8LI","sourceStableId":"1F2B41F8F527014F","pipelineFeatureId":"1R76K8LI/TOPMAR/18087","provenance":{"cellId":"1R76K8LI","checksum":"23b97551e692cd94a30d017dffe3b81a843d75569b5715c4a22cb2e560ffd93d","readerVersion":"GDAL 3.2.2","processedAt":"2026-08-11T13:43:44.753Z"},"associationRefsVerifiedInGdalOutput":false}},{"type":"Feature","geometry":{"type":"Point","coordinates":[3.957605,51.5872767]},"properties":{"dolphinKind":"topmark","rawObjectClass":"TOPMAR","sourceProperties":{"RCID":18088,"PRIM":1,"GRUP":2,"OBJL":144,"RVER":1,"AGEN":7979,"FIDN":1106834727,"FIDS":336,"LNAM":"1F2B41F8F5270150","COLOUR":["4"],"TOPSHP":1,"SCAMIN":200000,"sourceCellId":"1R76K8LI","sourceChecksum":"23b97551e692cd94a30d017dffe3b81a843d75569b5715c4a22cb2e560ffd93d","rawObjectClass":"TOPMAR","sourceStableId":"1F2B41F8F5270150"},"sourceKind":"official","official":true,"sourceCellId":"1R76K8LI","sourceStableId":"1F2B41F8F5270150","pipelineFeatureId":"1R76K8LI/TOPMAR/18088","provenance":{"cellId":"1R76K8LI","checksum":"23b97551e692cd94a30d017dffe3b81a843d75569b5715c4a22cb2e560ffd93d","readerVersion":"GDAL 3.2.2","processedAt":"2026-08-11T13:43:44.753Z"},"associationRefsVerifiedInGdalOutput":false}},{"type":"Feature","geometry":{"type":"Point","coordinates":[3.970165,51.6000917]},"properties":{"dolphinKind":"topmark","rawObjectClass":"TOPMAR","sourceProperties":{"RCID":18089,"PRIM":1,"GRUP":2,"OBJL":144,"RVER":1,"AGEN":7979,"FIDN":1106834727,"FIDS":337,"LNAM":"1F2B41F8F5270151","COLOUR":["3","4"],"COLPAT":["1"],"TOPSHP":3,"SCAMIN":200000,"SORIND":"NL,1R,Reprt,DZD-BAS-2007/80","sourceCellId":"1R76K8LI","sourceChecksum":"23b97551e692cd94a30d017dffe3b81a843d75569b5715c4a22cb2e560ffd93d","rawObjectClass":"TOPMAR","sourceStableId":"1F2B41F8F5270151"},"sourceKind":"official","official":true,"sourceCellId":"1R76K8LI","sourceStableId":"1F2B41F8F5270151","pipelineFeatureId":"1R76K8LI/TOPMAR/18089","provenance":{"cellId":"1R76K8LI","checksum":"23b97551e692cd94a30d017dffe3b81a843d75569b5715c4a22cb2e560ffd93d","readerVersion":"GDAL 3.2.2","processedAt":"2026-08-11T13:43:44.753Z"},"associationRefsVerifiedInGdalOutput":false}},{"type":"Feature","geometry":{"type":"Point","coordinates":[3.9607,51.5881333]},"properties":{"dolphinKind":"topmark","rawObjectClass":"TOPMAR","sourceProperties":{"RCID":18090,"PRIM":1,"GRUP":2,"OBJL":144,"RVER":1,"AGEN":7979,"FIDN":1106834727,"FIDS":338,"LNAM":"1F2B41F8F5270152","COLOUR":["3","4"],"COLPAT":["1"],"TOPSHP":3,"SCAMIN":200000,"sourceCellId":"1R76K8LI","sourceChecksum":"23b97551e692cd94a30d017dffe3b81a843d75569b5715c4a22cb2e560ffd93d","rawObjectClass":"TOPMAR","sourceStableId":"1F2B41F8F5270152"},"sourceKind":"official","official":true,"sourceCellId":"1R76K8LI","sourceStableId":"1F2B41F8F5270152","pipelineFeatureId":"1R76K8LI/TOPMAR/18090","provenance":{"cellId":"1R76K8LI","checksum":"23b97551e692cd94a30d017dffe3b81a843d75569b5715c4a22cb2e560ffd93d","readerVersion":"GDAL 3.2.2","processedAt":"2026-08-11T13:43:44.753Z"},"associationRefsVerifiedInGdalOutput":false}},{"type":"Feature","geometry":{"type":"Point","coordinates":[4.078055,51.6232017]},"properties":{"dolphinKind":"topmark","rawObjectClass":"TOPMAR","sourceProperties":{"RCID":18149,"PRIM":1,"GRUP":2,"OBJL":144,"RVER":1,"AGEN":7979,"FIDN":1106834727,"FIDS":397,"LNAM":"1F2B41F8F527018D","COLOUR":["4"],"TOPSHP":1,"SCAMIN":200000,"sourceCellId":"1R76K8LI","sourceChecksum":"23b97551e692cd94a30d017dffe3b81a843d75569b5715c4a22cb2e560ffd93d","rawObjectClass":"TOPMAR","sourceStableId":"1F2B41F8F527018D"},"sourceKind":"official","official":true,"sourceCellId":"1R76K8LI","sourceStableId":"1F2B41F8F527018D","pipelineFeatureId":"1R76K8LI/TOPMAR/18149","provenance":{"cellId":"1R76K8LI","checksum":"23b97551e692cd94a30d017dffe3b81a843d75569b5715c4a22cb2e560ffd93d","readerVersion":"GDAL 3.2.2","processedAt":"2026-08-11T13:43:44.753Z"},"associationRefsVerifiedInGdalOutput":false}},{"type":"Feature","geometry":{"type":"Point","coordinates":[4.0842317,51.623745]},"properties":{"dolphinKind":"topmark","rawObjectClass":"TOPMAR","sourceProperties":{"RCID":18196,"PRIM":1,"GRUP":2,"OBJL":144,"RVER":1,"AGEN":7979,"FIDN":1106834727,"FIDS":444,"LNAM":"1F2B41F8F52701BC","COLOUR":["3"],"TOPSHP":5,"SCAMIN":200000,"sourceCellId":"1R76K8LI","sourceChecksum":"23b97551e692cd94a30d017dffe3b81a843d75569b5715c4a22cb2e560ffd93d","rawObjectClass":"TOPMAR","sourceStableId":"1F2B41F8F52701BC"},"sourceKind":"official","official":true,"sourceCellId":"1R76K8LI","sourceStableId":"1F2B41F8F52701BC","pipelineFeatureId":"1R76K8LI/TOPMAR/18196","provenance":{"cellId":"1R76K8LI","checksum":"23b97551e692cd94a30d017dffe3b81a843d75569b5715c4a22cb2e560ffd93d","readerVersion":"GDAL 3.2.2","processedAt":"2026-08-11T13:43:44.753Z"},"associationRefsVerifiedInGdalOutput":false}},{"type":"Feature","geometry":{"type":"Point","coordinates":[4.10775,51.6064083]},"properties":{"dolphinKind":"topmark","rawObjectClass":"TOPMAR","sourceProperties":{"RCID":18203,"PRIM":1,"GRUP":2,"OBJL":144,"RVER":1,"AGEN":7979,"FIDN":1106834727,"FIDS":451,"LNAM":"1F2B41F8F52701C3","COLOUR":["3"],"TOPSHP":5,"SCAMIN":200000,"sourceCellId":"1R76K8LI","sourceChecksum":"23b97551e692cd94a30d017dffe3b81a843d75569b5715c4a22cb2e560ffd93d","rawObjectClass":"TOPMAR","sourceStableId":"1F2B41F8F52701C3"},"sourceKind":"official","official":true,"sourceCellId":"1R76K8LI","sourceStableId":"1F2B41F8F52701C3","pipelineFeatureId":"1R76K8LI/TOPMAR/18203","provenance":{"cellId":"1R76K8LI","checksum":"23b97551e692cd94a30d017dffe3b81a843d75569b5715c4a22cb2e560ffd93d","readerVersion":"GDAL 3.2.2","processedAt":"2026-08-11T13:43:44.753Z"},"associationRefsVerifiedInGdalOutput":false}},{"type":"Feature","geometry":{"type":"Point","coordinates":[4.1030167,51.61045]},"properties":{"dolphinKind":"topmark","rawObjectClass":"TOPMAR","sourceProperties":{"RCID":18221,"PRIM":1,"GRUP":2,"OBJL":144,"RVER":1,"AGEN":7979,"FIDN":1106834727,"FIDS":469,"LNAM":"1F2B41F8F52701D5","COLOUR":["4"],"TOPSHP":1,"SCAMIN":200000,"sourceCellId":"1R76K8LI","sourceChecksum":"23b97551e692cd94a30d017dffe3b81a843d75569b5715c4a22cb2e560ffd93d","rawObjectClass":"TOPMAR","sourceStableId":"1F2B41F8F52701D5"},"sourceKind":"official","official":true,"sourceCellId":"1R76K8LI","sourceStableId":"1F2B41F8F52701D5","pipelineFeatureId":"1R76K8LI/TOPMAR/18221","provenance":{"cellId":"1R76K8LI","checksum":"23b97551e692cd94a30d017dffe3b81a843d75569b5715c4a22cb2e560ffd93d","readerVersion":"GDAL 3.2.2","processedAt":"2026-08-11T13:43:44.753Z"},"associationRefsVerifiedInGdalOutput":false}},{"type":"Feature","geometry":{"type":"Point","coordinates":[4.1095333,51.6049833]},"properties":{"dolphinKind":"topmark","rawObjectClass":"TOPMAR","sourceProperties":{"RCID":18225,"PRIM":1,"GRUP":2,"OBJL":144,"RVER":1,"AGEN":7979,"FIDN":1106834727,"FIDS":473,"LNAM":"1F2B41F8F52701D9","COLOUR":["4"],"TOPSHP":1,"SCAMIN":200000,"sourceCellId":"1R76K8LI","sourceChecksum":"23b97551e692cd94a30d017dffe3b81a843d75569b5715c4a22cb2e560ffd93d","rawObjectClass":"TOPMAR","sourceStableId":"1F2B41F8F52701D9"},"sourceKind":"official","official":true,"sourceCellId":"1R76K8LI","sourceStableId":"1F2B41F8F52701D9","pipelineFeatureId":"1R76K8LI/TOPMAR/18225","provenance":{"cellId":"1R76K8LI","checksum":"23b97551e692cd94a30d017dffe3b81a843d75569b5715c4a22cb2e560ffd93d","readerVersion":"GDAL 3.2.2","processedAt":"2026-08-11T13:43:44.753Z"},"associationRefsVerifiedInGdalOutput":false}},{"type":"Feature","geometry":{"type":"Point","coordinates":[3.9342067,51.6064467]},"properties":{"dolphinKind":"topmark","rawObjectClass":"TOPMAR","sourceProperties":{"RCID":173183154,"PRIM":1,"GRUP":2,"OBJL":144,"RVER":1,"AGEN":7979,"FIDN":173183154,"FIDS":1,"LNAM":"1F2B0A5290B20001","COLOUR":["3","1","3"],"COLPAT":["1"],"TOPSHP":5,"INFORM":"Musselseed Installation","NINFOM":"Mosselzaadinvanginstallatie","SCAMIN":200000,"SORDAT":"20160108","SORIND":"NL,1R,reprt,MZI 2016","sourceCellId":"1R76K8LI","sourceChecksum":"23b97551e692cd94a30d017dffe3b81a843d75569b5715c4a22cb2e560ffd93d","rawObjectClass":"TOPMAR","sourceStableId":"1F2B0A5290B20001"},"sourceKind":"official","official":true,"sourceCellId":"1R76K8LI","sourceStableId":"1F2B0A5290B20001","pipelineFeatureId":"1R76K8LI/TOPMAR/173183154","provenance":{"cellId":"1R76K8LI","checksum":"23b97551e692cd94a30d017dffe3b81a843d75569b5715c4a22cb2e560ffd93d","readerVersion":"GDAL 3.2.2","processedAt":"2026-08-11T13:43:44.753Z"},"associationRefsVerifiedInGdalOutput":false}},{"type":"Feature","geometry":{"type":"Point","coordinates":[3.9686867,51.61055]},"properties":{"dolphinKind":"topmark","rawObjectClass":"TOPMAR","sourceProperties":{"RCID":430925312,"PRIM":1,"GRUP":2,"OBJL":144,"RVER":1,"AGEN":7979,"FIDN":430925312,"FIDS":1,"LNAM":"1F2B19AF66000001","COLOUR":["3"],"TOPSHP":5,"SCAMIN":200000,"SORDAT":"20210916","SORIND":"NL,1R,reprt,DZD-BAS-119","sourceCellId":"1R76K8LI","sourceChecksum":"23b97551e692cd94a30d017dffe3b81a843d75569b5715c4a22cb2e560ffd93d","rawObjectClass":"TOPMAR","sourceStableId":"1F2B19AF66000001"},"sourceKind":"official","official":true,"sourceCellId":"1R76K8LI","sourceStableId":"1F2B19AF66000001","pipelineFeatureId":"1R76K8LI/TOPMAR/430925312","provenance":{"cellId":"1R76K8LI","checksum":"23b97551e692cd94a30d017dffe3b81a843d75569b5715c4a22cb2e560ffd93d","readerVersion":"GDAL 3.2.2","processedAt":"2026-08-11T13:43:44.753Z"},"associationRefsVerifiedInGdalOutput":false}}]}