{"type":"FeatureCollection","features":[{"type":"Feature","geometry":{"type":"Point","coordinates":[4.05485,51.3724]},"properties":{"dolphinKind":"buoy-lateral","rawObjectClass":"BOYLAT","sourceProperties":{"RCID":17270,"PRIM":1,"GRUP":2,"OBJL":17,"RVER":1,"AGEN":7979,"FIDN":1106834683,"FIDS":331,"LNAM":"1F2B41F8F4FB014B","LNAM_REFS":["1F2B41F8F4FB014C","1F2B4874B0CE0001"],"FFPT_RIND":[2,2],"BOYSHP":1,"CATLAM":2,"COLOUR":["4"],"CONRAD":3,"OBJNAM":"59A","SCAMIN":200000,"SORDAT":"20030930","sourceCellId":"1R76K7RI","sourceChecksum":"c5103760e7328340e8b3019e34f8552488501f1e793445aca64808cd612b3d92","rawObjectClass":"BOYLAT","sourceStableId":"1F2B41F8F4FB014B"},"sourceKind":"official","official":true,"sourceCellId":"1R76K7RI","sourceStableId":"1F2B41F8F4FB014B","pipelineFeatureId":"1R76K7RI/BOYLAT/17270","provenance":{"cellId":"1R76K7RI","checksum":"c5103760e7328340e8b3019e34f8552488501f1e793445aca64808cd612b3d92","readerVersion":"GDAL 3.2.2","processedAt":"2026-08-11T18:29:20.995Z"}}},{"type":"Feature","geometry":{"type":"Point","coordinates":[4.0695666,51.37]},"properties":{"dolphinKind":"buoy-lateral","rawObjectClass":"BOYLAT","sourceProperties":{"RCID":17272,"PRIM":1,"GRUP":2,"OBJL":17,"RVER":1,"AGEN":7979,"FIDN":1106834683,"FIDS":333,"LNAM":"1F2B41F8F4FB014D","LNAM_REFS":["1F2B41F8F4FB014E"],"FFPT_RIND":[2],"BOYSHP":1,"CATLAM":2,"COLOUR":["4"],"CONRAD":3,"OBJNAM":"61","SCAMIN":200000,"SORDAT":"20030930","sourceCellId":"1R76K7RI","sourceChecksum":"c5103760e7328340e8b3019e34f8552488501f1e793445aca64808cd612b3d92","rawObjectClass":"BOYLAT","sourceStableId":"1F2B41F8F4FB014D"},"sourceKind":"official","official":true,"sourceCellId":"1R76K7RI","sourceStableId":"1F2B41F8F4FB014D","pipelineFeatureId":"1R76K7RI/BOYLAT/17272","provenance":{"cellId":"1R76K7RI","checksum":"c5103760e7328340e8b3019e34f8552488501f1e793445aca64808cd612b3d92","readerVersion":"GDAL 3.2.2","processedAt":"2026-08-11T18:29:20.995Z"}}},{"type":"Feature","geometry":{"type":"Point","coordinates":[4.084135,51.3677867]},"properties":{"dolphinKind":"buoy-lateral","rawObjectClass":"BOYLAT","sourceProperties":{"RCID":17274,"PRIM":1,"GRUP":2,"OBJL":17,"RVER":1,"AGEN":7979,"FIDN":1106834683,"FIDS":335,"LNAM":"1F2B41F8F4FB014F","LNAM_REFS":["1F2B41F8F4FB0150"],"FFPT_RIND":[2],"BOYSHP":1,"CATLAM":2,"COLOUR":["4"],"CONRAD":3,"OBJNAM":"61A","SCAMIN":200000,"SORDAT":"20030930","sourceCellId":"1R76K7RI","sourceChecksum":"c5103760e7328340e8b3019e34f8552488501f1e793445aca64808cd612b3d92","rawObjectClass":"BOYLAT","sourceStableId":"1F2B41F8F4FB014F"},"sourceKind":"official","official":true,"sourceCellId":"1R76K7RI","sourceStableId":"1F2B41F8F4FB014F","pipelineFeatureId":"1R76K7RI/BOYLAT/17274","provenance":{"cellId":"1R76K7RI","checksum":"c5103760e7328340e8b3019e34f8552488501f1e793445aca64808cd612b3d92","readerVersion":"GDAL 3.2.2","processedAt":"2026-08-11T18:29:20.995Z"}}},{"type":"Feature","geometry":{"type":"Point","coordinates":[4.09865,51.3667]},"properties":{"dolphinKind":"buoy-lateral","rawObjectClass":"BOYLAT","sourceProperties":{"RCID":17276,"PRIM":1,"GRUP":2,"OBJL":17,"RVER":1,"AGEN":7979,"FIDN":1106834683,"FIDS":337,"LNAM":"1F2B41F8F4FB0151","LNAM_REFS":["1F2B41F8F4FB0152"],"FFPT_RIND":[2],"BOYSHP":1,"CATLAM":2,"COLOUR":["4"],"CONRAD":3,"OBJNAM":"63","SCAMIN":200000,"SORDAT":"20030930","sourceCellId":"1R76K7RI","sourceChecksum":"c5103760e7328340e8b3019e34f8552488501f1e793445aca64808cd612b3d92","rawObjectClass":"BOYLAT","sourceStableId":"1F2B41F8F4FB0151"},"sourceKind":"official","official":true,"sourceCellId":"1R76K7RI","sourceStableId":"1F2B41F8F4FB0151","pipelineFeatureId":"1R76K7RI/BOYLAT/17276","provenance":{"cellId":"1R76K7RI","checksum":"c5103760e7328340e8b3019e34f8552488501f1e793445aca64808cd612b3d92","readerVersion":"GDAL 3.2.2","processedAt":"2026-08-11T18:29:20.995Z"}}},{"type":"Feature","geometry":{"type":"Point","coordinates":[4.0721667,51.3741667]},"properties":{"dolphinKind":"buoy-lateral","rawObjectClass":"BOYLAT","sourceProperties":{"RCID":17354,"PRIM":1,"GRUP":2,"OBJL":17,"RVER":1,"AGEN":7979,"FIDN":1106834683,"FIDS":415,"LNAM":"1F2B41F8F4FB019F","BOYSHP":5,"CATLAM":1,"COLOUR":["3"],"CONRAD":3,"OBJNAM":"54","SCAMIN":200000,"SORDAT":"20140908","SORIND":"NL,1R,Reprt,BASS090-2014","sourceCellId":"1R76K7RI","sourceChecksum":"c5103760e7328340e8b3019e34f8552488501f1e793445aca64808cd612b3d92","rawObjectClass":"BOYLAT","sourceStableId":"1F2B41F8F4FB019F"},"sourceKind":"official","official":true,"sourceCellId":"1R76K7RI","sourceStableId":"1F2B41F8F4FB019F","pipelineFeatureId":"1R76K7RI/BOYLAT/17354","provenance":{"cellId":"1R76K7RI","checksum":"c5103760e7328340e8b3019e34f8552488501f1e793445aca64808cd612b3d92","readerVersion":"GDAL 3.2.2","processedAt":"2026-08-11T18:29:20.995Z"}}},{"type":"Feature","geometry":{"type":"Point","coordinates":[4.1065833,51.3713167]},"properties":{"dolphinKind":"buoy-lateral","rawObjectClass":"BOYLAT","sourceProperties":{"RCID":17357,"PRIM":1,"GRUP":2,"OBJL":17,"RVER":1,"AGEN":7979,"FIDN":1106834683,"FIDS":418,"LNAM":"1F2B41F8F4FB01A2","LNAM_REFS":["1F2B41F8F4FB01A3"],"FFPT_RIND":[2],"BOYSHP":2,"CATLAM":1,"COLOUR":["3"],"CONRAD":3,"OBJNAM":"58","SCAMIN":200000,"SORDAT":"20200821","SORIND":"NL,1R,reprt,MD 378-20","sourceCellId":"1R76K7RI","sourceChecksum":"c5103760e7328340e8b3019e34f8552488501f1e793445aca64808cd612b3d92","rawObjectClass":"BOYLAT","sourceStableId":"1F2B41F8F4FB01A2"},"sourceKind":"official","official":true,"sourceCellId":"1R76K7RI","sourceStableId":"1F2B41F8F4FB01A2","pipelineFeatureId":"1R76K7RI/BOYLAT/17357","provenance":{"cellId":"1R76K7RI","checksum":"c5103760e7328340e8b3019e34f8552488501f1e793445aca64808cd612b3d92","readerVersion":"GDAL 3.2.2","processedAt":"2026-08-11T18:29:20.995Z"}}},{"type":"Feature","geometry":{"type":"Point","coordinates":[4.12535,51.3729667]},"properties":{"dolphinKind":"buoy-lateral","rawObjectClass":"BOYLAT","sourceProperties":{"RCID":17360,"PRIM":1,"GRUP":2,"OBJL":17,"RVER":1,"AGEN":7979,"FIDN":1106834683,"FIDS":421,"LNAM":"1F2B41F8F4FB01A5","LNAM_REFS":["1F2B41F8F4FB01A6"],"FFPT_RIND":[2],"BOYSHP":2,"CATLAM":1,"COLOUR":["3"],"CONRAD":3,"OBJNAM":"60","SCAMIN":200000,"SORDAT":"20121101","SORIND":"NL,1R,reprt,WSN 2012 nr.026","sourceCellId":"1R76K7RI","sourceChecksum":"c5103760e7328340e8b3019e34f8552488501f1e793445aca64808cd612b3d92","rawObjectClass":"BOYLAT","sourceStableId":"1F2B41F8F4FB01A5"},"sourceKind":"official","official":true,"sourceCellId":"1R76K7RI","sourceStableId":"1F2B41F8F4FB01A5","pipelineFeatureId":"1R76K7RI/BOYLAT/17360","provenance":{"cellId":"1R76K7RI","checksum":"c5103760e7328340e8b3019e34f8552488501f1e793445aca64808cd612b3d92","readerVersion":"GDAL 3.2.2","processedAt":"2026-08-11T18:29:20.995Z"}}},{"type":"Feature","geometry":{"type":"Point","coordinates":[4.1177817,51.3680467]},"properties":{"dolphinKind":"buoy-lateral","rawObjectClass":"BOYLAT","sourceProperties":{"RCID":256713205,"PRIM":1,"GRUP":2,"OBJL":17,"RVER":1,"AGEN":7979,"FIDN":256713205,"FIDS":1,"LNAM":"1F2B0F4D21F50001","LNAM_REFS":["1F2B0F4D21F40001","1F2B4874B0BF0001"],"FFPT_RIND":[2,2],"BOYSHP":1,"CATLAM":2,"COLOUR":["4"],"CONRAD":3,"OBJNAM":"65","SCAMIN":200000,"SORDAT":"20241114","sourceCellId":"1R76K7RI","sourceChecksum":"c5103760e7328340e8b3019e34f8552488501f1e793445aca64808cd612b3d92","rawObjectClass":"BOYLAT","sourceStableId":"1F2B0F4D21F50001"},"sourceKind":"official","official":true,"sourceCellId":"1R76K7RI","sourceStableId":"1F2B0F4D21F50001","pipelineFeatureId":"1R76K7RI/BOYLAT/256713205","provenance":{"cellId":"1R76K7RI","checksum":"c5103760e7328340e8b3019e34f8552488501f1e793445aca64808cd612b3d92","readerVersion":"GDAL 3.2.2","processedAt":"2026-08-11T18:29:20.995Z"}}},{"type":"Feature","geometry":{"type":"Point","coordinates":[4.1041,51.3629333]},"properties":{"dolphinKind":"buoy-lateral","rawObjectClass":"BOYLAT","sourceProperties":{"RCID":344535328,"PRIM":1,"GRUP":2,"OBJL":17,"RVER":1,"AGEN":7979,"FIDN":344535328,"FIDS":1,"LNAM":"1F2B148931200001","BOYSHP":1,"CATLAM":2,"COLOUR":["4"],"OBJNAM":"SPG 1","INFORM":"Beheerder: Stichting Het Zeeuwse Landschap","SCAMIN":200000,"SORDAT":"20191217","sourceCellId":"1R76K7RI","sourceChecksum":"c5103760e7328340e8b3019e34f8552488501f1e793445aca64808cd612b3d92","rawObjectClass":"BOYLAT","sourceStableId":"1F2B148931200001"},"sourceKind":"official","official":true,"sourceCellId":"1R76K7RI","sourceStableId":"1F2B148931200001","pipelineFeatureId":"1R76K7RI/BOYLAT/344535328","provenance":{"cellId":"1R76K7RI","checksum":"c5103760e7328340e8b3019e34f8552488501f1e793445aca64808cd612b3d92","readerVersion":"GDAL 3.2.2","processedAt":"2026-08-11T18:29:20.995Z"}}},{"type":"Feature","geometry":{"type":"Point","coordinates":[4.10355,51.3608167]},"properties":{"dolphinKind":"buoy-lateral","rawObjectClass":"BOYLAT","sourceProperties":{"RCID":344535329,"PRIM":1,"GRUP":2,"OBJL":17,"RVER":1,"AGEN":7979,"FIDN":344535329,"FIDS":1,"LNAM":"1F2B148931210001","BOYSHP":1,"CATLAM":2,"COLOUR":["4"],"OBJNAM":"SPG 3","INFORM":"Beheerder: Stichting Het Zeeuwse Landschap","SCAMIN":200000,"SORDAT":"20191217","sourceCellId":"1R76K7RI","sourceChecksum":"c5103760e7328340e8b3019e34f8552488501f1e793445aca64808cd612b3d92","rawObjectClass":"BOYLAT","sourceStableId":"1F2B148931210001"},"sourceKind":"official","official":true,"sourceCellId":"1R76K7RI","sourceStableId":"1F2B148931210001","pipelineFeatureId":"1R76K7RI/BOYLAT/344535329","provenance":{"cellId":"1R76K7RI","checksum":"c5103760e7328340e8b3019e34f8552488501f1e793445aca64808cd612b3d92","readerVersion":"GDAL 3.2.2","processedAt":"2026-08-11T18:29:20.995Z"}}},{"type":"Feature","geometry":{"type":"Point","coordinates":[4.1083167,51.3562333]},"properties":{"dolphinKind":"buoy-lateral","rawObjectClass":"BOYLAT","sourceProperties":{"RCID":344535330,"PRIM":1,"GRUP":2,"OBJL":17,"RVER":1,"AGEN":7979,"FIDN":344535330,"FIDS":1,"LNAM":"1F2B148931220001","BOYSHP":1,"CATLAM":2,"COLOUR":["4"],"OBJNAM":"SPG 5","INFORM":"Beheerder: Stichting Het Zeeuwse Landschap","SCAMIN":200000,"SORDAT":"20191217","sourceCellId":"1R76K7RI","sourceChecksum":"c5103760e7328340e8b3019e34f8552488501f1e793445aca64808cd612b3d92","rawObjectClass":"BOYLAT","sourceStableId":"1F2B148931220001"},"sourceKind":"official","official":true,"sourceCellId":"1R76K7RI","sourceStableId":"1F2B148931220001","pipelineFeatureId":"1R76K7RI/BOYLAT/344535330","provenance":{"cellId":"1R76K7RI","checksum":"c5103760e7328340e8b3019e34f8552488501f1e793445aca64808cd612b3d92","readerVersion":"GDAL 3.2.2","processedAt":"2026-08-11T18:29:20.995Z"}}},{"type":"Feature","geometry":{"type":"Point","coordinates":[4.1056167,51.3634667]},"properties":{"dolphinKind":"buoy-lateral","rawObjectClass":"BOYLAT","sourceProperties":{"RCID":344535331,"PRIM":1,"GRUP":2,"OBJL":17,"RVER":1,"AGEN":7979,"FIDN":344535331,"FIDS":1,"LNAM":"1F2B148931230001","BOYSHP":2,"CATLAM":1,"COLOUR":["3"],"OBJNAM":"SPG 2","INFORM":"Beheerder: Stichting Het Zeeuwse Landschap","SCAMIN":200000,"SORDAT":"20190103","sourceCellId":"1R76K7RI","sourceChecksum":"c5103760e7328340e8b3019e34f8552488501f1e793445aca64808cd612b3d92","rawObjectClass":"BOYLAT","sourceStableId":"1F2B148931230001"},"sourceKind":"official","official":true,"sourceCellId":"1R76K7RI","sourceStableId":"1F2B148931230001","pipelineFeatureId":"1R76K7RI/BOYLAT/344535331","provenance":{"cellId":"1R76K7RI","checksum":"c5103760e7328340e8b3019e34f8552488501f1e793445aca64808cd612b3d92","readerVersion":"GDAL 3.2.2","processedAt":"2026-08-11T18:29:20.995Z"}}},{"type":"Feature","geometry":{"type":"Point","coordinates":[4.1044333,51.3610833]},"properties":{"dolphinKind":"buoy-lateral","rawObjectClass":"BOYLAT","sourceProperties":{"RCID":344535332,"PRIM":1,"GRUP":2,"OBJL":17,"RVER":1,"AGEN":7979,"FIDN":344535332,"FIDS":1,"LNAM":"1F2B148931240001","BOYSHP":2,"CATLAM":1,"COLOUR":["3"],"OBJNAM":"SPG 4","INFORM":"Beheerder: Stichting Het Zeeuwse Landschap","SCAMIN":200000,"SORDAT":"20190103","sourceCellId":"1R76K7RI","sourceChecksum":"c5103760e7328340e8b3019e34f8552488501f1e793445aca64808cd612b3d92","rawObjectClass":"BOYLAT","sourceStableId":"1F2B148931240001"},"sourceKind":"official","official":true,"sourceCellId":"1R76K7RI","sourceStableId":"1F2B148931240001","pipelineFeatureId":"1R76K7RI/BOYLAT/344535332","provenance":{"cellId":"1R76K7RI","checksum":"c5103760e7328340e8b3019e34f8552488501f1e793445aca64808cd612b3d92","readerVersion":"GDAL 3.2.2","processedAt":"2026-08-11T18:29:20.995Z"}}},{"type":"Feature","geometry":{"type":"Point","coordinates":[4.1087333,51.3569833]},"properties":{"dolphinKind":"buoy-lateral","rawObjectClass":"BOYLAT","sourceProperties":{"RCID":344535333,"PRIM":1,"GRUP":2,"OBJL":17,"RVER":1,"AGEN":7979,"FIDN":344535333,"FIDS":1,"LNAM":"1F2B148931250001","BOYSHP":2,"CATLAM":1,"COLOUR":["3"],"OBJNAM":"SPG 6","INFORM":"Beheerder: Stichting Het Zeeuwse Landschap","SCAMIN":200000,"SORDAT":"20190103","sourceCellId":"1R76K7RI","sourceChecksum":"c5103760e7328340e8b3019e34f8552488501f1e793445aca64808cd612b3d92","rawObjectClass":"BOYLAT","sourceStableId":"1F2B148931250001"},"sourceKind":"official","official":true,"sourceCellId":"1R76K7RI","sourceStableId":"1F2B148931250001","pipelineFeatureId":"1R76K7RI/BOYLAT/344535333","provenance":{"cellId":"1R76K7RI","checksum":"c5103760e7328340e8b3019e34f8552488501f1e793445aca64808cd612b3d92","readerVersion":"GDAL 3.2.2","processedAt":"2026-08-11T18:29:20.995Z"}}},{"type":"Feature","geometry":{"type":"Point","coordinates":[4.08925,51.3714167]},"properties":{"dolphinKind":"buoy-lateral","rawObjectClass":"BOYLAT","sourceProperties":{"RCID":484119584,"PRIM":1,"GRUP":2,"OBJL":17,"RVER":1,"AGEN":7979,"FIDN":484119584,"FIDS":1,"LNAM":"1F2B1CDB14200001","LNAM_REFS":["1F2B1CDB141F0001"],"FFPT_RIND":[2],"BOYSHP":2,"CATLAM":1,"COLOUR":["3"],"CONRAD":3,"OBJNAM":"56","SCAMIN":200000,"SORDAT":"20140109","SORIND":"NL,1R,Reprt,Checklist0002-2014","sourceCellId":"1R76K7RI","sourceChecksum":"c5103760e7328340e8b3019e34f8552488501f1e793445aca64808cd612b3d92","rawObjectClass":"BOYLAT","sourceStableId":"1F2B1CDB14200001"},"sourceKind":"official","official":true,"sourceCellId":"1R76K7RI","sourceStableId":"1F2B1CDB14200001","pipelineFeatureId":"1R76K7RI/BOYLAT/484119584","provenance":{"cellId":"1R76K7RI","checksum":"c5103760e7328340e8b3019e34f8552488501f1e793445aca64808cd612b3d92","readerVersion":"GDAL 3.2.2","processedAt":"2026-08-11T18:29:20.995Z"}}},{"type":"Feature","geometry":{"type":"Point","coordinates":[3.9422467,51.3738133]},"properties":{"dolphinKind":"buoy-special","rawObjectClass":"BOYSPP","sourceProperties":{"RCID":152249807,"PRIM":1,"GRUP":2,"OBJL":19,"RVER":1,"AGEN":7979,"FIDN":152249807,"FIDS":1,"LNAM":"1F2B091325CF0001","LNAM_REFS":["1F2B4C4AC4A60001"],"FFPT_RIND":[2],"BOYSHP":5,"CATSPM":["41"],"COLOUR":["6"],"CONRAD":3,"NATCON":["8"],"OBJNAM":"F 33","SCAMIN":200000,"SORDAT":"20160303","SORIND":"NL,1R,reprt,BASS 018-2016","sourceCellId":"1R76K7RI","sourceChecksum":"c5103760e7328340e8b3019e34f8552488501f1e793445aca64808cd612b3d92","rawObjectClass":"BOYSPP","sourceStableId":"1F2B091325CF0001"},"sourceKind":"official","official":true,"sourceCellId":"1R76K7RI","sourceStableId":"1F2B091325CF0001","pipelineFeatureId":"1R76K7RI/BOYSPP/152249807","provenance":{"cellId":"1R76K7RI","checksum":"c5103760e7328340e8b3019e34f8552488501f1e793445aca64808cd612b3d92","readerVersion":"GDAL 3.2.2","processedAt":"2026-08-11T18:29:20.995Z"}}},{"type":"Feature","geometry":{"type":"Point","coordinates":[4.1236433,51.373405]},"properties":{"dolphinKind":"buoy-special","rawObjectClass":"BOYSPP","sourceProperties":{"RCID":187458909,"PRIM":1,"GRUP":2,"OBJL":19,"RVER":1,"AGEN":7979,"FIDN":187458909,"FIDS":1,"LNAM":"1F2B0B2C655D0001","LNAM_REFS":["1F2B480CAB670001"],"FFPT_RIND":[2],"BOYSHP":5,"CATSPM":["41"],"COLOUR":["6"],"CONRAD":3,"OBJNAM":"F 60","SCAMIN":200000,"SORDAT":"20241114","SORIND":"NL,1R,Reprt,MD631-24","sourceCellId":"1R76K7RI","sourceChecksum":"c5103760e7328340e8b3019e34f8552488501f1e793445aca64808cd612b3d92","rawObjectClass":"BOYSPP","sourceStableId":"1F2B0B2C655D0001"},"sourceKind":"official","official":true,"sourceCellId":"1R76K7RI","sourceStableId":"1F2B0B2C655D0001","pipelineFeatureId":"1R76K7RI/BOYSPP/187458909","provenance":{"cellId":"1R76K7RI","checksum":"c5103760e7328340e8b3019e34f8552488501f1e793445aca64808cd612b3d92","readerVersion":"GDAL 3.2.2","processedAt":"2026-08-11T18:29:20.995Z"}}},{"type":"Feature","geometry":{"type":"Point","coordinates":[4.1178567,51.3671017]},"properties":{"dolphinKind":"buoy-special","rawObjectClass":"BOYSPP","sourceProperties":{"RCID":451205823,"PRIM":1,"GRUP":2,"OBJL":19,"RVER":1,"AGEN":7979,"FIDN":451205823,"FIDS":1,"LNAM":"1F2B1AE4DABF0001","LNAM_REFS":["1F2B1AD424D40001"],"FFPT_RIND":[2],"BOYSHP":5,"CATSPM":["41"],"COLOUR":["6"],"CONRAD":3,"OBJNAM":"F 65","SCAMIN":200000,"SORDAT":"20220308","sourceCellId":"1R76K7RI","sourceChecksum":"c5103760e7328340e8b3019e34f8552488501f1e793445aca64808cd612b3d92","rawObjectClass":"BOYSPP","sourceStableId":"1F2B1AE4DABF0001"},"sourceKind":"official","official":true,"sourceCellId":"1R76K7RI","sourceStableId":"1F2B1AE4DABF0001","pipelineFeatureId":"1R76K7RI/BOYSPP/451205823","provenance":{"cellId":"1R76K7RI","checksum":"c5103760e7328340e8b3019e34f8552488501f1e793445aca64808cd612b3d92","readerVersion":"GDAL 3.2.2","processedAt":"2026-08-11T18:29:20.995Z"}}},{"type":"Feature","geometry":{"type":"Point","coordinates":[4.089425,51.3725267]},"properties":{"dolphinKind":"buoy-special","rawObjectClass":"BOYSPP","sourceProperties":{"RCID":500614883,"PRIM":1,"GRUP":2,"OBJL":19,"RVER":1,"AGEN":7979,"FIDN":500614883,"FIDS":1,"LNAM":"1F2B1DD6C6E30001","LNAM_REFS":["1F2B480CAA9E0001"],"FFPT_RIND":[2],"BOYSHP":5,"CATSPM":["27"],"COLOUR":["6"],"OBJNAM":"F 56","SCAMIN":200000,"SORDAT":"20241114","SORIND":"NL,1R,reprt,MD 631-24","sourceCellId":"1R76K7RI","sourceChecksum":"c5103760e7328340e8b3019e34f8552488501f1e793445aca64808cd612b3d92","rawObjectClass":"BOYSPP","sourceStableId":"1F2B1DD6C6E30001"},"sourceKind":"official","official":true,"sourceCellId":"1R76K7RI","sourceStableId":"1F2B1DD6C6E30001","pipelineFeatureId":"1R76K7RI/BOYSPP/500614883","provenance":{"cellId":"1R76K7RI","checksum":"c5103760e7328340e8b3019e34f8552488501f1e793445aca64808cd612b3d92","readerVersion":"GDAL 3.2.2","processedAt":"2026-08-11T18:29:20.995Z"}}},{"type":"Feature","geometry":{"type":"Point","coordinates":[4.1023717,51.3658889]},"properties":{"dolphinKind":"light","rawObjectClass":"LIGHTS","sourceProperties":{"RCID":16630,"PRIM":1,"GRUP":2,"OBJL":75,"RVER":1,"AGEN":7979,"FIDN":1106834597,"FIDS":261,"LNAM":"1F2B41F8F4A50105","COLOUR":["6"],"LITCHR":2,"SIGGRP":"(5)","SIGPER":20,"SCAMIN":200000,"SORDAT":"20030923","sourceCellId":"1R76K7RI","sourceChecksum":"c5103760e7328340e8b3019e34f8552488501f1e793445aca64808cd612b3d92","rawObjectClass":"LIGHTS","sourceStableId":"1F2B41F8F4A50105"},"sourceKind":"official","official":true,"sourceCellId":"1R76K7RI","sourceStableId":"1F2B41F8F4A50105","pipelineFeatureId":"1R76K7RI/LIGHTS/16630","provenance":{"cellId":"1R76K7RI","checksum":"c5103760e7328340e8b3019e34f8552488501f1e793445aca64808cd612b3d92","readerVersion":"GDAL 3.2.2","processedAt":"2026-08-11T18:29:20.995Z"}}},{"type":"Feature","geometry":{"type":"Point","coordinates":[4.05485,51.3724]},"properties":{"dolphinKind":"light","rawObjectClass":"LIGHTS","sourceProperties":{"RCID":17271,"PRIM":1,"GRUP":2,"OBJL":75,"RVER":1,"AGEN":7979,"FIDN":1106834683,"FIDS":332,"LNAM":"1F2B41F8F4FB014C","COLOUR":["4"],"LITCHR":7,"SIGGRP":"(1)","SIGPER":8,"SCAMIN":200000,"SORDAT":"20030930","sourceCellId":"1R76K7RI","sourceChecksum":"c5103760e7328340e8b3019e34f8552488501f1e793445aca64808cd612b3d92","rawObjectClass":"LIGHTS","sourceStableId":"1F2B41F8F4FB014C"},"sourceKind":"official","official":true,"sourceCellId":"1R76K7RI","sourceStableId":"1F2B41F8F4FB014C","pipelineFeatureId":"1R76K7RI/LIGHTS/17271","provenance":{"cellId":"1R76K7RI","checksum":"c5103760e7328340e8b3019e34f8552488501f1e793445aca64808cd612b3d92","readerVersion":"GDAL 3.2.2","processedAt":"2026-08-11T18:29:20.995Z"}}},{"type":"Feature","geometry":{"type":"Point","coordinates":[4.0695666,51.37]},"properties":{"dolphinKind":"light","rawObjectClass":"LIGHTS","sourceProperties":{"RCID":17273,"PRIM":1,"GRUP":2,"OBJL":75,"RVER":1,"AGEN":7979,"FIDN":1106834683,"FIDS":334,"LNAM":"1F2B41F8F4FB014E","COLOUR":["4"],"LITCHR":7,"SIGGRP":"(1)","SIGPER":8,"SCAMIN":200000,"SORDAT":"20030930","sourceCellId":"1R76K7RI","sourceChecksum":"c5103760e7328340e8b3019e34f8552488501f1e793445aca64808cd612b3d92","rawObjectClass":"LIGHTS","sourceStableId":"1F2B41F8F4FB014E"},"sourceKind":"official","official":true,"sourceCellId":"1R76K7RI","sourceStableId":"1F2B41F8F4FB014E","pipelineFeatureId":"1R76K7RI/LIGHTS/17273","provenance":{"cellId":"1R76K7RI","checksum":"c5103760e7328340e8b3019e34f8552488501f1e793445aca64808cd612b3d92","readerVersion":"GDAL 3.2.2","processedAt":"2026-08-11T18:29:20.995Z"}}},{"type":"Feature","geometry":{"type":"Point","coordinates":[4.084135,51.3677867]},"properties":{"dolphinKind":"light","rawObjectClass":"LIGHTS","sourceProperties":{"RCID":17275,"PRIM":1,"GRUP":2,"OBJL":75,"RVER":1,"AGEN":7979,"FIDN":1106834683,"FIDS":336,"LNAM":"1F2B41F8F4FB0150","COLOUR":["4"],"LITCHR":7,"SIGGRP":"(1)","SIGPER":4,"SCAMIN":200000,"SORDAT":"20030930","sourceCellId":"1R76K7RI","sourceChecksum":"c5103760e7328340e8b3019e34f8552488501f1e793445aca64808cd612b3d92","rawObjectClass":"LIGHTS","sourceStableId":"1F2B41F8F4FB0150"},"sourceKind":"official","official":true,"sourceCellId":"1R76K7RI","sourceStableId":"1F2B41F8F4FB0150","pipelineFeatureId":"1R76K7RI/LIGHTS/17275","provenance":{"cellId":"1R76K7RI","checksum":"c5103760e7328340e8b3019e34f8552488501f1e793445aca64808cd612b3d92","readerVersion":"GDAL 3.2.2","processedAt":"2026-08-11T18:29:20.995Z"}}},{"type":"Feature","geometry":{"type":"Point","coordinates":[4.09865,51.3667]},"properties":{"dolphinKind":"light","rawObjectClass":"LIGHTS","sourceProperties":{"RCID":17277,"PRIM":1,"GRUP":2,"OBJL":75,"RVER":1,"AGEN":7979,"FIDN":1106834683,"FIDS":338,"LNAM":"1F2B41F8F4FB0152","COLOUR":["4"],"LITCHR":7,"SIGGRP":"(1)","SIGPER":8,"SCAMIN":200000,"SORDAT":"20030930","sourceCellId":"1R76K7RI","sourceChecksum":"c5103760e7328340e8b3019e34f8552488501f1e793445aca64808cd612b3d92","rawObjectClass":"LIGHTS","sourceStableId":"1F2B41F8F4FB0152"},"sourceKind":"official","official":true,"sourceCellId":"1R76K7RI","sourceStableId":"1F2B41F8F4FB0152","pipelineFeatureId":"1R76K7RI/LIGHTS/17277","provenance":{"cellId":"1R76K7RI","checksum":"c5103760e7328340e8b3019e34f8552488501f1e793445aca64808cd612b3d92","readerVersion":"GDAL 3.2.2","processedAt":"2026-08-11T18:29:20.995Z"}}},{"type":"Feature","geometry":{"type":"Point","coordinates":[4.1065833,51.3713167]},"properties":{"dolphinKind":"light","rawObjectClass":"LIGHTS","sourceProperties":{"RCID":17358,"PRIM":1,"GRUP":2,"OBJL":75,"RVER":1,"AGEN":7979,"FIDN":1106834683,"FIDS":419,"LNAM":"1F2B41F8F4FB01A3","COLOUR":["3"],"LITCHR":7,"SIGGRP":"(1)","SIGPER":8,"SCAMIN":200000,"SORDAT":"20200707","sourceCellId":"1R76K7RI","sourceChecksum":"c5103760e7328340e8b3019e34f8552488501f1e793445aca64808cd612b3d92","rawObjectClass":"LIGHTS","sourceStableId":"1F2B41F8F4FB01A3"},"sourceKind":"official","official":true,"sourceCellId":"1R76K7RI","sourceStableId":"1F2B41F8F4FB01A3","pipelineFeatureId":"1R76K7RI/LIGHTS/17358","provenance":{"cellId":"1R76K7RI","checksum":"c5103760e7328340e8b3019e34f8552488501f1e793445aca64808cd612b3d92","readerVersion":"GDAL 3.2.2","processedAt":"2026-08-11T18:29:20.995Z"}}},{"type":"Feature","geometry":{"type":"Point","coordinates":[4.12535,51.3729667]},"properties":{"dolphinKind":"light","rawObjectClass":"LIGHTS","sourceProperties":{"RCID":17361,"PRIM":1,"GRUP":2,"OBJL":75,"RVER":1,"AGEN":7979,"FIDN":1106834683,"FIDS":422,"LNAM":"1F2B41F8F4FB01A6","COLOUR":["3"],"LITCHR":7,"SIGGRP":"(1)","SIGPER":4,"SCAMIN":200000,"SORDAT":"20080916","SORIND":"NL,1R,reprt,Bass 97/08","sourceCellId":"1R76K7RI","sourceChecksum":"c5103760e7328340e8b3019e34f8552488501f1e793445aca64808cd612b3d92","rawObjectClass":"LIGHTS","sourceStableId":"1F2B41F8F4FB01A6"},"sourceKind":"official","official":true,"sourceCellId":"1R76K7RI","sourceStableId":"1F2B41F8F4FB01A6","pipelineFeatureId":"1R76K7RI/LIGHTS/17361","provenance":{"cellId":"1R76K7RI","checksum":"c5103760e7328340e8b3019e34f8552488501f1e793445aca64808cd612b3d92","readerVersion":"GDAL 3.2.2","processedAt":"2026-08-11T18:29:20.995Z"}}},{"type":"Feature","geometry":{"type":"Point","coordinates":[4.1177817,51.3680467]},"properties":{"dolphinKind":"light","rawObjectClass":"LIGHTS","sourceProperties":{"RCID":256713204,"PRIM":1,"GRUP":2,"OBJL":75,"RVER":1,"AGEN":7979,"FIDN":256713204,"FIDS":1,"LNAM":"1F2B0F4D21F40001","COLOUR":["4"],"LITCHR":4,"SIGGRP":"(1)","SIGPER":4,"SCAMIN":200000,"SORDAT":"20030930","sourceCellId":"1R76K7RI","sourceChecksum":"c5103760e7328340e8b3019e34f8552488501f1e793445aca64808cd612b3d92","rawObjectClass":"LIGHTS","sourceStableId":"1F2B0F4D21F40001"},"sourceKind":"official","official":true,"sourceCellId":"1R76K7RI","sourceStableId":"1F2B0F4D21F40001","pipelineFeatureId":"1R76K7RI/LIGHTS/256713204","provenance":{"cellId":"1R76K7RI","checksum":"c5103760e7328340e8b3019e34f8552488501f1e793445aca64808cd612b3d92","readerVersion":"GDAL 3.2.2","processedAt":"2026-08-11T18:29:20.995Z"}}},{"type":"Feature","geometry":{"type":"Point","coordinates":[4.08925,51.3714167]},"properties":{"dolphinKind":"light","rawObjectClass":"LIGHTS","sourceProperties":{"RCID":484119583,"PRIM":1,"GRUP":2,"OBJL":75,"RVER":1,"AGEN":7979,"FIDN":484119583,"FIDS":1,"LNAM":"1F2B1CDB141F0001","COLOUR":["3"],"LITCHR":7,"SIGGRP":"(1)","SIGPER":4,"SCAMIN":200000,"SORDAT":"20221107","SORIND":"NL,1R,reprt,NMA","sourceCellId":"1R76K7RI","sourceChecksum":"c5103760e7328340e8b3019e34f8552488501f1e793445aca64808cd612b3d92","rawObjectClass":"LIGHTS","sourceStableId":"1F2B1CDB141F0001"},"sourceKind":"official","official":true,"sourceCellId":"1R76K7RI","sourceStableId":"1F2B1CDB141F0001","pipelineFeatureId":"1R76K7RI/LIGHTS/484119583","provenance":{"cellId":"1R76K7RI","checksum":"c5103760e7328340e8b3019e34f8552488501f1e793445aca64808cd612b3d92","readerVersion":"GDAL 3.2.2","processedAt":"2026-08-11T18:29:20.995Z"}}},{"type":"Feature","geometry":{"type":"Point","coordinates":[4.1018667,51.3653833]},"properties":{"dolphinKind":"topmark","rawObjectClass":"TOPMAR","sourceProperties":{"RCID":17209,"PRIM":1,"GRUP":2,"OBJL":144,"RVER":1,"AGEN":7979,"FIDN":1106834683,"FIDS":270,"LNAM":"1F2B41F8F4FB010E","COLOUR":["2"],"TOPSHP":11,"SCAMIN":200000,"SORDAT":"20030930","sourceCellId":"1R76K7RI","sourceChecksum":"c5103760e7328340e8b3019e34f8552488501f1e793445aca64808cd612b3d92","rawObjectClass":"TOPMAR","sourceStableId":"1F2B41F8F4FB010E"},"sourceKind":"official","official":true,"sourceCellId":"1R76K7RI","sourceStableId":"1F2B41F8F4FB010E","pipelineFeatureId":"1R76K7RI/TOPMAR/17209","provenance":{"cellId":"1R76K7RI","checksum":"c5103760e7328340e8b3019e34f8552488501f1e793445aca64808cd612b3d92","readerVersion":"GDAL 3.2.2","processedAt":"2026-08-11T18:29:20.995Z"},"associationRefsVerifiedInGdalOutput":false}},{"type":"Feature","geometry":{"type":"Point","coordinates":[4.1032833,51.3660167]},"properties":{"dolphinKind":"topmark","rawObjectClass":"TOPMAR","sourceProperties":{"RCID":82220748,"PRIM":1,"GRUP":2,"OBJL":144,"RVER":1,"AGEN":7979,"FIDN":82220748,"FIDS":1,"LNAM":"1F2B04E696CC0001","COLOUR":["2"],"TOPSHP":10,"SCAMIN":200000,"SORDAT":"20030930","sourceCellId":"1R76K7RI","sourceChecksum":"c5103760e7328340e8b3019e34f8552488501f1e793445aca64808cd612b3d92","rawObjectClass":"TOPMAR","sourceStableId":"1F2B04E696CC0001"},"sourceKind":"official","official":true,"sourceCellId":"1R76K7RI","sourceStableId":"1F2B04E696CC0001","pipelineFeatureId":"1R76K7RI/TOPMAR/82220748","provenance":{"cellId":"1R76K7RI","checksum":"c5103760e7328340e8b3019e34f8552488501f1e793445aca64808cd612b3d92","readerVersion":"GDAL 3.2.2","processedAt":"2026-08-11T18:29:20.995Z"},"associationRefsVerifiedInGdalOutput":false}},{"type":"Feature","geometry":{"type":"Point","coordinates":[4.1178567,51.3671017]},"properties":{"dolphinKind":"topmark","rawObjectClass":"TOPMAR","sourceProperties":{"RCID":450110676,"PRIM":1,"GRUP":2,"OBJL":144,"RVER":1,"AGEN":7979,"FIDN":450110676,"FIDS":1,"LNAM":"1F2B1AD424D40001","COLOUR":["6"],"TOPSHP":7,"SCAMIN":200000,"SORDAT":"20220304","SORIND":"NL,1R,Reprt,BASS 23/2022","sourceCellId":"1R76K7RI","sourceChecksum":"c5103760e7328340e8b3019e34f8552488501f1e793445aca64808cd612b3d92","rawObjectClass":"TOPMAR","sourceStableId":"1F2B1AD424D40001"},"sourceKind":"official","official":true,"sourceCellId":"1R76K7RI","sourceStableId":"1F2B1AD424D40001","pipelineFeatureId":"1R76K7RI/TOPMAR/450110676","provenance":{"cellId":"1R76K7RI","checksum":"c5103760e7328340e8b3019e34f8552488501f1e793445aca64808cd612b3d92","readerVersion":"GDAL 3.2.2","processedAt":"2026-08-11T18:29:20.995Z"},"associationRefsVerifiedInGdalOutput":false}},{"type":"Feature","geometry":{"type":"Point","coordinates":[4.089425,51.3725267]},"properties":{"dolphinKind":"topmark","rawObjectClass":"TOPMAR","sourceProperties":{"RCID":1208789662,"PRIM":1,"GRUP":2,"OBJL":144,"RVER":1,"AGEN":7979,"FIDN":1208789662,"FIDS":1,"LNAM":"1F2B480CAA9E0001","COLOUR":["6"],"TOPSHP":7,"SCAMIN":200000,"sourceCellId":"1R76K7RI","sourceChecksum":"c5103760e7328340e8b3019e34f8552488501f1e793445aca64808cd612b3d92","rawObjectClass":"TOPMAR","sourceStableId":"1F2B480CAA9E0001"},"sourceKind":"official","official":true,"sourceCellId":"1R76K7RI","sourceStableId":"1F2B480CAA9E0001","pipelineFeatureId":"1R76K7RI/TOPMAR/1208789662","provenance":{"cellId":"1R76K7RI","checksum":"c5103760e7328340e8b3019e34f8552488501f1e793445aca64808cd612b3d92","readerVersion":"GDAL 3.2.2","processedAt":"2026-08-11T18:29:20.995Z"},"associationRefsVerifiedInGdalOutput":false}},{"type":"Feature","geometry":{"type":"Point","coordinates":[4.1236433,51.373405]},"properties":{"dolphinKind":"topmark","rawObjectClass":"TOPMAR","sourceProperties":{"RCID":1208789863,"PRIM":1,"GRUP":2,"OBJL":144,"RVER":1,"AGEN":7979,"FIDN":1208789863,"FIDS":1,"LNAM":"1F2B480CAB670001","COLOUR":["6"],"TOPSHP":7,"SCAMIN":200000,"sourceCellId":"1R76K7RI","sourceChecksum":"c5103760e7328340e8b3019e34f8552488501f1e793445aca64808cd612b3d92","rawObjectClass":"TOPMAR","sourceStableId":"1F2B480CAB670001"},"sourceKind":"official","official":true,"sourceCellId":"1R76K7RI","sourceStableId":"1F2B480CAB670001","pipelineFeatureId":"1R76K7RI/TOPMAR/1208789863","provenance":{"cellId":"1R76K7RI","checksum":"c5103760e7328340e8b3019e34f8552488501f1e793445aca64808cd612b3d92","readerVersion":"GDAL 3.2.2","processedAt":"2026-08-11T18:29:20.995Z"},"associationRefsVerifiedInGdalOutput":false}},{"type":"Feature","geometry":{"type":"Point","coordinates":[4.1177817,51.3680467]},"properties":{"dolphinKind":"topmark","rawObjectClass":"TOPMAR","sourceProperties":{"RCID":1215606975,"PRIM":1,"GRUP":2,"OBJL":144,"RVER":1,"AGEN":7979,"FIDN":1215606975,"FIDS":1,"LNAM":"1F2B4874B0BF0001","COLOUR":["4"],"TOPSHP":1,"SCAMIN":200000,"SORDAT":"20250114","SORIND":"NL,1R,Reprt,MD 026-25","sourceCellId":"1R76K7RI","sourceChecksum":"c5103760e7328340e8b3019e34f8552488501f1e793445aca64808cd612b3d92","rawObjectClass":"TOPMAR","sourceStableId":"1F2B4874B0BF0001"},"sourceKind":"official","official":true,"sourceCellId":"1R76K7RI","sourceStableId":"1F2B4874B0BF0001","pipelineFeatureId":"1R76K7RI/TOPMAR/1215606975","provenance":{"cellId":"1R76K7RI","checksum":"c5103760e7328340e8b3019e34f8552488501f1e793445aca64808cd612b3d92","readerVersion":"GDAL 3.2.2","processedAt":"2026-08-11T18:29:20.995Z"},"associationRefsVerifiedInGdalOutput":false}},{"type":"Feature","geometry":{"type":"Point","coordinates":[4.05485,51.3724]},"properties":{"dolphinKind":"topmark","rawObjectClass":"TOPMAR","sourceProperties":{"RCID":1215606990,"PRIM":1,"GRUP":2,"OBJL":144,"RVER":1,"AGEN":7979,"FIDN":1215606990,"FIDS":1,"LNAM":"1F2B4874B0CE0001","COLOUR":["4"],"TOPSHP":1,"SCAMIN":200000,"SORDAT":"20250114","SORIND":"NL,1R,Reprt,MD 026-25","sourceCellId":"1R76K7RI","sourceChecksum":"c5103760e7328340e8b3019e34f8552488501f1e793445aca64808cd612b3d92","rawObjectClass":"TOPMAR","sourceStableId":"1F2B4874B0CE0001"},"sourceKind":"official","official":true,"sourceCellId":"1R76K7RI","sourceStableId":"1F2B4874B0CE0001","pipelineFeatureId":"1R76K7RI/TOPMAR/1215606990","provenance":{"cellId":"1R76K7RI","checksum":"c5103760e7328340e8b3019e34f8552488501f1e793445aca64808cd612b3d92","readerVersion":"GDAL 3.2.2","processedAt":"2026-08-11T18:29:20.995Z"},"associationRefsVerifiedInGdalOutput":false}},{"type":"Feature","geometry":{"type":"Point","coordinates":[3.9422467,51.3738133]},"properties":{"dolphinKind":"topmark","rawObjectClass":"TOPMAR","sourceProperties":{"RCID":1279968422,"PRIM":1,"GRUP":2,"OBJL":144,"RVER":1,"AGEN":7979,"FIDN":1279968422,"FIDS":1,"LNAM":"1F2B4C4AC4A60001","COLOUR":["6"],"TOPSHP":7,"SCAMIN":200000,"SORDAT":"20260626","sourceCellId":"1R76K7RI","sourceChecksum":"c5103760e7328340e8b3019e34f8552488501f1e793445aca64808cd612b3d92","rawObjectClass":"TOPMAR","sourceStableId":"1F2B4C4AC4A60001"},"sourceKind":"official","official":true,"sourceCellId":"1R76K7RI","sourceStableId":"1F2B4C4AC4A60001","pipelineFeatureId":"1R76K7RI/TOPMAR/1279968422","provenance":{"cellId":"1R76K7RI","checksum":"c5103760e7328340e8b3019e34f8552488501f1e793445aca64808cd612b3d92","readerVersion":"GDAL 3.2.2","processedAt":"2026-08-11T18:29:20.995Z"},"associationRefsVerifiedInGdalOutput":false}},{"type":"Feature","geometry":{"type":"Point","coordinates":[3.9392217,51.37237]},"properties":{"dolphinKind":"topmark","rawObjectClass":"TOPMAR","sourceProperties":{"RCID":1279968424,"PRIM":1,"GRUP":2,"OBJL":144,"RVER":1,"AGEN":7979,"FIDN":1279968424,"FIDS":1,"LNAM":"1F2B4C4AC4A80001","COLOUR":["2"],"TOPSHP":13,"SCAMIN":200000,"SORDAT":"20260626","sourceCellId":"1R76K7RI","sourceChecksum":"c5103760e7328340e8b3019e34f8552488501f1e793445aca64808cd612b3d92","rawObjectClass":"TOPMAR","sourceStableId":"1F2B4C4AC4A80001"},"sourceKind":"official","official":true,"sourceCellId":"1R76K7RI","sourceStableId":"1F2B4C4AC4A80001","pipelineFeatureId":"1R76K7RI/TOPMAR/1279968424","provenance":{"cellId":"1R76K7RI","checksum":"c5103760e7328340e8b3019e34f8552488501f1e793445aca64808cd612b3d92","readerVersion":"GDAL 3.2.2","processedAt":"2026-08-11T18:29:20.995Z"},"associationRefsVerifiedInGdalOutput":false}}]}