{"type":"FeatureCollection","features":[{"type":"Feature","geometry":{"type":"Point","coordinates":[3.93205,51.4329667]},"properties":{"dolphinKind":"buoy-lateral","rawObjectClass":"BOYLAT","sourceProperties":{"RCID":17406,"PRIM":1,"GRUP":2,"OBJL":17,"RVER":1,"AGEN":7979,"FIDN":1106834683,"FIDS":467,"LNAM":"1F2B41F8F4FB01D3","BOYSHP":5,"CATLAM":2,"COLOUR":["4"],"CONRAD":3,"OBJNAM":"MG 9","SCAMIN":200000,"SORDAT":"20191018","SORIND":"NL,1R,Reprt,email F. de Pooter 03102019","sourceCellId":"1R768ZBI","sourceChecksum":"3882591018ee8c2c622e5d3fad12629ad1cd467cd148b39008bf6c9cec5cb7f4","rawObjectClass":"BOYLAT","sourceStableId":"1F2B41F8F4FB01D3"},"sourceKind":"official","official":true,"sourceCellId":"1R768ZBI","sourceStableId":"1F2B41F8F4FB01D3","pipelineFeatureId":"1R768ZBI/BOYLAT/17406","provenance":{"cellId":"1R768ZBI","checksum":"3882591018ee8c2c622e5d3fad12629ad1cd467cd148b39008bf6c9cec5cb7f4","readerVersion":"GDAL 3.2.2","processedAt":"2026-08-11T13:43:44.753Z"}}},{"type":"Feature","geometry":{"type":"Point","coordinates":[3.9289217,51.4363383]},"properties":{"dolphinKind":"buoy-lateral","rawObjectClass":"BOYLAT","sourceProperties":{"RCID":13301356,"PRIM":1,"GRUP":2,"OBJL":17,"RVER":1,"AGEN":7979,"FIDN":13301356,"FIDS":1,"LNAM":"1F2B00CAF66C0001","LNAM_REFS":["1F2B48A6B03F0001"],"FFPT_RIND":[2],"BOYSHP":5,"CATLAM":1,"COLOUR":["3"],"CONRAD":3,"OBJNAM":"MG 8","SCAMIN":200000,"SORDAT":"20250210","SORIND":"NL,1R,Reprt,MD070-2025","sourceCellId":"1R768ZBI","sourceChecksum":"3882591018ee8c2c622e5d3fad12629ad1cd467cd148b39008bf6c9cec5cb7f4","rawObjectClass":"BOYLAT","sourceStableId":"1F2B00CAF66C0001"},"sourceKind":"official","official":true,"sourceCellId":"1R768ZBI","sourceStableId":"1F2B00CAF66C0001","pipelineFeatureId":"1R768ZBI/BOYLAT/13301356","provenance":{"cellId":"1R768ZBI","checksum":"3882591018ee8c2c622e5d3fad12629ad1cd467cd148b39008bf6c9cec5cb7f4","readerVersion":"GDAL 3.2.2","processedAt":"2026-08-11T13:43:44.753Z"}}},{"type":"Feature","geometry":{"type":"Point","coordinates":[3.93079,51.4431967]},"properties":{"dolphinKind":"buoy-lateral","rawObjectClass":"BOYLAT","sourceProperties":{"RCID":81332146,"PRIM":1,"GRUP":2,"OBJL":17,"RVER":1,"AGEN":7979,"FIDN":81332146,"FIDS":1,"LNAM":"1F2B04D907B20001","BOYSHP":5,"CATLAM":1,"COLOUR":["3"],"CONRAD":3,"OBJNAM":"MG 8A","SCAMIN":200000,"SORDAT":"20191018","SORIND":"NL,1R,Reprt,email F. de Pooter 03102019","sourceCellId":"1R768ZBI","sourceChecksum":"3882591018ee8c2c622e5d3fad12629ad1cd467cd148b39008bf6c9cec5cb7f4","rawObjectClass":"BOYLAT","sourceStableId":"1F2B04D907B20001"},"sourceKind":"official","official":true,"sourceCellId":"1R768ZBI","sourceStableId":"1F2B04D907B20001","pipelineFeatureId":"1R768ZBI/BOYLAT/81332146","provenance":{"cellId":"1R768ZBI","checksum":"3882591018ee8c2c622e5d3fad12629ad1cd467cd148b39008bf6c9cec5cb7f4","readerVersion":"GDAL 3.2.2","processedAt":"2026-08-11T13:43:44.753Z"}}},{"type":"Feature","geometry":{"type":"Point","coordinates":[3.9289217,51.4363383]},"properties":{"dolphinKind":"light","rawObjectClass":"LIGHTS","sourceProperties":{"RCID":1218883647,"PRIM":1,"GRUP":2,"OBJL":75,"RVER":1,"AGEN":7979,"FIDN":1218883647,"FIDS":1,"LNAM":"1F2B48A6B03F0001","COLOUR":["3"],"LITCHR":7,"SIGGRP":"(1)","SIGPER":4,"SCAMIN":200000,"SORDAT":"20240210","SORIND":"NL,1R,reprt,MD070-2025","sourceCellId":"1R768ZBI","sourceChecksum":"3882591018ee8c2c622e5d3fad12629ad1cd467cd148b39008bf6c9cec5cb7f4","rawObjectClass":"LIGHTS","sourceStableId":"1F2B48A6B03F0001"},"sourceKind":"official","official":true,"sourceCellId":"1R768ZBI","sourceStableId":"1F2B48A6B03F0001","pipelineFeatureId":"1R768ZBI/LIGHTS/1218883647","provenance":{"cellId":"1R768ZBI","checksum":"3882591018ee8c2c622e5d3fad12629ad1cd467cd148b39008bf6c9cec5cb7f4","readerVersion":"GDAL 3.2.2","processedAt":"2026-08-11T13:43:44.753Z"}}}]}