{"type":"FeatureCollection","features":[{"type":"Feature","geometry":{"type":"Point","coordinates":[3.5380483,51.7137567]},"properties":{"dolphinKind":"buoy-lateral","rawObjectClass":"BOYLAT","sourceProperties":{"RCID":513694227,"PRIM":1,"GRUP":2,"OBJL":17,"RVER":1,"AGEN":7979,"FIDN":513694227,"FIDS":1,"LNAM":"1F2B1E9E5A130001","LNAM_REFS":["1F2B1E9E5A120001","1F2B1E9E5A140001"],"FFPT_RIND":[2,2],"BOYSHP":1,"CATLAM":2,"COLOUR":["4"],"CONRAD":3,"OBJNAM":"GB 5","SCAMIN":200000,"SORDAT":"20230510","SORIND":"NL,1R,reprt,MD 257-23","sourceCellId":"1R75W8XI","sourceChecksum":"a6e525b8e2434e4358991fcf159561d5f5bd29ed26e9499250e53a8517ce15ba","rawObjectClass":"BOYLAT","sourceStableId":"1F2B1E9E5A130001"},"sourceKind":"official","official":true,"sourceCellId":"1R75W8XI","sourceStableId":"1F2B1E9E5A130001","pipelineFeatureId":"1R75W8XI/BOYLAT/513694227","provenance":{"cellId":"1R75W8XI","checksum":"a6e525b8e2434e4358991fcf159561d5f5bd29ed26e9499250e53a8517ce15ba","readerVersion":"GDAL 3.2.2","processedAt":"2026-08-11T13:43:44.753Z"}}},{"type":"Feature","geometry":{"type":"Point","coordinates":[3.5577467,51.69256]},"properties":{"dolphinKind":"buoy-lateral","rawObjectClass":"BOYLAT","sourceProperties":{"RCID":513694229,"PRIM":1,"GRUP":2,"OBJL":17,"RVER":1,"AGEN":7979,"FIDN":513694229,"FIDS":1,"LNAM":"1F2B1E9E5A150001","LNAM_REFS":["1F2B1E9E5A160001","1F2B1E9E5A170001"],"FFPT_RIND":[2,2],"BOYSHP":1,"CATLAM":2,"COLOUR":["4"],"CONRAD":3,"NATCON":["8"],"OBJNAM":"GB 7","SCAMIN":150000,"SORDAT":"20230510","SORIND":"NL,1R,reprt,MD 257-23","sourceCellId":"1R75W8XI","sourceChecksum":"a6e525b8e2434e4358991fcf159561d5f5bd29ed26e9499250e53a8517ce15ba","rawObjectClass":"BOYLAT","sourceStableId":"1F2B1E9E5A150001"},"sourceKind":"official","official":true,"sourceCellId":"1R75W8XI","sourceStableId":"1F2B1E9E5A150001","pipelineFeatureId":"1R75W8XI/BOYLAT/513694229","provenance":{"cellId":"1R75W8XI","checksum":"a6e525b8e2434e4358991fcf159561d5f5bd29ed26e9499250e53a8517ce15ba","readerVersion":"GDAL 3.2.2","processedAt":"2026-08-11T13:43:44.753Z"}}},{"type":"Feature","geometry":{"type":"Point","coordinates":[3.5589617,51.6751417]},"properties":{"dolphinKind":"buoy-lateral","rawObjectClass":"BOYLAT","sourceProperties":{"RCID":513694233,"PRIM":1,"GRUP":2,"OBJL":17,"RVER":1,"AGEN":7979,"FIDN":513694233,"FIDS":1,"LNAM":"1F2B1E9E5A190001","LNAM_REFS":["1F2B1E9E5A180001","1F2B1E9E5A1A0001"],"FFPT_RIND":[2,2],"BOYSHP":1,"CATLAM":2,"COLOUR":["4"],"CONRAD":3,"OBJNAM":"GB 9","SCAMIN":150000,"SORDAT":"20230510","SORIND":"NL,1R,reprt,MD 257-23","sourceCellId":"1R75W8XI","sourceChecksum":"a6e525b8e2434e4358991fcf159561d5f5bd29ed26e9499250e53a8517ce15ba","rawObjectClass":"BOYLAT","sourceStableId":"1F2B1E9E5A190001"},"sourceKind":"official","official":true,"sourceCellId":"1R75W8XI","sourceStableId":"1F2B1E9E5A190001","pipelineFeatureId":"1R75W8XI/BOYLAT/513694233","provenance":{"cellId":"1R75W8XI","checksum":"a6e525b8e2434e4358991fcf159561d5f5bd29ed26e9499250e53a8517ce15ba","readerVersion":"GDAL 3.2.2","processedAt":"2026-08-11T13:43:44.753Z"}}},{"type":"Feature","geometry":{"type":"Point","coordinates":[3.5419317,51.7141867]},"properties":{"dolphinKind":"buoy-lateral","rawObjectClass":"BOYLAT","sourceProperties":{"RCID":513694239,"PRIM":1,"GRUP":2,"OBJL":17,"RVER":1,"AGEN":7979,"FIDN":513694239,"FIDS":1,"LNAM":"1F2B1E9E5A1F0001","LNAM_REFS":["1F2B1E9E5A200001"],"FFPT_RIND":[2],"BOYSHP":5,"CATLAM":1,"COLOUR":["3"],"CONRAD":3,"NATCON":["8"],"OBJNAM":"GB 6","SCAMIN":200000,"SORDAT":"20260423","SORIND":"NL,1R,reprt,MD 227-2026","sourceCellId":"1R75W8XI","sourceChecksum":"a6e525b8e2434e4358991fcf159561d5f5bd29ed26e9499250e53a8517ce15ba","rawObjectClass":"BOYLAT","sourceStableId":"1F2B1E9E5A1F0001"},"sourceKind":"official","official":true,"sourceCellId":"1R75W8XI","sourceStableId":"1F2B1E9E5A1F0001","pipelineFeatureId":"1R75W8XI/BOYLAT/513694239","provenance":{"cellId":"1R75W8XI","checksum":"a6e525b8e2434e4358991fcf159561d5f5bd29ed26e9499250e53a8517ce15ba","readerVersion":"GDAL 3.2.2","processedAt":"2026-08-11T13:43:44.753Z"}}},{"type":"Feature","geometry":{"type":"Point","coordinates":[3.561215,51.699055]},"properties":{"dolphinKind":"buoy-lateral","rawObjectClass":"BOYLAT","sourceProperties":{"RCID":513694242,"PRIM":1,"GRUP":2,"OBJL":17,"RVER":1,"AGEN":7979,"FIDN":513694242,"FIDS":1,"LNAM":"1F2B1E9E5A220001","LNAM_REFS":["1F2B1E9E5A210001","1F2B1E9E5A230001"],"FFPT_RIND":[2,2],"BOYSHP":2,"CATLAM":1,"COLOUR":["3"],"CONRAD":3,"OBJNAM":"GB 8","SCAMIN":150000,"SORDAT":"20230510","SORIND":"NL,1R,reprt,MD 257-23","sourceCellId":"1R75W8XI","sourceChecksum":"a6e525b8e2434e4358991fcf159561d5f5bd29ed26e9499250e53a8517ce15ba","rawObjectClass":"BOYLAT","sourceStableId":"1F2B1E9E5A220001"},"sourceKind":"official","official":true,"sourceCellId":"1R75W8XI","sourceStableId":"1F2B1E9E5A220001","pipelineFeatureId":"1R75W8XI/BOYLAT/513694242","provenance":{"cellId":"1R75W8XI","checksum":"a6e525b8e2434e4358991fcf159561d5f5bd29ed26e9499250e53a8517ce15ba","readerVersion":"GDAL 3.2.2","processedAt":"2026-08-11T13:43:44.753Z"}}},{"type":"Feature","geometry":{"type":"Point","coordinates":[3.5477683,51.701875]},"properties":{"dolphinKind":"buoy-lateral","rawObjectClass":"BOYLAT","sourceProperties":{"RCID":513694244,"PRIM":1,"GRUP":2,"OBJL":17,"RVER":1,"AGEN":7979,"FIDN":513694244,"FIDS":1,"LNAM":"1F2B1E9E5A240001","BOYSHP":5,"CATLAM":2,"COLOUR":["4"],"CONRAD":3,"OBJNAM":"GB 5A","SCAMIN":200000,"SORDAT":"20260423","SORIND":"NL,1R,reprt,MD 227-2026","sourceCellId":"1R75W8XI","sourceChecksum":"a6e525b8e2434e4358991fcf159561d5f5bd29ed26e9499250e53a8517ce15ba","rawObjectClass":"BOYLAT","sourceStableId":"1F2B1E9E5A240001"},"sourceKind":"official","official":true,"sourceCellId":"1R75W8XI","sourceStableId":"1F2B1E9E5A240001","pipelineFeatureId":"1R75W8XI/BOYLAT/513694244","provenance":{"cellId":"1R75W8XI","checksum":"a6e525b8e2434e4358991fcf159561d5f5bd29ed26e9499250e53a8517ce15ba","readerVersion":"GDAL 3.2.2","processedAt":"2026-08-11T13:43:44.753Z"}}},{"type":"Feature","geometry":{"type":"Point","coordinates":[3.57076,51.7203967]},"properties":{"dolphinKind":"buoy-special","rawObjectClass":"BOYSPP","sourceProperties":{"RCID":332352225,"PRIM":1,"GRUP":2,"OBJL":19,"RVER":1,"AGEN":7979,"FIDN":332352225,"FIDS":1,"LNAM":"1F2B13CF4AE10001","BOYSHP":5,"CATSPM":["18"],"COLOUR":["6"],"OBJNAM":"BZ-OW 4","PEREND":"--0515","PERSTA":"--1101","SCAMIN":200000,"SORDAT":"20241101","SORIND":"NL,1R,reprt,MD592-24","sourceCellId":"1R75W8XI","sourceChecksum":"a6e525b8e2434e4358991fcf159561d5f5bd29ed26e9499250e53a8517ce15ba","rawObjectClass":"BOYSPP","sourceStableId":"1F2B13CF4AE10001"},"sourceKind":"official","official":true,"sourceCellId":"1R75W8XI","sourceStableId":"1F2B13CF4AE10001","pipelineFeatureId":"1R75W8XI/BOYSPP/332352225","provenance":{"cellId":"1R75W8XI","checksum":"a6e525b8e2434e4358991fcf159561d5f5bd29ed26e9499250e53a8517ce15ba","readerVersion":"GDAL 3.2.2","processedAt":"2026-08-11T13:43:44.753Z"}}},{"type":"Feature","geometry":{"type":"Point","coordinates":[3.5759,51.713115]},"properties":{"dolphinKind":"buoy-special","rawObjectClass":"BOYSPP","sourceProperties":{"RCID":332352226,"PRIM":1,"GRUP":2,"OBJL":19,"RVER":1,"AGEN":7979,"FIDN":332352226,"FIDS":1,"LNAM":"1F2B13CF4AE20001","BOYSHP":5,"CATSPM":["18"],"COLOUR":["6"],"OBJNAM":"BZ-OW 6","PEREND":"--0515","PERSTA":"--1101","SCAMIN":200000,"SORDAT":"20241101","SORIND":"NL,1R,reprt,MD 592-24","sourceCellId":"1R75W8XI","sourceChecksum":"a6e525b8e2434e4358991fcf159561d5f5bd29ed26e9499250e53a8517ce15ba","rawObjectClass":"BOYSPP","sourceStableId":"1F2B13CF4AE20001"},"sourceKind":"official","official":true,"sourceCellId":"1R75W8XI","sourceStableId":"1F2B13CF4AE20001","pipelineFeatureId":"1R75W8XI/BOYSPP/332352226","provenance":{"cellId":"1R75W8XI","checksum":"a6e525b8e2434e4358991fcf159561d5f5bd29ed26e9499250e53a8517ce15ba","readerVersion":"GDAL 3.2.2","processedAt":"2026-08-11T13:43:44.753Z"}}},{"type":"Feature","geometry":{"type":"Point","coordinates":[3.5809683,51.7058767]},"properties":{"dolphinKind":"buoy-special","rawObjectClass":"BOYSPP","sourceProperties":{"RCID":332352227,"PRIM":1,"GRUP":2,"OBJL":19,"RVER":1,"AGEN":7979,"FIDN":332352227,"FIDS":1,"LNAM":"1F2B13CF4AE30001","BOYSHP":5,"CATSPM":["18"],"COLOUR":["6"],"OBJNAM":"BZ-OW 8","PEREND":"--0515","PERSTA":"--1101","SCAMIN":200000,"SORDAT":"20241101","SORIND":"NL,1R,reprt,MD 592-24","sourceCellId":"1R75W8XI","sourceChecksum":"a6e525b8e2434e4358991fcf159561d5f5bd29ed26e9499250e53a8517ce15ba","rawObjectClass":"BOYSPP","sourceStableId":"1F2B13CF4AE30001"},"sourceKind":"official","official":true,"sourceCellId":"1R75W8XI","sourceStableId":"1F2B13CF4AE30001","pipelineFeatureId":"1R75W8XI/BOYSPP/332352227","provenance":{"cellId":"1R75W8XI","checksum":"a6e525b8e2434e4358991fcf159561d5f5bd29ed26e9499250e53a8517ce15ba","readerVersion":"GDAL 3.2.2","processedAt":"2026-08-11T13:43:44.753Z"}}},{"type":"Feature","geometry":{"type":"Point","coordinates":[3.5861833,51.698545]},"properties":{"dolphinKind":"buoy-special","rawObjectClass":"BOYSPP","sourceProperties":{"RCID":332352228,"PRIM":1,"GRUP":2,"OBJL":19,"RVER":1,"AGEN":7979,"FIDN":332352228,"FIDS":1,"LNAM":"1F2B13CF4AE40001","BOYSHP":5,"CATSPM":["18"],"COLOUR":["6"],"OBJNAM":"BZ-OW 10","PEREND":"--0515","PERSTA":"--1101","SCAMIN":200000,"SORDAT":"20241101","SORIND":"NL,1R,reprt,MD 592-24","sourceCellId":"1R75W8XI","sourceChecksum":"a6e525b8e2434e4358991fcf159561d5f5bd29ed26e9499250e53a8517ce15ba","rawObjectClass":"BOYSPP","sourceStableId":"1F2B13CF4AE40001"},"sourceKind":"official","official":true,"sourceCellId":"1R75W8XI","sourceStableId":"1F2B13CF4AE40001","pipelineFeatureId":"1R75W8XI/BOYSPP/332352228","provenance":{"cellId":"1R75W8XI","checksum":"a6e525b8e2434e4358991fcf159561d5f5bd29ed26e9499250e53a8517ce15ba","readerVersion":"GDAL 3.2.2","processedAt":"2026-08-11T13:43:44.753Z"}}},{"type":"Feature","geometry":{"type":"Point","coordinates":[3.5911733,51.6914533]},"properties":{"dolphinKind":"buoy-special","rawObjectClass":"BOYSPP","sourceProperties":{"RCID":332352229,"PRIM":1,"GRUP":2,"OBJL":19,"RVER":1,"AGEN":7979,"FIDN":332352229,"FIDS":1,"LNAM":"1F2B13CF4AE50001","BOYSHP":5,"CATSPM":["18"],"COLOUR":["6"],"OBJNAM":"BZ-OW 12","PEREND":"--0515","PERSTA":"--1101","SCAMIN":200000,"SORDAT":"20241101","SORIND":"NL,1R,reprt,MD 592-24","sourceCellId":"1R75W8XI","sourceChecksum":"a6e525b8e2434e4358991fcf159561d5f5bd29ed26e9499250e53a8517ce15ba","rawObjectClass":"BOYSPP","sourceStableId":"1F2B13CF4AE50001"},"sourceKind":"official","official":true,"sourceCellId":"1R75W8XI","sourceStableId":"1F2B13CF4AE50001","pipelineFeatureId":"1R75W8XI/BOYSPP/332352229","provenance":{"cellId":"1R75W8XI","checksum":"a6e525b8e2434e4358991fcf159561d5f5bd29ed26e9499250e53a8517ce15ba","readerVersion":"GDAL 3.2.2","processedAt":"2026-08-11T13:43:44.753Z"}}},{"type":"Feature","geometry":{"type":"Point","coordinates":[3.59637,51.6841233]},"properties":{"dolphinKind":"buoy-special","rawObjectClass":"BOYSPP","sourceProperties":{"RCID":332352230,"PRIM":1,"GRUP":2,"OBJL":19,"RVER":1,"AGEN":7979,"FIDN":332352230,"FIDS":1,"LNAM":"1F2B13CF4AE60001","BOYSHP":5,"CATSPM":["18"],"COLOUR":["6"],"OBJNAM":"BZ-OW 14","PEREND":"--0515","PERSTA":"--1101","SCAMIN":200000,"SORDAT":"20241101","SORIND":"NL,1R,reprt,MD 592-24","sourceCellId":"1R75W8XI","sourceChecksum":"a6e525b8e2434e4358991fcf159561d5f5bd29ed26e9499250e53a8517ce15ba","rawObjectClass":"BOYSPP","sourceStableId":"1F2B13CF4AE60001"},"sourceKind":"official","official":true,"sourceCellId":"1R75W8XI","sourceStableId":"1F2B13CF4AE60001","pipelineFeatureId":"1R75W8XI/BOYSPP/332352230","provenance":{"cellId":"1R75W8XI","checksum":"a6e525b8e2434e4358991fcf159561d5f5bd29ed26e9499250e53a8517ce15ba","readerVersion":"GDAL 3.2.2","processedAt":"2026-08-11T13:43:44.753Z"}}},{"type":"Feature","geometry":{"type":"Point","coordinates":[3.6100533,51.6824117]},"properties":{"dolphinKind":"buoy-special","rawObjectClass":"BOYSPP","sourceProperties":{"RCID":332352231,"PRIM":1,"GRUP":2,"OBJL":19,"RVER":1,"AGEN":7979,"FIDN":332352231,"FIDS":1,"LNAM":"1F2B13CF4AE70001","BOYSHP":5,"CATSPM":["18"],"COLOUR":["6"],"OBJNAM":"BZ-OW 16","PEREND":"--0515","PERSTA":"--1101","SCAMIN":200000,"SORDAT":"20241101","SORIND":"NL,1R,reprt,MD 592-24","sourceCellId":"1R75W8XI","sourceChecksum":"a6e525b8e2434e4358991fcf159561d5f5bd29ed26e9499250e53a8517ce15ba","rawObjectClass":"BOYSPP","sourceStableId":"1F2B13CF4AE70001"},"sourceKind":"official","official":true,"sourceCellId":"1R75W8XI","sourceStableId":"1F2B13CF4AE70001","pipelineFeatureId":"1R75W8XI/BOYSPP/332352231","provenance":{"cellId":"1R75W8XI","checksum":"a6e525b8e2434e4358991fcf159561d5f5bd29ed26e9499250e53a8517ce15ba","readerVersion":"GDAL 3.2.2","processedAt":"2026-08-11T13:43:44.753Z"}}},{"type":"Feature","geometry":{"type":"Point","coordinates":[3.6769933,51.7209117]},"properties":{"dolphinKind":"buoy-special","rawObjectClass":"BOYSPP","sourceProperties":{"RCID":450556746,"PRIM":1,"GRUP":2,"OBJL":19,"RVER":1,"AGEN":7979,"FIDN":450556746,"FIDS":1,"LNAM":"1F2B1ADAF34A0001","BOYSHP":5,"CATSPM":["18"],"COLOUR":["6"],"OBJNAM":"BZ-OW 23","SCAMIN":200000,"SORDAT":"20241101","SORIND":"NL,1R,reprt,MD592-24","sourceCellId":"1R75W8XI","sourceChecksum":"a6e525b8e2434e4358991fcf159561d5f5bd29ed26e9499250e53a8517ce15ba","rawObjectClass":"BOYSPP","sourceStableId":"1F2B1ADAF34A0001"},"sourceKind":"official","official":true,"sourceCellId":"1R75W8XI","sourceStableId":"1F2B1ADAF34A0001","pipelineFeatureId":"1R75W8XI/BOYSPP/450556746","provenance":{"cellId":"1R75W8XI","checksum":"a6e525b8e2434e4358991fcf159561d5f5bd29ed26e9499250e53a8517ce15ba","readerVersion":"GDAL 3.2.2","processedAt":"2026-08-11T13:43:44.753Z"}}},{"type":"Feature","geometry":{"type":"Point","coordinates":[3.6723417,51.7139183]},"properties":{"dolphinKind":"buoy-special","rawObjectClass":"BOYSPP","sourceProperties":{"RCID":450556747,"PRIM":1,"GRUP":2,"OBJL":19,"RVER":1,"AGEN":7979,"FIDN":450556747,"FIDS":1,"LNAM":"1F2B1ADAF34B0001","BOYSHP":5,"CATSPM":["18"],"COLOUR":["6"],"OBJNAM":"BZ-OW 25","SCAMIN":200000,"SORDAT":"20241101","SORIND":"NL,1R,reprt,MD592-24","sourceCellId":"1R75W8XI","sourceChecksum":"a6e525b8e2434e4358991fcf159561d5f5bd29ed26e9499250e53a8517ce15ba","rawObjectClass":"BOYSPP","sourceStableId":"1F2B1ADAF34B0001"},"sourceKind":"official","official":true,"sourceCellId":"1R75W8XI","sourceStableId":"1F2B1ADAF34B0001","pipelineFeatureId":"1R75W8XI/BOYSPP/450556747","provenance":{"cellId":"1R75W8XI","checksum":"a6e525b8e2434e4358991fcf159561d5f5bd29ed26e9499250e53a8517ce15ba","readerVersion":"GDAL 3.2.2","processedAt":"2026-08-11T13:43:44.753Z"}}},{"type":"Feature","geometry":{"type":"Point","coordinates":[3.6679,51.7071167]},"properties":{"dolphinKind":"buoy-special","rawObjectClass":"BOYSPP","sourceProperties":{"RCID":450556748,"PRIM":1,"GRUP":2,"OBJL":19,"RVER":1,"AGEN":7979,"FIDN":450556748,"FIDS":1,"LNAM":"1F2B1ADAF34C0001","BOYSHP":5,"CATSPM":["18"],"COLOUR":["6"],"OBJNAM":"BZ-OW 27","SCAMIN":200000,"SORDAT":"20241101","SORIND":"NL,1R,reprt,MD592-24","sourceCellId":"1R75W8XI","sourceChecksum":"a6e525b8e2434e4358991fcf159561d5f5bd29ed26e9499250e53a8517ce15ba","rawObjectClass":"BOYSPP","sourceStableId":"1F2B1ADAF34C0001"},"sourceKind":"official","official":true,"sourceCellId":"1R75W8XI","sourceStableId":"1F2B1ADAF34C0001","pipelineFeatureId":"1R75W8XI/BOYSPP/450556748","provenance":{"cellId":"1R75W8XI","checksum":"a6e525b8e2434e4358991fcf159561d5f5bd29ed26e9499250e53a8517ce15ba","readerVersion":"GDAL 3.2.2","processedAt":"2026-08-11T13:43:44.753Z"}}},{"type":"Feature","geometry":{"type":"Point","coordinates":[3.6667033,51.6992667]},"properties":{"dolphinKind":"buoy-special","rawObjectClass":"BOYSPP","sourceProperties":{"RCID":450556749,"PRIM":1,"GRUP":2,"OBJL":19,"RVER":1,"AGEN":7979,"FIDN":450556749,"FIDS":1,"LNAM":"1F2B1ADAF34D0001","BOYSHP":5,"CATSPM":["18"],"COLOUR":["6"],"OBJNAM":"BZ-OW 29","SCAMIN":200000,"SORDAT":"20241101","SORIND":"NL,1R,reprt,MD592-24","sourceCellId":"1R75W8XI","sourceChecksum":"a6e525b8e2434e4358991fcf159561d5f5bd29ed26e9499250e53a8517ce15ba","rawObjectClass":"BOYSPP","sourceStableId":"1F2B1ADAF34D0001"},"sourceKind":"official","official":true,"sourceCellId":"1R75W8XI","sourceStableId":"1F2B1ADAF34D0001","pipelineFeatureId":"1R75W8XI/BOYSPP/450556749","provenance":{"cellId":"1R75W8XI","checksum":"a6e525b8e2434e4358991fcf159561d5f5bd29ed26e9499250e53a8517ce15ba","readerVersion":"GDAL 3.2.2","processedAt":"2026-08-11T13:43:44.753Z"}}},{"type":"Feature","geometry":{"type":"Point","coordinates":[3.665545,51.6915133]},"properties":{"dolphinKind":"buoy-special","rawObjectClass":"BOYSPP","sourceProperties":{"RCID":450556750,"PRIM":1,"GRUP":2,"OBJL":19,"RVER":1,"AGEN":7979,"FIDN":450556750,"FIDS":1,"LNAM":"1F2B1ADAF34E0001","BOYSHP":5,"CATSPM":["18"],"COLOUR":["6"],"OBJNAM":"BZ-OW 31","SCAMIN":200000,"SORDAT":"20241101","SORIND":"NL,1R,reprt,MD592-24","sourceCellId":"1R75W8XI","sourceChecksum":"a6e525b8e2434e4358991fcf159561d5f5bd29ed26e9499250e53a8517ce15ba","rawObjectClass":"BOYSPP","sourceStableId":"1F2B1ADAF34E0001"},"sourceKind":"official","official":true,"sourceCellId":"1R75W8XI","sourceStableId":"1F2B1ADAF34E0001","pipelineFeatureId":"1R75W8XI/BOYSPP/450556750","provenance":{"cellId":"1R75W8XI","checksum":"a6e525b8e2434e4358991fcf159561d5f5bd29ed26e9499250e53a8517ce15ba","readerVersion":"GDAL 3.2.2","processedAt":"2026-08-11T13:43:44.753Z"}}},{"type":"Feature","geometry":{"type":"Point","coordinates":[3.6644833,51.6848833]},"properties":{"dolphinKind":"buoy-special","rawObjectClass":"BOYSPP","sourceProperties":{"RCID":450556751,"PRIM":1,"GRUP":2,"OBJL":19,"RVER":1,"AGEN":7979,"FIDN":450556751,"FIDS":1,"LNAM":"1F2B1ADAF34F0001","BOYSHP":5,"CATSPM":["18"],"COLOUR":["6"],"OBJNAM":"BZ-OW 33","SCAMIN":200000,"SORDAT":"20241101","SORIND":"NL,1R,reprt,MD592-24","sourceCellId":"1R75W8XI","sourceChecksum":"a6e525b8e2434e4358991fcf159561d5f5bd29ed26e9499250e53a8517ce15ba","rawObjectClass":"BOYSPP","sourceStableId":"1F2B1ADAF34F0001"},"sourceKind":"official","official":true,"sourceCellId":"1R75W8XI","sourceStableId":"1F2B1ADAF34F0001","pipelineFeatureId":"1R75W8XI/BOYSPP/450556751","provenance":{"cellId":"1R75W8XI","checksum":"a6e525b8e2434e4358991fcf159561d5f5bd29ed26e9499250e53a8517ce15ba","readerVersion":"GDAL 3.2.2","processedAt":"2026-08-11T13:43:44.753Z"}}},{"type":"Feature","geometry":{"type":"Point","coordinates":[3.6235017,51.6807517]},"properties":{"dolphinKind":"buoy-special","rawObjectClass":"BOYSPP","sourceProperties":{"RCID":450556752,"PRIM":1,"GRUP":2,"OBJL":19,"RVER":1,"AGEN":7979,"FIDN":450556752,"FIDS":1,"LNAM":"1F2B1ADAF3500001","BOYSHP":5,"CATSPM":["18"],"COLOUR":["6"],"OBJNAM":"BZ-OW 18","PEREND":"--0515","PERSTA":"--1101","SCAMIN":200000,"SORDAT":"20241101","SORIND":"NL,1R,reprt,MD 592-24","sourceCellId":"1R75W8XI","sourceChecksum":"a6e525b8e2434e4358991fcf159561d5f5bd29ed26e9499250e53a8517ce15ba","rawObjectClass":"BOYSPP","sourceStableId":"1F2B1ADAF3500001"},"sourceKind":"official","official":true,"sourceCellId":"1R75W8XI","sourceStableId":"1F2B1ADAF3500001","pipelineFeatureId":"1R75W8XI/BOYSPP/450556752","provenance":{"cellId":"1R75W8XI","checksum":"a6e525b8e2434e4358991fcf159561d5f5bd29ed26e9499250e53a8517ce15ba","readerVersion":"GDAL 3.2.2","processedAt":"2026-08-11T13:43:44.753Z"}}},{"type":"Feature","geometry":{"type":"Point","coordinates":[3.649995,51.6774783]},"properties":{"dolphinKind":"buoy-special","rawObjectClass":"BOYSPP","sourceProperties":{"RCID":450556754,"PRIM":1,"GRUP":2,"OBJL":19,"RVER":1,"AGEN":7979,"FIDN":450556754,"FIDS":1,"LNAM":"1F2B1ADAF3520001","BOYSHP":5,"CATSPM":["18"],"COLOUR":["6"],"OBJNAM":"BZ-OW 22","PEREND":"--0515","PERSTA":"--1101","SCAMIN":200000,"SORDAT":"20241101","SORIND":"NL,1R,reprt,MD 592-24","sourceCellId":"1R75W8XI","sourceChecksum":"a6e525b8e2434e4358991fcf159561d5f5bd29ed26e9499250e53a8517ce15ba","rawObjectClass":"BOYSPP","sourceStableId":"1F2B1ADAF3520001"},"sourceKind":"official","official":true,"sourceCellId":"1R75W8XI","sourceStableId":"1F2B1ADAF3520001","pipelineFeatureId":"1R75W8XI/BOYSPP/450556754","provenance":{"cellId":"1R75W8XI","checksum":"a6e525b8e2434e4358991fcf159561d5f5bd29ed26e9499250e53a8517ce15ba","readerVersion":"GDAL 3.2.2","processedAt":"2026-08-11T13:43:44.753Z"}}},{"type":"Feature","geometry":{"type":"Point","coordinates":[3.6023783,51.7161083]},"properties":{"dolphinKind":"buoy-special","rawObjectClass":"BOYSPP","sourceProperties":{"RCID":457590540,"PRIM":1,"GRUP":2,"OBJL":19,"RVER":1,"AGEN":7979,"FIDN":457590540,"FIDS":1,"LNAM":"1F2B1B46470C0001","BOYSHP":5,"CATSPM":["18"],"COLOUR":["6"],"OBJNAM":"BZ-WNB 6","PEREND":"--1101","PERSTA":"--0515","SCAMIN":200000,"SORDAT":"20230509","SORIND":"NL,1R,reprt,MD 262-23","sourceCellId":"1R75W8XI","sourceChecksum":"a6e525b8e2434e4358991fcf159561d5f5bd29ed26e9499250e53a8517ce15ba","rawObjectClass":"BOYSPP","sourceStableId":"1F2B1B46470C0001"},"sourceKind":"official","official":true,"sourceCellId":"1R75W8XI","sourceStableId":"1F2B1B46470C0001","pipelineFeatureId":"1R75W8XI/BOYSPP/457590540","provenance":{"cellId":"1R75W8XI","checksum":"a6e525b8e2434e4358991fcf159561d5f5bd29ed26e9499250e53a8517ce15ba","readerVersion":"GDAL 3.2.2","processedAt":"2026-08-11T13:43:44.753Z"}}},{"type":"Feature","geometry":{"type":"Point","coordinates":[3.6230417,51.705735]},"properties":{"dolphinKind":"buoy-special","rawObjectClass":"BOYSPP","sourceProperties":{"RCID":457590542,"PRIM":1,"GRUP":2,"OBJL":19,"RVER":1,"AGEN":7979,"FIDN":457590542,"FIDS":1,"LNAM":"1F2B1B46470E0001","BOYSHP":5,"CATSPM":["18"],"COLOUR":["6"],"OBJNAM":"BZ-WNB 10","PEREND":"--1101","PERSTA":"--0515","SCAMIN":200000,"SORDAT":"20230509","SORIND":"NL,1R,reprt,MD 262-23","sourceCellId":"1R75W8XI","sourceChecksum":"a6e525b8e2434e4358991fcf159561d5f5bd29ed26e9499250e53a8517ce15ba","rawObjectClass":"BOYSPP","sourceStableId":"1F2B1B46470E0001"},"sourceKind":"official","official":true,"sourceCellId":"1R75W8XI","sourceStableId":"1F2B1B46470E0001","pipelineFeatureId":"1R75W8XI/BOYSPP/457590542","provenance":{"cellId":"1R75W8XI","checksum":"a6e525b8e2434e4358991fcf159561d5f5bd29ed26e9499250e53a8517ce15ba","readerVersion":"GDAL 3.2.2","processedAt":"2026-08-11T13:43:44.753Z"}}},{"type":"Feature","geometry":{"type":"Point","coordinates":[3.6437483,51.6953117]},"properties":{"dolphinKind":"buoy-special","rawObjectClass":"BOYSPP","sourceProperties":{"RCID":457590544,"PRIM":1,"GRUP":2,"OBJL":19,"RVER":1,"AGEN":7979,"FIDN":457590544,"FIDS":1,"LNAM":"1F2B1B4647100001","BOYSHP":5,"CATSPM":["18"],"COLOUR":["6"],"OBJNAM":"BZ-WNB 14","PEREND":"--1101","PERSTA":"--0515","SCAMIN":200000,"SORDAT":"20230509","SORIND":"NL,1R,reprt,MD 262-23","sourceCellId":"1R75W8XI","sourceChecksum":"a6e525b8e2434e4358991fcf159561d5f5bd29ed26e9499250e53a8517ce15ba","rawObjectClass":"BOYSPP","sourceStableId":"1F2B1B4647100001"},"sourceKind":"official","official":true,"sourceCellId":"1R75W8XI","sourceStableId":"1F2B1B4647100001","pipelineFeatureId":"1R75W8XI/BOYSPP/457590544","provenance":{"cellId":"1R75W8XI","checksum":"a6e525b8e2434e4358991fcf159561d5f5bd29ed26e9499250e53a8517ce15ba","readerVersion":"GDAL 3.2.2","processedAt":"2026-08-11T13:43:44.753Z"}}},{"type":"Feature","geometry":{"type":"Point","coordinates":[3.65407,51.6901033]},"properties":{"dolphinKind":"buoy-special","rawObjectClass":"BOYSPP","sourceProperties":{"RCID":457590545,"PRIM":1,"GRUP":2,"OBJL":19,"RVER":1,"AGEN":7979,"FIDN":457590545,"FIDS":1,"LNAM":"1F2B1B4647110001","BOYSHP":5,"CATSPM":["18"],"COLOUR":["6"],"OBJNAM":"BZ-WNB 16","PEREND":"--1101","PERSTA":"--0515","SCAMIN":200000,"SORDAT":"20230509","SORIND":"NL,1R,reprt,MD 262-23","sourceCellId":"1R75W8XI","sourceChecksum":"a6e525b8e2434e4358991fcf159561d5f5bd29ed26e9499250e53a8517ce15ba","rawObjectClass":"BOYSPP","sourceStableId":"1F2B1B4647110001"},"sourceKind":"official","official":true,"sourceCellId":"1R75W8XI","sourceStableId":"1F2B1B4647110001","pipelineFeatureId":"1R75W8XI/BOYSPP/457590545","provenance":{"cellId":"1R75W8XI","checksum":"a6e525b8e2434e4358991fcf159561d5f5bd29ed26e9499250e53a8517ce15ba","readerVersion":"GDAL 3.2.2","processedAt":"2026-08-11T13:43:44.753Z"}}},{"type":"Feature","geometry":{"type":"Point","coordinates":[3.63666,51.6791317]},"properties":{"dolphinKind":"buoy-special","rawObjectClass":"BOYSPP","sourceProperties":{"RCID":1170220779,"PRIM":1,"GRUP":2,"OBJL":19,"RVER":1,"AGEN":7979,"FIDN":1170220779,"FIDS":1,"LNAM":"1F2B45C026EB0001","BOYSHP":5,"CATSPM":["18"],"COLOUR":["6"],"OBJNAM":"BZ-OW 20","PEREND":"--0515","PERSTA":"--1101","SCAMIN":200000,"SORDAT":"20241101","SORIND":"NL,1R,reprt,MD 592-24","sourceCellId":"1R75W8XI","sourceChecksum":"a6e525b8e2434e4358991fcf159561d5f5bd29ed26e9499250e53a8517ce15ba","rawObjectClass":"BOYSPP","sourceStableId":"1F2B45C026EB0001"},"sourceKind":"official","official":true,"sourceCellId":"1R75W8XI","sourceStableId":"1F2B45C026EB0001","pipelineFeatureId":"1R75W8XI/BOYSPP/1170220779","provenance":{"cellId":"1R75W8XI","checksum":"a6e525b8e2434e4358991fcf159561d5f5bd29ed26e9499250e53a8517ce15ba","readerVersion":"GDAL 3.2.2","processedAt":"2026-08-11T13:43:44.753Z"}}},{"type":"Feature","geometry":{"type":"Point","coordinates":[3.6631667,51.67585]},"properties":{"dolphinKind":"buoy-special","rawObjectClass":"BOYSPP","sourceProperties":{"RCID":1170220780,"PRIM":1,"GRUP":2,"OBJL":19,"RVER":1,"AGEN":7979,"FIDN":1170220780,"FIDS":1,"LNAM":"1F2B45C026EC0001","BOYSHP":5,"CATSPM":["18"],"COLOUR":["6"],"OBJNAM":"BZ-OW 24","PEREND":"--0515","PERSTA":"--1101","SCAMIN":200000,"SORDAT":"20241101","SORIND":"NL,1R,reprt,MD 592-24","sourceCellId":"1R75W8XI","sourceChecksum":"a6e525b8e2434e4358991fcf159561d5f5bd29ed26e9499250e53a8517ce15ba","rawObjectClass":"BOYSPP","sourceStableId":"1F2B45C026EC0001"},"sourceKind":"official","official":true,"sourceCellId":"1R75W8XI","sourceStableId":"1F2B45C026EC0001","pipelineFeatureId":"1R75W8XI/BOYSPP/1170220780","provenance":{"cellId":"1R75W8XI","checksum":"a6e525b8e2434e4358991fcf159561d5f5bd29ed26e9499250e53a8517ce15ba","readerVersion":"GDAL 3.2.2","processedAt":"2026-08-11T13:43:44.753Z"}}},{"type":"Feature","geometry":{"type":"Point","coordinates":[3.5920783,51.7213467]},"properties":{"dolphinKind":"buoy-special","rawObjectClass":"BOYSPP","sourceProperties":{"RCID":1179104301,"PRIM":1,"GRUP":2,"OBJL":19,"RVER":1,"AGEN":7979,"FIDN":1179104301,"FIDS":1,"LNAM":"1F2B4647B42D0001","BOYSHP":5,"CATSPM":["18"],"COLOUR":["6"],"OBJNAM":"BZ-WNB 4","PEREND":"--1101","PERSTA":"--0515","SCAMIN":200000,"SORDAT":"20230509","SORIND":"NL,1R,reprt,MD 262-23","sourceCellId":"1R75W8XI","sourceChecksum":"a6e525b8e2434e4358991fcf159561d5f5bd29ed26e9499250e53a8517ce15ba","rawObjectClass":"BOYSPP","sourceStableId":"1F2B4647B42D0001"},"sourceKind":"official","official":true,"sourceCellId":"1R75W8XI","sourceStableId":"1F2B4647B42D0001","pipelineFeatureId":"1R75W8XI/BOYSPP/1179104301","provenance":{"cellId":"1R75W8XI","checksum":"a6e525b8e2434e4358991fcf159561d5f5bd29ed26e9499250e53a8517ce15ba","readerVersion":"GDAL 3.2.2","processedAt":"2026-08-11T13:43:44.753Z"}}},{"type":"Feature","geometry":{"type":"Point","coordinates":[3.612785,51.7109367]},"properties":{"dolphinKind":"buoy-special","rawObjectClass":"BOYSPP","sourceProperties":{"RCID":1179104302,"PRIM":1,"GRUP":2,"OBJL":19,"RVER":1,"AGEN":7979,"FIDN":1179104302,"FIDS":1,"LNAM":"1F2B4647B42E0001","BOYSHP":5,"CATSPM":["18"],"COLOUR":["6"],"OBJNAM":"BZ-WNB 8","PEREND":"--1101","PERSTA":"--0515","SCAMIN":200000,"SORDAT":"20230509","SORIND":"NL,1R,reprt,MD 262-23","sourceCellId":"1R75W8XI","sourceChecksum":"a6e525b8e2434e4358991fcf159561d5f5bd29ed26e9499250e53a8517ce15ba","rawObjectClass":"BOYSPP","sourceStableId":"1F2B4647B42E0001"},"sourceKind":"official","official":true,"sourceCellId":"1R75W8XI","sourceStableId":"1F2B4647B42E0001","pipelineFeatureId":"1R75W8XI/BOYSPP/1179104302","provenance":{"cellId":"1R75W8XI","checksum":"a6e525b8e2434e4358991fcf159561d5f5bd29ed26e9499250e53a8517ce15ba","readerVersion":"GDAL 3.2.2","processedAt":"2026-08-11T13:43:44.753Z"}}},{"type":"Feature","geometry":{"type":"Point","coordinates":[3.6334283,51.7005117]},"properties":{"dolphinKind":"buoy-special","rawObjectClass":"BOYSPP","sourceProperties":{"RCID":1179104303,"PRIM":1,"GRUP":2,"OBJL":19,"RVER":1,"AGEN":7979,"FIDN":1179104303,"FIDS":1,"LNAM":"1F2B4647B42F0001","BOYSHP":5,"CATSPM":["18"],"COLOUR":["6"],"OBJNAM":"BZ-WNB 12","PEREND":"--1101","PERSTA":"--0515","SCAMIN":200000,"SORDAT":"20230509","SORIND":"NL,1R,reprt,MD 262-23","sourceCellId":"1R75W8XI","sourceChecksum":"a6e525b8e2434e4358991fcf159561d5f5bd29ed26e9499250e53a8517ce15ba","rawObjectClass":"BOYSPP","sourceStableId":"1F2B4647B42F0001"},"sourceKind":"official","official":true,"sourceCellId":"1R75W8XI","sourceStableId":"1F2B4647B42F0001","pipelineFeatureId":"1R75W8XI/BOYSPP/1179104303","provenance":{"cellId":"1R75W8XI","checksum":"a6e525b8e2434e4358991fcf159561d5f5bd29ed26e9499250e53a8517ce15ba","readerVersion":"GDAL 3.2.2","processedAt":"2026-08-11T13:43:44.753Z"}}},{"type":"Feature","geometry":{"type":"Point","coordinates":[3.6769306,51.7201]},"properties":{"dolphinKind":"light","rawObjectClass":"LIGHTS","sourceProperties":{"RCID":16787,"PRIM":1,"GRUP":2,"OBJL":75,"RVER":1,"AGEN":7979,"FIDN":1106834597,"FIDS":418,"LNAM":"1F2B41F8F4A501A2","COLOUR":["6"],"LITCHR":2,"SIGGRP":"(1)","SIGPER":5,"SCAMIN":200000,"SORDAT":"20030929","sourceCellId":"1R75W8XI","sourceChecksum":"a6e525b8e2434e4358991fcf159561d5f5bd29ed26e9499250e53a8517ce15ba","rawObjectClass":"LIGHTS","sourceStableId":"1F2B41F8F4A501A2"},"sourceKind":"official","official":true,"sourceCellId":"1R75W8XI","sourceStableId":"1F2B41F8F4A501A2","pipelineFeatureId":"1R75W8XI/LIGHTS/16787","provenance":{"cellId":"1R75W8XI","checksum":"a6e525b8e2434e4358991fcf159561d5f5bd29ed26e9499250e53a8517ce15ba","readerVersion":"GDAL 3.2.2","processedAt":"2026-08-11T13:43:44.753Z"}}},{"type":"Feature","geometry":{"type":"Point","coordinates":[3.6915834,51.7088834]},"properties":{"dolphinKind":"light","rawObjectClass":"LIGHTS","sourceProperties":{"RCID":20334,"PRIM":1,"GRUP":2,"OBJL":75,"RVER":1,"AGEN":7979,"FIDN":1106834756,"FIDS":270,"LNAM":"1F2B41F8F544010E","CATLIT":["4"],"COLOUR":["1"],"HEIGHT":58,"LITCHR":2,"SIGGRP":"(2+1)","SIGPER":15,"VALNMR":26,"SCAMIN":200000,"sourceCellId":"1R75W8XI","sourceChecksum":"a6e525b8e2434e4358991fcf159561d5f5bd29ed26e9499250e53a8517ce15ba","rawObjectClass":"LIGHTS","sourceStableId":"1F2B41F8F544010E"},"sourceKind":"official","official":true,"sourceCellId":"1R75W8XI","sourceStableId":"1F2B41F8F544010E","pipelineFeatureId":"1R75W8XI/LIGHTS/20334","provenance":{"cellId":"1R75W8XI","checksum":"a6e525b8e2434e4358991fcf159561d5f5bd29ed26e9499250e53a8517ce15ba","readerVersion":"GDAL 3.2.2","processedAt":"2026-08-11T13:43:44.753Z"}}},{"type":"Feature","geometry":{"type":"Point","coordinates":[3.5380483,51.7137567]},"properties":{"dolphinKind":"light","rawObjectClass":"LIGHTS","sourceProperties":{"RCID":513694226,"PRIM":1,"GRUP":2,"OBJL":75,"RVER":1,"AGEN":7979,"FIDN":513694226,"FIDS":1,"LNAM":"1F2B1E9E5A120001","COLOUR":["4"],"LITCHR":7,"SIGGRP":"(1)","SIGPER":8,"SCAMIN":200000,"SORDAT":"20230510","SORIND":"NL,1R,reprt,MD 257-23","sourceCellId":"1R75W8XI","sourceChecksum":"a6e525b8e2434e4358991fcf159561d5f5bd29ed26e9499250e53a8517ce15ba","rawObjectClass":"LIGHTS","sourceStableId":"1F2B1E9E5A120001"},"sourceKind":"official","official":true,"sourceCellId":"1R75W8XI","sourceStableId":"1F2B1E9E5A120001","pipelineFeatureId":"1R75W8XI/LIGHTS/513694226","provenance":{"cellId":"1R75W8XI","checksum":"a6e525b8e2434e4358991fcf159561d5f5bd29ed26e9499250e53a8517ce15ba","readerVersion":"GDAL 3.2.2","processedAt":"2026-08-11T13:43:44.753Z"}}},{"type":"Feature","geometry":{"type":"Point","coordinates":[3.5577467,51.69256]},"properties":{"dolphinKind":"light","rawObjectClass":"LIGHTS","sourceProperties":{"RCID":513694230,"PRIM":1,"GRUP":2,"OBJL":75,"RVER":1,"AGEN":7979,"FIDN":513694230,"FIDS":1,"LNAM":"1F2B1E9E5A160001","COLOUR":["4"],"LITCHR":4,"SIGGRP":"(1)","SIGPER":1,"SCAMIN":200000,"SORDAT":"20230510","SORIND":"NL,1R,reprt,MD 257-23","sourceCellId":"1R75W8XI","sourceChecksum":"a6e525b8e2434e4358991fcf159561d5f5bd29ed26e9499250e53a8517ce15ba","rawObjectClass":"LIGHTS","sourceStableId":"1F2B1E9E5A160001"},"sourceKind":"official","official":true,"sourceCellId":"1R75W8XI","sourceStableId":"1F2B1E9E5A160001","pipelineFeatureId":"1R75W8XI/LIGHTS/513694230","provenance":{"cellId":"1R75W8XI","checksum":"a6e525b8e2434e4358991fcf159561d5f5bd29ed26e9499250e53a8517ce15ba","readerVersion":"GDAL 3.2.2","processedAt":"2026-08-11T13:43:44.753Z"}}},{"type":"Feature","geometry":{"type":"Point","coordinates":[3.5589617,51.6751417]},"properties":{"dolphinKind":"light","rawObjectClass":"LIGHTS","sourceProperties":{"RCID":513694232,"PRIM":1,"GRUP":2,"OBJL":75,"RVER":1,"AGEN":7979,"FIDN":513694232,"FIDS":1,"LNAM":"1F2B1E9E5A180001","COLOUR":["4"],"LITCHR":7,"SIGGRP":"(1)","SIGPER":8,"SCAMIN":200000,"SORDAT":"20230510","SORIND":"NL,1R,reprt,MD 257-23","sourceCellId":"1R75W8XI","sourceChecksum":"a6e525b8e2434e4358991fcf159561d5f5bd29ed26e9499250e53a8517ce15ba","rawObjectClass":"LIGHTS","sourceStableId":"1F2B1E9E5A180001"},"sourceKind":"official","official":true,"sourceCellId":"1R75W8XI","sourceStableId":"1F2B1E9E5A180001","pipelineFeatureId":"1R75W8XI/LIGHTS/513694232","provenance":{"cellId":"1R75W8XI","checksum":"a6e525b8e2434e4358991fcf159561d5f5bd29ed26e9499250e53a8517ce15ba","readerVersion":"GDAL 3.2.2","processedAt":"2026-08-11T13:43:44.753Z"}}},{"type":"Feature","geometry":{"type":"Point","coordinates":[3.561215,51.699055]},"properties":{"dolphinKind":"light","rawObjectClass":"LIGHTS","sourceProperties":{"RCID":513694241,"PRIM":1,"GRUP":2,"OBJL":75,"RVER":1,"AGEN":7979,"FIDN":513694241,"FIDS":1,"LNAM":"1F2B1E9E5A210001","COLOUR":["3"],"LITCHR":4,"SIGGRP":"(1)","SIGPER":1,"SCAMIN":200000,"SORDAT":"20230510","SORIND":"NL,1R,reprt,MD 257-23","sourceCellId":"1R75W8XI","sourceChecksum":"a6e525b8e2434e4358991fcf159561d5f5bd29ed26e9499250e53a8517ce15ba","rawObjectClass":"LIGHTS","sourceStableId":"1F2B1E9E5A210001"},"sourceKind":"official","official":true,"sourceCellId":"1R75W8XI","sourceStableId":"1F2B1E9E5A210001","pipelineFeatureId":"1R75W8XI/LIGHTS/513694241","provenance":{"cellId":"1R75W8XI","checksum":"a6e525b8e2434e4358991fcf159561d5f5bd29ed26e9499250e53a8517ce15ba","readerVersion":"GDAL 3.2.2","processedAt":"2026-08-11T13:43:44.753Z"}}},{"type":"Feature","geometry":{"type":"Point","coordinates":[3.5380483,51.7137567]},"properties":{"dolphinKind":"topmark","rawObjectClass":"TOPMAR","sourceProperties":{"RCID":513694228,"PRIM":1,"GRUP":2,"OBJL":144,"RVER":1,"AGEN":7979,"FIDN":513694228,"FIDS":1,"LNAM":"1F2B1E9E5A140001","COLOUR":["4"],"TOPSHP":1,"SCAMIN":200000,"SORDAT":"20230816","SORIND":"NL,1R,reprt,NDB-verbetering","sourceCellId":"1R75W8XI","sourceChecksum":"a6e525b8e2434e4358991fcf159561d5f5bd29ed26e9499250e53a8517ce15ba","rawObjectClass":"TOPMAR","sourceStableId":"1F2B1E9E5A140001"},"sourceKind":"official","official":true,"sourceCellId":"1R75W8XI","sourceStableId":"1F2B1E9E5A140001","pipelineFeatureId":"1R75W8XI/TOPMAR/513694228","provenance":{"cellId":"1R75W8XI","checksum":"a6e525b8e2434e4358991fcf159561d5f5bd29ed26e9499250e53a8517ce15ba","readerVersion":"GDAL 3.2.2","processedAt":"2026-08-11T13:43:44.753Z"},"associationRefsVerifiedInGdalOutput":false}},{"type":"Feature","geometry":{"type":"Point","coordinates":[3.5577467,51.69256]},"properties":{"dolphinKind":"topmark","rawObjectClass":"TOPMAR","sourceProperties":{"RCID":513694231,"PRIM":1,"GRUP":2,"OBJL":144,"RVER":1,"AGEN":7979,"FIDN":513694231,"FIDS":1,"LNAM":"1F2B1E9E5A170001","COLOUR":["4"],"TOPSHP":1,"SCAMIN":200000,"SORDAT":"20230510","SORIND":"NL,1R,reprt,MD 257-23","sourceCellId":"1R75W8XI","sourceChecksum":"a6e525b8e2434e4358991fcf159561d5f5bd29ed26e9499250e53a8517ce15ba","rawObjectClass":"TOPMAR","sourceStableId":"1F2B1E9E5A170001"},"sourceKind":"official","official":true,"sourceCellId":"1R75W8XI","sourceStableId":"1F2B1E9E5A170001","pipelineFeatureId":"1R75W8XI/TOPMAR/513694231","provenance":{"cellId":"1R75W8XI","checksum":"a6e525b8e2434e4358991fcf159561d5f5bd29ed26e9499250e53a8517ce15ba","readerVersion":"GDAL 3.2.2","processedAt":"2026-08-11T13:43:44.753Z"},"associationRefsVerifiedInGdalOutput":false}},{"type":"Feature","geometry":{"type":"Point","coordinates":[3.5589617,51.6751417]},"properties":{"dolphinKind":"topmark","rawObjectClass":"TOPMAR","sourceProperties":{"RCID":513694234,"PRIM":1,"GRUP":2,"OBJL":144,"RVER":1,"AGEN":7979,"FIDN":513694234,"FIDS":1,"LNAM":"1F2B1E9E5A1A0001","COLOUR":["4"],"TOPSHP":1,"SCAMIN":200000,"SORDAT":"20230510","SORIND":"NL,1R,reprt,MD 257-23","sourceCellId":"1R75W8XI","sourceChecksum":"a6e525b8e2434e4358991fcf159561d5f5bd29ed26e9499250e53a8517ce15ba","rawObjectClass":"TOPMAR","sourceStableId":"1F2B1E9E5A1A0001"},"sourceKind":"official","official":true,"sourceCellId":"1R75W8XI","sourceStableId":"1F2B1E9E5A1A0001","pipelineFeatureId":"1R75W8XI/TOPMAR/513694234","provenance":{"cellId":"1R75W8XI","checksum":"a6e525b8e2434e4358991fcf159561d5f5bd29ed26e9499250e53a8517ce15ba","readerVersion":"GDAL 3.2.2","processedAt":"2026-08-11T13:43:44.753Z"},"associationRefsVerifiedInGdalOutput":false}},{"type":"Feature","geometry":{"type":"Point","coordinates":[3.5419317,51.7141867]},"properties":{"dolphinKind":"topmark","rawObjectClass":"TOPMAR","sourceProperties":{"RCID":513694240,"PRIM":1,"GRUP":2,"OBJL":144,"RVER":1,"AGEN":7979,"FIDN":513694240,"FIDS":1,"LNAM":"1F2B1E9E5A200001","COLOUR":["3"],"TOPSHP":5,"SCAMIN":200000,"SORDAT":"20230510","SORIND":"NL,1R,reprt,MD 257-23","sourceCellId":"1R75W8XI","sourceChecksum":"a6e525b8e2434e4358991fcf159561d5f5bd29ed26e9499250e53a8517ce15ba","rawObjectClass":"TOPMAR","sourceStableId":"1F2B1E9E5A200001"},"sourceKind":"official","official":true,"sourceCellId":"1R75W8XI","sourceStableId":"1F2B1E9E5A200001","pipelineFeatureId":"1R75W8XI/TOPMAR/513694240","provenance":{"cellId":"1R75W8XI","checksum":"a6e525b8e2434e4358991fcf159561d5f5bd29ed26e9499250e53a8517ce15ba","readerVersion":"GDAL 3.2.2","processedAt":"2026-08-11T13:43:44.753Z"},"associationRefsVerifiedInGdalOutput":false}},{"type":"Feature","geometry":{"type":"Point","coordinates":[3.561215,51.699055]},"properties":{"dolphinKind":"topmark","rawObjectClass":"TOPMAR","sourceProperties":{"RCID":513694243,"PRIM":1,"GRUP":2,"OBJL":144,"RVER":1,"AGEN":7979,"FIDN":513694243,"FIDS":1,"LNAM":"1F2B1E9E5A230001","COLOUR":["3"],"TOPSHP":5,"SCAMIN":200000,"SORDAT":"20230510","SORIND":"NL,1R,reprt,MD 257-23","sourceCellId":"1R75W8XI","sourceChecksum":"a6e525b8e2434e4358991fcf159561d5f5bd29ed26e9499250e53a8517ce15ba","rawObjectClass":"TOPMAR","sourceStableId":"1F2B1E9E5A230001"},"sourceKind":"official","official":true,"sourceCellId":"1R75W8XI","sourceStableId":"1F2B1E9E5A230001","pipelineFeatureId":"1R75W8XI/TOPMAR/513694243","provenance":{"cellId":"1R75W8XI","checksum":"a6e525b8e2434e4358991fcf159561d5f5bd29ed26e9499250e53a8517ce15ba","readerVersion":"GDAL 3.2.2","processedAt":"2026-08-11T13:43:44.753Z"},"associationRefsVerifiedInGdalOutput":false}}]}