{"type":"FeatureCollection","features":[{"type":"Feature","geometry":{"type":"Point","coordinates":[4.1743,51.6750833]},"properties":{"dolphinKind":"buoy-special","rawObjectClass":"BOYSPP","sourceProperties":{"RCID":24410181,"PRIM":1,"GRUP":2,"OBJL":19,"RVER":1,"AGEN":7979,"FIDN":24410181,"FIDS":1,"LNAM":"1F2B017478450001","LNAM_REFS":["1F2B017478440001"],"FFPT_RIND":[2],"BOYSHP":5,"CATSPM":["50"],"COLOUR":["6"],"CONRAD":3,"OBJNAM":"NK-OW 6","SCAMIN":200000,"SORDAT":"20260402","SORIND":"NL,1R,reprt,MD180-2026","sourceCellId":"1R76W8XI","sourceChecksum":"96aecf3d9cdcf1e6119ffe39ad1c775ff602cf4ae5bcd1296a7ddd8cac59c50e","rawObjectClass":"BOYSPP","sourceStableId":"1F2B017478450001"},"sourceKind":"official","official":true,"sourceCellId":"1R76W8XI","sourceStableId":"1F2B017478450001","pipelineFeatureId":"1R76W8XI/BOYSPP/24410181","provenance":{"cellId":"1R76W8XI","checksum":"96aecf3d9cdcf1e6119ffe39ad1c775ff602cf4ae5bcd1296a7ddd8cac59c50e","readerVersion":"GDAL 3.2.2","processedAt":"2026-08-11T18:29:20.995Z"}}},{"type":"Feature","geometry":{"type":"Point","coordinates":[4.1671033,51.6756483]},"properties":{"dolphinKind":"buoy-special","rawObjectClass":"BOYSPP","sourceProperties":{"RCID":24410185,"PRIM":1,"GRUP":2,"OBJL":19,"RVER":1,"AGEN":7979,"FIDN":24410185,"FIDS":1,"LNAM":"1F2B017478490001","LNAM_REFS":["1F2B017478480001"],"FFPT_RIND":[2],"BOYSHP":5,"CATSPM":["50"],"COLOUR":["6"],"CONRAD":3,"OBJNAM":"NK-OW 4","SCAMIN":200000,"SORDAT":"20260402","SORIND":"NL,1R,reprt,MD180-2026","sourceCellId":"1R76W8XI","sourceChecksum":"96aecf3d9cdcf1e6119ffe39ad1c775ff602cf4ae5bcd1296a7ddd8cac59c50e","rawObjectClass":"BOYSPP","sourceStableId":"1F2B017478490001"},"sourceKind":"official","official":true,"sourceCellId":"1R76W8XI","sourceStableId":"1F2B017478490001","pipelineFeatureId":"1R76W8XI/BOYSPP/24410185","provenance":{"cellId":"1R76W8XI","checksum":"96aecf3d9cdcf1e6119ffe39ad1c775ff602cf4ae5bcd1296a7ddd8cac59c50e","readerVersion":"GDAL 3.2.2","processedAt":"2026-08-11T18:29:20.995Z"}}},{"type":"Feature","geometry":{"type":"Point","coordinates":[4.159805,51.67553]},"properties":{"dolphinKind":"buoy-special","rawObjectClass":"BOYSPP","sourceProperties":{"RCID":24410187,"PRIM":1,"GRUP":2,"OBJL":19,"RVER":1,"AGEN":7979,"FIDN":24410187,"FIDS":1,"LNAM":"1F2B0174784B0001","LNAM_REFS":["1F2B0174784A0001"],"FFPT_RIND":[2],"BOYSHP":5,"CATSPM":["50"],"COLOUR":["6"],"CONRAD":3,"OBJNAM":"NK-OW 2","SCAMIN":200000,"SORDAT":"20260402","SORIND":"NL,1R,reprt,MD180-2026","sourceCellId":"1R76W8XI","sourceChecksum":"96aecf3d9cdcf1e6119ffe39ad1c775ff602cf4ae5bcd1296a7ddd8cac59c50e","rawObjectClass":"BOYSPP","sourceStableId":"1F2B0174784B0001"},"sourceKind":"official","official":true,"sourceCellId":"1R76W8XI","sourceStableId":"1F2B0174784B0001","pipelineFeatureId":"1R76W8XI/BOYSPP/24410187","provenance":{"cellId":"1R76W8XI","checksum":"96aecf3d9cdcf1e6119ffe39ad1c775ff602cf4ae5bcd1296a7ddd8cac59c50e","readerVersion":"GDAL 3.2.2","processedAt":"2026-08-11T18:29:20.995Z"}}},{"type":"Feature","geometry":{"type":"Point","coordinates":[4.1357,51.6817833]},"properties":{"dolphinKind":"buoy-special","rawObjectClass":"BOYSPP","sourceProperties":{"RCID":219438657,"PRIM":1,"GRUP":2,"OBJL":19,"RVER":1,"AGEN":7979,"FIDN":219438657,"FIDS":1,"LNAM":"1F2B0D145E410001","BOYSHP":1,"CATSPM":["12"],"COLOUR":["6"],"OBJNAM":"GD A","PEREND":"--1001","PERSTA":"--0301","INFORM":"Kitesurfing area","NINFOM":"Kitesurfgebied","SCAMIN":200000,"SORDAT":"20220318","SORIND":"NL,1R,reprt,MD 157-22","sourceCellId":"1R76W8XI","sourceChecksum":"96aecf3d9cdcf1e6119ffe39ad1c775ff602cf4ae5bcd1296a7ddd8cac59c50e","rawObjectClass":"BOYSPP","sourceStableId":"1F2B0D145E410001"},"sourceKind":"official","official":true,"sourceCellId":"1R76W8XI","sourceStableId":"1F2B0D145E410001","pipelineFeatureId":"1R76W8XI/BOYSPP/219438657","provenance":{"cellId":"1R76W8XI","checksum":"96aecf3d9cdcf1e6119ffe39ad1c775ff602cf4ae5bcd1296a7ddd8cac59c50e","readerVersion":"GDAL 3.2.2","processedAt":"2026-08-11T18:29:20.995Z"}}},{"type":"Feature","geometry":{"type":"Point","coordinates":[4.1355833,51.6839667]},"properties":{"dolphinKind":"buoy-special","rawObjectClass":"BOYSPP","sourceProperties":{"RCID":219438658,"PRIM":1,"GRUP":2,"OBJL":19,"RVER":1,"AGEN":7979,"FIDN":219438658,"FIDS":1,"LNAM":"1F2B0D145E420001","BOYSHP":1,"CATSPM":["12"],"COLOUR":["6"],"OBJNAM":"GD B","PEREND":"--1001","PERSTA":"--0301","INFORM":"Kitesurfing area","NINFOM":"Kitesurfgebied","SCAMIN":200000,"SORDAT":"20220318","SORIND":"NL,1R,reprt,MD 157-22","sourceCellId":"1R76W8XI","sourceChecksum":"96aecf3d9cdcf1e6119ffe39ad1c775ff602cf4ae5bcd1296a7ddd8cac59c50e","rawObjectClass":"BOYSPP","sourceStableId":"1F2B0D145E420001"},"sourceKind":"official","official":true,"sourceCellId":"1R76W8XI","sourceStableId":"1F2B0D145E420001","pipelineFeatureId":"1R76W8XI/BOYSPP/219438658","provenance":{"cellId":"1R76W8XI","checksum":"96aecf3d9cdcf1e6119ffe39ad1c775ff602cf4ae5bcd1296a7ddd8cac59c50e","readerVersion":"GDAL 3.2.2","processedAt":"2026-08-11T18:29:20.995Z"}}},{"type":"Feature","geometry":{"type":"Point","coordinates":[4.1436667,51.6840833]},"properties":{"dolphinKind":"buoy-special","rawObjectClass":"BOYSPP","sourceProperties":{"RCID":219438659,"PRIM":1,"GRUP":2,"OBJL":19,"RVER":1,"AGEN":7979,"FIDN":219438659,"FIDS":1,"LNAM":"1F2B0D145E430001","BOYSHP":1,"CATSPM":["12"],"COLOUR":["6"],"OBJNAM":"GD C","PEREND":"--1001","PERSTA":"--0301","INFORM":"Kitesurfing area","NINFOM":"Kitesurfgebied","SCAMIN":200000,"SORDAT":"20220318","SORIND":"NL,1R,reprt,MD 157-22","sourceCellId":"1R76W8XI","sourceChecksum":"96aecf3d9cdcf1e6119ffe39ad1c775ff602cf4ae5bcd1296a7ddd8cac59c50e","rawObjectClass":"BOYSPP","sourceStableId":"1F2B0D145E430001"},"sourceKind":"official","official":true,"sourceCellId":"1R76W8XI","sourceStableId":"1F2B0D145E430001","pipelineFeatureId":"1R76W8XI/BOYSPP/219438659","provenance":{"cellId":"1R76W8XI","checksum":"96aecf3d9cdcf1e6119ffe39ad1c775ff602cf4ae5bcd1296a7ddd8cac59c50e","readerVersion":"GDAL 3.2.2","processedAt":"2026-08-11T18:29:20.995Z"}}},{"type":"Feature","geometry":{"type":"Point","coordinates":[4.1433667,51.6816333]},"properties":{"dolphinKind":"buoy-special","rawObjectClass":"BOYSPP","sourceProperties":{"RCID":219438660,"PRIM":1,"GRUP":2,"OBJL":19,"RVER":1,"AGEN":7979,"FIDN":219438660,"FIDS":1,"LNAM":"1F2B0D145E440001","BOYSHP":1,"CATSPM":["12"],"COLOUR":["6"],"OBJNAM":"GD D","PEREND":"--1001","PERSTA":"--0301","INFORM":"Kitesurfing area","NINFOM":"Kitesurfgebied","SCAMIN":200000,"SORDAT":"20220318","SORIND":"NL,1R,reprt,MD 157-22","sourceCellId":"1R76W8XI","sourceChecksum":"96aecf3d9cdcf1e6119ffe39ad1c775ff602cf4ae5bcd1296a7ddd8cac59c50e","rawObjectClass":"BOYSPP","sourceStableId":"1F2B0D145E440001"},"sourceKind":"official","official":true,"sourceCellId":"1R76W8XI","sourceStableId":"1F2B0D145E440001","pipelineFeatureId":"1R76W8XI/BOYSPP/219438660","provenance":{"cellId":"1R76W8XI","checksum":"96aecf3d9cdcf1e6119ffe39ad1c775ff602cf4ae5bcd1296a7ddd8cac59c50e","readerVersion":"GDAL 3.2.2","processedAt":"2026-08-11T18:29:20.995Z"}}},{"type":"Feature","geometry":{"type":"Point","coordinates":[4.1481219,51.6753005]},"properties":{"dolphinKind":"light","rawObjectClass":"LIGHTS","sourceProperties":{"RCID":20202,"PRIM":1,"GRUP":2,"OBJL":75,"RVER":1,"AGEN":7979,"FIDN":1106834755,"FIDS":393,"LNAM":"1F2B41F8F5430189","COLOUR":["4"],"LITCHR":1,"SCAMIN":200000,"sourceCellId":"1R76W8XI","sourceChecksum":"96aecf3d9cdcf1e6119ffe39ad1c775ff602cf4ae5bcd1296a7ddd8cac59c50e","rawObjectClass":"LIGHTS","sourceStableId":"1F2B41F8F5430189"},"sourceKind":"official","official":true,"sourceCellId":"1R76W8XI","sourceStableId":"1F2B41F8F5430189","pipelineFeatureId":"1R76W8XI/LIGHTS/20202","provenance":{"cellId":"1R76W8XI","checksum":"96aecf3d9cdcf1e6119ffe39ad1c775ff602cf4ae5bcd1296a7ddd8cac59c50e","readerVersion":"GDAL 3.2.2","processedAt":"2026-08-11T18:29:20.995Z"}}},{"type":"Feature","geometry":{"type":"Point","coordinates":[4.1514,51.6839667]},"properties":{"dolphinKind":"topmark","rawObjectClass":"TOPMAR","sourceProperties":{"RCID":8631352,"PRIM":1,"GRUP":2,"OBJL":144,"RVER":1,"AGEN":7979,"FIDN":8631352,"FIDS":1,"LNAM":"1F2B0083B4380001","COLOUR":["4"],"TOPSHP":1,"SCAMIN":200000,"SORDAT":"20170330","SORIND":"NL,1R,reprt,Kitesurfgebieden","sourceCellId":"1R76W8XI","sourceChecksum":"96aecf3d9cdcf1e6119ffe39ad1c775ff602cf4ae5bcd1296a7ddd8cac59c50e","rawObjectClass":"TOPMAR","sourceStableId":"1F2B0083B4380001"},"sourceKind":"official","official":true,"sourceCellId":"1R76W8XI","sourceStableId":"1F2B0083B4380001","pipelineFeatureId":"1R76W8XI/TOPMAR/8631352","provenance":{"cellId":"1R76W8XI","checksum":"96aecf3d9cdcf1e6119ffe39ad1c775ff602cf4ae5bcd1296a7ddd8cac59c50e","readerVersion":"GDAL 3.2.2","processedAt":"2026-08-11T18:29:20.995Z"},"associationRefsVerifiedInGdalOutput":false}},{"type":"Feature","geometry":{"type":"Point","coordinates":[4.15525,51.6841167]},"properties":{"dolphinKind":"topmark","rawObjectClass":"TOPMAR","sourceProperties":{"RCID":8631353,"PRIM":1,"GRUP":2,"OBJL":144,"RVER":1,"AGEN":7979,"FIDN":8631353,"FIDS":1,"LNAM":"1F2B0083B4390001","COLOUR":["4"],"TOPSHP":1,"SCAMIN":200000,"sourceCellId":"1R76W8XI","sourceChecksum":"96aecf3d9cdcf1e6119ffe39ad1c775ff602cf4ae5bcd1296a7ddd8cac59c50e","rawObjectClass":"TOPMAR","sourceStableId":"1F2B0083B4390001"},"sourceKind":"official","official":true,"sourceCellId":"1R76W8XI","sourceStableId":"1F2B0083B4390001","pipelineFeatureId":"1R76W8XI/TOPMAR/8631353","provenance":{"cellId":"1R76W8XI","checksum":"96aecf3d9cdcf1e6119ffe39ad1c775ff602cf4ae5bcd1296a7ddd8cac59c50e","readerVersion":"GDAL 3.2.2","processedAt":"2026-08-11T18:29:20.995Z"},"associationRefsVerifiedInGdalOutput":false}},{"type":"Feature","geometry":{"type":"Point","coordinates":[4.1524501,51.6869167]},"properties":{"dolphinKind":"topmark","rawObjectClass":"TOPMAR","sourceProperties":{"RCID":8631354,"PRIM":1,"GRUP":2,"OBJL":144,"RVER":1,"AGEN":7979,"FIDN":8631354,"FIDS":1,"LNAM":"1F2B0083B43A0001","COLOUR":["4"],"TOPSHP":1,"SCAMIN":200000,"sourceCellId":"1R76W8XI","sourceChecksum":"96aecf3d9cdcf1e6119ffe39ad1c775ff602cf4ae5bcd1296a7ddd8cac59c50e","rawObjectClass":"TOPMAR","sourceStableId":"1F2B0083B43A0001"},"sourceKind":"official","official":true,"sourceCellId":"1R76W8XI","sourceStableId":"1F2B0083B43A0001","pipelineFeatureId":"1R76W8XI/TOPMAR/8631354","provenance":{"cellId":"1R76W8XI","checksum":"96aecf3d9cdcf1e6119ffe39ad1c775ff602cf4ae5bcd1296a7ddd8cac59c50e","readerVersion":"GDAL 3.2.2","processedAt":"2026-08-11T18:29:20.995Z"},"associationRefsVerifiedInGdalOutput":false}},{"type":"Feature","geometry":{"type":"Point","coordinates":[4.1481166,51.6890833]},"properties":{"dolphinKind":"topmark","rawObjectClass":"TOPMAR","sourceProperties":{"RCID":8631355,"PRIM":1,"GRUP":2,"OBJL":144,"RVER":1,"AGEN":7979,"FIDN":8631355,"FIDS":1,"LNAM":"1F2B0083B43B0001","COLOUR":["4"],"TOPSHP":1,"SCAMIN":200000,"sourceCellId":"1R76W8XI","sourceChecksum":"96aecf3d9cdcf1e6119ffe39ad1c775ff602cf4ae5bcd1296a7ddd8cac59c50e","rawObjectClass":"TOPMAR","sourceStableId":"1F2B0083B43B0001"},"sourceKind":"official","official":true,"sourceCellId":"1R76W8XI","sourceStableId":"1F2B0083B43B0001","pipelineFeatureId":"1R76W8XI/TOPMAR/8631355","provenance":{"cellId":"1R76W8XI","checksum":"96aecf3d9cdcf1e6119ffe39ad1c775ff602cf4ae5bcd1296a7ddd8cac59c50e","readerVersion":"GDAL 3.2.2","processedAt":"2026-08-11T18:29:20.995Z"},"associationRefsVerifiedInGdalOutput":false}},{"type":"Feature","geometry":{"type":"Point","coordinates":[4.1428334,51.6907167]},"properties":{"dolphinKind":"topmark","rawObjectClass":"TOPMAR","sourceProperties":{"RCID":8631356,"PRIM":1,"GRUP":2,"OBJL":144,"RVER":1,"AGEN":7979,"FIDN":8631356,"FIDS":1,"LNAM":"1F2B0083B43C0001","COLOUR":["4"],"TOPSHP":1,"SCAMIN":200000,"sourceCellId":"1R76W8XI","sourceChecksum":"96aecf3d9cdcf1e6119ffe39ad1c775ff602cf4ae5bcd1296a7ddd8cac59c50e","rawObjectClass":"TOPMAR","sourceStableId":"1F2B0083B43C0001"},"sourceKind":"official","official":true,"sourceCellId":"1R76W8XI","sourceStableId":"1F2B0083B43C0001","pipelineFeatureId":"1R76W8XI/TOPMAR/8631356","provenance":{"cellId":"1R76W8XI","checksum":"96aecf3d9cdcf1e6119ffe39ad1c775ff602cf4ae5bcd1296a7ddd8cac59c50e","readerVersion":"GDAL 3.2.2","processedAt":"2026-08-11T18:29:20.995Z"},"associationRefsVerifiedInGdalOutput":false}},{"type":"Feature","geometry":{"type":"Point","coordinates":[4.13605,51.6925833]},"properties":{"dolphinKind":"topmark","rawObjectClass":"TOPMAR","sourceProperties":{"RCID":8631357,"PRIM":1,"GRUP":2,"OBJL":144,"RVER":1,"AGEN":7979,"FIDN":8631357,"FIDS":1,"LNAM":"1F2B0083B43D0001","COLOUR":["4"],"TOPSHP":1,"SCAMIN":200000,"sourceCellId":"1R76W8XI","sourceChecksum":"96aecf3d9cdcf1e6119ffe39ad1c775ff602cf4ae5bcd1296a7ddd8cac59c50e","rawObjectClass":"TOPMAR","sourceStableId":"1F2B0083B43D0001"},"sourceKind":"official","official":true,"sourceCellId":"1R76W8XI","sourceStableId":"1F2B0083B43D0001","pipelineFeatureId":"1R76W8XI/TOPMAR/8631357","provenance":{"cellId":"1R76W8XI","checksum":"96aecf3d9cdcf1e6119ffe39ad1c775ff602cf4ae5bcd1296a7ddd8cac59c50e","readerVersion":"GDAL 3.2.2","processedAt":"2026-08-11T18:29:20.995Z"},"associationRefsVerifiedInGdalOutput":false}},{"type":"Feature","geometry":{"type":"Point","coordinates":[4.14735,51.6839167]},"properties":{"dolphinKind":"topmark","rawObjectClass":"TOPMAR","sourceProperties":{"RCID":8631359,"PRIM":1,"GRUP":2,"OBJL":144,"RVER":1,"AGEN":7979,"FIDN":8631359,"FIDS":1,"LNAM":"1F2B0083B43F0001","COLOUR":["4"],"TOPSHP":1,"SCAMIN":200000,"SORDAT":"20170330","SORIND":"NL,1R,reprt,Kitesurfgebieden","sourceCellId":"1R76W8XI","sourceChecksum":"96aecf3d9cdcf1e6119ffe39ad1c775ff602cf4ae5bcd1296a7ddd8cac59c50e","rawObjectClass":"TOPMAR","sourceStableId":"1F2B0083B43F0001"},"sourceKind":"official","official":true,"sourceCellId":"1R76W8XI","sourceStableId":"1F2B0083B43F0001","pipelineFeatureId":"1R76W8XI/TOPMAR/8631359","provenance":{"cellId":"1R76W8XI","checksum":"96aecf3d9cdcf1e6119ffe39ad1c775ff602cf4ae5bcd1296a7ddd8cac59c50e","readerVersion":"GDAL 3.2.2","processedAt":"2026-08-11T18:29:20.995Z"},"associationRefsVerifiedInGdalOutput":false}},{"type":"Feature","geometry":{"type":"Point","coordinates":[4.1743,51.6750833]},"properties":{"dolphinKind":"topmark","rawObjectClass":"TOPMAR","sourceProperties":{"RCID":24410180,"PRIM":1,"GRUP":2,"OBJL":144,"RVER":1,"AGEN":7979,"FIDN":24410180,"FIDS":1,"LNAM":"1F2B017478440001","COLOUR":["3","1","3"],"COLPAT":["1"],"TOPSHP":5,"SCAMIN":200000,"SORDAT":"20090121","sourceCellId":"1R76W8XI","sourceChecksum":"96aecf3d9cdcf1e6119ffe39ad1c775ff602cf4ae5bcd1296a7ddd8cac59c50e","rawObjectClass":"TOPMAR","sourceStableId":"1F2B017478440001"},"sourceKind":"official","official":true,"sourceCellId":"1R76W8XI","sourceStableId":"1F2B017478440001","pipelineFeatureId":"1R76W8XI/TOPMAR/24410180","provenance":{"cellId":"1R76W8XI","checksum":"96aecf3d9cdcf1e6119ffe39ad1c775ff602cf4ae5bcd1296a7ddd8cac59c50e","readerVersion":"GDAL 3.2.2","processedAt":"2026-08-11T18:29:20.995Z"},"associationRefsVerifiedInGdalOutput":false}},{"type":"Feature","geometry":{"type":"Point","coordinates":[4.1671033,51.6756483]},"properties":{"dolphinKind":"topmark","rawObjectClass":"TOPMAR","sourceProperties":{"RCID":24410184,"PRIM":1,"GRUP":2,"OBJL":144,"RVER":1,"AGEN":7979,"FIDN":24410184,"FIDS":1,"LNAM":"1F2B017478480001","COLOUR":["3","1","3"],"COLPAT":["1"],"TOPSHP":5,"SCAMIN":200000,"SORDAT":"20090121","sourceCellId":"1R76W8XI","sourceChecksum":"96aecf3d9cdcf1e6119ffe39ad1c775ff602cf4ae5bcd1296a7ddd8cac59c50e","rawObjectClass":"TOPMAR","sourceStableId":"1F2B017478480001"},"sourceKind":"official","official":true,"sourceCellId":"1R76W8XI","sourceStableId":"1F2B017478480001","pipelineFeatureId":"1R76W8XI/TOPMAR/24410184","provenance":{"cellId":"1R76W8XI","checksum":"96aecf3d9cdcf1e6119ffe39ad1c775ff602cf4ae5bcd1296a7ddd8cac59c50e","readerVersion":"GDAL 3.2.2","processedAt":"2026-08-11T18:29:20.995Z"},"associationRefsVerifiedInGdalOutput":false}},{"type":"Feature","geometry":{"type":"Point","coordinates":[4.159805,51.67553]},"properties":{"dolphinKind":"topmark","rawObjectClass":"TOPMAR","sourceProperties":{"RCID":24410186,"PRIM":1,"GRUP":2,"OBJL":144,"RVER":1,"AGEN":7979,"FIDN":24410186,"FIDS":1,"LNAM":"1F2B0174784A0001","COLOUR":["3","1","3"],"COLPAT":["1"],"TOPSHP":5,"SCAMIN":200000,"SORDAT":"20090121","sourceCellId":"1R76W8XI","sourceChecksum":"96aecf3d9cdcf1e6119ffe39ad1c775ff602cf4ae5bcd1296a7ddd8cac59c50e","rawObjectClass":"TOPMAR","sourceStableId":"1F2B0174784A0001"},"sourceKind":"official","official":true,"sourceCellId":"1R76W8XI","sourceStableId":"1F2B0174784A0001","pipelineFeatureId":"1R76W8XI/TOPMAR/24410186","provenance":{"cellId":"1R76W8XI","checksum":"96aecf3d9cdcf1e6119ffe39ad1c775ff602cf4ae5bcd1296a7ddd8cac59c50e","readerVersion":"GDAL 3.2.2","processedAt":"2026-08-11T18:29:20.995Z"},"associationRefsVerifiedInGdalOutput":false}}]}