{"type":"FeatureCollection","features":[{"type":"Feature","geometry":{"type":"Point","coordinates":[4.3375883,51.661695]},"properties":{"dolphinKind":"buoy-lateral","rawObjectClass":"BOYLAT","sourceProperties":{"RCID":197234471,"PRIM":1,"GRUP":2,"OBJL":17,"RVER":1,"AGEN":7979,"FIDN":197234471,"FIDS":1,"LNAM":"1F2B0BC18F270001","LNAM_REFS":["1F2B41F8F5410189"],"FFPT_RIND":[2],"BOYSHP":5,"CATLAM":2,"COLOUR":["3"],"OBJNAM":"NV 8","SCAMIN":200000,"SORDAT":"20160801","SORIND":"NL,1R,Reprt,Topdesk M160801734","sourceCellId":"1R7788RI","sourceChecksum":"cbdea5755b9f53de9587e2fc4d441c52178484268b79c23084a307e3910da99b","rawObjectClass":"BOYLAT","sourceStableId":"1F2B0BC18F270001"},"sourceKind":"official","official":true,"sourceCellId":"1R7788RI","sourceStableId":"1F2B0BC18F270001","pipelineFeatureId":"1R7788RI/BOYLAT/197234471","provenance":{"cellId":"1R7788RI","checksum":"cbdea5755b9f53de9587e2fc4d441c52178484268b79c23084a307e3910da99b","readerVersion":"GDAL 3.2.2","processedAt":"2026-08-11T13:43:44.753Z"}}},{"type":"Feature","geometry":{"type":"Point","coordinates":[4.3621717,51.6661383]},"properties":{"dolphinKind":"buoy-lateral","rawObjectClass":"BOYLAT","sourceProperties":{"RCID":284389637,"PRIM":1,"GRUP":2,"OBJL":17,"RVER":1,"AGEN":7979,"FIDN":284389637,"FIDS":1,"LNAM":"1F2B10F371050001","LNAM_REFS":["1F2B41F8F52901B7","1F2B41F8F52A01CA"],"FFPT_RIND":[2,2],"BOYSHP":5,"CATLAM":3,"COLOUR":["3","4"],"COLPAT":["1"],"OBJNAM":"NV 12-HG 1","SCAMIN":200000,"SORDAT":"20170315","SORIND":"NL,1R,reprt,MD065-17","sourceCellId":"1R7788RI","sourceChecksum":"cbdea5755b9f53de9587e2fc4d441c52178484268b79c23084a307e3910da99b","rawObjectClass":"BOYLAT","sourceStableId":"1F2B10F371050001"},"sourceKind":"official","official":true,"sourceCellId":"1R7788RI","sourceStableId":"1F2B10F371050001","pipelineFeatureId":"1R7788RI/BOYLAT/284389637","provenance":{"cellId":"1R7788RI","checksum":"cbdea5755b9f53de9587e2fc4d441c52178484268b79c23084a307e3910da99b","readerVersion":"GDAL 3.2.2","processedAt":"2026-08-11T13:43:44.753Z"}}},{"type":"Feature","geometry":{"type":"Point","coordinates":[4.3653667,51.6625283]},"properties":{"dolphinKind":"buoy-lateral","rawObjectClass":"BOYLAT","sourceProperties":{"RCID":284396693,"PRIM":1,"GRUP":2,"OBJL":17,"RVER":1,"AGEN":7979,"FIDN":284396693,"FIDS":1,"LNAM":"1F2B10F38C950001","LNAM_REFS":["1F2B41F8F52A010D","1F2B41F8F52A01C7"],"FFPT_RIND":[2,2],"BOYSHP":5,"CATLAM":4,"COLOUR":["4","3"],"COLPAT":["1"],"CONRAD":3,"OBJNAM":"NV 11-DS 2","SCAMIN":200000,"SORDAT":"20170315","SORIND":"NL,1R,reprt,MD065-17","sourceCellId":"1R7788RI","sourceChecksum":"cbdea5755b9f53de9587e2fc4d441c52178484268b79c23084a307e3910da99b","rawObjectClass":"BOYLAT","sourceStableId":"1F2B10F38C950001"},"sourceKind":"official","official":true,"sourceCellId":"1R7788RI","sourceStableId":"1F2B10F38C950001","pipelineFeatureId":"1R7788RI/BOYLAT/284396693","provenance":{"cellId":"1R7788RI","checksum":"cbdea5755b9f53de9587e2fc4d441c52178484268b79c23084a307e3910da99b","readerVersion":"GDAL 3.2.2","processedAt":"2026-08-11T13:43:44.753Z"}}},{"type":"Feature","geometry":{"type":"Point","coordinates":[4.3341917,51.663]},"properties":{"dolphinKind":"buoy-lateral","rawObjectClass":"BOYLAT","sourceProperties":{"RCID":1269294550,"PRIM":1,"GRUP":2,"OBJL":17,"RVER":1,"AGEN":7979,"FIDN":1269294550,"FIDS":1,"LNAM":"1F2B4BA7E5D60001","LNAM_REFS":["1F2B4BA7F7070001"],"FFPT_RIND":[2],"BOYSHP":5,"CATLAM":2,"COLOUR":["3","1","3"],"COLPAT":["1"],"CONRAD":1,"OBJNAM":"R-NV 2","SCAMIN":200000,"SORDAT":"20260402","SORIND":"NL,1R,Reprt,MD182-2026","sourceCellId":"1R7788RI","sourceChecksum":"cbdea5755b9f53de9587e2fc4d441c52178484268b79c23084a307e3910da99b","rawObjectClass":"BOYLAT","sourceStableId":"1F2B4BA7E5D60001"},"sourceKind":"official","official":true,"sourceCellId":"1R7788RI","sourceStableId":"1F2B4BA7E5D60001","pipelineFeatureId":"1R7788RI/BOYLAT/1269294550","provenance":{"cellId":"1R7788RI","checksum":"cbdea5755b9f53de9587e2fc4d441c52178484268b79c23084a307e3910da99b","readerVersion":"GDAL 3.2.2","processedAt":"2026-08-11T13:43:44.753Z"}}},{"type":"Feature","geometry":{"type":"Point","coordinates":[4.3388383,51.6643033]},"properties":{"dolphinKind":"buoy-lateral","rawObjectClass":"BOYLAT","sourceProperties":{"RCID":1269302554,"PRIM":1,"GRUP":2,"OBJL":17,"RVER":1,"AGEN":7979,"FIDN":1269302554,"FIDS":1,"LNAM":"1F2B4BA8051A0001","LNAM_REFS":["1F2B4BA805190001"],"FFPT_RIND":[2],"BOYSHP":5,"CATLAM":2,"COLOUR":["3","1","3"],"COLPAT":["1"],"CONRAD":1,"OBJNAM":"R-NV 4","SCAMIN":200000,"SORDAT":"20260402","SORIND":"NL,1R,Reprt,MD182-2026","sourceCellId":"1R7788RI","sourceChecksum":"cbdea5755b9f53de9587e2fc4d441c52178484268b79c23084a307e3910da99b","rawObjectClass":"BOYLAT","sourceStableId":"1F2B4BA8051A0001"},"sourceKind":"official","official":true,"sourceCellId":"1R7788RI","sourceStableId":"1F2B4BA8051A0001","pipelineFeatureId":"1R7788RI/BOYLAT/1269302554","provenance":{"cellId":"1R7788RI","checksum":"cbdea5755b9f53de9587e2fc4d441c52178484268b79c23084a307e3910da99b","readerVersion":"GDAL 3.2.2","processedAt":"2026-08-11T13:43:44.753Z"}}},{"type":"Feature","geometry":{"type":"Point","coordinates":[4.3427533,51.665495]},"properties":{"dolphinKind":"buoy-lateral","rawObjectClass":"BOYLAT","sourceProperties":{"RCID":1269305406,"PRIM":1,"GRUP":2,"OBJL":17,"RVER":1,"AGEN":7979,"FIDN":1269305406,"FIDS":1,"LNAM":"1F2B4BA8103E0001","LNAM_REFS":["1F2B4BA8103D0001"],"FFPT_RIND":[2],"BOYSHP":5,"CATLAM":2,"COLOUR":["3","1","3"],"COLPAT":["1"],"CONRAD":1,"OBJNAM":"R-NV 6","SCAMIN":200000,"SORDAT":"20260402","SORIND":"NL,1R,Reprt,MD182-2026","sourceCellId":"1R7788RI","sourceChecksum":"cbdea5755b9f53de9587e2fc4d441c52178484268b79c23084a307e3910da99b","rawObjectClass":"BOYLAT","sourceStableId":"1F2B4BA8103E0001"},"sourceKind":"official","official":true,"sourceCellId":"1R7788RI","sourceStableId":"1F2B4BA8103E0001","pipelineFeatureId":"1R7788RI/BOYLAT/1269305406","provenance":{"cellId":"1R7788RI","checksum":"cbdea5755b9f53de9587e2fc4d441c52178484268b79c23084a307e3910da99b","readerVersion":"GDAL 3.2.2","processedAt":"2026-08-11T13:43:44.753Z"}}},{"type":"Feature","geometry":{"type":"Point","coordinates":[4.34666,51.66666]},"properties":{"dolphinKind":"buoy-lateral","rawObjectClass":"BOYLAT","sourceProperties":{"RCID":1269305508,"PRIM":1,"GRUP":2,"OBJL":17,"RVER":1,"AGEN":7979,"FIDN":1269305508,"FIDS":1,"LNAM":"1F2B4BA810A40001","LNAM_REFS":["1F2B4BA810A30001"],"FFPT_RIND":[2],"BOYSHP":5,"CATLAM":2,"COLOUR":["3","1","3"],"COLPAT":["1"],"CONRAD":1,"OBJNAM":"R-NV 8","SCAMIN":200000,"SORDAT":"20260402","SORIND":"NL,1R,Reprt,MD182-2026","sourceCellId":"1R7788RI","sourceChecksum":"cbdea5755b9f53de9587e2fc4d441c52178484268b79c23084a307e3910da99b","rawObjectClass":"BOYLAT","sourceStableId":"1F2B4BA810A40001"},"sourceKind":"official","official":true,"sourceCellId":"1R7788RI","sourceStableId":"1F2B4BA810A40001","pipelineFeatureId":"1R7788RI/BOYLAT/1269305508","provenance":{"cellId":"1R7788RI","checksum":"cbdea5755b9f53de9587e2fc4d441c52178484268b79c23084a307e3910da99b","readerVersion":"GDAL 3.2.2","processedAt":"2026-08-11T13:43:44.753Z"}}},{"type":"Feature","geometry":{"type":"Point","coordinates":[4.350715,51.6678117]},"properties":{"dolphinKind":"buoy-lateral","rawObjectClass":"BOYLAT","sourceProperties":{"RCID":1269305510,"PRIM":1,"GRUP":2,"OBJL":17,"RVER":1,"AGEN":7979,"FIDN":1269305510,"FIDS":1,"LNAM":"1F2B4BA810A60001","LNAM_REFS":["1F2B4BA810A50001"],"FFPT_RIND":[2],"BOYSHP":5,"CATLAM":2,"COLOUR":["3","1","3"],"COLPAT":["1"],"CONRAD":1,"OBJNAM":"R-NV 10","SCAMIN":200000,"SORDAT":"20260402","SORIND":"NL,1R,Reprt,MD182-2026","sourceCellId":"1R7788RI","sourceChecksum":"cbdea5755b9f53de9587e2fc4d441c52178484268b79c23084a307e3910da99b","rawObjectClass":"BOYLAT","sourceStableId":"1F2B4BA810A60001"},"sourceKind":"official","official":true,"sourceCellId":"1R7788RI","sourceStableId":"1F2B4BA810A60001","pipelineFeatureId":"1R7788RI/BOYLAT/1269305510","provenance":{"cellId":"1R7788RI","checksum":"cbdea5755b9f53de9587e2fc4d441c52178484268b79c23084a307e3910da99b","readerVersion":"GDAL 3.2.2","processedAt":"2026-08-11T13:43:44.753Z"}}},{"type":"Feature","geometry":{"type":"Point","coordinates":[4.3547817,51.669035]},"properties":{"dolphinKind":"buoy-lateral","rawObjectClass":"BOYLAT","sourceProperties":{"RCID":1269305512,"PRIM":1,"GRUP":2,"OBJL":17,"RVER":1,"AGEN":7979,"FIDN":1269305512,"FIDS":1,"LNAM":"1F2B4BA810A80001","LNAM_REFS":["1F2B4BA810A70001"],"FFPT_RIND":[2],"BOYSHP":5,"CATLAM":2,"COLOUR":["3","1","3"],"COLPAT":["1"],"CONRAD":1,"OBJNAM":"R-HG 2","SCAMIN":200000,"SORDAT":"20260402","SORIND":"NL,1R,Reprt,MD182-2026","sourceCellId":"1R7788RI","sourceChecksum":"cbdea5755b9f53de9587e2fc4d441c52178484268b79c23084a307e3910da99b","rawObjectClass":"BOYLAT","sourceStableId":"1F2B4BA810A80001"},"sourceKind":"official","official":true,"sourceCellId":"1R7788RI","sourceStableId":"1F2B4BA810A80001","pipelineFeatureId":"1R7788RI/BOYLAT/1269305512","provenance":{"cellId":"1R7788RI","checksum":"cbdea5755b9f53de9587e2fc4d441c52178484268b79c23084a307e3910da99b","readerVersion":"GDAL 3.2.2","processedAt":"2026-08-11T13:43:44.753Z"}}},{"type":"Feature","geometry":{"type":"Point","coordinates":[4.35874,51.67028]},"properties":{"dolphinKind":"buoy-lateral","rawObjectClass":"BOYLAT","sourceProperties":{"RCID":1269306814,"PRIM":1,"GRUP":2,"OBJL":17,"RVER":1,"AGEN":7979,"FIDN":1269306814,"FIDS":1,"LNAM":"1F2B4BA815BE0001","LNAM_REFS":["1F2B4BA815BD0001"],"FFPT_RIND":[2],"BOYSHP":5,"CATLAM":2,"COLOUR":["3","1","3"],"COLPAT":["1"],"CONRAD":1,"OBJNAM":"R-HG 4","SCAMIN":200000,"SORDAT":"20260402","SORIND":"NL,1R,Reprt,MD182-2026","sourceCellId":"1R7788RI","sourceChecksum":"cbdea5755b9f53de9587e2fc4d441c52178484268b79c23084a307e3910da99b","rawObjectClass":"BOYLAT","sourceStableId":"1F2B4BA815BE0001"},"sourceKind":"official","official":true,"sourceCellId":"1R7788RI","sourceStableId":"1F2B4BA815BE0001","pipelineFeatureId":"1R7788RI/BOYLAT/1269306814","provenance":{"cellId":"1R7788RI","checksum":"cbdea5755b9f53de9587e2fc4d441c52178484268b79c23084a307e3910da99b","readerVersion":"GDAL 3.2.2","processedAt":"2026-08-11T13:43:44.753Z"}}},{"type":"Feature","geometry":{"type":"Point","coordinates":[4.3617017,51.672315]},"properties":{"dolphinKind":"buoy-lateral","rawObjectClass":"BOYLAT","sourceProperties":{"RCID":1269306816,"PRIM":1,"GRUP":2,"OBJL":17,"RVER":1,"AGEN":7979,"FIDN":1269306816,"FIDS":1,"LNAM":"1F2B4BA815C00001","LNAM_REFS":["1F2B4BA815BF0001"],"FFPT_RIND":[2],"BOYSHP":5,"CATLAM":2,"COLOUR":["3","1","3"],"COLPAT":["1"],"CONRAD":1,"OBJNAM":"R-HG 6","SCAMIN":200000,"SORDAT":"20260402","SORIND":"NL,1R,Reprt,MD182-2026","sourceCellId":"1R7788RI","sourceChecksum":"cbdea5755b9f53de9587e2fc4d441c52178484268b79c23084a307e3910da99b","rawObjectClass":"BOYLAT","sourceStableId":"1F2B4BA815C00001"},"sourceKind":"official","official":true,"sourceCellId":"1R7788RI","sourceStableId":"1F2B4BA815C00001","pipelineFeatureId":"1R7788RI/BOYLAT/1269306816","provenance":{"cellId":"1R7788RI","checksum":"cbdea5755b9f53de9587e2fc4d441c52178484268b79c23084a307e3910da99b","readerVersion":"GDAL 3.2.2","processedAt":"2026-08-11T13:43:44.753Z"}}},{"type":"Feature","geometry":{"type":"Point","coordinates":[4.3642217,51.674545]},"properties":{"dolphinKind":"buoy-lateral","rawObjectClass":"BOYLAT","sourceProperties":{"RCID":1269312618,"PRIM":1,"GRUP":2,"OBJL":17,"RVER":1,"AGEN":7979,"FIDN":1269312618,"FIDS":1,"LNAM":"1F2B4BA82C6A0001","LNAM_REFS":["1F2B4BA82C690001"],"FFPT_RIND":[2],"BOYSHP":5,"CATLAM":2,"COLOUR":["3","1","3"],"COLPAT":["1"],"CONRAD":1,"OBJNAM":"R-HG 8","SCAMIN":200000,"SORDAT":"20260402","SORIND":"NL,1R,Reprt,MD182-2026","sourceCellId":"1R7788RI","sourceChecksum":"cbdea5755b9f53de9587e2fc4d441c52178484268b79c23084a307e3910da99b","rawObjectClass":"BOYLAT","sourceStableId":"1F2B4BA82C6A0001"},"sourceKind":"official","official":true,"sourceCellId":"1R7788RI","sourceStableId":"1F2B4BA82C6A0001","pipelineFeatureId":"1R7788RI/BOYLAT/1269312618","provenance":{"cellId":"1R7788RI","checksum":"cbdea5755b9f53de9587e2fc4d441c52178484268b79c23084a307e3910da99b","readerVersion":"GDAL 3.2.2","processedAt":"2026-08-11T13:43:44.753Z"}}},{"type":"Feature","geometry":{"type":"Point","coordinates":[4.335135,51.646565]},"properties":{"dolphinKind":"buoy-special","rawObjectClass":"BOYSPP","sourceProperties":{"RCID":23826773,"PRIM":1,"GRUP":2,"OBJL":19,"RVER":1,"AGEN":7979,"FIDN":23826773,"FIDS":1,"LNAM":"1F2B016B91550001","LNAM_REFS":["1F2B016B91540001"],"FFPT_RIND":[2],"BOYSHP":5,"CATSPM":["50"],"COLOUR":["6"],"CONRAD":3,"OBJNAM":"DG-OW 25","SCAMIN":200000,"SORDAT":"20260402","SORIND":"NL,1R,reprt,MD181-2026","sourceCellId":"1R7788RI","sourceChecksum":"cbdea5755b9f53de9587e2fc4d441c52178484268b79c23084a307e3910da99b","rawObjectClass":"BOYSPP","sourceStableId":"1F2B016B91550001"},"sourceKind":"official","official":true,"sourceCellId":"1R7788RI","sourceStableId":"1F2B016B91550001","pipelineFeatureId":"1R7788RI/BOYSPP/23826773","provenance":{"cellId":"1R7788RI","checksum":"cbdea5755b9f53de9587e2fc4d441c52178484268b79c23084a307e3910da99b","readerVersion":"GDAL 3.2.2","processedAt":"2026-08-11T13:43:44.753Z"}}},{"type":"Feature","geometry":{"type":"Point","coordinates":[4.345895,51.651695]},"properties":{"dolphinKind":"buoy-special","rawObjectClass":"BOYSPP","sourceProperties":{"RCID":24156806,"PRIM":1,"GRUP":2,"OBJL":19,"RVER":1,"AGEN":7979,"FIDN":24156806,"FIDS":1,"LNAM":"1F2B01709A860001","BOYSHP":5,"CATSPM":["27"],"COLOUR":["6"],"CONRAD":3,"OBJNAM":"SM-16","PEREND":"--1001","PERSTA":"--0301","SCAMIN":200000,"SORDAT":"20260227","SORIND":"NL,1R,Reprt,MD 061-2026","sourceCellId":"1R7788RI","sourceChecksum":"cbdea5755b9f53de9587e2fc4d441c52178484268b79c23084a307e3910da99b","rawObjectClass":"BOYSPP","sourceStableId":"1F2B01709A860001"},"sourceKind":"official","official":true,"sourceCellId":"1R7788RI","sourceStableId":"1F2B01709A860001","pipelineFeatureId":"1R7788RI/BOYSPP/24156806","provenance":{"cellId":"1R7788RI","checksum":"cbdea5755b9f53de9587e2fc4d441c52178484268b79c23084a307e3910da99b","readerVersion":"GDAL 3.2.2","processedAt":"2026-08-11T13:43:44.753Z"}}},{"type":"Feature","geometry":{"type":"Point","coordinates":[4.34956,51.654575]},"properties":{"dolphinKind":"buoy-special","rawObjectClass":"BOYSPP","sourceProperties":{"RCID":24156808,"PRIM":1,"GRUP":2,"OBJL":19,"RVER":1,"AGEN":7979,"FIDN":24156808,"FIDS":1,"LNAM":"1F2B01709A880001","BOYSHP":5,"CATSPM":["27"],"COLOUR":["6"],"CONRAD":3,"OBJNAM":"SM-15","PEREND":"--1001","PERSTA":"--0301","SCAMIN":200000,"SORDAT":"20260227","SORIND":"NL,1R,Reprt,MD 061-2026","sourceCellId":"1R7788RI","sourceChecksum":"cbdea5755b9f53de9587e2fc4d441c52178484268b79c23084a307e3910da99b","rawObjectClass":"BOYSPP","sourceStableId":"1F2B01709A880001"},"sourceKind":"official","official":true,"sourceCellId":"1R7788RI","sourceStableId":"1F2B01709A880001","pipelineFeatureId":"1R7788RI/BOYSPP/24156808","provenance":{"cellId":"1R7788RI","checksum":"cbdea5755b9f53de9587e2fc4d441c52178484268b79c23084a307e3910da99b","readerVersion":"GDAL 3.2.2","processedAt":"2026-08-11T13:43:44.753Z"}}},{"type":"Feature","geometry":{"type":"Point","coordinates":[4.3386717,51.656945]},"properties":{"dolphinKind":"buoy-special","rawObjectClass":"BOYSPP","sourceProperties":{"RCID":24156810,"PRIM":1,"GRUP":2,"OBJL":19,"RVER":1,"AGEN":7979,"FIDN":24156810,"FIDS":1,"LNAM":"1F2B01709A8A0001","BOYSHP":5,"CATSPM":["27"],"COLOUR":["6"],"CONRAD":3,"OBJNAM":"SM-13","PEREND":"--1001","PERSTA":"--0301","SCAMIN":200000,"SORDAT":"20260227","SORIND":"NL,1R,Reprt,MD 061-2026","sourceCellId":"1R7788RI","sourceChecksum":"cbdea5755b9f53de9587e2fc4d441c52178484268b79c23084a307e3910da99b","rawObjectClass":"BOYSPP","sourceStableId":"1F2B01709A8A0001"},"sourceKind":"official","official":true,"sourceCellId":"1R7788RI","sourceStableId":"1F2B01709A8A0001","pipelineFeatureId":"1R7788RI/BOYSPP/24156810","provenance":{"cellId":"1R7788RI","checksum":"cbdea5755b9f53de9587e2fc4d441c52178484268b79c23084a307e3910da99b","readerVersion":"GDAL 3.2.2","processedAt":"2026-08-11T13:43:44.753Z"}}},{"type":"Feature","geometry":{"type":"Point","coordinates":[4.353395,51.6575283]},"properties":{"dolphinKind":"buoy-special","rawObjectClass":"BOYSPP","sourceProperties":{"RCID":24156811,"PRIM":1,"GRUP":2,"OBJL":19,"RVER":1,"AGEN":7979,"FIDN":24156811,"FIDS":1,"LNAM":"1F2B01709A8B0001","BOYSHP":5,"CATSPM":["27"],"COLOUR":["6"],"CONRAD":3,"OBJNAM":"SM-14","PEREND":"--1001","PERSTA":"--0301","SCAMIN":200000,"SORDAT":"20260227","SORIND":"NL,1R,Reprt,MD 061-2026","sourceCellId":"1R7788RI","sourceChecksum":"cbdea5755b9f53de9587e2fc4d441c52178484268b79c23084a307e3910da99b","rawObjectClass":"BOYSPP","sourceStableId":"1F2B01709A8B0001"},"sourceKind":"official","official":true,"sourceCellId":"1R7788RI","sourceStableId":"1F2B01709A8B0001","pipelineFeatureId":"1R7788RI/BOYSPP/24156811","provenance":{"cellId":"1R7788RI","checksum":"cbdea5755b9f53de9587e2fc4d441c52178484268b79c23084a307e3910da99b","readerVersion":"GDAL 3.2.2","processedAt":"2026-08-11T13:43:44.753Z"}}},{"type":"Feature","geometry":{"type":"Point","coordinates":[4.3621717,51.6661383]},"properties":{"dolphinKind":"light","rawObjectClass":"LIGHTS","sourceProperties":{"RCID":18701,"PRIM":1,"GRUP":2,"OBJL":75,"RVER":1,"AGEN":7979,"FIDN":1106834729,"FIDS":439,"LNAM":"1F2B41F8F52901B7","COLOUR":["3"],"LITCHR":2,"SIGGRP":"(2+1)","SIGPER":1,"SCAMIN":200000,"SORDAT":"20031115","sourceCellId":"1R7788RI","sourceChecksum":"cbdea5755b9f53de9587e2fc4d441c52178484268b79c23084a307e3910da99b","rawObjectClass":"LIGHTS","sourceStableId":"1F2B41F8F52901B7"},"sourceKind":"official","official":true,"sourceCellId":"1R7788RI","sourceStableId":"1F2B41F8F52901B7","pipelineFeatureId":"1R7788RI/LIGHTS/18701","provenance":{"cellId":"1R7788RI","checksum":"cbdea5755b9f53de9587e2fc4d441c52178484268b79c23084a307e3910da99b","readerVersion":"GDAL 3.2.2","processedAt":"2026-08-11T13:43:44.753Z"}}},{"type":"Feature","geometry":{"type":"Point","coordinates":[4.3375883,51.6571117]},"properties":{"dolphinKind":"light","rawObjectClass":"LIGHTS","sourceProperties":{"RCID":18706,"PRIM":1,"GRUP":2,"OBJL":75,"RVER":1,"AGEN":7979,"FIDN":1106834729,"FIDS":444,"LNAM":"1F2B41F8F52901BC","COLOUR":["4"],"LITCHR":3,"SIGGRP":"(1)","SIGPER":8,"SCAMIN":200000,"SORDAT":"20031115","sourceCellId":"1R7788RI","sourceChecksum":"cbdea5755b9f53de9587e2fc4d441c52178484268b79c23084a307e3910da99b","rawObjectClass":"LIGHTS","sourceStableId":"1F2B41F8F52901BC"},"sourceKind":"official","official":true,"sourceCellId":"1R7788RI","sourceStableId":"1F2B41F8F52901BC","pipelineFeatureId":"1R7788RI/LIGHTS/18706","provenance":{"cellId":"1R7788RI","checksum":"cbdea5755b9f53de9587e2fc4d441c52178484268b79c23084a307e3910da99b","readerVersion":"GDAL 3.2.2","processedAt":"2026-08-11T13:43:44.753Z"}}},{"type":"Feature","geometry":{"type":"Point","coordinates":[4.3502283,51.657805]},"properties":{"dolphinKind":"light","rawObjectClass":"LIGHTS","sourceProperties":{"RCID":18707,"PRIM":1,"GRUP":2,"OBJL":75,"RVER":1,"AGEN":7979,"FIDN":1106834729,"FIDS":445,"LNAM":"1F2B41F8F52901BD","COLOUR":["4"],"LITCHR":3,"SIGGRP":"(1)","SIGPER":5,"SCAMIN":200000,"SORDAT":"20031115","sourceCellId":"1R7788RI","sourceChecksum":"cbdea5755b9f53de9587e2fc4d441c52178484268b79c23084a307e3910da99b","rawObjectClass":"LIGHTS","sourceStableId":"1F2B41F8F52901BD"},"sourceKind":"official","official":true,"sourceCellId":"1R7788RI","sourceStableId":"1F2B41F8F52901BD","pipelineFeatureId":"1R7788RI/LIGHTS/18707","provenance":{"cellId":"1R7788RI","checksum":"cbdea5755b9f53de9587e2fc4d441c52178484268b79c23084a307e3910da99b","readerVersion":"GDAL 3.2.2","processedAt":"2026-08-11T13:43:44.753Z"}}},{"type":"Feature","geometry":{"type":"Point","coordinates":[4.3509217,51.66225]},"properties":{"dolphinKind":"light","rawObjectClass":"LIGHTS","sourceProperties":{"RCID":18708,"PRIM":1,"GRUP":2,"OBJL":75,"RVER":1,"AGEN":7979,"FIDN":1106834729,"FIDS":446,"LNAM":"1F2B41F8F52901BE","COLOUR":["3"],"LITCHR":3,"SIGGRP":"(1)","SIGPER":5,"SCAMIN":200000,"SORDAT":"20031115","sourceCellId":"1R7788RI","sourceChecksum":"cbdea5755b9f53de9587e2fc4d441c52178484268b79c23084a307e3910da99b","rawObjectClass":"LIGHTS","sourceStableId":"1F2B41F8F52901BE"},"sourceKind":"official","official":true,"sourceCellId":"1R7788RI","sourceStableId":"1F2B41F8F52901BE","pipelineFeatureId":"1R7788RI/LIGHTS/18708","provenance":{"cellId":"1R7788RI","checksum":"cbdea5755b9f53de9587e2fc4d441c52178484268b79c23084a307e3910da99b","readerVersion":"GDAL 3.2.2","processedAt":"2026-08-11T13:43:44.753Z"}}},{"type":"Feature","geometry":{"type":"Point","coordinates":[4.3814783,51.67017]},"properties":{"dolphinKind":"light","rawObjectClass":"LIGHTS","sourceProperties":{"RCID":18709,"PRIM":1,"GRUP":2,"OBJL":75,"RVER":1,"AGEN":7979,"FIDN":1106834729,"FIDS":447,"LNAM":"1F2B41F8F52901BF","COLOUR":["4"],"LITCHR":3,"SIGGRP":"(1)","SIGPER":5,"SCAMIN":200000,"SORDAT":"20031115","sourceCellId":"1R7788RI","sourceChecksum":"cbdea5755b9f53de9587e2fc4d441c52178484268b79c23084a307e3910da99b","rawObjectClass":"LIGHTS","sourceStableId":"1F2B41F8F52901BF"},"sourceKind":"official","official":true,"sourceCellId":"1R7788RI","sourceStableId":"1F2B41F8F52901BF","pipelineFeatureId":"1R7788RI/LIGHTS/18709","provenance":{"cellId":"1R7788RI","checksum":"cbdea5755b9f53de9587e2fc4d441c52178484268b79c23084a307e3910da99b","readerVersion":"GDAL 3.2.2","processedAt":"2026-08-11T13:43:44.753Z"}}},{"type":"Feature","geometry":{"type":"Point","coordinates":[4.3785617,51.6715583]},"properties":{"dolphinKind":"light","rawObjectClass":"LIGHTS","sourceProperties":{"RCID":18712,"PRIM":1,"GRUP":2,"OBJL":75,"RVER":1,"AGEN":7979,"FIDN":1106834729,"FIDS":450,"LNAM":"1F2B41F8F52901C2","COLOUR":["3"],"LITCHR":3,"SIGGRP":"(1)","SIGPER":5,"SCAMIN":200000,"SORDAT":"20031115","sourceCellId":"1R7788RI","sourceChecksum":"cbdea5755b9f53de9587e2fc4d441c52178484268b79c23084a307e3910da99b","rawObjectClass":"LIGHTS","sourceStableId":"1F2B41F8F52901C2"},"sourceKind":"official","official":true,"sourceCellId":"1R7788RI","sourceStableId":"1F2B41F8F52901C2","pipelineFeatureId":"1R7788RI/LIGHTS/18712","provenance":{"cellId":"1R7788RI","checksum":"cbdea5755b9f53de9587e2fc4d441c52178484268b79c23084a307e3910da99b","readerVersion":"GDAL 3.2.2","processedAt":"2026-08-11T13:43:44.753Z"}}},{"type":"Feature","geometry":{"type":"Point","coordinates":[4.3653667,51.6625283]},"properties":{"dolphinKind":"light","rawObjectClass":"LIGHTS","sourceProperties":{"RCID":18786,"PRIM":1,"GRUP":2,"OBJL":75,"RVER":1,"AGEN":7979,"FIDN":1106834730,"FIDS":269,"LNAM":"1F2B41F8F52A010D","COLOUR":["4"],"LITCHR":4,"SIGGRP":"(1)","SCAMIN":200000,"SORDAT":"20031115","sourceCellId":"1R7788RI","sourceChecksum":"cbdea5755b9f53de9587e2fc4d441c52178484268b79c23084a307e3910da99b","rawObjectClass":"LIGHTS","sourceStableId":"1F2B41F8F52A010D"},"sourceKind":"official","official":true,"sourceCellId":"1R7788RI","sourceStableId":"1F2B41F8F52A010D","pipelineFeatureId":"1R7788RI/LIGHTS/18786","provenance":{"cellId":"1R7788RI","checksum":"cbdea5755b9f53de9587e2fc4d441c52178484268b79c23084a307e3910da99b","readerVersion":"GDAL 3.2.2","processedAt":"2026-08-11T13:43:44.753Z"}}},{"type":"Feature","geometry":{"type":"Point","coordinates":[4.3716167,51.6692]},"properties":{"dolphinKind":"light","rawObjectClass":"LIGHTS","sourceProperties":{"RCID":19691,"PRIM":1,"GRUP":2,"OBJL":75,"RVER":1,"AGEN":7979,"FIDN":1106834753,"FIDS":392,"LNAM":"1F2B41F8F5410188","COLOUR":["3"],"LITCHR":3,"SIGGRP":"(1)","SIGPER":8,"SCAMIN":200000,"sourceCellId":"1R7788RI","sourceChecksum":"cbdea5755b9f53de9587e2fc4d441c52178484268b79c23084a307e3910da99b","rawObjectClass":"LIGHTS","sourceStableId":"1F2B41F8F5410188"},"sourceKind":"official","official":true,"sourceCellId":"1R7788RI","sourceStableId":"1F2B41F8F5410188","pipelineFeatureId":"1R7788RI/LIGHTS/19691","provenance":{"cellId":"1R7788RI","checksum":"cbdea5755b9f53de9587e2fc4d441c52178484268b79c23084a307e3910da99b","readerVersion":"GDAL 3.2.2","processedAt":"2026-08-11T13:43:44.753Z"}}},{"type":"Feature","geometry":{"type":"Point","coordinates":[4.3375883,51.661695]},"properties":{"dolphinKind":"light","rawObjectClass":"LIGHTS","sourceProperties":{"RCID":19692,"PRIM":1,"GRUP":2,"OBJL":75,"RVER":1,"AGEN":7979,"FIDN":1106834753,"FIDS":393,"LNAM":"1F2B41F8F5410189","COLOUR":["3"],"LITCHR":3,"SIGGRP":"(1)","SIGPER":8,"INFORM":"NV 8","SCAMIN":200000,"SORDAT":"20160801","SORIND":"NL,1R,Reprt,Topdesk M160801734","sourceCellId":"1R7788RI","sourceChecksum":"cbdea5755b9f53de9587e2fc4d441c52178484268b79c23084a307e3910da99b","rawObjectClass":"LIGHTS","sourceStableId":"1F2B41F8F5410189"},"sourceKind":"official","official":true,"sourceCellId":"1R7788RI","sourceStableId":"1F2B41F8F5410189","pipelineFeatureId":"1R7788RI/LIGHTS/19692","provenance":{"cellId":"1R7788RI","checksum":"cbdea5755b9f53de9587e2fc4d441c52178484268b79c23084a307e3910da99b","readerVersion":"GDAL 3.2.2","processedAt":"2026-08-11T13:43:44.753Z"}}},{"type":"Feature","geometry":{"type":"Point","coordinates":[4.3680105,51.6582603]},"properties":{"dolphinKind":"light","rawObjectClass":"LIGHTS","sourceProperties":{"RCID":19702,"PRIM":1,"GRUP":2,"OBJL":75,"RVER":1,"AGEN":7979,"FIDN":1106834753,"FIDS":403,"LNAM":"1F2B41F8F5410193","COLOUR":["4"],"HEIGHT":8,"LITCHR":1,"SCAMIN":200000,"sourceCellId":"1R7788RI","sourceChecksum":"cbdea5755b9f53de9587e2fc4d441c52178484268b79c23084a307e3910da99b","rawObjectClass":"LIGHTS","sourceStableId":"1F2B41F8F5410193"},"sourceKind":"official","official":true,"sourceCellId":"1R7788RI","sourceStableId":"1F2B41F8F5410193","pipelineFeatureId":"1R7788RI/LIGHTS/19702","provenance":{"cellId":"1R7788RI","checksum":"cbdea5755b9f53de9587e2fc4d441c52178484268b79c23084a307e3910da99b","readerVersion":"GDAL 3.2.2","processedAt":"2026-08-11T13:43:44.753Z"}}},{"type":"Feature","geometry":{"type":"Point","coordinates":[4.3697062,51.6590835]},"properties":{"dolphinKind":"light","rawObjectClass":"LIGHTS","sourceProperties":{"RCID":19703,"PRIM":1,"GRUP":2,"OBJL":75,"RVER":1,"AGEN":7979,"FIDN":1106834753,"FIDS":404,"LNAM":"1F2B41F8F5410194","COLOUR":["3"],"HEIGHT":8,"LITCHR":1,"INFORM":"In fog: F.Y.","SCAMIN":200000,"sourceCellId":"1R7788RI","sourceChecksum":"cbdea5755b9f53de9587e2fc4d441c52178484268b79c23084a307e3910da99b","rawObjectClass":"LIGHTS","sourceStableId":"1F2B41F8F5410194"},"sourceKind":"official","official":true,"sourceCellId":"1R7788RI","sourceStableId":"1F2B41F8F5410194","pipelineFeatureId":"1R7788RI/LIGHTS/19703","provenance":{"cellId":"1R7788RI","checksum":"cbdea5755b9f53de9587e2fc4d441c52178484268b79c23084a307e3910da99b","readerVersion":"GDAL 3.2.2","processedAt":"2026-08-11T13:43:44.753Z"}}},{"type":"Feature","geometry":{"type":"Point","coordinates":[4.3753667,51.6658633]},"properties":{"dolphinKind":"light","rawObjectClass":"LIGHTS","sourceProperties":{"RCID":23813881,"PRIM":1,"GRUP":2,"OBJL":75,"RVER":1,"AGEN":7979,"FIDN":23813881,"FIDS":1,"LNAM":"1F2B016B5EF90001","COLOUR":["4"],"LITCHR":3,"SIGGRP":"(1)","SIGPER":8,"SCAMIN":200000,"sourceCellId":"1R7788RI","sourceChecksum":"cbdea5755b9f53de9587e2fc4d441c52178484268b79c23084a307e3910da99b","rawObjectClass":"LIGHTS","sourceStableId":"1F2B016B5EF90001"},"sourceKind":"official","official":true,"sourceCellId":"1R7788RI","sourceStableId":"1F2B016B5EF90001","pipelineFeatureId":"1R7788RI/LIGHTS/23813881","provenance":{"cellId":"1R7788RI","checksum":"cbdea5755b9f53de9587e2fc4d441c52178484268b79c23084a307e3910da99b","readerVersion":"GDAL 3.2.2","processedAt":"2026-08-11T13:43:44.753Z"}}},{"type":"Feature","geometry":{"type":"Point","coordinates":[4.3746561,51.6546012]},"properties":{"dolphinKind":"light","rawObjectClass":"LIGHTS","sourceProperties":{"RCID":299410554,"PRIM":1,"GRUP":2,"OBJL":75,"RVER":1,"AGEN":7979,"FIDN":299410554,"FIDS":1,"LNAM":"1F2B11D8A47A0001","COLOUR":["1"],"LITCHR":1,"SCAMIN":200000,"SORDAT":"20190319","SORIND":"NL,1R,Reprt,Topdesk - M190313304","sourceCellId":"1R7788RI","sourceChecksum":"cbdea5755b9f53de9587e2fc4d441c52178484268b79c23084a307e3910da99b","rawObjectClass":"LIGHTS","sourceStableId":"1F2B11D8A47A0001"},"sourceKind":"official","official":true,"sourceCellId":"1R7788RI","sourceStableId":"1F2B11D8A47A0001","pipelineFeatureId":"1R7788RI/LIGHTS/299410554","provenance":{"cellId":"1R7788RI","checksum":"cbdea5755b9f53de9587e2fc4d441c52178484268b79c23084a307e3910da99b","readerVersion":"GDAL 3.2.2","processedAt":"2026-08-11T13:43:44.753Z"}}},{"type":"Feature","geometry":{"type":"Point","coordinates":[4.3653667,51.6625283]},"properties":{"dolphinKind":"topmark","rawObjectClass":"TOPMAR","sourceProperties":{"RCID":18972,"PRIM":1,"GRUP":2,"OBJL":144,"RVER":1,"AGEN":7979,"FIDN":1106834730,"FIDS":455,"LNAM":"1F2B41F8F52A01C7","COLOUR":["4"],"TOPSHP":33,"INFORM":"cone point up over sphere","SCAMIN":200000,"SORDAT":"20220415","SORIND":"NL,1R,reprt,MD 247-22","sourceCellId":"1R7788RI","sourceChecksum":"cbdea5755b9f53de9587e2fc4d441c52178484268b79c23084a307e3910da99b","rawObjectClass":"TOPMAR","sourceStableId":"1F2B41F8F52A01C7"},"sourceKind":"official","official":true,"sourceCellId":"1R7788RI","sourceStableId":"1F2B41F8F52A01C7","pipelineFeatureId":"1R7788RI/TOPMAR/18972","provenance":{"cellId":"1R7788RI","checksum":"cbdea5755b9f53de9587e2fc4d441c52178484268b79c23084a307e3910da99b","readerVersion":"GDAL 3.2.2","processedAt":"2026-08-11T13:43:44.753Z"},"associationRefsVerifiedInGdalOutput":false}},{"type":"Feature","geometry":{"type":"Point","coordinates":[4.3621717,51.6661383]},"properties":{"dolphinKind":"topmark","rawObjectClass":"TOPMAR","sourceProperties":{"RCID":18975,"PRIM":1,"GRUP":2,"OBJL":144,"RVER":1,"AGEN":7979,"FIDN":1106834730,"FIDS":458,"LNAM":"1F2B41F8F52A01CA","COLOUR":["3"],"TOPSHP":33,"INFORM":"cylinder over sphere","SCAMIN":200000,"SORDAT":"20220415","SORIND":"NL,1R,reprt,MD 247-22","sourceCellId":"1R7788RI","sourceChecksum":"cbdea5755b9f53de9587e2fc4d441c52178484268b79c23084a307e3910da99b","rawObjectClass":"TOPMAR","sourceStableId":"1F2B41F8F52A01CA"},"sourceKind":"official","official":true,"sourceCellId":"1R7788RI","sourceStableId":"1F2B41F8F52A01CA","pipelineFeatureId":"1R7788RI/TOPMAR/18975","provenance":{"cellId":"1R7788RI","checksum":"cbdea5755b9f53de9587e2fc4d441c52178484268b79c23084a307e3910da99b","readerVersion":"GDAL 3.2.2","processedAt":"2026-08-11T13:43:44.753Z"},"associationRefsVerifiedInGdalOutput":false}},{"type":"Feature","geometry":{"type":"Point","coordinates":[4.3659435,51.6597527]},"properties":{"dolphinKind":"topmark","rawObjectClass":"TOPMAR","sourceProperties":{"RCID":18977,"PRIM":1,"GRUP":2,"OBJL":144,"RVER":1,"AGEN":7979,"FIDN":1106834730,"FIDS":460,"LNAM":"1F2B41F8F52A01CC","COLOUR":["4"],"TOPSHP":1,"SCAMIN":200000,"sourceCellId":"1R7788RI","sourceChecksum":"cbdea5755b9f53de9587e2fc4d441c52178484268b79c23084a307e3910da99b","rawObjectClass":"TOPMAR","sourceStableId":"1F2B41F8F52A01CC"},"sourceKind":"official","official":true,"sourceCellId":"1R7788RI","sourceStableId":"1F2B41F8F52A01CC","pipelineFeatureId":"1R7788RI/TOPMAR/18977","provenance":{"cellId":"1R7788RI","checksum":"cbdea5755b9f53de9587e2fc4d441c52178484268b79c23084a307e3910da99b","readerVersion":"GDAL 3.2.2","processedAt":"2026-08-11T13:43:44.753Z"},"associationRefsVerifiedInGdalOutput":false}},{"type":"Feature","geometry":{"type":"Point","coordinates":[4.3578877,51.6675307]},"properties":{"dolphinKind":"topmark","rawObjectClass":"TOPMAR","sourceProperties":{"RCID":18978,"PRIM":1,"GRUP":2,"OBJL":144,"RVER":1,"AGEN":7979,"FIDN":1106834730,"FIDS":461,"LNAM":"1F2B41F8F52A01CD","COLOUR":["3"],"TOPSHP":5,"SCAMIN":200000,"sourceCellId":"1R7788RI","sourceChecksum":"cbdea5755b9f53de9587e2fc4d441c52178484268b79c23084a307e3910da99b","rawObjectClass":"TOPMAR","sourceStableId":"1F2B41F8F52A01CD"},"sourceKind":"official","official":true,"sourceCellId":"1R7788RI","sourceStableId":"1F2B41F8F52A01CD","pipelineFeatureId":"1R7788RI/TOPMAR/18978","provenance":{"cellId":"1R7788RI","checksum":"cbdea5755b9f53de9587e2fc4d441c52178484268b79c23084a307e3910da99b","readerVersion":"GDAL 3.2.2","processedAt":"2026-08-11T13:43:44.753Z"},"associationRefsVerifiedInGdalOutput":false}},{"type":"Feature","geometry":{"type":"Point","coordinates":[4.335135,51.646565]},"properties":{"dolphinKind":"topmark","rawObjectClass":"TOPMAR","sourceProperties":{"RCID":23826772,"PRIM":1,"GRUP":2,"OBJL":144,"RVER":1,"AGEN":7979,"FIDN":23826772,"FIDS":1,"LNAM":"1F2B016B91540001","COLOUR":["3","1","3"],"COLPAT":["1"],"TOPSHP":5,"SCAMIN":200000,"SORDAT":"20090121","sourceCellId":"1R7788RI","sourceChecksum":"cbdea5755b9f53de9587e2fc4d441c52178484268b79c23084a307e3910da99b","rawObjectClass":"TOPMAR","sourceStableId":"1F2B016B91540001"},"sourceKind":"official","official":true,"sourceCellId":"1R7788RI","sourceStableId":"1F2B016B91540001","pipelineFeatureId":"1R7788RI/TOPMAR/23826772","provenance":{"cellId":"1R7788RI","checksum":"cbdea5755b9f53de9587e2fc4d441c52178484268b79c23084a307e3910da99b","readerVersion":"GDAL 3.2.2","processedAt":"2026-08-11T13:43:44.753Z"},"associationRefsVerifiedInGdalOutput":false}},{"type":"Feature","geometry":{"type":"Point","coordinates":[4.3341917,51.663]},"properties":{"dolphinKind":"topmark","rawObjectClass":"TOPMAR","sourceProperties":{"RCID":1269298951,"PRIM":1,"GRUP":2,"OBJL":144,"RVER":1,"AGEN":7979,"FIDN":1269298951,"FIDS":1,"LNAM":"1F2B4BA7F7070001","COLOUR":["3"],"TOPSHP":5,"SCAMIN":200000,"sourceCellId":"1R7788RI","sourceChecksum":"cbdea5755b9f53de9587e2fc4d441c52178484268b79c23084a307e3910da99b","rawObjectClass":"TOPMAR","sourceStableId":"1F2B4BA7F7070001"},"sourceKind":"official","official":true,"sourceCellId":"1R7788RI","sourceStableId":"1F2B4BA7F7070001","pipelineFeatureId":"1R7788RI/TOPMAR/1269298951","provenance":{"cellId":"1R7788RI","checksum":"cbdea5755b9f53de9587e2fc4d441c52178484268b79c23084a307e3910da99b","readerVersion":"GDAL 3.2.2","processedAt":"2026-08-11T13:43:44.753Z"},"associationRefsVerifiedInGdalOutput":false}},{"type":"Feature","geometry":{"type":"Point","coordinates":[4.3388383,51.6643033]},"properties":{"dolphinKind":"topmark","rawObjectClass":"TOPMAR","sourceProperties":{"RCID":1269302553,"PRIM":1,"GRUP":2,"OBJL":144,"RVER":1,"AGEN":7979,"FIDN":1269302553,"FIDS":1,"LNAM":"1F2B4BA805190001","COLOUR":["3"],"TOPSHP":5,"SCAMIN":200000,"sourceCellId":"1R7788RI","sourceChecksum":"cbdea5755b9f53de9587e2fc4d441c52178484268b79c23084a307e3910da99b","rawObjectClass":"TOPMAR","sourceStableId":"1F2B4BA805190001"},"sourceKind":"official","official":true,"sourceCellId":"1R7788RI","sourceStableId":"1F2B4BA805190001","pipelineFeatureId":"1R7788RI/TOPMAR/1269302553","provenance":{"cellId":"1R7788RI","checksum":"cbdea5755b9f53de9587e2fc4d441c52178484268b79c23084a307e3910da99b","readerVersion":"GDAL 3.2.2","processedAt":"2026-08-11T13:43:44.753Z"},"associationRefsVerifiedInGdalOutput":false}},{"type":"Feature","geometry":{"type":"Point","coordinates":[4.3427533,51.665495]},"properties":{"dolphinKind":"topmark","rawObjectClass":"TOPMAR","sourceProperties":{"RCID":1269305405,"PRIM":1,"GRUP":2,"OBJL":144,"RVER":1,"AGEN":7979,"FIDN":1269305405,"FIDS":1,"LNAM":"1F2B4BA8103D0001","COLOUR":["3"],"TOPSHP":5,"SCAMIN":200000,"sourceCellId":"1R7788RI","sourceChecksum":"cbdea5755b9f53de9587e2fc4d441c52178484268b79c23084a307e3910da99b","rawObjectClass":"TOPMAR","sourceStableId":"1F2B4BA8103D0001"},"sourceKind":"official","official":true,"sourceCellId":"1R7788RI","sourceStableId":"1F2B4BA8103D0001","pipelineFeatureId":"1R7788RI/TOPMAR/1269305405","provenance":{"cellId":"1R7788RI","checksum":"cbdea5755b9f53de9587e2fc4d441c52178484268b79c23084a307e3910da99b","readerVersion":"GDAL 3.2.2","processedAt":"2026-08-11T13:43:44.753Z"},"associationRefsVerifiedInGdalOutput":false}},{"type":"Feature","geometry":{"type":"Point","coordinates":[4.34666,51.66666]},"properties":{"dolphinKind":"topmark","rawObjectClass":"TOPMAR","sourceProperties":{"RCID":1269305507,"PRIM":1,"GRUP":2,"OBJL":144,"RVER":1,"AGEN":7979,"FIDN":1269305507,"FIDS":1,"LNAM":"1F2B4BA810A30001","COLOUR":["3"],"TOPSHP":5,"SCAMIN":200000,"sourceCellId":"1R7788RI","sourceChecksum":"cbdea5755b9f53de9587e2fc4d441c52178484268b79c23084a307e3910da99b","rawObjectClass":"TOPMAR","sourceStableId":"1F2B4BA810A30001"},"sourceKind":"official","official":true,"sourceCellId":"1R7788RI","sourceStableId":"1F2B4BA810A30001","pipelineFeatureId":"1R7788RI/TOPMAR/1269305507","provenance":{"cellId":"1R7788RI","checksum":"cbdea5755b9f53de9587e2fc4d441c52178484268b79c23084a307e3910da99b","readerVersion":"GDAL 3.2.2","processedAt":"2026-08-11T13:43:44.753Z"},"associationRefsVerifiedInGdalOutput":false}},{"type":"Feature","geometry":{"type":"Point","coordinates":[4.350715,51.6678117]},"properties":{"dolphinKind":"topmark","rawObjectClass":"TOPMAR","sourceProperties":{"RCID":1269305509,"PRIM":1,"GRUP":2,"OBJL":144,"RVER":1,"AGEN":7979,"FIDN":1269305509,"FIDS":1,"LNAM":"1F2B4BA810A50001","COLOUR":["3"],"TOPSHP":5,"SCAMIN":200000,"sourceCellId":"1R7788RI","sourceChecksum":"cbdea5755b9f53de9587e2fc4d441c52178484268b79c23084a307e3910da99b","rawObjectClass":"TOPMAR","sourceStableId":"1F2B4BA810A50001"},"sourceKind":"official","official":true,"sourceCellId":"1R7788RI","sourceStableId":"1F2B4BA810A50001","pipelineFeatureId":"1R7788RI/TOPMAR/1269305509","provenance":{"cellId":"1R7788RI","checksum":"cbdea5755b9f53de9587e2fc4d441c52178484268b79c23084a307e3910da99b","readerVersion":"GDAL 3.2.2","processedAt":"2026-08-11T13:43:44.753Z"},"associationRefsVerifiedInGdalOutput":false}},{"type":"Feature","geometry":{"type":"Point","coordinates":[4.3547817,51.669035]},"properties":{"dolphinKind":"topmark","rawObjectClass":"TOPMAR","sourceProperties":{"RCID":1269305511,"PRIM":1,"GRUP":2,"OBJL":144,"RVER":1,"AGEN":7979,"FIDN":1269305511,"FIDS":1,"LNAM":"1F2B4BA810A70001","COLOUR":["3"],"TOPSHP":5,"SCAMIN":200000,"sourceCellId":"1R7788RI","sourceChecksum":"cbdea5755b9f53de9587e2fc4d441c52178484268b79c23084a307e3910da99b","rawObjectClass":"TOPMAR","sourceStableId":"1F2B4BA810A70001"},"sourceKind":"official","official":true,"sourceCellId":"1R7788RI","sourceStableId":"1F2B4BA810A70001","pipelineFeatureId":"1R7788RI/TOPMAR/1269305511","provenance":{"cellId":"1R7788RI","checksum":"cbdea5755b9f53de9587e2fc4d441c52178484268b79c23084a307e3910da99b","readerVersion":"GDAL 3.2.2","processedAt":"2026-08-11T13:43:44.753Z"},"associationRefsVerifiedInGdalOutput":false}},{"type":"Feature","geometry":{"type":"Point","coordinates":[4.35874,51.67028]},"properties":{"dolphinKind":"topmark","rawObjectClass":"TOPMAR","sourceProperties":{"RCID":1269306813,"PRIM":1,"GRUP":2,"OBJL":144,"RVER":1,"AGEN":7979,"FIDN":1269306813,"FIDS":1,"LNAM":"1F2B4BA815BD0001","COLOUR":["3"],"TOPSHP":5,"SCAMIN":200000,"sourceCellId":"1R7788RI","sourceChecksum":"cbdea5755b9f53de9587e2fc4d441c52178484268b79c23084a307e3910da99b","rawObjectClass":"TOPMAR","sourceStableId":"1F2B4BA815BD0001"},"sourceKind":"official","official":true,"sourceCellId":"1R7788RI","sourceStableId":"1F2B4BA815BD0001","pipelineFeatureId":"1R7788RI/TOPMAR/1269306813","provenance":{"cellId":"1R7788RI","checksum":"cbdea5755b9f53de9587e2fc4d441c52178484268b79c23084a307e3910da99b","readerVersion":"GDAL 3.2.2","processedAt":"2026-08-11T13:43:44.753Z"},"associationRefsVerifiedInGdalOutput":false}},{"type":"Feature","geometry":{"type":"Point","coordinates":[4.3617017,51.672315]},"properties":{"dolphinKind":"topmark","rawObjectClass":"TOPMAR","sourceProperties":{"RCID":1269306815,"PRIM":1,"GRUP":2,"OBJL":144,"RVER":1,"AGEN":7979,"FIDN":1269306815,"FIDS":1,"LNAM":"1F2B4BA815BF0001","COLOUR":["3"],"TOPSHP":5,"SCAMIN":200000,"sourceCellId":"1R7788RI","sourceChecksum":"cbdea5755b9f53de9587e2fc4d441c52178484268b79c23084a307e3910da99b","rawObjectClass":"TOPMAR","sourceStableId":"1F2B4BA815BF0001"},"sourceKind":"official","official":true,"sourceCellId":"1R7788RI","sourceStableId":"1F2B4BA815BF0001","pipelineFeatureId":"1R7788RI/TOPMAR/1269306815","provenance":{"cellId":"1R7788RI","checksum":"cbdea5755b9f53de9587e2fc4d441c52178484268b79c23084a307e3910da99b","readerVersion":"GDAL 3.2.2","processedAt":"2026-08-11T13:43:44.753Z"},"associationRefsVerifiedInGdalOutput":false}},{"type":"Feature","geometry":{"type":"Point","coordinates":[4.3642217,51.674545]},"properties":{"dolphinKind":"topmark","rawObjectClass":"TOPMAR","sourceProperties":{"RCID":1269312617,"PRIM":1,"GRUP":2,"OBJL":144,"RVER":1,"AGEN":7979,"FIDN":1269312617,"FIDS":1,"LNAM":"1F2B4BA82C690001","COLOUR":["3"],"TOPSHP":5,"SCAMIN":200000,"sourceCellId":"1R7788RI","sourceChecksum":"cbdea5755b9f53de9587e2fc4d441c52178484268b79c23084a307e3910da99b","rawObjectClass":"TOPMAR","sourceStableId":"1F2B4BA82C690001"},"sourceKind":"official","official":true,"sourceCellId":"1R7788RI","sourceStableId":"1F2B4BA82C690001","pipelineFeatureId":"1R7788RI/TOPMAR/1269312617","provenance":{"cellId":"1R7788RI","checksum":"cbdea5755b9f53de9587e2fc4d441c52178484268b79c23084a307e3910da99b","readerVersion":"GDAL 3.2.2","processedAt":"2026-08-11T13:43:44.753Z"},"associationRefsVerifiedInGdalOutput":false}}]}