{"type":"FeatureCollection","features":[{"type":"Feature","geometry":{"type":"Point","coordinates":[3.733,51.7808117]},"properties":{"dolphinKind":"buoy-special","rawObjectClass":"BOYSPP","sourceProperties":{"RCID":1239287747,"PRIM":1,"GRUP":2,"OBJL":19,"RVER":1,"AGEN":7979,"FIDN":1239287747,"FIDS":1,"LNAM":"1F2B49DE07C30001","BOYSHP":5,"CATSPM":["18"],"COLOUR":["6"],"CONRAD":3,"OBJNAM":"BO-OW 1","SCAMIN":200000,"SORDAT":"20251205","SORIND":"NL,1R,Reprt,MD 586-25","sourceCellId":"1R75W99I","sourceChecksum":"0fa2550aca11d2a024a54b0907624d4b053b4dc08971da3543337f83c9aebda8","rawObjectClass":"BOYSPP","sourceStableId":"1F2B49DE07C30001"},"sourceKind":"official","official":true,"sourceCellId":"1R75W99I","sourceStableId":"1F2B49DE07C30001","pipelineFeatureId":"1R75W99I/BOYSPP/1239287747","provenance":{"cellId":"1R75W99I","checksum":"0fa2550aca11d2a024a54b0907624d4b053b4dc08971da3543337f83c9aebda8","readerVersion":"GDAL 3.2.2","processedAt":"2026-08-11T13:43:44.753Z"}}},{"type":"Feature","geometry":{"type":"Point","coordinates":[3.6878667,51.7983666]},"properties":{"dolphinKind":"light","rawObjectClass":"LIGHTS","sourceProperties":{"RCID":17629,"PRIM":1,"GRUP":2,"OBJL":75,"RVER":1,"AGEN":7979,"FIDN":1106834684,"FIDS":435,"LNAM":"1F2B41F8F4FC01B3","COLOUR":["1"],"LITCHR":4,"SIGGRP":"(9)","SIGPER":15,"SCAMIN":200000,"SORDAT":"20030930","sourceCellId":"1R75W99I","sourceChecksum":"0fa2550aca11d2a024a54b0907624d4b053b4dc08971da3543337f83c9aebda8","rawObjectClass":"LIGHTS","sourceStableId":"1F2B41F8F4FC01B3"},"sourceKind":"official","official":true,"sourceCellId":"1R75W99I","sourceStableId":"1F2B41F8F4FC01B3","pipelineFeatureId":"1R75W99I/LIGHTS/17629","provenance":{"cellId":"1R75W99I","checksum":"0fa2550aca11d2a024a54b0907624d4b053b4dc08971da3543337f83c9aebda8","readerVersion":"GDAL 3.2.2","processedAt":"2026-08-11T13:43:44.753Z"}}},{"type":"Feature","geometry":{"type":"Point","coordinates":[3.6878667,51.7983666]},"properties":{"dolphinKind":"topmark","rawObjectClass":"TOPMAR","sourceProperties":{"RCID":17630,"PRIM":1,"GRUP":2,"OBJL":144,"RVER":1,"AGEN":7979,"FIDN":1106834684,"FIDS":436,"LNAM":"1F2B41F8F4FC01B4","COLOUR":["2"],"TOPSHP":10,"SCAMIN":200000,"SORDAT":"20030930","sourceCellId":"1R75W99I","sourceChecksum":"0fa2550aca11d2a024a54b0907624d4b053b4dc08971da3543337f83c9aebda8","rawObjectClass":"TOPMAR","sourceStableId":"1F2B41F8F4FC01B4"},"sourceKind":"official","official":true,"sourceCellId":"1R75W99I","sourceStableId":"1F2B41F8F4FC01B4","pipelineFeatureId":"1R75W99I/TOPMAR/17630","provenance":{"cellId":"1R75W99I","checksum":"0fa2550aca11d2a024a54b0907624d4b053b4dc08971da3543337f83c9aebda8","readerVersion":"GDAL 3.2.2","processedAt":"2026-08-11T13:43:44.753Z"},"associationRefsVerifiedInGdalOutput":false}}]}