{"type":"FeatureCollection","features":[{"type":"Feature","geometry":{"type":"Point","coordinates":[3.3166467,51.4693367]},"properties":{"dolphinKind":"buoy-special","rawObjectClass":"BOYSPP","sourceProperties":{"RCID":1249166921,"PRIM":1,"GRUP":2,"OBJL":19,"RVER":1,"AGEN":7979,"FIDN":1249166921,"FIDS":1,"LNAM":"1F2B4A74C6490001","LNAM_REFS":["1F2B4A74C6520001","1F2B4A74C6540001"],"FFPT_RIND":[2,2],"BOYSHP":3,"CATSPM":["14"],"COLOUR":["6"],"DATEND":"20260531","OBJNAM":"MP 4","SCAMIN":200000,"SORDAT":"20251206","SORIND":"NL,1R,reprt,MD 268-26","sourceCellId":"1R75883I","sourceChecksum":"7c265c9fd48cb0677b21c9e60c88de7230e0e5b27a4f98bc2d44d93527f2082a","rawObjectClass":"BOYSPP","sourceStableId":"1F2B4A74C6490001"},"sourceKind":"official","official":true,"sourceCellId":"1R75883I","sourceStableId":"1F2B4A74C6490001","pipelineFeatureId":"1R75883I/BOYSPP/1249166921","provenance":{"cellId":"1R75883I","checksum":"7c265c9fd48cb0677b21c9e60c88de7230e0e5b27a4f98bc2d44d93527f2082a","readerVersion":"GDAL 3.2.2","processedAt":"2026-08-11T18:29:20.995Z"}}},{"type":"Feature","geometry":{"type":"Point","coordinates":[3.3166467,51.4693367]},"properties":{"dolphinKind":"light","rawObjectClass":"LIGHTS","sourceProperties":{"RCID":1249166930,"PRIM":1,"GRUP":2,"OBJL":75,"RVER":1,"AGEN":7979,"FIDN":1249166930,"FIDS":1,"LNAM":"1F2B4A74C6520001","COLOUR":["6"],"DATEND":"20260531","LITCHR":2,"SIGGRP":"(5)","SIGPER":20,"SCAMIN":200000,"sourceCellId":"1R75883I","sourceChecksum":"7c265c9fd48cb0677b21c9e60c88de7230e0e5b27a4f98bc2d44d93527f2082a","rawObjectClass":"LIGHTS","sourceStableId":"1F2B4A74C6520001"},"sourceKind":"official","official":true,"sourceCellId":"1R75883I","sourceStableId":"1F2B4A74C6520001","pipelineFeatureId":"1R75883I/LIGHTS/1249166930","provenance":{"cellId":"1R75883I","checksum":"7c265c9fd48cb0677b21c9e60c88de7230e0e5b27a4f98bc2d44d93527f2082a","readerVersion":"GDAL 3.2.2","processedAt":"2026-08-11T18:29:20.995Z"}}},{"type":"Feature","geometry":{"type":"Point","coordinates":[3.3166467,51.4693367]},"properties":{"dolphinKind":"topmark","rawObjectClass":"TOPMAR","sourceProperties":{"RCID":1249166932,"PRIM":1,"GRUP":2,"OBJL":144,"RVER":1,"AGEN":7979,"FIDN":1249166932,"FIDS":1,"LNAM":"1F2B4A74C6540001","COLOUR":["6"],"TOPSHP":7,"SCAMIN":200000,"sourceCellId":"1R75883I","sourceChecksum":"7c265c9fd48cb0677b21c9e60c88de7230e0e5b27a4f98bc2d44d93527f2082a","rawObjectClass":"TOPMAR","sourceStableId":"1F2B4A74C6540001"},"sourceKind":"official","official":true,"sourceCellId":"1R75883I","sourceStableId":"1F2B4A74C6540001","pipelineFeatureId":"1R75883I/TOPMAR/1249166932","provenance":{"cellId":"1R75883I","checksum":"7c265c9fd48cb0677b21c9e60c88de7230e0e5b27a4f98bc2d44d93527f2082a","readerVersion":"GDAL 3.2.2","processedAt":"2026-08-11T18:29:20.995Z"},"associationRefsVerifiedInGdalOutput":false}}]}