{"type":"FeatureCollection","features":[{"type":"Feature","geometry":{"type":"Point","coordinates":[3.509813,51.4753891]},"properties":{"dolphinKind":"buoy-lateral","rawObjectClass":"BOYLAT","sourceProperties":{"RCID":17070,"PRIM":1,"GRUP":2,"OBJL":17,"RVER":1,"AGEN":7979,"FIDN":1106834682,"FIDS":386,"LNAM":"1F2B41F8F4FA0182","LNAM_REFS":["1F2B41F8F4FA018A"],"FFPT_RIND":[2],"BOYSHP":2,"CATLAM":1,"COLOUR":["3"],"CONRAD":3,"OBJNAM":"OG 16","SCAMIN":200000,"SORDAT":"20170530","SORIND":"NL,1R,Reprt,BASS039-2017","sourceCellId":"1R75K89I","sourceChecksum":"7a2ee8c3af37fc663e29090f0c2f72765b9fbcdc929300c9f5a97e0f979b1164","rawObjectClass":"BOYLAT","sourceStableId":"1F2B41F8F4FA0182"},"sourceKind":"official","official":true,"sourceCellId":"1R75K89I","sourceStableId":"1F2B41F8F4FA0182","pipelineFeatureId":"1R75K89I/BOYLAT/17070","provenance":{"cellId":"1R75K89I","checksum":"7a2ee8c3af37fc663e29090f0c2f72765b9fbcdc929300c9f5a97e0f979b1164","readerVersion":"GDAL 3.2.2","processedAt":"2026-08-11T18:29:20.995Z"}}},{"type":"Feature","geometry":{"type":"Point","coordinates":[3.4338,51.4913567]},"properties":{"dolphinKind":"buoy-lateral","rawObjectClass":"BOYLAT","sourceProperties":{"RCID":17163,"PRIM":1,"GRUP":2,"OBJL":17,"RVER":1,"AGEN":7979,"FIDN":1106834682,"FIDS":479,"LNAM":"1F2B41F8F4FA01DF","BOYSHP":5,"CATLAM":2,"COLOUR":["4"],"CONRAD":3,"OBJNAM":"DL 3","SCAMIN":200000,"SORDAT":"20190408","SORIND":"NL,1R,reprt,MD143-19","sourceCellId":"1R75K89I","sourceChecksum":"7a2ee8c3af37fc663e29090f0c2f72765b9fbcdc929300c9f5a97e0f979b1164","rawObjectClass":"BOYLAT","sourceStableId":"1F2B41F8F4FA01DF"},"sourceKind":"official","official":true,"sourceCellId":"1R75K89I","sourceStableId":"1F2B41F8F4FA01DF","pipelineFeatureId":"1R75K89I/BOYLAT/17163","provenance":{"cellId":"1R75K89I","checksum":"7a2ee8c3af37fc663e29090f0c2f72765b9fbcdc929300c9f5a97e0f979b1164","readerVersion":"GDAL 3.2.2","processedAt":"2026-08-11T18:29:20.995Z"}}},{"type":"Feature","geometry":{"type":"Point","coordinates":[3.4520433,51.4797567]},"properties":{"dolphinKind":"buoy-lateral","rawObjectClass":"BOYLAT","sourceProperties":{"RCID":17164,"PRIM":1,"GRUP":2,"OBJL":17,"RVER":1,"AGEN":7979,"FIDN":1106834682,"FIDS":480,"LNAM":"1F2B41F8F4FA01E0","LNAM_REFS":["1F2B027932FF0001"],"FFPT_RIND":[2],"BOYSHP":5,"CATLAM":2,"COLOUR":["4"],"CONRAD":3,"OBJNAM":"DL 5","SCAMIN":200000,"SORDAT":"20190408","SORIND":"NL,1R,reprt,MD143-19","sourceCellId":"1R75K89I","sourceChecksum":"7a2ee8c3af37fc663e29090f0c2f72765b9fbcdc929300c9f5a97e0f979b1164","rawObjectClass":"BOYLAT","sourceStableId":"1F2B41F8F4FA01E0"},"sourceKind":"official","official":true,"sourceCellId":"1R75K89I","sourceStableId":"1F2B41F8F4FA01E0","pipelineFeatureId":"1R75K89I/BOYLAT/17164","provenance":{"cellId":"1R75K89I","checksum":"7a2ee8c3af37fc663e29090f0c2f72765b9fbcdc929300c9f5a97e0f979b1164","readerVersion":"GDAL 3.2.2","processedAt":"2026-08-11T18:29:20.995Z"}}},{"type":"Feature","geometry":{"type":"Point","coordinates":[3.4915861,51.4912778]},"properties":{"dolphinKind":"buoy-lateral","rawObjectClass":"BOYLAT","sourceProperties":{"RCID":17434,"PRIM":1,"GRUP":2,"OBJL":17,"RVER":1,"AGEN":7979,"FIDN":1106834683,"FIDS":495,"LNAM":"1F2B41F8F4FB01EF","LNAM_REFS":["1F2B41F8F4FB01F0","1F2B4873C9D70001"],"FFPT_RIND":[2,2],"BOYSHP":2,"CATLAM":1,"COLOUR":["3"],"CONRAD":3,"OBJNAM":"OG 14","SCAMIN":200000,"SORDAT":"20170530","SORIND":"NL,1R,Reprt,BASS039-2017","sourceCellId":"1R75K89I","sourceChecksum":"7a2ee8c3af37fc663e29090f0c2f72765b9fbcdc929300c9f5a97e0f979b1164","rawObjectClass":"BOYLAT","sourceStableId":"1F2B41F8F4FB01EF"},"sourceKind":"official","official":true,"sourceCellId":"1R75K89I","sourceStableId":"1F2B41F8F4FB01EF","pipelineFeatureId":"1R75K89I/BOYLAT/17434","provenance":{"cellId":"1R75K89I","checksum":"7a2ee8c3af37fc663e29090f0c2f72765b9fbcdc929300c9f5a97e0f979b1164","readerVersion":"GDAL 3.2.2","processedAt":"2026-08-11T18:29:20.995Z"}}},{"type":"Feature","geometry":{"type":"Point","coordinates":[3.4570367,51.5078833]},"properties":{"dolphinKind":"buoy-lateral","rawObjectClass":"BOYLAT","sourceProperties":{"RCID":17437,"PRIM":1,"GRUP":2,"OBJL":17,"RVER":1,"AGEN":7979,"FIDN":1106834683,"FIDS":498,"LNAM":"1F2B41F8F4FB01F2","LNAM_REFS":["1F2B41F8F4FB01F3"],"FFPT_RIND":[2],"BOYSHP":2,"CATLAM":1,"COLOUR":["3"],"OBJNAM":"OG 10","SCAMIN":200000,"SORDAT":"20231031","SORIND":"NL,1R,Reprt,MD 527-23","sourceCellId":"1R75K89I","sourceChecksum":"7a2ee8c3af37fc663e29090f0c2f72765b9fbcdc929300c9f5a97e0f979b1164","rawObjectClass":"BOYLAT","sourceStableId":"1F2B41F8F4FB01F2"},"sourceKind":"official","official":true,"sourceCellId":"1R75K89I","sourceStableId":"1F2B41F8F4FB01F2","pipelineFeatureId":"1R75K89I/BOYLAT/17437","provenance":{"cellId":"1R75K89I","checksum":"7a2ee8c3af37fc663e29090f0c2f72765b9fbcdc929300c9f5a97e0f979b1164","readerVersion":"GDAL 3.2.2","processedAt":"2026-08-11T18:29:20.995Z"}}},{"type":"Feature","geometry":{"type":"Point","coordinates":[3.433995,51.5210783]},"properties":{"dolphinKind":"buoy-lateral","rawObjectClass":"BOYLAT","sourceProperties":{"RCID":17439,"PRIM":1,"GRUP":2,"OBJL":17,"RVER":1,"AGEN":7979,"FIDN":1106834683,"FIDS":500,"LNAM":"1F2B41F8F4FB01F4","LNAM_REFS":["1F2B41F8F4FB01F5","1F2B4873C9D60001"],"FFPT_RIND":[2,2],"BOYSHP":2,"CATLAM":1,"COLOUR":["3"],"OBJNAM":"OG 8","SCAMIN":200000,"SORDAT":"20231031","SORIND":"NL,1R,Reprt,MD 527-23","sourceCellId":"1R75K89I","sourceChecksum":"7a2ee8c3af37fc663e29090f0c2f72765b9fbcdc929300c9f5a97e0f979b1164","rawObjectClass":"BOYLAT","sourceStableId":"1F2B41F8F4FB01F4"},"sourceKind":"official","official":true,"sourceCellId":"1R75K89I","sourceStableId":"1F2B41F8F4FB01F4","pipelineFeatureId":"1R75K89I/BOYLAT/17439","provenance":{"cellId":"1R75K89I","checksum":"7a2ee8c3af37fc663e29090f0c2f72765b9fbcdc929300c9f5a97e0f979b1164","readerVersion":"GDAL 3.2.2","processedAt":"2026-08-11T18:29:20.995Z"}}},{"type":"Feature","geometry":{"type":"Point","coordinates":[3.4923666,51.4845]},"properties":{"dolphinKind":"buoy-lateral","rawObjectClass":"BOYLAT","sourceProperties":{"RCID":17441,"PRIM":1,"GRUP":2,"OBJL":17,"RVER":1,"AGEN":7979,"FIDN":1106834683,"FIDS":502,"LNAM":"1F2B41F8F4FB01F6","LNAM_REFS":["1F2B41F8F4FB01F7","1F2B4873C3C50001"],"FFPT_RIND":[2,2],"BOYSHP":1,"CATLAM":2,"COLOUR":["4"],"CONRAD":3,"OBJNAM":"OG 17","SCAMIN":200000,"SORDAT":"20030930","sourceCellId":"1R75K89I","sourceChecksum":"7a2ee8c3af37fc663e29090f0c2f72765b9fbcdc929300c9f5a97e0f979b1164","rawObjectClass":"BOYLAT","sourceStableId":"1F2B41F8F4FB01F6"},"sourceKind":"official","official":true,"sourceCellId":"1R75K89I","sourceStableId":"1F2B41F8F4FB01F6","pipelineFeatureId":"1R75K89I/BOYLAT/17441","provenance":{"cellId":"1R75K89I","checksum":"7a2ee8c3af37fc663e29090f0c2f72765b9fbcdc929300c9f5a97e0f979b1164","readerVersion":"GDAL 3.2.2","processedAt":"2026-08-11T18:29:20.995Z"}}},{"type":"Feature","geometry":{"type":"Point","coordinates":[3.4727333,51.4927666]},"properties":{"dolphinKind":"buoy-lateral","rawObjectClass":"BOYLAT","sourceProperties":{"RCID":17443,"PRIM":1,"GRUP":2,"OBJL":17,"RVER":1,"AGEN":7979,"FIDN":1106834683,"FIDS":504,"LNAM":"1F2B41F8F4FB01F8","BOYSHP":5,"CATLAM":2,"COLOUR":["4"],"CONRAD":3,"OBJNAM":"OG 15","SCAMIN":200000,"SORDAT":"20230719","SORIND":"NL,1r,reprt,NDB verbetering","sourceCellId":"1R75K89I","sourceChecksum":"7a2ee8c3af37fc663e29090f0c2f72765b9fbcdc929300c9f5a97e0f979b1164","rawObjectClass":"BOYLAT","sourceStableId":"1F2B41F8F4FB01F8"},"sourceKind":"official","official":true,"sourceCellId":"1R75K89I","sourceStableId":"1F2B41F8F4FB01F8","pipelineFeatureId":"1R75K89I/BOYLAT/17443","provenance":{"cellId":"1R75K89I","checksum":"7a2ee8c3af37fc663e29090f0c2f72765b9fbcdc929300c9f5a97e0f979b1164","readerVersion":"GDAL 3.2.2","processedAt":"2026-08-11T18:29:20.995Z"}}},{"type":"Feature","geometry":{"type":"Point","coordinates":[3.4558334,51.5026833]},"properties":{"dolphinKind":"buoy-lateral","rawObjectClass":"BOYLAT","sourceProperties":{"RCID":17445,"PRIM":1,"GRUP":2,"OBJL":17,"RVER":1,"AGEN":7979,"FIDN":1106834683,"FIDS":506,"LNAM":"1F2B41F8F4FB01FA","LNAM_REFS":["1F2B41F8F4FB01F9"],"FFPT_RIND":[2],"BOYSHP":1,"CATLAM":2,"COLOUR":["4"],"OBJNAM":"OG 13","SCAMIN":200000,"SORDAT":"20030930","sourceCellId":"1R75K89I","sourceChecksum":"7a2ee8c3af37fc663e29090f0c2f72765b9fbcdc929300c9f5a97e0f979b1164","rawObjectClass":"BOYLAT","sourceStableId":"1F2B41F8F4FB01FA"},"sourceKind":"official","official":true,"sourceCellId":"1R75K89I","sourceStableId":"1F2B41F8F4FB01FA","pipelineFeatureId":"1R75K89I/BOYLAT/17445","provenance":{"cellId":"1R75K89I","checksum":"7a2ee8c3af37fc663e29090f0c2f72765b9fbcdc929300c9f5a97e0f979b1164","readerVersion":"GDAL 3.2.2","processedAt":"2026-08-11T18:29:20.995Z"}}},{"type":"Feature","geometry":{"type":"Point","coordinates":[3.4252167,51.5186334]},"properties":{"dolphinKind":"buoy-lateral","rawObjectClass":"BOYLAT","sourceProperties":{"RCID":17448,"PRIM":1,"GRUP":2,"OBJL":17,"RVER":1,"AGEN":7979,"FIDN":1106834683,"FIDS":509,"LNAM":"1F2B41F8F4FB01FD","LNAM_REFS":["1F2B41F8F4FB01FC","1F2B4873C3C40001"],"FFPT_RIND":[2,2],"BOYSHP":1,"CATLAM":2,"COLOUR":["4"],"OBJNAM":"OG 9","SCAMIN":200000,"SORDAT":"20030930","sourceCellId":"1R75K89I","sourceChecksum":"7a2ee8c3af37fc663e29090f0c2f72765b9fbcdc929300c9f5a97e0f979b1164","rawObjectClass":"BOYLAT","sourceStableId":"1F2B41F8F4FB01FD"},"sourceKind":"official","official":true,"sourceCellId":"1R75K89I","sourceStableId":"1F2B41F8F4FB01FD","pipelineFeatureId":"1R75K89I/BOYLAT/17448","provenance":{"cellId":"1R75K89I","checksum":"7a2ee8c3af37fc663e29090f0c2f72765b9fbcdc929300c9f5a97e0f979b1164","readerVersion":"GDAL 3.2.2","processedAt":"2026-08-11T18:29:20.995Z"}}},{"type":"Feature","geometry":{"type":"Point","coordinates":[3.409485,51.5244017]},"properties":{"dolphinKind":"buoy-lateral","rawObjectClass":"BOYLAT","sourceProperties":{"RCID":17543,"PRIM":1,"GRUP":2,"OBJL":17,"RVER":1,"AGEN":7979,"FIDN":1106834684,"FIDS":349,"LNAM":"1F2B41F8F4FC015D","BOYSHP":5,"CATLAM":2,"COLOUR":["4"],"CONRAD":3,"NATCON":["8"],"OBJNAM":"GR 5","SCAMIN":200000,"SORDAT":"20211221","SORIND":"NL,1R,reprt,MD701-21","sourceCellId":"1R75K89I","sourceChecksum":"7a2ee8c3af37fc663e29090f0c2f72765b9fbcdc929300c9f5a97e0f979b1164","rawObjectClass":"BOYLAT","sourceStableId":"1F2B41F8F4FC015D"},"sourceKind":"official","official":true,"sourceCellId":"1R75K89I","sourceStableId":"1F2B41F8F4FC015D","pipelineFeatureId":"1R75K89I/BOYLAT/17543","provenance":{"cellId":"1R75K89I","checksum":"7a2ee8c3af37fc663e29090f0c2f72765b9fbcdc929300c9f5a97e0f979b1164","readerVersion":"GDAL 3.2.2","processedAt":"2026-08-11T18:29:20.995Z"}}},{"type":"Feature","geometry":{"type":"Point","coordinates":[3.4123233,51.5243617]},"properties":{"dolphinKind":"buoy-lateral","rawObjectClass":"BOYLAT","sourceProperties":{"RCID":17545,"PRIM":1,"GRUP":2,"OBJL":17,"RVER":1,"AGEN":7979,"FIDN":1106834684,"FIDS":351,"LNAM":"1F2B41F8F4FC015F","BOYSHP":5,"CATLAM":1,"COLOUR":["3"],"CONRAD":3,"NATCON":["8"],"OBJNAM":"GR 4","SCAMIN":200000,"SORDAT":"20211221","SORIND":"NL,1R,reprt,MD701-21","sourceCellId":"1R75K89I","sourceChecksum":"7a2ee8c3af37fc663e29090f0c2f72765b9fbcdc929300c9f5a97e0f979b1164","rawObjectClass":"BOYLAT","sourceStableId":"1F2B41F8F4FC015F"},"sourceKind":"official","official":true,"sourceCellId":"1R75K89I","sourceStableId":"1F2B41F8F4FC015F","pipelineFeatureId":"1R75K89I/BOYLAT/17545","provenance":{"cellId":"1R75K89I","checksum":"7a2ee8c3af37fc663e29090f0c2f72765b9fbcdc929300c9f5a97e0f979b1164","readerVersion":"GDAL 3.2.2","processedAt":"2026-08-11T18:29:20.995Z"}}},{"type":"Feature","geometry":{"type":"Point","coordinates":[3.4134867,51.516625]},"properties":{"dolphinKind":"buoy-lateral","rawObjectClass":"BOYLAT","sourceProperties":{"RCID":17546,"PRIM":1,"GRUP":2,"OBJL":17,"RVER":1,"AGEN":7979,"FIDN":1106834684,"FIDS":352,"LNAM":"1F2B41F8F4FC0160","LNAM_REFS":["1F2B1206FF2D0001"],"FFPT_RIND":[2],"BOYSHP":5,"CATLAM":1,"COLOUR":["3"],"CONRAD":3,"NATCON":["8"],"OBJNAM":"GR 6","SCAMIN":200000,"SORDAT":"20190408","SORIND":"NL,1R,reprt,MD143-19","sourceCellId":"1R75K89I","sourceChecksum":"7a2ee8c3af37fc663e29090f0c2f72765b9fbcdc929300c9f5a97e0f979b1164","rawObjectClass":"BOYLAT","sourceStableId":"1F2B41F8F4FC0160"},"sourceKind":"official","official":true,"sourceCellId":"1R75K89I","sourceStableId":"1F2B41F8F4FC0160","pipelineFeatureId":"1R75K89I/BOYLAT/17546","provenance":{"cellId":"1R75K89I","checksum":"7a2ee8c3af37fc663e29090f0c2f72765b9fbcdc929300c9f5a97e0f979b1164","readerVersion":"GDAL 3.2.2","processedAt":"2026-08-11T18:29:20.995Z"}}},{"type":"Feature","geometry":{"type":"Point","coordinates":[3.3397833,51.5170333]},"properties":{"dolphinKind":"buoy-lateral","rawObjectClass":"BOYLAT","sourceProperties":{"RCID":17547,"PRIM":1,"GRUP":2,"OBJL":17,"RVER":1,"AGEN":7979,"FIDN":1106834684,"FIDS":353,"LNAM":"1F2B41F8F4FC0161","LNAM_REFS":["1F2B41F8F4FC0162"],"FFPT_RIND":[2],"BOYSHP":5,"CATLAM":1,"COLOUR":["3"],"OBJNAM":"GvW 2","SCAMIN":150000,"SORDAT":"20230719","SORIND":"NL,1R,reprt,NDB verbetering","sourceCellId":"1R75K89I","sourceChecksum":"7a2ee8c3af37fc663e29090f0c2f72765b9fbcdc929300c9f5a97e0f979b1164","rawObjectClass":"BOYLAT","sourceStableId":"1F2B41F8F4FC0161"},"sourceKind":"official","official":true,"sourceCellId":"1R75K89I","sourceStableId":"1F2B41F8F4FC0161","pipelineFeatureId":"1R75K89I/BOYLAT/17547","provenance":{"cellId":"1R75K89I","checksum":"7a2ee8c3af37fc663e29090f0c2f72765b9fbcdc929300c9f5a97e0f979b1164","readerVersion":"GDAL 3.2.2","processedAt":"2026-08-11T18:29:20.995Z"}}},{"type":"Feature","geometry":{"type":"Point","coordinates":[3.363705,51.5091567]},"properties":{"dolphinKind":"buoy-lateral","rawObjectClass":"BOYLAT","sourceProperties":{"RCID":17549,"PRIM":1,"GRUP":2,"OBJL":17,"RVER":1,"AGEN":7979,"FIDN":1106834684,"FIDS":355,"LNAM":"1F2B41F8F4FC0163","BOYSHP":5,"CATLAM":1,"COLOUR":["3"],"CONRAD":3,"OBJNAM":"GvW 4","SCAMIN":150000,"SORDAT":"20230719","SORIND":"NL,1R,reprt,NDB verbetering","sourceCellId":"1R75K89I","sourceChecksum":"7a2ee8c3af37fc663e29090f0c2f72765b9fbcdc929300c9f5a97e0f979b1164","rawObjectClass":"BOYLAT","sourceStableId":"1F2B41F8F4FC0163"},"sourceKind":"official","official":true,"sourceCellId":"1R75K89I","sourceStableId":"1F2B41F8F4FC0163","pipelineFeatureId":"1R75K89I/BOYLAT/17549","provenance":{"cellId":"1R75K89I","checksum":"7a2ee8c3af37fc663e29090f0c2f72765b9fbcdc929300c9f5a97e0f979b1164","readerVersion":"GDAL 3.2.2","processedAt":"2026-08-11T18:29:20.995Z"}}},{"type":"Feature","geometry":{"type":"Point","coordinates":[3.3891967,51.5025583]},"properties":{"dolphinKind":"buoy-lateral","rawObjectClass":"BOYLAT","sourceProperties":{"RCID":17550,"PRIM":1,"GRUP":2,"OBJL":17,"RVER":1,"AGEN":7979,"FIDN":1106834684,"FIDS":356,"LNAM":"1F2B41F8F4FC0164","LNAM_REFS":["1F2B41F8F4FC0165"],"FFPT_RIND":[2],"BOYSHP":5,"CATLAM":1,"COLOUR":["3"],"CONRAD":3,"OBJNAM":"GvW 6","SCAMIN":150000,"SORDAT":"20230719","SORIND":"NL,1R,reprt,NDB verbetering","sourceCellId":"1R75K89I","sourceChecksum":"7a2ee8c3af37fc663e29090f0c2f72765b9fbcdc929300c9f5a97e0f979b1164","rawObjectClass":"BOYLAT","sourceStableId":"1F2B41F8F4FC0164"},"sourceKind":"official","official":true,"sourceCellId":"1R75K89I","sourceStableId":"1F2B41F8F4FC0164","pipelineFeatureId":"1R75K89I/BOYLAT/17550","provenance":{"cellId":"1R75K89I","checksum":"7a2ee8c3af37fc663e29090f0c2f72765b9fbcdc929300c9f5a97e0f979b1164","readerVersion":"GDAL 3.2.2","processedAt":"2026-08-11T18:29:20.995Z"}}},{"type":"Feature","geometry":{"type":"Point","coordinates":[3.424,51.4803267]},"properties":{"dolphinKind":"buoy-lateral","rawObjectClass":"BOYLAT","sourceProperties":{"RCID":17552,"PRIM":1,"GRUP":2,"OBJL":17,"RVER":1,"AGEN":7979,"FIDN":1106834684,"FIDS":358,"LNAM":"1F2B41F8F4FC0166","BOYSHP":5,"CATLAM":1,"COLOUR":["3"],"CONRAD":3,"OBJNAM":"GvW 8","SCAMIN":200000,"SORDAT":"20220112","SORIND":"NL,1R,Reprt,MD 023-22","sourceCellId":"1R75K89I","sourceChecksum":"7a2ee8c3af37fc663e29090f0c2f72765b9fbcdc929300c9f5a97e0f979b1164","rawObjectClass":"BOYLAT","sourceStableId":"1F2B41F8F4FC0166"},"sourceKind":"official","official":true,"sourceCellId":"1R75K89I","sourceStableId":"1F2B41F8F4FC0166","pipelineFeatureId":"1R75K89I/BOYLAT/17552","provenance":{"cellId":"1R75K89I","checksum":"7a2ee8c3af37fc663e29090f0c2f72765b9fbcdc929300c9f5a97e0f979b1164","readerVersion":"GDAL 3.2.2","processedAt":"2026-08-11T18:29:20.995Z"}}},{"type":"Feature","geometry":{"type":"Point","coordinates":[3.4739383,51.49998]},"properties":{"dolphinKind":"buoy-lateral","rawObjectClass":"BOYLAT","sourceProperties":{"RCID":28949,"PRIM":1,"GRUP":2,"OBJL":17,"RVER":1,"AGEN":7979,"FIDN":1135072197,"FIDS":257,"LNAM":"1F2B43A7D3C50101","BOYSHP":5,"CATLAM":1,"COLOUR":["3"],"CONRAD":3,"OBJNAM":"OG 12","SCAMIN":200000,"SORDAT":"20230719","SORIND":"NL,1r,reprt,NDB verbetering","sourceCellId":"1R75K89I","sourceChecksum":"7a2ee8c3af37fc663e29090f0c2f72765b9fbcdc929300c9f5a97e0f979b1164","rawObjectClass":"BOYLAT","sourceStableId":"1F2B43A7D3C50101"},"sourceKind":"official","official":true,"sourceCellId":"1R75K89I","sourceStableId":"1F2B43A7D3C50101","pipelineFeatureId":"1R75K89I/BOYLAT/28949","provenance":{"cellId":"1R75K89I","checksum":"7a2ee8c3af37fc663e29090f0c2f72765b9fbcdc929300c9f5a97e0f979b1164","readerVersion":"GDAL 3.2.2","processedAt":"2026-08-11T18:29:20.995Z"}}},{"type":"Feature","geometry":{"type":"Point","coordinates":[3.4394667,51.5101583]},"properties":{"dolphinKind":"buoy-lateral","rawObjectClass":"BOYLAT","sourceProperties":{"RCID":26181446,"PRIM":1,"GRUP":2,"OBJL":17,"RVER":1,"AGEN":7979,"FIDN":26181446,"FIDS":1,"LNAM":"1F2B018F7F460001","BOYSHP":5,"CATLAM":2,"COLOUR":["4"],"NATCON":["8"],"OBJNAM":"OG 11","SCAMIN":200000,"SORDAT":"20150929","SORIND":"NL,1R,reprt,MD 407-15","sourceCellId":"1R75K89I","sourceChecksum":"7a2ee8c3af37fc663e29090f0c2f72765b9fbcdc929300c9f5a97e0f979b1164","rawObjectClass":"BOYLAT","sourceStableId":"1F2B018F7F460001"},"sourceKind":"official","official":true,"sourceCellId":"1R75K89I","sourceStableId":"1F2B018F7F460001","pipelineFeatureId":"1R75K89I/BOYLAT/26181446","provenance":{"cellId":"1R75K89I","checksum":"7a2ee8c3af37fc663e29090f0c2f72765b9fbcdc929300c9f5a97e0f979b1164","readerVersion":"GDAL 3.2.2","processedAt":"2026-08-11T18:29:20.995Z"}}},{"type":"Feature","geometry":{"type":"Point","coordinates":[3.4179717,51.5045033]},"properties":{"dolphinKind":"buoy-lateral","rawObjectClass":"BOYLAT","sourceProperties":{"RCID":343220388,"PRIM":1,"GRUP":2,"OBJL":17,"RVER":1,"AGEN":7979,"FIDN":343220388,"FIDS":1,"LNAM":"1F2B147520A40001","LNAM_REFS":["1F2B147551170001"],"FFPT_RIND":[2],"BOYSHP":5,"CATLAM":2,"COLOUR":["4"],"OBJNAM":"DL 1","SCAMIN":200000,"SORDAT":"20200124","SORIND":"NL,1R,reprt,MD031-20","sourceCellId":"1R75K89I","sourceChecksum":"7a2ee8c3af37fc663e29090f0c2f72765b9fbcdc929300c9f5a97e0f979b1164","rawObjectClass":"BOYLAT","sourceStableId":"1F2B147520A40001"},"sourceKind":"official","official":true,"sourceCellId":"1R75K89I","sourceStableId":"1F2B147520A40001","pipelineFeatureId":"1R75K89I/BOYLAT/343220388","provenance":{"cellId":"1R75K89I","checksum":"7a2ee8c3af37fc663e29090f0c2f72765b9fbcdc929300c9f5a97e0f979b1164","readerVersion":"GDAL 3.2.2","processedAt":"2026-08-11T18:29:20.995Z"}}},{"type":"Feature","geometry":{"type":"Point","coordinates":[3.407975,51.5152783]},"properties":{"dolphinKind":"buoy-lateral","rawObjectClass":"BOYLAT","sourceProperties":{"RCID":343239342,"PRIM":1,"GRUP":2,"OBJL":17,"RVER":1,"AGEN":7979,"FIDN":343239342,"FIDS":1,"LNAM":"1F2B14756AAE0001","BOYSHP":5,"CATLAM":2,"COLOUR":["4"],"OBJNAM":"GR 7","SCAMIN":200000,"SORDAT":"20200124","SORIND":"NL,1R,reprt,MD 031-20","sourceCellId":"1R75K89I","sourceChecksum":"7a2ee8c3af37fc663e29090f0c2f72765b9fbcdc929300c9f5a97e0f979b1164","rawObjectClass":"BOYLAT","sourceStableId":"1F2B14756AAE0001"},"sourceKind":"official","official":true,"sourceCellId":"1R75K89I","sourceStableId":"1F2B14756AAE0001","pipelineFeatureId":"1R75K89I/BOYLAT/343239342","provenance":{"cellId":"1R75K89I","checksum":"7a2ee8c3af37fc663e29090f0c2f72765b9fbcdc929300c9f5a97e0f979b1164","readerVersion":"GDAL 3.2.2","processedAt":"2026-08-11T18:29:20.995Z"}}},{"type":"Feature","geometry":{"type":"Point","coordinates":[3.44521,51.4958783]},"properties":{"dolphinKind":"buoy-lateral","rawObjectClass":"BOYLAT","sourceProperties":{"RCID":343253893,"PRIM":1,"GRUP":2,"OBJL":17,"RVER":1,"AGEN":7979,"FIDN":343253893,"FIDS":1,"LNAM":"1F2B1475A3850001","BOYSHP":5,"CATLAM":1,"COLOUR":["3"],"OBJNAM":"DL 4","SCAMIN":200000,"SORDAT":"20200124","SORIND":"NL,1R,reprt,MD031-20","sourceCellId":"1R75K89I","sourceChecksum":"7a2ee8c3af37fc663e29090f0c2f72765b9fbcdc929300c9f5a97e0f979b1164","rawObjectClass":"BOYLAT","sourceStableId":"1F2B1475A3850001"},"sourceKind":"official","official":true,"sourceCellId":"1R75K89I","sourceStableId":"1F2B1475A3850001","pipelineFeatureId":"1R75K89I/BOYLAT/343253893","provenance":{"cellId":"1R75K89I","checksum":"7a2ee8c3af37fc663e29090f0c2f72765b9fbcdc929300c9f5a97e0f979b1164","readerVersion":"GDAL 3.2.2","processedAt":"2026-08-11T18:29:20.995Z"}}},{"type":"Feature","geometry":{"type":"Point","coordinates":[3.4656833,51.48595]},"properties":{"dolphinKind":"buoy-lateral","rawObjectClass":"BOYLAT","sourceProperties":{"RCID":343253894,"PRIM":1,"GRUP":2,"OBJL":17,"RVER":1,"AGEN":7979,"FIDN":343253894,"FIDS":1,"LNAM":"1F2B1475A3860001","BOYSHP":5,"CATLAM":1,"COLOUR":["3"],"OBJNAM":"DL 6","SCAMIN":200000,"SORDAT":"20200124","SORIND":"NL,1R,reprt,MD031-20","sourceCellId":"1R75K89I","sourceChecksum":"7a2ee8c3af37fc663e29090f0c2f72765b9fbcdc929300c9f5a97e0f979b1164","rawObjectClass":"BOYLAT","sourceStableId":"1F2B1475A3860001"},"sourceKind":"official","official":true,"sourceCellId":"1R75K89I","sourceStableId":"1F2B1475A3860001","pipelineFeatureId":"1R75K89I/BOYLAT/343253894","provenance":{"cellId":"1R75K89I","checksum":"7a2ee8c3af37fc663e29090f0c2f72765b9fbcdc929300c9f5a97e0f979b1164","readerVersion":"GDAL 3.2.2","processedAt":"2026-08-11T18:29:20.995Z"}}},{"type":"Feature","geometry":{"type":"Point","coordinates":[3.4259967,51.5068117]},"properties":{"dolphinKind":"buoy-lateral","rawObjectClass":"BOYLAT","sourceProperties":{"RCID":343253897,"PRIM":1,"GRUP":2,"OBJL":17,"RVER":1,"AGEN":7979,"FIDN":343253897,"FIDS":1,"LNAM":"1F2B1475A3890001","LNAM_REFS":["1F2B1475A3880001"],"FFPT_RIND":[2],"BOYSHP":5,"CATLAM":1,"COLOUR":["3"],"OBJNAM":"DL 2","SCAMIN":200000,"SORDAT":"20200124","SORIND":"NL,1R,reprt,MD031-20","sourceCellId":"1R75K89I","sourceChecksum":"7a2ee8c3af37fc663e29090f0c2f72765b9fbcdc929300c9f5a97e0f979b1164","rawObjectClass":"BOYLAT","sourceStableId":"1F2B1475A3890001"},"sourceKind":"official","official":true,"sourceCellId":"1R75K89I","sourceStableId":"1F2B1475A3890001","pipelineFeatureId":"1R75K89I/BOYLAT/343253897","provenance":{"cellId":"1R75K89I","checksum":"7a2ee8c3af37fc663e29090f0c2f72765b9fbcdc929300c9f5a97e0f979b1164","readerVersion":"GDAL 3.2.2","processedAt":"2026-08-11T18:29:20.995Z"}}},{"type":"Feature","geometry":{"type":"Point","coordinates":[3.4858317,51.4757417]},"properties":{"dolphinKind":"buoy-lateral","rawObjectClass":"BOYLAT","sourceProperties":{"RCID":343745836,"PRIM":1,"GRUP":2,"OBJL":17,"RVER":1,"AGEN":7979,"FIDN":343745836,"FIDS":1,"LNAM":"1F2B147D252C0001","BOYSHP":5,"CATLAM":1,"COLOUR":["3"],"OBJNAM":"DL 8","SCAMIN":200000,"SORDAT":"20200124","SORIND":"NL,1R,reprt,MD031-20","sourceCellId":"1R75K89I","sourceChecksum":"7a2ee8c3af37fc663e29090f0c2f72765b9fbcdc929300c9f5a97e0f979b1164","rawObjectClass":"BOYLAT","sourceStableId":"1F2B147D252C0001"},"sourceKind":"official","official":true,"sourceCellId":"1R75K89I","sourceStableId":"1F2B147D252C0001","pipelineFeatureId":"1R75K89I/BOYLAT/343745836","provenance":{"cellId":"1R75K89I","checksum":"7a2ee8c3af37fc663e29090f0c2f72765b9fbcdc929300c9f5a97e0f979b1164","readerVersion":"GDAL 3.2.2","processedAt":"2026-08-11T18:29:20.995Z"}}},{"type":"Feature","geometry":{"type":"Point","coordinates":[3.4352,51.5245617]},"properties":{"dolphinKind":"buoy-special","rawObjectClass":"BOYSPP","sourceProperties":{"RCID":16932176,"PRIM":1,"GRUP":2,"OBJL":19,"RVER":1,"AGEN":7979,"FIDN":16932176,"FIDS":1,"LNAM":"1F2B01025D500001","BOYSHP":2,"CATSPM":["27"],"COLOUR":["6"],"OBJNAM":"ZWEM","SCAMIN":200000,"SORDAT":"20230719","SORIND":"Nl,1R,Reprt,MD 274-22","sourceCellId":"1R75K89I","sourceChecksum":"7a2ee8c3af37fc663e29090f0c2f72765b9fbcdc929300c9f5a97e0f979b1164","rawObjectClass":"BOYSPP","sourceStableId":"1F2B01025D500001"},"sourceKind":"official","official":true,"sourceCellId":"1R75K89I","sourceStableId":"1F2B01025D500001","pipelineFeatureId":"1R75K89I/BOYSPP/16932176","provenance":{"cellId":"1R75K89I","checksum":"7a2ee8c3af37fc663e29090f0c2f72765b9fbcdc929300c9f5a97e0f979b1164","readerVersion":"GDAL 3.2.2","processedAt":"2026-08-11T18:29:20.995Z"}}},{"type":"Feature","geometry":{"type":"Point","coordinates":[3.3886333,51.51185]},"properties":{"dolphinKind":"buoy-special","rawObjectClass":"BOYSPP","sourceProperties":{"RCID":48584701,"PRIM":1,"GRUP":2,"OBJL":19,"RVER":1,"AGEN":7979,"FIDN":48584701,"FIDS":1,"LNAM":"1F2B02E557FD0001","LNAM_REFS":["1F2B02E557FE0001"],"FFPT_RIND":[2],"BOYSHP":5,"CATSPM":["12"],"COLOUR":["6"],"CONRAD":3,"OBJNAM":"RASSEN","SCAMIN":200000,"SORDAT":"20100531","SORIND":"NL,1R,reprt,Bass 043/10","sourceCellId":"1R75K89I","sourceChecksum":"7a2ee8c3af37fc663e29090f0c2f72765b9fbcdc929300c9f5a97e0f979b1164","rawObjectClass":"BOYSPP","sourceStableId":"1F2B02E557FD0001"},"sourceKind":"official","official":true,"sourceCellId":"1R75K89I","sourceStableId":"1F2B02E557FD0001","pipelineFeatureId":"1R75K89I/BOYSPP/48584701","provenance":{"cellId":"1R75K89I","checksum":"7a2ee8c3af37fc663e29090f0c2f72765b9fbcdc929300c9f5a97e0f979b1164","readerVersion":"GDAL 3.2.2","processedAt":"2026-08-11T18:29:20.995Z"}}},{"type":"Feature","geometry":{"type":"Point","coordinates":[3.509813,51.4753891]},"properties":{"dolphinKind":"light","rawObjectClass":"LIGHTS","sourceProperties":{"RCID":17078,"PRIM":1,"GRUP":2,"OBJL":75,"RVER":1,"AGEN":7979,"FIDN":1106834682,"FIDS":394,"LNAM":"1F2B41F8F4FA018A","CATLIT":["10"],"COLOUR":["3"],"LITCHR":7,"SIGGRP":"(1)","SIGPER":8,"SCAMIN":200000,"SORDAT":"20030930","sourceCellId":"1R75K89I","sourceChecksum":"7a2ee8c3af37fc663e29090f0c2f72765b9fbcdc929300c9f5a97e0f979b1164","rawObjectClass":"LIGHTS","sourceStableId":"1F2B41F8F4FA018A"},"sourceKind":"official","official":true,"sourceCellId":"1R75K89I","sourceStableId":"1F2B41F8F4FA018A","pipelineFeatureId":"1R75K89I/LIGHTS/17078","provenance":{"cellId":"1R75K89I","checksum":"7a2ee8c3af37fc663e29090f0c2f72765b9fbcdc929300c9f5a97e0f979b1164","readerVersion":"GDAL 3.2.2","processedAt":"2026-08-11T18:29:20.995Z"}}},{"type":"Feature","geometry":{"type":"Point","coordinates":[3.4915861,51.4912778]},"properties":{"dolphinKind":"light","rawObjectClass":"LIGHTS","sourceProperties":{"RCID":17435,"PRIM":1,"GRUP":2,"OBJL":75,"RVER":1,"AGEN":7979,"FIDN":1106834683,"FIDS":496,"LNAM":"1F2B41F8F4FB01F0","CATLIT":["10"],"COLOUR":["3"],"LITCHR":7,"SIGGRP":"(1)","SIGPER":4,"SCAMIN":200000,"SORDAT":"20030930","sourceCellId":"1R75K89I","sourceChecksum":"7a2ee8c3af37fc663e29090f0c2f72765b9fbcdc929300c9f5a97e0f979b1164","rawObjectClass":"LIGHTS","sourceStableId":"1F2B41F8F4FB01F0"},"sourceKind":"official","official":true,"sourceCellId":"1R75K89I","sourceStableId":"1F2B41F8F4FB01F0","pipelineFeatureId":"1R75K89I/LIGHTS/17435","provenance":{"cellId":"1R75K89I","checksum":"7a2ee8c3af37fc663e29090f0c2f72765b9fbcdc929300c9f5a97e0f979b1164","readerVersion":"GDAL 3.2.2","processedAt":"2026-08-11T18:29:20.995Z"}}},{"type":"Feature","geometry":{"type":"Point","coordinates":[3.4570367,51.5078833]},"properties":{"dolphinKind":"light","rawObjectClass":"LIGHTS","sourceProperties":{"RCID":17438,"PRIM":1,"GRUP":2,"OBJL":75,"RVER":1,"AGEN":7979,"FIDN":1106834683,"FIDS":499,"LNAM":"1F2B41F8F4FB01F3","COLOUR":["3"],"LITCHR":7,"SIGGRP":"(1)","SIGPER":8,"SCAMIN":200000,"SORDAT":"20231031","SORIND":"NL,1R,Reprt,MD 527-23","sourceCellId":"1R75K89I","sourceChecksum":"7a2ee8c3af37fc663e29090f0c2f72765b9fbcdc929300c9f5a97e0f979b1164","rawObjectClass":"LIGHTS","sourceStableId":"1F2B41F8F4FB01F3"},"sourceKind":"official","official":true,"sourceCellId":"1R75K89I","sourceStableId":"1F2B41F8F4FB01F3","pipelineFeatureId":"1R75K89I/LIGHTS/17438","provenance":{"cellId":"1R75K89I","checksum":"7a2ee8c3af37fc663e29090f0c2f72765b9fbcdc929300c9f5a97e0f979b1164","readerVersion":"GDAL 3.2.2","processedAt":"2026-08-11T18:29:20.995Z"}}},{"type":"Feature","geometry":{"type":"Point","coordinates":[3.433995,51.5210783]},"properties":{"dolphinKind":"light","rawObjectClass":"LIGHTS","sourceProperties":{"RCID":17440,"PRIM":1,"GRUP":2,"OBJL":75,"RVER":1,"AGEN":7979,"FIDN":1106834683,"FIDS":501,"LNAM":"1F2B41F8F4FB01F5","COLOUR":["3"],"LITCHR":5,"SIGGRP":"(1)","SCAMIN":200000,"SORDAT":"20231031","SORIND":"NL,1R,Reprt,MD 527-23","sourceCellId":"1R75K89I","sourceChecksum":"7a2ee8c3af37fc663e29090f0c2f72765b9fbcdc929300c9f5a97e0f979b1164","rawObjectClass":"LIGHTS","sourceStableId":"1F2B41F8F4FB01F5"},"sourceKind":"official","official":true,"sourceCellId":"1R75K89I","sourceStableId":"1F2B41F8F4FB01F5","pipelineFeatureId":"1R75K89I/LIGHTS/17440","provenance":{"cellId":"1R75K89I","checksum":"7a2ee8c3af37fc663e29090f0c2f72765b9fbcdc929300c9f5a97e0f979b1164","readerVersion":"GDAL 3.2.2","processedAt":"2026-08-11T18:29:20.995Z"}}},{"type":"Feature","geometry":{"type":"Point","coordinates":[3.4923666,51.4845]},"properties":{"dolphinKind":"light","rawObjectClass":"LIGHTS","sourceProperties":{"RCID":17442,"PRIM":1,"GRUP":2,"OBJL":75,"RVER":1,"AGEN":7979,"FIDN":1106834683,"FIDS":503,"LNAM":"1F2B41F8F4FB01F7","CATLIT":["10"],"COLOUR":["4"],"LITCHR":7,"SIGGRP":"(1)","SIGPER":4,"SCAMIN":200000,"SORDAT":"20030930","sourceCellId":"1R75K89I","sourceChecksum":"7a2ee8c3af37fc663e29090f0c2f72765b9fbcdc929300c9f5a97e0f979b1164","rawObjectClass":"LIGHTS","sourceStableId":"1F2B41F8F4FB01F7"},"sourceKind":"official","official":true,"sourceCellId":"1R75K89I","sourceStableId":"1F2B41F8F4FB01F7","pipelineFeatureId":"1R75K89I/LIGHTS/17442","provenance":{"cellId":"1R75K89I","checksum":"7a2ee8c3af37fc663e29090f0c2f72765b9fbcdc929300c9f5a97e0f979b1164","readerVersion":"GDAL 3.2.2","processedAt":"2026-08-11T18:29:20.995Z"}}},{"type":"Feature","geometry":{"type":"Point","coordinates":[3.4558334,51.5026833]},"properties":{"dolphinKind":"light","rawObjectClass":"LIGHTS","sourceProperties":{"RCID":17444,"PRIM":1,"GRUP":2,"OBJL":75,"RVER":1,"AGEN":7979,"FIDN":1106834683,"FIDS":505,"LNAM":"1F2B41F8F4FB01F9","COLOUR":["4"],"LITCHR":7,"SIGGRP":"(1)","SIGPER":8,"SCAMIN":200000,"SORDAT":"20030930","sourceCellId":"1R75K89I","sourceChecksum":"7a2ee8c3af37fc663e29090f0c2f72765b9fbcdc929300c9f5a97e0f979b1164","rawObjectClass":"LIGHTS","sourceStableId":"1F2B41F8F4FB01F9"},"sourceKind":"official","official":true,"sourceCellId":"1R75K89I","sourceStableId":"1F2B41F8F4FB01F9","pipelineFeatureId":"1R75K89I/LIGHTS/17444","provenance":{"cellId":"1R75K89I","checksum":"7a2ee8c3af37fc663e29090f0c2f72765b9fbcdc929300c9f5a97e0f979b1164","readerVersion":"GDAL 3.2.2","processedAt":"2026-08-11T18:29:20.995Z"}}},{"type":"Feature","geometry":{"type":"Point","coordinates":[3.4252167,51.5186334]},"properties":{"dolphinKind":"light","rawObjectClass":"LIGHTS","sourceProperties":{"RCID":17447,"PRIM":1,"GRUP":2,"OBJL":75,"RVER":1,"AGEN":7979,"FIDN":1106834683,"FIDS":508,"LNAM":"1F2B41F8F4FB01FC","COLOUR":["4"],"LITCHR":5,"SIGGRP":"(1)","SCAMIN":200000,"SORDAT":"20030930","sourceCellId":"1R75K89I","sourceChecksum":"7a2ee8c3af37fc663e29090f0c2f72765b9fbcdc929300c9f5a97e0f979b1164","rawObjectClass":"LIGHTS","sourceStableId":"1F2B41F8F4FB01FC"},"sourceKind":"official","official":true,"sourceCellId":"1R75K89I","sourceStableId":"1F2B41F8F4FB01FC","pipelineFeatureId":"1R75K89I/LIGHTS/17447","provenance":{"cellId":"1R75K89I","checksum":"7a2ee8c3af37fc663e29090f0c2f72765b9fbcdc929300c9f5a97e0f979b1164","readerVersion":"GDAL 3.2.2","processedAt":"2026-08-11T18:29:20.995Z"}}},{"type":"Feature","geometry":{"type":"Point","coordinates":[3.4735233,51.5046033]},"properties":{"dolphinKind":"light","rawObjectClass":"LIGHTS","sourceProperties":{"RCID":25241,"PRIM":1,"GRUP":2,"OBJL":75,"RVER":1,"AGEN":7979,"FIDN":1107858486,"FIDS":1,"LNAM":"1F2B420894360001","COLOUR":["1"],"HEIGHT":22,"LITCHR":1,"OBJNAM":"Sergeant","SCAMIN":200000,"SORDAT":"20230111","SORIND":"NL,1R,reptr,MD 614-21","sourceCellId":"1R75K89I","sourceChecksum":"7a2ee8c3af37fc663e29090f0c2f72765b9fbcdc929300c9f5a97e0f979b1164","rawObjectClass":"LIGHTS","sourceStableId":"1F2B420894360001"},"sourceKind":"official","official":true,"sourceCellId":"1R75K89I","sourceStableId":"1F2B420894360001","pipelineFeatureId":"1R75K89I/LIGHTS/25241","provenance":{"cellId":"1R75K89I","checksum":"7a2ee8c3af37fc663e29090f0c2f72765b9fbcdc929300c9f5a97e0f979b1164","readerVersion":"GDAL 3.2.2","processedAt":"2026-08-11T18:29:20.995Z"}}},{"type":"Feature","geometry":{"type":"Point","coordinates":[3.3716667,51.5086667]},"properties":{"dolphinKind":"topmark","rawObjectClass":"TOPMAR","sourceProperties":{"RCID":17154,"PRIM":1,"GRUP":2,"OBJL":144,"RVER":1,"AGEN":7979,"FIDN":1106834682,"FIDS":470,"LNAM":"1F2B41F8F4FA01D6","COLOUR":["2"],"TOPSHP":14,"SCAMIN":200000,"SORDAT":"20030930","sourceCellId":"1R75K89I","sourceChecksum":"7a2ee8c3af37fc663e29090f0c2f72765b9fbcdc929300c9f5a97e0f979b1164","rawObjectClass":"TOPMAR","sourceStableId":"1F2B41F8F4FA01D6"},"sourceKind":"official","official":true,"sourceCellId":"1R75K89I","sourceStableId":"1F2B41F8F4FA01D6","pipelineFeatureId":"1R75K89I/TOPMAR/17154","provenance":{"cellId":"1R75K89I","checksum":"7a2ee8c3af37fc663e29090f0c2f72765b9fbcdc929300c9f5a97e0f979b1164","readerVersion":"GDAL 3.2.2","processedAt":"2026-08-11T18:29:20.995Z"},"associationRefsVerifiedInGdalOutput":false}},{"type":"Feature","geometry":{"type":"Point","coordinates":[3.3495,51.4991833]},"properties":{"dolphinKind":"topmark","rawObjectClass":"TOPMAR","sourceProperties":{"RCID":17156,"PRIM":1,"GRUP":2,"OBJL":144,"RVER":1,"AGEN":7979,"FIDN":1106834682,"FIDS":472,"LNAM":"1F2B41F8F4FA01D8","COLOUR":["2"],"TOPSHP":13,"SCAMIN":200000,"SORDAT":"20140927","SORIND":"NL,1R,Reprt,Bass079-2014","sourceCellId":"1R75K89I","sourceChecksum":"7a2ee8c3af37fc663e29090f0c2f72765b9fbcdc929300c9f5a97e0f979b1164","rawObjectClass":"TOPMAR","sourceStableId":"1F2B41F8F4FA01D8"},"sourceKind":"official","official":true,"sourceCellId":"1R75K89I","sourceStableId":"1F2B41F8F4FA01D8","pipelineFeatureId":"1R75K89I/TOPMAR/17156","provenance":{"cellId":"1R75K89I","checksum":"7a2ee8c3af37fc663e29090f0c2f72765b9fbcdc929300c9f5a97e0f979b1164","readerVersion":"GDAL 3.2.2","processedAt":"2026-08-11T18:29:20.995Z"},"associationRefsVerifiedInGdalOutput":false}},{"type":"Feature","geometry":{"type":"Point","coordinates":[3.3397833,51.5170333]},"properties":{"dolphinKind":"topmark","rawObjectClass":"TOPMAR","sourceProperties":{"RCID":17548,"PRIM":1,"GRUP":2,"OBJL":144,"RVER":1,"AGEN":7979,"FIDN":1106834684,"FIDS":354,"LNAM":"1F2B41F8F4FC0162","COLOUR":["3"],"TOPSHP":5,"SCAMIN":200000,"SORDAT":"20140804","SORIND":"NL,1R,Reprt,Bass 082-2014","sourceCellId":"1R75K89I","sourceChecksum":"7a2ee8c3af37fc663e29090f0c2f72765b9fbcdc929300c9f5a97e0f979b1164","rawObjectClass":"TOPMAR","sourceStableId":"1F2B41F8F4FC0162"},"sourceKind":"official","official":true,"sourceCellId":"1R75K89I","sourceStableId":"1F2B41F8F4FC0162","pipelineFeatureId":"1R75K89I/TOPMAR/17548","provenance":{"cellId":"1R75K89I","checksum":"7a2ee8c3af37fc663e29090f0c2f72765b9fbcdc929300c9f5a97e0f979b1164","readerVersion":"GDAL 3.2.2","processedAt":"2026-08-11T18:29:20.995Z"},"associationRefsVerifiedInGdalOutput":false}},{"type":"Feature","geometry":{"type":"Point","coordinates":[3.3891967,51.5025583]},"properties":{"dolphinKind":"topmark","rawObjectClass":"TOPMAR","sourceProperties":{"RCID":17551,"PRIM":1,"GRUP":2,"OBJL":144,"RVER":1,"AGEN":7979,"FIDN":1106834684,"FIDS":357,"LNAM":"1F2B41F8F4FC0165","COLOUR":["3"],"TOPSHP":5,"SCAMIN":200000,"SORDAT":"20220112","SORIND":"NL,1R,Reprt,MD 023-22","sourceCellId":"1R75K89I","sourceChecksum":"7a2ee8c3af37fc663e29090f0c2f72765b9fbcdc929300c9f5a97e0f979b1164","rawObjectClass":"TOPMAR","sourceStableId":"1F2B41F8F4FC0165"},"sourceKind":"official","official":true,"sourceCellId":"1R75K89I","sourceStableId":"1F2B41F8F4FC0165","pipelineFeatureId":"1R75K89I/TOPMAR/17551","provenance":{"cellId":"1R75K89I","checksum":"7a2ee8c3af37fc663e29090f0c2f72765b9fbcdc929300c9f5a97e0f979b1164","readerVersion":"GDAL 3.2.2","processedAt":"2026-08-11T18:29:20.995Z"},"associationRefsVerifiedInGdalOutput":false}},{"type":"Feature","geometry":{"type":"Point","coordinates":[3.4520433,51.4797567]},"properties":{"dolphinKind":"topmark","rawObjectClass":"TOPMAR","sourceProperties":{"RCID":41497343,"PRIM":1,"GRUP":2,"OBJL":144,"RVER":1,"AGEN":7979,"FIDN":41497343,"FIDS":1,"LNAM":"1F2B027932FF0001","COLOUR":["4"],"TOPSHP":1,"SCAMIN":200000,"SORDAT":"20100531","SORIND":"NL,1R,Reprt,Bass 043/10","sourceCellId":"1R75K89I","sourceChecksum":"7a2ee8c3af37fc663e29090f0c2f72765b9fbcdc929300c9f5a97e0f979b1164","rawObjectClass":"TOPMAR","sourceStableId":"1F2B027932FF0001"},"sourceKind":"official","official":true,"sourceCellId":"1R75K89I","sourceStableId":"1F2B027932FF0001","pipelineFeatureId":"1R75K89I/TOPMAR/41497343","provenance":{"cellId":"1R75K89I","checksum":"7a2ee8c3af37fc663e29090f0c2f72765b9fbcdc929300c9f5a97e0f979b1164","readerVersion":"GDAL 3.2.2","processedAt":"2026-08-11T18:29:20.995Z"},"associationRefsVerifiedInGdalOutput":false}},{"type":"Feature","geometry":{"type":"Point","coordinates":[3.3886333,51.51185]},"properties":{"dolphinKind":"topmark","rawObjectClass":"TOPMAR","sourceProperties":{"RCID":48584702,"PRIM":1,"GRUP":2,"OBJL":144,"RVER":1,"AGEN":7979,"FIDN":48584702,"FIDS":1,"LNAM":"1F2B02E557FE0001","COLOUR":["6"],"TOPSHP":7,"SCAMIN":200000,"SORDAT":"20100531","SORIND":"NL,1R,reprt,Bass 043/10","sourceCellId":"1R75K89I","sourceChecksum":"7a2ee8c3af37fc663e29090f0c2f72765b9fbcdc929300c9f5a97e0f979b1164","rawObjectClass":"TOPMAR","sourceStableId":"1F2B02E557FE0001"},"sourceKind":"official","official":true,"sourceCellId":"1R75K89I","sourceStableId":"1F2B02E557FE0001","pipelineFeatureId":"1R75K89I/TOPMAR/48584702","provenance":{"cellId":"1R75K89I","checksum":"7a2ee8c3af37fc663e29090f0c2f72765b9fbcdc929300c9f5a97e0f979b1164","readerVersion":"GDAL 3.2.2","processedAt":"2026-08-11T18:29:20.995Z"},"associationRefsVerifiedInGdalOutput":false}},{"type":"Feature","geometry":{"type":"Point","coordinates":[3.4134867,51.516625]},"properties":{"dolphinKind":"topmark","rawObjectClass":"TOPMAR","sourceProperties":{"RCID":302448429,"PRIM":1,"GRUP":2,"OBJL":144,"RVER":1,"AGEN":7979,"FIDN":302448429,"FIDS":1,"LNAM":"1F2B1206FF2D0001","COLOUR":["3"],"TOPSHP":5,"SCAMIN":200000,"SORDAT":"20190408","SORIND":"NL,1R,reprt,MD143-19","sourceCellId":"1R75K89I","sourceChecksum":"7a2ee8c3af37fc663e29090f0c2f72765b9fbcdc929300c9f5a97e0f979b1164","rawObjectClass":"TOPMAR","sourceStableId":"1F2B1206FF2D0001"},"sourceKind":"official","official":true,"sourceCellId":"1R75K89I","sourceStableId":"1F2B1206FF2D0001","pipelineFeatureId":"1R75K89I/TOPMAR/302448429","provenance":{"cellId":"1R75K89I","checksum":"7a2ee8c3af37fc663e29090f0c2f72765b9fbcdc929300c9f5a97e0f979b1164","readerVersion":"GDAL 3.2.2","processedAt":"2026-08-11T18:29:20.995Z"},"associationRefsVerifiedInGdalOutput":false}},{"type":"Feature","geometry":{"type":"Point","coordinates":[3.4179717,51.5045033]},"properties":{"dolphinKind":"topmark","rawObjectClass":"TOPMAR","sourceProperties":{"RCID":343232791,"PRIM":1,"GRUP":2,"OBJL":144,"RVER":1,"AGEN":7979,"FIDN":343232791,"FIDS":1,"LNAM":"1F2B147551170001","COLOUR":["4"],"TOPSHP":1,"SCAMIN":200000,"sourceCellId":"1R75K89I","sourceChecksum":"7a2ee8c3af37fc663e29090f0c2f72765b9fbcdc929300c9f5a97e0f979b1164","rawObjectClass":"TOPMAR","sourceStableId":"1F2B147551170001"},"sourceKind":"official","official":true,"sourceCellId":"1R75K89I","sourceStableId":"1F2B147551170001","pipelineFeatureId":"1R75K89I/TOPMAR/343232791","provenance":{"cellId":"1R75K89I","checksum":"7a2ee8c3af37fc663e29090f0c2f72765b9fbcdc929300c9f5a97e0f979b1164","readerVersion":"GDAL 3.2.2","processedAt":"2026-08-11T18:29:20.995Z"},"associationRefsVerifiedInGdalOutput":false}},{"type":"Feature","geometry":{"type":"Point","coordinates":[3.4259967,51.5068117]},"properties":{"dolphinKind":"topmark","rawObjectClass":"TOPMAR","sourceProperties":{"RCID":343253896,"PRIM":1,"GRUP":2,"OBJL":144,"RVER":1,"AGEN":7979,"FIDN":343253896,"FIDS":1,"LNAM":"1F2B1475A3880001","COLOUR":["3"],"TOPSHP":5,"SCAMIN":200000,"sourceCellId":"1R75K89I","sourceChecksum":"7a2ee8c3af37fc663e29090f0c2f72765b9fbcdc929300c9f5a97e0f979b1164","rawObjectClass":"TOPMAR","sourceStableId":"1F2B1475A3880001"},"sourceKind":"official","official":true,"sourceCellId":"1R75K89I","sourceStableId":"1F2B1475A3880001","pipelineFeatureId":"1R75K89I/TOPMAR/343253896","provenance":{"cellId":"1R75K89I","checksum":"7a2ee8c3af37fc663e29090f0c2f72765b9fbcdc929300c9f5a97e0f979b1164","readerVersion":"GDAL 3.2.2","processedAt":"2026-08-11T18:29:20.995Z"},"associationRefsVerifiedInGdalOutput":false}},{"type":"Feature","geometry":{"type":"Point","coordinates":[3.4252167,51.5186334]},"properties":{"dolphinKind":"topmark","rawObjectClass":"TOPMAR","sourceProperties":{"RCID":1215546308,"PRIM":1,"GRUP":2,"OBJL":144,"RVER":1,"AGEN":7979,"FIDN":1215546308,"FIDS":1,"LNAM":"1F2B4873C3C40001","COLOUR":["4"],"TOPSHP":1,"SCAMIN":200000,"SORDAT":"20250114","SORIND":"NL,1R,Reprt,MD 026-25","sourceCellId":"1R75K89I","sourceChecksum":"7a2ee8c3af37fc663e29090f0c2f72765b9fbcdc929300c9f5a97e0f979b1164","rawObjectClass":"TOPMAR","sourceStableId":"1F2B4873C3C40001"},"sourceKind":"official","official":true,"sourceCellId":"1R75K89I","sourceStableId":"1F2B4873C3C40001","pipelineFeatureId":"1R75K89I/TOPMAR/1215546308","provenance":{"cellId":"1R75K89I","checksum":"7a2ee8c3af37fc663e29090f0c2f72765b9fbcdc929300c9f5a97e0f979b1164","readerVersion":"GDAL 3.2.2","processedAt":"2026-08-11T18:29:20.995Z"},"associationRefsVerifiedInGdalOutput":false}},{"type":"Feature","geometry":{"type":"Point","coordinates":[3.4923666,51.4845]},"properties":{"dolphinKind":"topmark","rawObjectClass":"TOPMAR","sourceProperties":{"RCID":1215546309,"PRIM":1,"GRUP":2,"OBJL":144,"RVER":1,"AGEN":7979,"FIDN":1215546309,"FIDS":1,"LNAM":"1F2B4873C3C50001","COLOUR":["4"],"TOPSHP":1,"SCAMIN":200000,"SORDAT":"20250114","SORIND":"NL,1R,Reprt,MD 026-25","sourceCellId":"1R75K89I","sourceChecksum":"7a2ee8c3af37fc663e29090f0c2f72765b9fbcdc929300c9f5a97e0f979b1164","rawObjectClass":"TOPMAR","sourceStableId":"1F2B4873C3C50001"},"sourceKind":"official","official":true,"sourceCellId":"1R75K89I","sourceStableId":"1F2B4873C3C50001","pipelineFeatureId":"1R75K89I/TOPMAR/1215546309","provenance":{"cellId":"1R75K89I","checksum":"7a2ee8c3af37fc663e29090f0c2f72765b9fbcdc929300c9f5a97e0f979b1164","readerVersion":"GDAL 3.2.2","processedAt":"2026-08-11T18:29:20.995Z"},"associationRefsVerifiedInGdalOutput":false}},{"type":"Feature","geometry":{"type":"Point","coordinates":[3.433995,51.5210783]},"properties":{"dolphinKind":"topmark","rawObjectClass":"TOPMAR","sourceProperties":{"RCID":1215547862,"PRIM":1,"GRUP":2,"OBJL":144,"RVER":1,"AGEN":7979,"FIDN":1215547862,"FIDS":1,"LNAM":"1F2B4873C9D60001","COLOUR":["3"],"TOPSHP":5,"SCAMIN":200000,"SORDAT":"20250114","SORIND":"NL,1R,Reprt, MD 026-25","sourceCellId":"1R75K89I","sourceChecksum":"7a2ee8c3af37fc663e29090f0c2f72765b9fbcdc929300c9f5a97e0f979b1164","rawObjectClass":"TOPMAR","sourceStableId":"1F2B4873C9D60001"},"sourceKind":"official","official":true,"sourceCellId":"1R75K89I","sourceStableId":"1F2B4873C9D60001","pipelineFeatureId":"1R75K89I/TOPMAR/1215547862","provenance":{"cellId":"1R75K89I","checksum":"7a2ee8c3af37fc663e29090f0c2f72765b9fbcdc929300c9f5a97e0f979b1164","readerVersion":"GDAL 3.2.2","processedAt":"2026-08-11T18:29:20.995Z"},"associationRefsVerifiedInGdalOutput":false}},{"type":"Feature","geometry":{"type":"Point","coordinates":[3.4915861,51.4912778]},"properties":{"dolphinKind":"topmark","rawObjectClass":"TOPMAR","sourceProperties":{"RCID":1215547863,"PRIM":1,"GRUP":2,"OBJL":144,"RVER":1,"AGEN":7979,"FIDN":1215547863,"FIDS":1,"LNAM":"1F2B4873C9D70001","COLOUR":["3"],"TOPSHP":5,"SCAMIN":200000,"SORDAT":"20250114","SORIND":"NL,1R,Reprt, MD 026-25","sourceCellId":"1R75K89I","sourceChecksum":"7a2ee8c3af37fc663e29090f0c2f72765b9fbcdc929300c9f5a97e0f979b1164","rawObjectClass":"TOPMAR","sourceStableId":"1F2B4873C9D70001"},"sourceKind":"official","official":true,"sourceCellId":"1R75K89I","sourceStableId":"1F2B4873C9D70001","pipelineFeatureId":"1R75K89I/TOPMAR/1215547863","provenance":{"cellId":"1R75K89I","checksum":"7a2ee8c3af37fc663e29090f0c2f72765b9fbcdc929300c9f5a97e0f979b1164","readerVersion":"GDAL 3.2.2","processedAt":"2026-08-11T18:29:20.995Z"},"associationRefsVerifiedInGdalOutput":false}}]}