{"type":"FeatureCollection","features":[{"type":"Feature","geometry":{"type":"Point","coordinates":[4.0537655,51.5339171]},"properties":{"dolphinKind":"beacon-special","rawObjectClass":"BCNSPP","sourceProperties":{"RCID":9306,"PRIM":1,"GRUP":2,"OBJL":9,"RVER":1,"AGEN":7979,"FIDN":1106210626,"FIDS":381,"LNAM":"1F2B41EF6F42017D","LNAM_REFS":["1F2B41EF6F420180"],"FFPT_RIND":[2],"BCNSHP":1,"CATSPM":["6"],"COLOUR":["2"],"SCAMIN":200000,"sourceCellId":"1R76K8FI","sourceChecksum":"3322ce7de39d93cb4442c6fa1f54ae755705247c657a59b5c7d5d2142c3fbee0","rawObjectClass":"BCNSPP","sourceStableId":"1F2B41EF6F42017D"},"sourceKind":"official","official":true,"sourceCellId":"1R76K8FI","sourceStableId":"1F2B41EF6F42017D","pipelineFeatureId":"1R76K8FI/BCNSPP/9306","provenance":{"cellId":"1R76K8FI","checksum":"3322ce7de39d93cb4442c6fa1f54ae755705247c657a59b5c7d5d2142c3fbee0","readerVersion":"GDAL 3.2.2","processedAt":"2026-08-11T18:29:20.995Z"}}},{"type":"Feature","geometry":{"type":"Point","coordinates":[4.0629883,51.5366642]},"properties":{"dolphinKind":"beacon-special","rawObjectClass":"BCNSPP","sourceProperties":{"RCID":9307,"PRIM":1,"GRUP":2,"OBJL":9,"RVER":1,"AGEN":7979,"FIDN":1106210626,"FIDS":382,"LNAM":"1F2B41EF6F42017E","LNAM_REFS":["1F2B41EF6F42017F"],"FFPT_RIND":[2],"BCNSHP":1,"CATSPM":["6"],"COLOUR":["2"],"SCAMIN":200000,"sourceCellId":"1R76K8FI","sourceChecksum":"3322ce7de39d93cb4442c6fa1f54ae755705247c657a59b5c7d5d2142c3fbee0","rawObjectClass":"BCNSPP","sourceStableId":"1F2B41EF6F42017E"},"sourceKind":"official","official":true,"sourceCellId":"1R76K8FI","sourceStableId":"1F2B41EF6F42017E","pipelineFeatureId":"1R76K8FI/BCNSPP/9307","provenance":{"cellId":"1R76K8FI","checksum":"3322ce7de39d93cb4442c6fa1f54ae755705247c657a59b5c7d5d2142c3fbee0","readerVersion":"GDAL 3.2.2","processedAt":"2026-08-11T18:29:20.995Z"}}},{"type":"Feature","geometry":{"type":"Point","coordinates":[4.0420834,51.53225]},"properties":{"dolphinKind":"buoy-lateral","rawObjectClass":"BOYLAT","sourceProperties":{"RCID":284378676,"PRIM":1,"GRUP":2,"OBJL":17,"RVER":1,"AGEN":7979,"FIDN":284378676,"FIDS":1,"LNAM":"1F2B10F346340001","LNAM_REFS":["1F2B41F8F52701F0"],"FFPT_RIND":[2],"BOYSHP":5,"CATLAM":3,"COLOUR":["3","4"],"COLPAT":["1"],"CONRAD":3,"OBJNAM":"O 28 - D 15","SCAMIN":200000,"SORDAT":"20120912","SORIND":"NL,1R,reprt,MZ114-2012","sourceCellId":"1R76K8FI","sourceChecksum":"3322ce7de39d93cb4442c6fa1f54ae755705247c657a59b5c7d5d2142c3fbee0","rawObjectClass":"BOYLAT","sourceStableId":"1F2B10F346340001"},"sourceKind":"official","official":true,"sourceCellId":"1R76K8FI","sourceStableId":"1F2B10F346340001","pipelineFeatureId":"1R76K8FI/BOYLAT/284378676","provenance":{"cellId":"1R76K8FI","checksum":"3322ce7de39d93cb4442c6fa1f54ae755705247c657a59b5c7d5d2142c3fbee0","readerVersion":"GDAL 3.2.2","processedAt":"2026-08-11T18:29:20.995Z"}}},{"type":"Feature","geometry":{"type":"Point","coordinates":[3.9596667,51.5746083]},"properties":{"dolphinKind":"light","rawObjectClass":"LIGHTS","sourceProperties":{"RCID":18012,"PRIM":1,"GRUP":2,"OBJL":75,"RVER":1,"AGEN":7979,"FIDN":1106834727,"FIDS":260,"LNAM":"1F2B41F8F5270104","COLOUR":["4"],"LITCHR":3,"SIGGRP":"(1)","SIGPER":5,"SCAMIN":200000,"SORDAT":"20031115","sourceCellId":"1R76K8FI","sourceChecksum":"3322ce7de39d93cb4442c6fa1f54ae755705247c657a59b5c7d5d2142c3fbee0","rawObjectClass":"LIGHTS","sourceStableId":"1F2B41F8F5270104"},"sourceKind":"official","official":true,"sourceCellId":"1R76K8FI","sourceStableId":"1F2B41F8F5270104","pipelineFeatureId":"1R76K8FI/LIGHTS/18012","provenance":{"cellId":"1R76K8FI","checksum":"3322ce7de39d93cb4442c6fa1f54ae755705247c657a59b5c7d5d2142c3fbee0","readerVersion":"GDAL 3.2.2","processedAt":"2026-08-11T18:29:20.995Z"}}},{"type":"Feature","geometry":{"type":"Point","coordinates":[3.9659,51.5626517]},"properties":{"dolphinKind":"light","rawObjectClass":"LIGHTS","sourceProperties":{"RCID":18015,"PRIM":1,"GRUP":2,"OBJL":75,"RVER":1,"AGEN":7979,"FIDN":1106834727,"FIDS":263,"LNAM":"1F2B41F8F5270107","COLOUR":["4"],"LITCHR":3,"SIGGRP":"(1)","SIGPER":8,"SCAMIN":200000,"SORDAT":"20031115","sourceCellId":"1R76K8FI","sourceChecksum":"3322ce7de39d93cb4442c6fa1f54ae755705247c657a59b5c7d5d2142c3fbee0","rawObjectClass":"LIGHTS","sourceStableId":"1F2B41F8F5270107"},"sourceKind":"official","official":true,"sourceCellId":"1R76K8FI","sourceStableId":"1F2B41F8F5270107","pipelineFeatureId":"1R76K8FI/LIGHTS/18015","provenance":{"cellId":"1R76K8FI","checksum":"3322ce7de39d93cb4442c6fa1f54ae755705247c657a59b5c7d5d2142c3fbee0","readerVersion":"GDAL 3.2.2","processedAt":"2026-08-11T18:29:20.995Z"}}},{"type":"Feature","geometry":{"type":"Point","coordinates":[3.9763167,51.5525333]},"properties":{"dolphinKind":"light","rawObjectClass":"LIGHTS","sourceProperties":{"RCID":18018,"PRIM":1,"GRUP":2,"OBJL":75,"RVER":1,"AGEN":7979,"FIDN":1106834727,"FIDS":266,"LNAM":"1F2B41F8F527010A","COLOUR":["4"],"LITCHR":3,"SIGGRP":"(1)","SIGPER":5,"SCAMIN":200000,"SORDAT":"20140213","SORIND":"NL,1R,Reprt,MD056-2014","sourceCellId":"1R76K8FI","sourceChecksum":"3322ce7de39d93cb4442c6fa1f54ae755705247c657a59b5c7d5d2142c3fbee0","rawObjectClass":"LIGHTS","sourceStableId":"1F2B41F8F527010A"},"sourceKind":"official","official":true,"sourceCellId":"1R76K8FI","sourceStableId":"1F2B41F8F527010A","pipelineFeatureId":"1R76K8FI/LIGHTS/18018","provenance":{"cellId":"1R76K8FI","checksum":"3322ce7de39d93cb4442c6fa1f54ae755705247c657a59b5c7d5d2142c3fbee0","readerVersion":"GDAL 3.2.2","processedAt":"2026-08-11T18:29:20.995Z"}}},{"type":"Feature","geometry":{"type":"Point","coordinates":[3.9691933,51.5635117]},"properties":{"dolphinKind":"light","rawObjectClass":"LIGHTS","sourceProperties":{"RCID":18022,"PRIM":1,"GRUP":2,"OBJL":75,"RVER":1,"AGEN":7979,"FIDN":1106834727,"FIDS":270,"LNAM":"1F2B41F8F527010E","COLOUR":["3"],"LITCHR":3,"SIGGRP":"(1)","SIGPER":8,"SCAMIN":200000,"SORDAT":"20090604","SORIND":"NL,1R,Reprt,DZD-BAS2009/59","sourceCellId":"1R76K8FI","sourceChecksum":"3322ce7de39d93cb4442c6fa1f54ae755705247c657a59b5c7d5d2142c3fbee0","rawObjectClass":"LIGHTS","sourceStableId":"1F2B41F8F527010E"},"sourceKind":"official","official":true,"sourceCellId":"1R76K8FI","sourceStableId":"1F2B41F8F527010E","pipelineFeatureId":"1R76K8FI/LIGHTS/18022","provenance":{"cellId":"1R76K8FI","checksum":"3322ce7de39d93cb4442c6fa1f54ae755705247c657a59b5c7d5d2142c3fbee0","readerVersion":"GDAL 3.2.2","processedAt":"2026-08-11T18:29:20.995Z"}}},{"type":"Feature","geometry":{"type":"Point","coordinates":[3.9894433,51.5417833]},"properties":{"dolphinKind":"light","rawObjectClass":"LIGHTS","sourceProperties":{"RCID":18028,"PRIM":1,"GRUP":2,"OBJL":75,"RVER":1,"AGEN":7979,"FIDN":1106834727,"FIDS":276,"LNAM":"1F2B41F8F5270114","COLOUR":["3"],"LITCHR":3,"SIGGRP":"(1)","SIGPER":5,"SCAMIN":200000,"SORDAT":"20140213","SORIND":"NL,1R,Reprt,MD056-2014","sourceCellId":"1R76K8FI","sourceChecksum":"3322ce7de39d93cb4442c6fa1f54ae755705247c657a59b5c7d5d2142c3fbee0","rawObjectClass":"LIGHTS","sourceStableId":"1F2B41F8F5270114"},"sourceKind":"official","official":true,"sourceCellId":"1R76K8FI","sourceStableId":"1F2B41F8F5270114","pipelineFeatureId":"1R76K8FI/LIGHTS/18028","provenance":{"cellId":"1R76K8FI","checksum":"3322ce7de39d93cb4442c6fa1f54ae755705247c657a59b5c7d5d2142c3fbee0","readerVersion":"GDAL 3.2.2","processedAt":"2026-08-11T18:29:20.995Z"}}},{"type":"Feature","geometry":{"type":"Point","coordinates":[3.9607933,51.5425217]},"properties":{"dolphinKind":"light","rawObjectClass":"LIGHTS","sourceProperties":{"RCID":18064,"PRIM":1,"GRUP":2,"OBJL":75,"RVER":1,"AGEN":7979,"FIDN":1106834727,"FIDS":312,"LNAM":"1F2B41F8F5270138","COLOUR":["3"],"LITCHR":3,"SIGGRP":"(1)","SIGPER":8,"SCAMIN":200000,"SORDAT":"20031115","sourceCellId":"1R76K8FI","sourceChecksum":"3322ce7de39d93cb4442c6fa1f54ae755705247c657a59b5c7d5d2142c3fbee0","rawObjectClass":"LIGHTS","sourceStableId":"1F2B41F8F5270138"},"sourceKind":"official","official":true,"sourceCellId":"1R76K8FI","sourceStableId":"1F2B41F8F5270138","pipelineFeatureId":"1R76K8FI/LIGHTS/18064","provenance":{"cellId":"1R76K8FI","checksum":"3322ce7de39d93cb4442c6fa1f54ae755705247c657a59b5c7d5d2142c3fbee0","readerVersion":"GDAL 3.2.2","processedAt":"2026-08-11T18:29:20.995Z"}}},{"type":"Feature","geometry":{"type":"Point","coordinates":[3.9528617,51.53476]},"properties":{"dolphinKind":"light","rawObjectClass":"LIGHTS","sourceProperties":{"RCID":18076,"PRIM":1,"GRUP":2,"OBJL":75,"RVER":1,"AGEN":7979,"FIDN":1106834727,"FIDS":324,"LNAM":"1F2B41F8F5270144","COLOUR":["4"],"LITCHR":2,"SIGGRP":"(2+1)","SIGPER":1,"SCAMIN":200000,"SORDAT":"20210506","SORIND":"Nl,1R,Reprt,NDB-verbeteringen","sourceCellId":"1R76K8FI","sourceChecksum":"3322ce7de39d93cb4442c6fa1f54ae755705247c657a59b5c7d5d2142c3fbee0","rawObjectClass":"LIGHTS","sourceStableId":"1F2B41F8F5270144"},"sourceKind":"official","official":true,"sourceCellId":"1R76K8FI","sourceStableId":"1F2B41F8F5270144","pipelineFeatureId":"1R76K8FI/LIGHTS/18076","provenance":{"cellId":"1R76K8FI","checksum":"3322ce7de39d93cb4442c6fa1f54ae755705247c657a59b5c7d5d2142c3fbee0","readerVersion":"GDAL 3.2.2","processedAt":"2026-08-11T18:29:20.995Z"}}},{"type":"Feature","geometry":{"type":"Point","coordinates":[3.9803667,51.5289333]},"properties":{"dolphinKind":"light","rawObjectClass":"LIGHTS","sourceProperties":{"RCID":18079,"PRIM":1,"GRUP":2,"OBJL":75,"RVER":1,"AGEN":7979,"FIDN":1106834727,"FIDS":327,"LNAM":"1F2B41F8F5270147","COLOUR":["4"],"LITCHR":3,"SIGGRP":"(1)","SIGPER":8,"SCAMIN":200000,"SORDAT":"20080916","SORIND":"NL,1R,Reprt,DZD-BAS-2008/69","sourceCellId":"1R76K8FI","sourceChecksum":"3322ce7de39d93cb4442c6fa1f54ae755705247c657a59b5c7d5d2142c3fbee0","rawObjectClass":"LIGHTS","sourceStableId":"1F2B41F8F5270147"},"sourceKind":"official","official":true,"sourceCellId":"1R76K8FI","sourceStableId":"1F2B41F8F5270147","pipelineFeatureId":"1R76K8FI/LIGHTS/18079","provenance":{"cellId":"1R76K8FI","checksum":"3322ce7de39d93cb4442c6fa1f54ae755705247c657a59b5c7d5d2142c3fbee0","readerVersion":"GDAL 3.2.2","processedAt":"2026-08-11T18:29:20.995Z"}}},{"type":"Feature","geometry":{"type":"Point","coordinates":[4.0767,51.52535]},"properties":{"dolphinKind":"light","rawObjectClass":"LIGHTS","sourceProperties":{"RCID":20267,"PRIM":1,"GRUP":2,"OBJL":75,"RVER":1,"AGEN":7979,"FIDN":1106834755,"FIDS":458,"LNAM":"1F2B41F8F54301CA","COLOUR":["3"],"HEIGHT":9,"LITCHR":7,"SECTR1":260,"SECTR2":278,"SIGGRP":"(1)","SIGPER":8,"INFORM":"HP2 nr.0474","NINFOM":"sectorlicht Gorishoek","SCAMIN":200000,"sourceCellId":"1R76K8FI","sourceChecksum":"3322ce7de39d93cb4442c6fa1f54ae755705247c657a59b5c7d5d2142c3fbee0","rawObjectClass":"LIGHTS","sourceStableId":"1F2B41F8F54301CA"},"sourceKind":"official","official":true,"sourceCellId":"1R76K8FI","sourceStableId":"1F2B41F8F54301CA","pipelineFeatureId":"1R76K8FI/LIGHTS/20267","provenance":{"cellId":"1R76K8FI","checksum":"3322ce7de39d93cb4442c6fa1f54ae755705247c657a59b5c7d5d2142c3fbee0","readerVersion":"GDAL 3.2.2","processedAt":"2026-08-11T18:29:20.995Z"}}},{"type":"Feature","geometry":{"type":"Point","coordinates":[4.0767,51.52535]},"properties":{"dolphinKind":"light","rawObjectClass":"LIGHTS","sourceProperties":{"RCID":20268,"PRIM":1,"GRUP":2,"OBJL":75,"RVER":1,"AGEN":7979,"FIDN":1106834755,"FIDS":459,"LNAM":"1F2B41F8F54301CB","COLOUR":["1"],"HEIGHT":9,"LITCHR":7,"SECTR1":278,"SECTR2":21,"SIGGRP":"(1)","SIGPER":8,"INFORM":"HP2 nr. 0474","NINFOM":"sectorlicht Gorishoek","SCAMIN":200000,"sourceCellId":"1R76K8FI","sourceChecksum":"3322ce7de39d93cb4442c6fa1f54ae755705247c657a59b5c7d5d2142c3fbee0","rawObjectClass":"LIGHTS","sourceStableId":"1F2B41F8F54301CB"},"sourceKind":"official","official":true,"sourceCellId":"1R76K8FI","sourceStableId":"1F2B41F8F54301CB","pipelineFeatureId":"1R76K8FI/LIGHTS/20268","provenance":{"cellId":"1R76K8FI","checksum":"3322ce7de39d93cb4442c6fa1f54ae755705247c657a59b5c7d5d2142c3fbee0","readerVersion":"GDAL 3.2.2","processedAt":"2026-08-11T18:29:20.995Z"}}},{"type":"Feature","geometry":{"type":"Point","coordinates":[4.0767,51.52535]},"properties":{"dolphinKind":"light","rawObjectClass":"LIGHTS","sourceProperties":{"RCID":20269,"PRIM":1,"GRUP":2,"OBJL":75,"RVER":1,"AGEN":7979,"FIDN":1106834755,"FIDS":460,"LNAM":"1F2B41F8F54301CC","COLOUR":["4"],"HEIGHT":9,"LITCHR":7,"SECTR1":21,"SECTR2":25,"SIGGRP":"(1)","SIGPER":8,"INFORM":"HP2 nr.0474","NINFOM":"sectorlicht Gorishoek","SCAMIN":200000,"sourceCellId":"1R76K8FI","sourceChecksum":"3322ce7de39d93cb4442c6fa1f54ae755705247c657a59b5c7d5d2142c3fbee0","rawObjectClass":"LIGHTS","sourceStableId":"1F2B41F8F54301CC"},"sourceKind":"official","official":true,"sourceCellId":"1R76K8FI","sourceStableId":"1F2B41F8F54301CC","pipelineFeatureId":"1R76K8FI/LIGHTS/20269","provenance":{"cellId":"1R76K8FI","checksum":"3322ce7de39d93cb4442c6fa1f54ae755705247c657a59b5c7d5d2142c3fbee0","readerVersion":"GDAL 3.2.2","processedAt":"2026-08-11T18:29:20.995Z"}}},{"type":"Feature","geometry":{"type":"Point","coordinates":[4.0767,51.52535]},"properties":{"dolphinKind":"light","rawObjectClass":"LIGHTS","sourceProperties":{"RCID":20270,"PRIM":1,"GRUP":2,"OBJL":75,"RVER":1,"AGEN":7979,"FIDN":1106834755,"FIDS":461,"LNAM":"1F2B41F8F54301CD","COLOUR":["1"],"HEIGHT":9,"LITCHR":7,"SECTR1":25,"SECTR2":71,"SIGGRP":"(1)","SIGPER":8,"INFORM":"HP2 nr. 0474","NINFOM":"sectorlicht Gorishoek","SCAMIN":200000,"sourceCellId":"1R76K8FI","sourceChecksum":"3322ce7de39d93cb4442c6fa1f54ae755705247c657a59b5c7d5d2142c3fbee0","rawObjectClass":"LIGHTS","sourceStableId":"1F2B41F8F54301CD"},"sourceKind":"official","official":true,"sourceCellId":"1R76K8FI","sourceStableId":"1F2B41F8F54301CD","pipelineFeatureId":"1R76K8FI/LIGHTS/20270","provenance":{"cellId":"1R76K8FI","checksum":"3322ce7de39d93cb4442c6fa1f54ae755705247c657a59b5c7d5d2142c3fbee0","readerVersion":"GDAL 3.2.2","processedAt":"2026-08-11T18:29:20.995Z"}}},{"type":"Feature","geometry":{"type":"Point","coordinates":[4.0767,51.52535]},"properties":{"dolphinKind":"light","rawObjectClass":"LIGHTS","sourceProperties":{"RCID":20271,"PRIM":1,"GRUP":2,"OBJL":75,"RVER":1,"AGEN":7979,"FIDN":1106834755,"FIDS":462,"LNAM":"1F2B41F8F54301CE","COLOUR":["4"],"HEIGHT":9,"LITCHR":7,"SECTR1":71,"SECTR2":85,"SIGGRP":"(1)","SIGPER":8,"INFORM":"HP2 nr.0474","NINFOM":"sectorlicht Gorishoek","SCAMIN":200000,"sourceCellId":"1R76K8FI","sourceChecksum":"3322ce7de39d93cb4442c6fa1f54ae755705247c657a59b5c7d5d2142c3fbee0","rawObjectClass":"LIGHTS","sourceStableId":"1F2B41F8F54301CE"},"sourceKind":"official","official":true,"sourceCellId":"1R76K8FI","sourceStableId":"1F2B41F8F54301CE","pipelineFeatureId":"1R76K8FI/LIGHTS/20271","provenance":{"cellId":"1R76K8FI","checksum":"3322ce7de39d93cb4442c6fa1f54ae755705247c657a59b5c7d5d2142c3fbee0","readerVersion":"GDAL 3.2.2","processedAt":"2026-08-11T18:29:20.995Z"}}},{"type":"Feature","geometry":{"type":"Point","coordinates":[4.0767,51.52535]},"properties":{"dolphinKind":"light","rawObjectClass":"LIGHTS","sourceProperties":{"RCID":20272,"PRIM":1,"GRUP":2,"OBJL":75,"RVER":1,"AGEN":7979,"FIDN":1106834755,"FIDS":463,"LNAM":"1F2B41F8F54301CF","COLOUR":["1"],"HEIGHT":9,"LITCHR":7,"SECTR1":85,"SECTR2":103,"SIGGRP":"(1)","SIGPER":8,"INFORM":"HP2 nr. 0474","NINFOM":"sectorlicht Gorishoek","SCAMIN":200000,"sourceCellId":"1R76K8FI","sourceChecksum":"3322ce7de39d93cb4442c6fa1f54ae755705247c657a59b5c7d5d2142c3fbee0","rawObjectClass":"LIGHTS","sourceStableId":"1F2B41F8F54301CF"},"sourceKind":"official","official":true,"sourceCellId":"1R76K8FI","sourceStableId":"1F2B41F8F54301CF","pipelineFeatureId":"1R76K8FI/LIGHTS/20272","provenance":{"cellId":"1R76K8FI","checksum":"3322ce7de39d93cb4442c6fa1f54ae755705247c657a59b5c7d5d2142c3fbee0","readerVersion":"GDAL 3.2.2","processedAt":"2026-08-11T18:29:20.995Z"}}},{"type":"Feature","geometry":{"type":"Point","coordinates":[4.0767,51.52535]},"properties":{"dolphinKind":"light","rawObjectClass":"LIGHTS","sourceProperties":{"RCID":20273,"PRIM":1,"GRUP":2,"OBJL":75,"RVER":1,"AGEN":7979,"FIDN":1106834755,"FIDS":464,"LNAM":"1F2B41F8F54301D0","COLOUR":["3"],"HEIGHT":9,"LITCHR":7,"SECTR1":103,"SECTR2":120,"SIGGRP":"(1)","SIGPER":8,"INFORM":"HP2 nr.0474","NINFOM":"sectorlicht Gorishoek","SCAMIN":200000,"sourceCellId":"1R76K8FI","sourceChecksum":"3322ce7de39d93cb4442c6fa1f54ae755705247c657a59b5c7d5d2142c3fbee0","rawObjectClass":"LIGHTS","sourceStableId":"1F2B41F8F54301D0"},"sourceKind":"official","official":true,"sourceCellId":"1R76K8FI","sourceStableId":"1F2B41F8F54301D0","pipelineFeatureId":"1R76K8FI/LIGHTS/20273","provenance":{"cellId":"1R76K8FI","checksum":"3322ce7de39d93cb4442c6fa1f54ae755705247c657a59b5c7d5d2142c3fbee0","readerVersion":"GDAL 3.2.2","processedAt":"2026-08-11T18:29:20.995Z"}}},{"type":"Feature","geometry":{"type":"Point","coordinates":[4.0767,51.52535]},"properties":{"dolphinKind":"light","rawObjectClass":"LIGHTS","sourceProperties":{"RCID":20274,"PRIM":1,"GRUP":2,"OBJL":75,"RVER":1,"AGEN":7979,"FIDN":1106834755,"FIDS":465,"LNAM":"1F2B41F8F54301D1","COLOUR":["1"],"HEIGHT":9,"LITCHR":7,"SECTR1":120,"SECTR2":260,"SIGGRP":"(1)","SIGPER":8,"INFORM":"HP2 nr.0474","NINFOM":"sectorlicht Gorishoek","SCAMIN":200000,"sourceCellId":"1R76K8FI","sourceChecksum":"3322ce7de39d93cb4442c6fa1f54ae755705247c657a59b5c7d5d2142c3fbee0","rawObjectClass":"LIGHTS","sourceStableId":"1F2B41F8F54301D1"},"sourceKind":"official","official":true,"sourceCellId":"1R76K8FI","sourceStableId":"1F2B41F8F54301D1","pipelineFeatureId":"1R76K8FI/LIGHTS/20274","provenance":{"cellId":"1R76K8FI","checksum":"3322ce7de39d93cb4442c6fa1f54ae755705247c657a59b5c7d5d2142c3fbee0","readerVersion":"GDAL 3.2.2","processedAt":"2026-08-11T18:29:20.995Z"}}},{"type":"Feature","geometry":{"type":"Point","coordinates":[3.9847167,51.5416667]},"properties":{"dolphinKind":"light","rawObjectClass":"LIGHTS","sourceProperties":{"RCID":12327280,"PRIM":1,"GRUP":2,"OBJL":75,"RVER":1,"AGEN":7979,"FIDN":12327280,"FIDS":1,"LNAM":"1F2B00BC19700001","COLOUR":["4"],"LITCHR":4,"SIGGRP":"(1)","SCAMIN":200000,"SORDAT":"20221003","SORIND":"NL,1R,Reprt,NMA","sourceCellId":"1R76K8FI","sourceChecksum":"3322ce7de39d93cb4442c6fa1f54ae755705247c657a59b5c7d5d2142c3fbee0","rawObjectClass":"LIGHTS","sourceStableId":"1F2B00BC19700001"},"sourceKind":"official","official":true,"sourceCellId":"1R76K8FI","sourceStableId":"1F2B00BC19700001","pipelineFeatureId":"1R76K8FI/LIGHTS/12327280","provenance":{"cellId":"1R76K8FI","checksum":"3322ce7de39d93cb4442c6fa1f54ae755705247c657a59b5c7d5d2142c3fbee0","readerVersion":"GDAL 3.2.2","processedAt":"2026-08-11T18:29:20.995Z"}}},{"type":"Feature","geometry":{"type":"Point","coordinates":[4.01,51.531]},"properties":{"dolphinKind":"light","rawObjectClass":"LIGHTS","sourceProperties":{"RCID":12327289,"PRIM":1,"GRUP":2,"OBJL":75,"RVER":1,"AGEN":7979,"FIDN":12327289,"FIDS":1,"LNAM":"1F2B00BC19790001","COLOUR":["3"],"LITCHR":3,"SIGGRP":"(1)","SIGPER":5,"SCAMIN":200000,"SORDAT":"20071115","SORIND":"NL,1R,Reprt,DZD-BAS-2007/82","sourceCellId":"1R76K8FI","sourceChecksum":"3322ce7de39d93cb4442c6fa1f54ae755705247c657a59b5c7d5d2142c3fbee0","rawObjectClass":"LIGHTS","sourceStableId":"1F2B00BC19790001"},"sourceKind":"official","official":true,"sourceCellId":"1R76K8FI","sourceStableId":"1F2B00BC19790001","pipelineFeatureId":"1R76K8FI/LIGHTS/12327289","provenance":{"cellId":"1R76K8FI","checksum":"3322ce7de39d93cb4442c6fa1f54ae755705247c657a59b5c7d5d2142c3fbee0","readerVersion":"GDAL 3.2.2","processedAt":"2026-08-11T18:29:20.995Z"}}},{"type":"Feature","geometry":{"type":"Point","coordinates":[3.9911667,51.5346667]},"properties":{"dolphinKind":"light","rawObjectClass":"LIGHTS","sourceProperties":{"RCID":12327297,"PRIM":1,"GRUP":2,"OBJL":75,"RVER":1,"AGEN":7979,"FIDN":12327297,"FIDS":1,"LNAM":"1F2B00BC19810001","COLOUR":["4"],"LITCHR":3,"SIGGRP":"(1)","SIGPER":5,"SCAMIN":200000,"SORDAT":"20071115","SORIND":"NL,1R,reprt,DZD-BAS-2007/80","sourceCellId":"1R76K8FI","sourceChecksum":"3322ce7de39d93cb4442c6fa1f54ae755705247c657a59b5c7d5d2142c3fbee0","rawObjectClass":"LIGHTS","sourceStableId":"1F2B00BC19810001"},"sourceKind":"official","official":true,"sourceCellId":"1R76K8FI","sourceStableId":"1F2B00BC19810001","pipelineFeatureId":"1R76K8FI/LIGHTS/12327297","provenance":{"cellId":"1R76K8FI","checksum":"3322ce7de39d93cb4442c6fa1f54ae755705247c657a59b5c7d5d2142c3fbee0","readerVersion":"GDAL 3.2.2","processedAt":"2026-08-11T18:29:20.995Z"}}},{"type":"Feature","geometry":{"type":"Point","coordinates":[4.0037833,51.5261333]},"properties":{"dolphinKind":"light","rawObjectClass":"LIGHTS","sourceProperties":{"RCID":12327299,"PRIM":1,"GRUP":2,"OBJL":75,"RVER":1,"AGEN":7979,"FIDN":12327299,"FIDS":1,"LNAM":"1F2B00BC19830001","COLOUR":["4"],"LITCHR":3,"SIGGRP":"(1)","SIGPER":8,"SCAMIN":200000,"SORDAT":"20071115","SORIND":"NL,1R,reprt,DZD-BAS-2007/80","sourceCellId":"1R76K8FI","sourceChecksum":"3322ce7de39d93cb4442c6fa1f54ae755705247c657a59b5c7d5d2142c3fbee0","rawObjectClass":"LIGHTS","sourceStableId":"1F2B00BC19830001"},"sourceKind":"official","official":true,"sourceCellId":"1R76K8FI","sourceStableId":"1F2B00BC19830001","pipelineFeatureId":"1R76K8FI/LIGHTS/12327299","provenance":{"cellId":"1R76K8FI","checksum":"3322ce7de39d93cb4442c6fa1f54ae755705247c657a59b5c7d5d2142c3fbee0","readerVersion":"GDAL 3.2.2","processedAt":"2026-08-11T18:29:20.995Z"}}},{"type":"Feature","geometry":{"type":"Point","coordinates":[3.9989833,51.5370667]},"properties":{"dolphinKind":"light","rawObjectClass":"LIGHTS","sourceProperties":{"RCID":12327306,"PRIM":1,"GRUP":2,"OBJL":75,"RVER":1,"AGEN":7979,"FIDN":12327306,"FIDS":1,"LNAM":"1F2B00BC198A0001","COLOUR":["3"],"LITCHR":3,"SIGGRP":"(1)","SIGPER":8,"SCAMIN":200000,"SORDAT":"20071115","SORIND":"NL,1R,Reprt,DZD-BAS-2007/80","sourceCellId":"1R76K8FI","sourceChecksum":"3322ce7de39d93cb4442c6fa1f54ae755705247c657a59b5c7d5d2142c3fbee0","rawObjectClass":"LIGHTS","sourceStableId":"1F2B00BC198A0001"},"sourceKind":"official","official":true,"sourceCellId":"1R76K8FI","sourceStableId":"1F2B00BC198A0001","pipelineFeatureId":"1R76K8FI/LIGHTS/12327306","provenance":{"cellId":"1R76K8FI","checksum":"3322ce7de39d93cb4442c6fa1f54ae755705247c657a59b5c7d5d2142c3fbee0","readerVersion":"GDAL 3.2.2","processedAt":"2026-08-11T18:29:20.995Z"}}},{"type":"Feature","geometry":{"type":"Point","coordinates":[3.97967,51.552845]},"properties":{"dolphinKind":"light","rawObjectClass":"LIGHTS","sourceProperties":{"RCID":62581391,"PRIM":1,"GRUP":2,"OBJL":75,"RVER":1,"AGEN":7979,"FIDN":62581391,"FIDS":1,"LNAM":"1F2B03BAEA8F0001","COLOUR":["3"],"LITCHR":4,"SIGGRP":"(1)","SIGPER":1,"SCAMIN":200000,"SORDAT":"20031115","sourceCellId":"1R76K8FI","sourceChecksum":"3322ce7de39d93cb4442c6fa1f54ae755705247c657a59b5c7d5d2142c3fbee0","rawObjectClass":"LIGHTS","sourceStableId":"1F2B03BAEA8F0001"},"sourceKind":"official","official":true,"sourceCellId":"1R76K8FI","sourceStableId":"1F2B03BAEA8F0001","pipelineFeatureId":"1R76K8FI/LIGHTS/62581391","provenance":{"cellId":"1R76K8FI","checksum":"3322ce7de39d93cb4442c6fa1f54ae755705247c657a59b5c7d5d2142c3fbee0","readerVersion":"GDAL 3.2.2","processedAt":"2026-08-11T18:29:20.995Z"}}},{"type":"Feature","geometry":{"type":"Point","coordinates":[4.0629883,51.5366642]},"properties":{"dolphinKind":"topmark","rawObjectClass":"TOPMAR","sourceProperties":{"RCID":9308,"PRIM":1,"GRUP":2,"OBJL":144,"RVER":1,"AGEN":7979,"FIDN":1106210626,"FIDS":383,"LNAM":"1F2B41EF6F42017F","COLOUR":["6"],"TOPSHP":20,"SCAMIN":200000,"sourceCellId":"1R76K8FI","sourceChecksum":"3322ce7de39d93cb4442c6fa1f54ae755705247c657a59b5c7d5d2142c3fbee0","rawObjectClass":"TOPMAR","sourceStableId":"1F2B41EF6F42017F"},"sourceKind":"official","official":true,"sourceCellId":"1R76K8FI","sourceStableId":"1F2B41EF6F42017F","pipelineFeatureId":"1R76K8FI/TOPMAR/9308","provenance":{"cellId":"1R76K8FI","checksum":"3322ce7de39d93cb4442c6fa1f54ae755705247c657a59b5c7d5d2142c3fbee0","readerVersion":"GDAL 3.2.2","processedAt":"2026-08-11T18:29:20.995Z"},"associationRefsVerifiedInGdalOutput":false}},{"type":"Feature","geometry":{"type":"Point","coordinates":[4.0537655,51.5339171]},"properties":{"dolphinKind":"topmark","rawObjectClass":"TOPMAR","sourceProperties":{"RCID":9309,"PRIM":1,"GRUP":2,"OBJL":144,"RVER":1,"AGEN":7979,"FIDN":1106210626,"FIDS":384,"LNAM":"1F2B41EF6F420180","COLOUR":["6"],"TOPSHP":20,"SCAMIN":200000,"sourceCellId":"1R76K8FI","sourceChecksum":"3322ce7de39d93cb4442c6fa1f54ae755705247c657a59b5c7d5d2142c3fbee0","rawObjectClass":"TOPMAR","sourceStableId":"1F2B41EF6F420180"},"sourceKind":"official","official":true,"sourceCellId":"1R76K8FI","sourceStableId":"1F2B41EF6F420180","pipelineFeatureId":"1R76K8FI/TOPMAR/9309","provenance":{"cellId":"1R76K8FI","checksum":"3322ce7de39d93cb4442c6fa1f54ae755705247c657a59b5c7d5d2142c3fbee0","readerVersion":"GDAL 3.2.2","processedAt":"2026-08-11T18:29:20.995Z"},"associationRefsVerifiedInGdalOutput":false}},{"type":"Feature","geometry":{"type":"Point","coordinates":[3.97955,51.5548167]},"properties":{"dolphinKind":"topmark","rawObjectClass":"TOPMAR","sourceProperties":{"RCID":18091,"PRIM":1,"GRUP":2,"OBJL":144,"RVER":1,"AGEN":7979,"FIDN":1106834727,"FIDS":339,"LNAM":"1F2B41F8F5270153","COLOUR":["3"],"TOPSHP":5,"SCAMIN":200000,"SORIND":"NL,1R,reprt,DZD-BAS-2010/102","sourceCellId":"1R76K8FI","sourceChecksum":"3322ce7de39d93cb4442c6fa1f54ae755705247c657a59b5c7d5d2142c3fbee0","rawObjectClass":"TOPMAR","sourceStableId":"1F2B41F8F5270153"},"sourceKind":"official","official":true,"sourceCellId":"1R76K8FI","sourceStableId":"1F2B41F8F5270153","pipelineFeatureId":"1R76K8FI/TOPMAR/18091","provenance":{"cellId":"1R76K8FI","checksum":"3322ce7de39d93cb4442c6fa1f54ae755705247c657a59b5c7d5d2142c3fbee0","readerVersion":"GDAL 3.2.2","processedAt":"2026-08-11T18:29:20.995Z"},"associationRefsVerifiedInGdalOutput":false}},{"type":"Feature","geometry":{"type":"Point","coordinates":[3.9847167,51.5416667]},"properties":{"dolphinKind":"topmark","rawObjectClass":"TOPMAR","sourceProperties":{"RCID":18092,"PRIM":1,"GRUP":2,"OBJL":144,"RVER":1,"AGEN":7979,"FIDN":1106834727,"FIDS":340,"LNAM":"1F2B41F8F5270154","COLOUR":["4"],"TOPSHP":33,"INFORM":"TOPMAR: CONE above SPHERE","SCAMIN":200000,"SORIND":"NL,1R,Reprt,DZD-BAS-2007/80","sourceCellId":"1R76K8FI","sourceChecksum":"3322ce7de39d93cb4442c6fa1f54ae755705247c657a59b5c7d5d2142c3fbee0","rawObjectClass":"TOPMAR","sourceStableId":"1F2B41F8F5270154"},"sourceKind":"official","official":true,"sourceCellId":"1R76K8FI","sourceStableId":"1F2B41F8F5270154","pipelineFeatureId":"1R76K8FI/TOPMAR/18092","provenance":{"cellId":"1R76K8FI","checksum":"3322ce7de39d93cb4442c6fa1f54ae755705247c657a59b5c7d5d2142c3fbee0","readerVersion":"GDAL 3.2.2","processedAt":"2026-08-11T18:29:20.995Z"},"associationRefsVerifiedInGdalOutput":false}},{"type":"Feature","geometry":{"type":"Point","coordinates":[3.9769,51.5565833]},"properties":{"dolphinKind":"topmark","rawObjectClass":"TOPMAR","sourceProperties":{"RCID":18093,"PRIM":1,"GRUP":2,"OBJL":144,"RVER":1,"AGEN":7979,"FIDN":1106834727,"FIDS":341,"LNAM":"1F2B41F8F5270155","COLOUR":["3"],"TOPSHP":5,"SCAMIN":200000,"sourceCellId":"1R76K8FI","sourceChecksum":"3322ce7de39d93cb4442c6fa1f54ae755705247c657a59b5c7d5d2142c3fbee0","rawObjectClass":"TOPMAR","sourceStableId":"1F2B41F8F5270155"},"sourceKind":"official","official":true,"sourceCellId":"1R76K8FI","sourceStableId":"1F2B41F8F5270155","pipelineFeatureId":"1R76K8FI/TOPMAR/18093","provenance":{"cellId":"1R76K8FI","checksum":"3322ce7de39d93cb4442c6fa1f54ae755705247c657a59b5c7d5d2142c3fbee0","readerVersion":"GDAL 3.2.2","processedAt":"2026-08-11T18:29:20.995Z"},"associationRefsVerifiedInGdalOutput":false}},{"type":"Feature","geometry":{"type":"Point","coordinates":[3.9528617,51.53476]},"properties":{"dolphinKind":"topmark","rawObjectClass":"TOPMAR","sourceProperties":{"RCID":18096,"PRIM":1,"GRUP":2,"OBJL":144,"RVER":1,"AGEN":7979,"FIDN":1106834727,"FIDS":344,"LNAM":"1F2B41F8F5270158","COLOUR":["4"],"TOPSHP":1,"SCAMIN":200000,"sourceCellId":"1R76K8FI","sourceChecksum":"3322ce7de39d93cb4442c6fa1f54ae755705247c657a59b5c7d5d2142c3fbee0","rawObjectClass":"TOPMAR","sourceStableId":"1F2B41F8F5270158"},"sourceKind":"official","official":true,"sourceCellId":"1R76K8FI","sourceStableId":"1F2B41F8F5270158","pipelineFeatureId":"1R76K8FI/TOPMAR/18096","provenance":{"cellId":"1R76K8FI","checksum":"3322ce7de39d93cb4442c6fa1f54ae755705247c657a59b5c7d5d2142c3fbee0","readerVersion":"GDAL 3.2.2","processedAt":"2026-08-11T18:29:20.995Z"},"associationRefsVerifiedInGdalOutput":false}},{"type":"Feature","geometry":{"type":"Point","coordinates":[4.0427667,51.5343166]},"properties":{"dolphinKind":"topmark","rawObjectClass":"TOPMAR","sourceProperties":{"RCID":18245,"PRIM":1,"GRUP":2,"OBJL":144,"RVER":1,"AGEN":7979,"FIDN":1106834727,"FIDS":493,"LNAM":"1F2B41F8F52701ED","COLOUR":["3"],"TOPSHP":5,"SCAMIN":200000,"sourceCellId":"1R76K8FI","sourceChecksum":"3322ce7de39d93cb4442c6fa1f54ae755705247c657a59b5c7d5d2142c3fbee0","rawObjectClass":"TOPMAR","sourceStableId":"1F2B41F8F52701ED"},"sourceKind":"official","official":true,"sourceCellId":"1R76K8FI","sourceStableId":"1F2B41F8F52701ED","pipelineFeatureId":"1R76K8FI/TOPMAR/18245","provenance":{"cellId":"1R76K8FI","checksum":"3322ce7de39d93cb4442c6fa1f54ae755705247c657a59b5c7d5d2142c3fbee0","readerVersion":"GDAL 3.2.2","processedAt":"2026-08-11T18:29:20.995Z"},"associationRefsVerifiedInGdalOutput":false}},{"type":"Feature","geometry":{"type":"Point","coordinates":[4.0420834,51.53225]},"properties":{"dolphinKind":"topmark","rawObjectClass":"TOPMAR","sourceProperties":{"RCID":18248,"PRIM":1,"GRUP":2,"OBJL":144,"RVER":1,"AGEN":7979,"FIDN":1106834727,"FIDS":496,"LNAM":"1F2B41F8F52701F0","COLOUR":["3"],"TOPSHP":33,"INFORM":"topshape: Cilinder over Sphere","NINFOM":"Topteken: cilinder boven bol","SCAMIN":200000,"SORIND":"NL,1R,reprt,MZ114-2012","sourceCellId":"1R76K8FI","sourceChecksum":"3322ce7de39d93cb4442c6fa1f54ae755705247c657a59b5c7d5d2142c3fbee0","rawObjectClass":"TOPMAR","sourceStableId":"1F2B41F8F52701F0"},"sourceKind":"official","official":true,"sourceCellId":"1R76K8FI","sourceStableId":"1F2B41F8F52701F0","pipelineFeatureId":"1R76K8FI/TOPMAR/18248","provenance":{"cellId":"1R76K8FI","checksum":"3322ce7de39d93cb4442c6fa1f54ae755705247c657a59b5c7d5d2142c3fbee0","readerVersion":"GDAL 3.2.2","processedAt":"2026-08-11T18:29:20.995Z"},"associationRefsVerifiedInGdalOutput":false}},{"type":"Feature","geometry":{"type":"Point","coordinates":[3.9894433,51.5417833]},"properties":{"dolphinKind":"topmark","rawObjectClass":"TOPMAR","sourceProperties":{"RCID":12327290,"PRIM":1,"GRUP":2,"OBJL":144,"RVER":1,"AGEN":7979,"FIDN":12327290,"FIDS":1,"LNAM":"1F2B00BC197A0001","COLOUR":["3"],"TOPSHP":5,"SCAMIN":200000,"SORIND":"NL,1R,Reprt,MD056-2014","sourceCellId":"1R76K8FI","sourceChecksum":"3322ce7de39d93cb4442c6fa1f54ae755705247c657a59b5c7d5d2142c3fbee0","rawObjectClass":"TOPMAR","sourceStableId":"1F2B00BC197A0001"},"sourceKind":"official","official":true,"sourceCellId":"1R76K8FI","sourceStableId":"1F2B00BC197A0001","pipelineFeatureId":"1R76K8FI/TOPMAR/12327290","provenance":{"cellId":"1R76K8FI","checksum":"3322ce7de39d93cb4442c6fa1f54ae755705247c657a59b5c7d5d2142c3fbee0","readerVersion":"GDAL 3.2.2","processedAt":"2026-08-11T18:29:20.995Z"},"associationRefsVerifiedInGdalOutput":false}},{"type":"Feature","geometry":{"type":"Point","coordinates":[3.9911667,51.5346667]},"properties":{"dolphinKind":"topmark","rawObjectClass":"TOPMAR","sourceProperties":{"RCID":12327295,"PRIM":1,"GRUP":2,"OBJL":144,"RVER":1,"AGEN":7979,"FIDN":12327295,"FIDS":1,"LNAM":"1F2B00BC197F0001","COLOUR":["4"],"TOPSHP":1,"SCAMIN":200000,"SORIND":"NL,1R,reprt,DZD-BAS-2007/80","sourceCellId":"1R76K8FI","sourceChecksum":"3322ce7de39d93cb4442c6fa1f54ae755705247c657a59b5c7d5d2142c3fbee0","rawObjectClass":"TOPMAR","sourceStableId":"1F2B00BC197F0001"},"sourceKind":"official","official":true,"sourceCellId":"1R76K8FI","sourceStableId":"1F2B00BC197F0001","pipelineFeatureId":"1R76K8FI/TOPMAR/12327295","provenance":{"cellId":"1R76K8FI","checksum":"3322ce7de39d93cb4442c6fa1f54ae755705247c657a59b5c7d5d2142c3fbee0","readerVersion":"GDAL 3.2.2","processedAt":"2026-08-11T18:29:20.995Z"},"associationRefsVerifiedInGdalOutput":false}},{"type":"Feature","geometry":{"type":"Point","coordinates":[3.9989833,51.5370667]},"properties":{"dolphinKind":"topmark","rawObjectClass":"TOPMAR","sourceProperties":{"RCID":12327307,"PRIM":1,"GRUP":2,"OBJL":144,"RVER":1,"AGEN":7979,"FIDN":12327307,"FIDS":1,"LNAM":"1F2B00BC198B0001","COLOUR":["3"],"TOPSHP":5,"SCAMIN":200000,"SORIND":"NL,1R,Reprt,DZD-BAS-2007/80","sourceCellId":"1R76K8FI","sourceChecksum":"3322ce7de39d93cb4442c6fa1f54ae755705247c657a59b5c7d5d2142c3fbee0","rawObjectClass":"TOPMAR","sourceStableId":"1F2B00BC198B0001"},"sourceKind":"official","official":true,"sourceCellId":"1R76K8FI","sourceStableId":"1F2B00BC198B0001","pipelineFeatureId":"1R76K8FI/TOPMAR/12327307","provenance":{"cellId":"1R76K8FI","checksum":"3322ce7de39d93cb4442c6fa1f54ae755705247c657a59b5c7d5d2142c3fbee0","readerVersion":"GDAL 3.2.2","processedAt":"2026-08-11T18:29:20.995Z"},"associationRefsVerifiedInGdalOutput":false}}]}