{"type":"FeatureCollection","features":[{"type":"Feature","geometry":{"type":"Point","coordinates":[4.0049089,51.4615048]},"properties":{"dolphinKind":"beacon-special","rawObjectClass":"BCNSPP","sourceProperties":{"RCID":9351,"PRIM":1,"GRUP":2,"OBJL":9,"RVER":1,"AGEN":7979,"FIDN":1106210626,"FIDS":426,"LNAM":"1F2B41EF6F4201AA","LNAM_REFS":["1F2B41EF6F4201B1"],"FFPT_RIND":[2],"BCNSHP":1,"CATSPM":["6"],"COLOUR":["2"],"SCAMIN":200000,"sourceCellId":"1R76K83I","sourceChecksum":"6017d727d00f509d6b6c381af5564bb81f246d4ac7032233c3477a65edfe6f96","rawObjectClass":"BCNSPP","sourceStableId":"1F2B41EF6F4201AA"},"sourceKind":"official","official":true,"sourceCellId":"1R76K83I","sourceStableId":"1F2B41EF6F4201AA","pipelineFeatureId":"1R76K83I/BCNSPP/9351","provenance":{"cellId":"1R76K83I","checksum":"6017d727d00f509d6b6c381af5564bb81f246d4ac7032233c3477a65edfe6f96","readerVersion":"GDAL 3.2.2","processedAt":"2026-08-11T13:43:44.753Z"}}},{"type":"Feature","geometry":{"type":"Point","coordinates":[4.0098037,51.4621164]},"properties":{"dolphinKind":"beacon-special","rawObjectClass":"BCNSPP","sourceProperties":{"RCID":9352,"PRIM":1,"GRUP":2,"OBJL":9,"RVER":1,"AGEN":7979,"FIDN":1106210626,"FIDS":427,"LNAM":"1F2B41EF6F4201AB","LNAM_REFS":["1F2B41EF6F4201B0"],"FFPT_RIND":[2],"BCNSHP":1,"CATSPM":["6"],"COLOUR":["2"],"SCAMIN":200000,"sourceCellId":"1R76K83I","sourceChecksum":"6017d727d00f509d6b6c381af5564bb81f246d4ac7032233c3477a65edfe6f96","rawObjectClass":"BCNSPP","sourceStableId":"1F2B41EF6F4201AB"},"sourceKind":"official","official":true,"sourceCellId":"1R76K83I","sourceStableId":"1F2B41EF6F4201AB","pipelineFeatureId":"1R76K83I/BCNSPP/9352","provenance":{"cellId":"1R76K83I","checksum":"6017d727d00f509d6b6c381af5564bb81f246d4ac7032233c3477a65edfe6f96","readerVersion":"GDAL 3.2.2","processedAt":"2026-08-11T13:43:44.753Z"}}},{"type":"Feature","geometry":{"type":"Point","coordinates":[4.0088008,51.4647936]},"properties":{"dolphinKind":"beacon-special","rawObjectClass":"BCNSPP","sourceProperties":{"RCID":9353,"PRIM":1,"GRUP":2,"OBJL":9,"RVER":1,"AGEN":7979,"FIDN":1106210626,"FIDS":428,"LNAM":"1F2B41EF6F4201AC","LNAM_REFS":["1F2B41EF6F4201AF"],"FFPT_RIND":[2],"BCNSHP":1,"CATSPM":["6"],"COLOUR":["2"],"SCAMIN":200000,"sourceCellId":"1R76K83I","sourceChecksum":"6017d727d00f509d6b6c381af5564bb81f246d4ac7032233c3477a65edfe6f96","rawObjectClass":"BCNSPP","sourceStableId":"1F2B41EF6F4201AC"},"sourceKind":"official","official":true,"sourceCellId":"1R76K83I","sourceStableId":"1F2B41EF6F4201AC","pipelineFeatureId":"1R76K83I/BCNSPP/9353","provenance":{"cellId":"1R76K83I","checksum":"6017d727d00f509d6b6c381af5564bb81f246d4ac7032233c3477a65edfe6f96","readerVersion":"GDAL 3.2.2","processedAt":"2026-08-11T13:43:44.753Z"}}},{"type":"Feature","geometry":{"type":"Point","coordinates":[4.0044074,51.4646668]},"properties":{"dolphinKind":"beacon-special","rawObjectClass":"BCNSPP","sourceProperties":{"RCID":9354,"PRIM":1,"GRUP":2,"OBJL":9,"RVER":1,"AGEN":7979,"FIDN":1106210626,"FIDS":429,"LNAM":"1F2B41EF6F4201AD","LNAM_REFS":["1F2B41EF6F4201AE"],"FFPT_RIND":[2],"BCNSHP":1,"CATSPM":["6"],"COLOUR":["2"],"SCAMIN":200000,"sourceCellId":"1R76K83I","sourceChecksum":"6017d727d00f509d6b6c381af5564bb81f246d4ac7032233c3477a65edfe6f96","rawObjectClass":"BCNSPP","sourceStableId":"1F2B41EF6F4201AD"},"sourceKind":"official","official":true,"sourceCellId":"1R76K83I","sourceStableId":"1F2B41EF6F4201AD","pipelineFeatureId":"1R76K83I/BCNSPP/9354","provenance":{"cellId":"1R76K83I","checksum":"6017d727d00f509d6b6c381af5564bb81f246d4ac7032233c3477a65edfe6f96","readerVersion":"GDAL 3.2.2","processedAt":"2026-08-11T13:43:44.753Z"}}},{"type":"Feature","geometry":{"type":"Point","coordinates":[4.0089088,51.4639394]},"properties":{"dolphinKind":"beacon-special","rawObjectClass":"BCNSPP","sourceProperties":{"RCID":20438,"PRIM":1,"GRUP":2,"OBJL":9,"RVER":1,"AGEN":7979,"FIDN":1106834756,"FIDS":374,"LNAM":"1F2B41F8F5440176","LNAM_REFS":["1F2B41F8F5440177"],"FFPT_RIND":[2],"BCNSHP":1,"CATSPM":["29"],"COLOUR":["2"],"SCAMIN":200000,"sourceCellId":"1R76K83I","sourceChecksum":"6017d727d00f509d6b6c381af5564bb81f246d4ac7032233c3477a65edfe6f96","rawObjectClass":"BCNSPP","sourceStableId":"1F2B41F8F5440176"},"sourceKind":"official","official":true,"sourceCellId":"1R76K83I","sourceStableId":"1F2B41F8F5440176","pipelineFeatureId":"1R76K83I/BCNSPP/20438","provenance":{"cellId":"1R76K83I","checksum":"6017d727d00f509d6b6c381af5564bb81f246d4ac7032233c3477a65edfe6f96","readerVersion":"GDAL 3.2.2","processedAt":"2026-08-11T13:43:44.753Z"}}},{"type":"Feature","geometry":{"type":"Point","coordinates":[3.979585,51.4303133]},"properties":{"dolphinKind":"buoy-lateral","rawObjectClass":"BOYLAT","sourceProperties":{"RCID":17249,"PRIM":1,"GRUP":2,"OBJL":17,"RVER":1,"AGEN":7979,"FIDN":1106834683,"FIDS":310,"LNAM":"1F2B41F8F4FB0136","LNAM_REFS":["1F2B41F8F4FB0137","1F2B4874B0C40001"],"FFPT_RIND":[2,2],"BOYSHP":1,"CATLAM":2,"COLOUR":["4"],"CONRAD":3,"OBJNAM":"45","SCAMIN":200000,"SORDAT":"20190327","SORIND":"NL,1R,reprt,MD113-19","sourceCellId":"1R76K83I","sourceChecksum":"6017d727d00f509d6b6c381af5564bb81f246d4ac7032233c3477a65edfe6f96","rawObjectClass":"BOYLAT","sourceStableId":"1F2B41F8F4FB0136"},"sourceKind":"official","official":true,"sourceCellId":"1R76K83I","sourceStableId":"1F2B41F8F4FB0136","pipelineFeatureId":"1R76K83I/BOYLAT/17249","provenance":{"cellId":"1R76K83I","checksum":"6017d727d00f509d6b6c381af5564bb81f246d4ac7032233c3477a65edfe6f96","readerVersion":"GDAL 3.2.2","processedAt":"2026-08-11T13:43:44.753Z"}}},{"type":"Feature","geometry":{"type":"Point","coordinates":[3.9923283,51.4350517]},"properties":{"dolphinKind":"buoy-lateral","rawObjectClass":"BOYLAT","sourceProperties":{"RCID":17251,"PRIM":1,"GRUP":2,"OBJL":17,"RVER":1,"AGEN":7979,"FIDN":1106834683,"FIDS":312,"LNAM":"1F2B41F8F4FB0138","LNAM_REFS":["1F2B41F8F4FB0139","1F2B4874B0C90001"],"FFPT_RIND":[2,2],"BOYSHP":1,"CATLAM":2,"COLOUR":["4"],"CONRAD":3,"OBJNAM":"47","SCAMIN":200000,"SORDAT":"20190327","SORIND":"NL,1R,reprt,MD113-19","sourceCellId":"1R76K83I","sourceChecksum":"6017d727d00f509d6b6c381af5564bb81f246d4ac7032233c3477a65edfe6f96","rawObjectClass":"BOYLAT","sourceStableId":"1F2B41F8F4FB0138"},"sourceKind":"official","official":true,"sourceCellId":"1R76K83I","sourceStableId":"1F2B41F8F4FB0138","pipelineFeatureId":"1R76K83I/BOYLAT/17251","provenance":{"cellId":"1R76K83I","checksum":"6017d727d00f509d6b6c381af5564bb81f246d4ac7032233c3477a65edfe6f96","readerVersion":"GDAL 3.2.2","processedAt":"2026-08-11T13:43:44.753Z"}}},{"type":"Feature","geometry":{"type":"Point","coordinates":[4.01333,51.43021]},"properties":{"dolphinKind":"buoy-lateral","rawObjectClass":"BOYLAT","sourceProperties":{"RCID":17253,"PRIM":1,"GRUP":2,"OBJL":17,"RVER":1,"AGEN":7979,"FIDN":1106834683,"FIDS":314,"LNAM":"1F2B41F8F4FB013A","LNAM_REFS":["1F2B41F8F4FB013B","1F2B4874B0C30001"],"FFPT_RIND":[2,2],"BOYSHP":1,"CATLAM":2,"COLOUR":["4"],"CONRAD":3,"OBJNAM":"49","SCAMIN":200000,"SORDAT":"20260715","SORIND":"NL,1R,reprt,Mail de Kort20260715","sourceCellId":"1R76K83I","sourceChecksum":"6017d727d00f509d6b6c381af5564bb81f246d4ac7032233c3477a65edfe6f96","rawObjectClass":"BOYLAT","sourceStableId":"1F2B41F8F4FB013A"},"sourceKind":"official","official":true,"sourceCellId":"1R76K83I","sourceStableId":"1F2B41F8F4FB013A","pipelineFeatureId":"1R76K83I/BOYLAT/17253","provenance":{"cellId":"1R76K83I","checksum":"6017d727d00f509d6b6c381af5564bb81f246d4ac7032233c3477a65edfe6f96","readerVersion":"GDAL 3.2.2","processedAt":"2026-08-11T13:43:44.753Z"}}},{"type":"Feature","geometry":{"type":"Point","coordinates":[3.9614567,51.4260933]},"properties":{"dolphinKind":"buoy-lateral","rawObjectClass":"BOYLAT","sourceProperties":{"RCID":17334,"PRIM":1,"GRUP":2,"OBJL":17,"RVER":1,"AGEN":7979,"FIDN":1106834683,"FIDS":395,"LNAM":"1F2B41F8F4FB018B","LNAM_REFS":["1F2B41F8F4FB018A"],"FFPT_RIND":[2],"BOYSHP":2,"CATLAM":1,"COLOUR":["3"],"CONRAD":3,"OBJNAM":"40","SCAMIN":200000,"SORDAT":"20190327","SORIND":"NL,1R,reprt,MD114-19","sourceCellId":"1R76K83I","sourceChecksum":"6017d727d00f509d6b6c381af5564bb81f246d4ac7032233c3477a65edfe6f96","rawObjectClass":"BOYLAT","sourceStableId":"1F2B41F8F4FB018B"},"sourceKind":"official","official":true,"sourceCellId":"1R76K83I","sourceStableId":"1F2B41F8F4FB018B","pipelineFeatureId":"1R76K83I/BOYLAT/17334","provenance":{"cellId":"1R76K83I","checksum":"6017d727d00f509d6b6c381af5564bb81f246d4ac7032233c3477a65edfe6f96","readerVersion":"GDAL 3.2.2","processedAt":"2026-08-11T13:43:44.753Z"}}},{"type":"Feature","geometry":{"type":"Point","coordinates":[3.9704617,51.4363417]},"properties":{"dolphinKind":"buoy-lateral","rawObjectClass":"BOYLAT","sourceProperties":{"RCID":17336,"PRIM":1,"GRUP":2,"OBJL":17,"RVER":1,"AGEN":7979,"FIDN":1106834683,"FIDS":397,"LNAM":"1F2B41F8F4FB018D","LNAM_REFS":["1F2B41F8F4FB018C"],"FFPT_RIND":[2],"BOYSHP":2,"CATLAM":1,"COLOUR":["3"],"CONRAD":3,"OBJNAM":"40A","SCAMIN":200000,"SORDAT":"20190327","SORIND":"NL,1R,reprt,MD114-19","sourceCellId":"1R76K83I","sourceChecksum":"6017d727d00f509d6b6c381af5564bb81f246d4ac7032233c3477a65edfe6f96","rawObjectClass":"BOYLAT","sourceStableId":"1F2B41F8F4FB018D"},"sourceKind":"official","official":true,"sourceCellId":"1R76K83I","sourceStableId":"1F2B41F8F4FB018D","pipelineFeatureId":"1R76K83I/BOYLAT/17336","provenance":{"cellId":"1R76K83I","checksum":"6017d727d00f509d6b6c381af5564bb81f246d4ac7032233c3477a65edfe6f96","readerVersion":"GDAL 3.2.2","processedAt":"2026-08-11T13:43:44.753Z"}}},{"type":"Feature","geometry":{"type":"Point","coordinates":[3.9997683,51.44083]},"properties":{"dolphinKind":"buoy-lateral","rawObjectClass":"BOYLAT","sourceProperties":{"RCID":17338,"PRIM":1,"GRUP":2,"OBJL":17,"RVER":1,"AGEN":7979,"FIDN":1106834683,"FIDS":399,"LNAM":"1F2B41F8F4FB018F","LNAM_REFS":["1F2B41F8F4FB018E","1F2B487A14FE0001"],"FFPT_RIND":[2,2],"BOYSHP":2,"CATLAM":1,"COLOUR":["3"],"CONRAD":3,"OBJNAM":"40B","SCAMIN":200000,"SORDAT":"20190327","SORIND":"NL,1R,report,MD113-19","sourceCellId":"1R76K83I","sourceChecksum":"6017d727d00f509d6b6c381af5564bb81f246d4ac7032233c3477a65edfe6f96","rawObjectClass":"BOYLAT","sourceStableId":"1F2B41F8F4FB018F"},"sourceKind":"official","official":true,"sourceCellId":"1R76K83I","sourceStableId":"1F2B41F8F4FB018F","pipelineFeatureId":"1R76K83I/BOYLAT/17338","provenance":{"cellId":"1R76K83I","checksum":"6017d727d00f509d6b6c381af5564bb81f246d4ac7032233c3477a65edfe6f96","readerVersion":"GDAL 3.2.2","processedAt":"2026-08-11T13:43:44.753Z"}}},{"type":"Feature","geometry":{"type":"Point","coordinates":[4.0222467,51.4349867]},"properties":{"dolphinKind":"buoy-lateral","rawObjectClass":"BOYLAT","sourceProperties":{"RCID":17342,"PRIM":1,"GRUP":2,"OBJL":17,"RVER":1,"AGEN":7979,"FIDN":1106834683,"FIDS":403,"LNAM":"1F2B41F8F4FB0193","LNAM_REFS":["1F2B41F8F4FB0192","1F2B487A14FC0001"],"FFPT_RIND":[2,2],"BOYSHP":2,"CATLAM":1,"COLOUR":["3"],"CONRAD":3,"OBJNAM":"42","SCAMIN":200000,"SORDAT":"20190327","SORIND":"NL,1R,reprt,MD114-19","sourceCellId":"1R76K83I","sourceChecksum":"6017d727d00f509d6b6c381af5564bb81f246d4ac7032233c3477a65edfe6f96","rawObjectClass":"BOYLAT","sourceStableId":"1F2B41F8F4FB0193"},"sourceKind":"official","official":true,"sourceCellId":"1R76K83I","sourceStableId":"1F2B41F8F4FB0193","pipelineFeatureId":"1R76K83I/BOYLAT/17342","provenance":{"cellId":"1R76K83I","checksum":"6017d727d00f509d6b6c381af5564bb81f246d4ac7032233c3477a65edfe6f96","readerVersion":"GDAL 3.2.2","processedAt":"2026-08-11T13:43:44.753Z"}}},{"type":"Feature","geometry":{"type":"Point","coordinates":[3.9802767,51.4478483]},"properties":{"dolphinKind":"buoy-lateral","rawObjectClass":"BOYLAT","sourceProperties":{"RCID":17388,"PRIM":1,"GRUP":2,"OBJL":17,"RVER":1,"AGEN":7979,"FIDN":1106834683,"FIDS":449,"LNAM":"1F2B41F8F4FB01C1","BOYSHP":2,"CATLAM":1,"COLOUR":["3"],"CONRAD":3,"OBJNAM":"MG 14","SCAMIN":200000,"SORDAT":"20180125","SORIND":"NL,1R,reprt,MD026-18","sourceCellId":"1R76K83I","sourceChecksum":"6017d727d00f509d6b6c381af5564bb81f246d4ac7032233c3477a65edfe6f96","rawObjectClass":"BOYLAT","sourceStableId":"1F2B41F8F4FB01C1"},"sourceKind":"official","official":true,"sourceCellId":"1R76K83I","sourceStableId":"1F2B41F8F4FB01C1","pipelineFeatureId":"1R76K83I/BOYLAT/17388","provenance":{"cellId":"1R76K83I","checksum":"6017d727d00f509d6b6c381af5564bb81f246d4ac7032233c3477a65edfe6f96","readerVersion":"GDAL 3.2.2","processedAt":"2026-08-11T13:43:44.753Z"}}},{"type":"Feature","geometry":{"type":"Point","coordinates":[3.9586867,51.4480333]},"properties":{"dolphinKind":"buoy-lateral","rawObjectClass":"BOYLAT","sourceProperties":{"RCID":17390,"PRIM":1,"GRUP":2,"OBJL":17,"RVER":1,"AGEN":7979,"FIDN":1106834683,"FIDS":451,"LNAM":"1F2B41F8F4FB01C3","LNAM_REFS":["1F2B0F7A1BE30001"],"FFPT_RIND":[2],"BOYSHP":2,"CATLAM":1,"COLOUR":["3"],"CONRAD":3,"OBJNAM":"MG 12","SCAMIN":200000,"SORDAT":"20180125","SORIND":"NL,1R,reprt,M229-18","sourceCellId":"1R76K83I","sourceChecksum":"6017d727d00f509d6b6c381af5564bb81f246d4ac7032233c3477a65edfe6f96","rawObjectClass":"BOYLAT","sourceStableId":"1F2B41F8F4FB01C3"},"sourceKind":"official","official":true,"sourceCellId":"1R76K83I","sourceStableId":"1F2B41F8F4FB01C3","pipelineFeatureId":"1R76K83I/BOYLAT/17390","provenance":{"cellId":"1R76K83I","checksum":"6017d727d00f509d6b6c381af5564bb81f246d4ac7032233c3477a65edfe6f96","readerVersion":"GDAL 3.2.2","processedAt":"2026-08-11T13:43:44.753Z"}}},{"type":"Feature","geometry":{"type":"Point","coordinates":[3.9372433,51.4478133]},"properties":{"dolphinKind":"buoy-lateral","rawObjectClass":"BOYLAT","sourceProperties":{"RCID":17392,"PRIM":1,"GRUP":2,"OBJL":17,"RVER":1,"AGEN":7979,"FIDN":1106834683,"FIDS":453,"LNAM":"1F2B41F8F4FB01C5","LNAM_REFS":["1F2B41F8F4FB01C4","1F2B4879F9220001"],"FFPT_RIND":[2,2],"BOYSHP":2,"CATLAM":1,"COLOUR":["3"],"CONRAD":3,"OBJNAM":"MG 10","SCAMIN":200000,"SORDAT":"20250210","SORIND":"NL,1R,Reprt,MD070-2025","sourceCellId":"1R76K83I","sourceChecksum":"6017d727d00f509d6b6c381af5564bb81f246d4ac7032233c3477a65edfe6f96","rawObjectClass":"BOYLAT","sourceStableId":"1F2B41F8F4FB01C5"},"sourceKind":"official","official":true,"sourceCellId":"1R76K83I","sourceStableId":"1F2B41F8F4FB01C5","pipelineFeatureId":"1R76K83I/BOYLAT/17392","provenance":{"cellId":"1R76K83I","checksum":"6017d727d00f509d6b6c381af5564bb81f246d4ac7032233c3477a65edfe6f96","readerVersion":"GDAL 3.2.2","processedAt":"2026-08-11T13:43:44.753Z"}}},{"type":"Feature","geometry":{"type":"Point","coordinates":[3.95791,51.44542]},"properties":{"dolphinKind":"buoy-lateral","rawObjectClass":"BOYLAT","sourceProperties":{"RCID":17399,"PRIM":1,"GRUP":2,"OBJL":17,"RVER":1,"AGEN":7979,"FIDN":1106834683,"FIDS":460,"LNAM":"1F2B41F8F4FB01CC","BOYSHP":5,"CATLAM":2,"COLOUR":["4"],"CONRAD":3,"OBJNAM":"MG 17","SCAMIN":200000,"SORDAT":"20180125","SORIND":"NL,1R,reprt,MD026-18","sourceCellId":"1R76K83I","sourceChecksum":"6017d727d00f509d6b6c381af5564bb81f246d4ac7032233c3477a65edfe6f96","rawObjectClass":"BOYLAT","sourceStableId":"1F2B41F8F4FB01CC"},"sourceKind":"official","official":true,"sourceCellId":"1R76K83I","sourceStableId":"1F2B41F8F4FB01CC","pipelineFeatureId":"1R76K83I/BOYLAT/17399","provenance":{"cellId":"1R76K83I","checksum":"6017d727d00f509d6b6c381af5564bb81f246d4ac7032233c3477a65edfe6f96","readerVersion":"GDAL 3.2.2","processedAt":"2026-08-11T13:43:44.753Z"}}},{"type":"Feature","geometry":{"type":"Point","coordinates":[3.946965,51.445735]},"properties":{"dolphinKind":"buoy-lateral","rawObjectClass":"BOYLAT","sourceProperties":{"RCID":17401,"PRIM":1,"GRUP":2,"OBJL":17,"RVER":1,"AGEN":7979,"FIDN":1106834683,"FIDS":462,"LNAM":"1F2B41F8F4FB01CE","LNAM_REFS":["1F2B0EA2BACE0001","1F2B487A14E20001"],"FFPT_RIND":[2,2],"BOYSHP":1,"CATLAM":2,"COLOUR":["4"],"CONRAD":3,"OBJNAM":"MG 15","SCAMIN":200000,"SORDAT":"20180125","SORIND":"NL,1R,reprt,MD026-18","sourceCellId":"1R76K83I","sourceChecksum":"6017d727d00f509d6b6c381af5564bb81f246d4ac7032233c3477a65edfe6f96","rawObjectClass":"BOYLAT","sourceStableId":"1F2B41F8F4FB01CE"},"sourceKind":"official","official":true,"sourceCellId":"1R76K83I","sourceStableId":"1F2B41F8F4FB01CE","pipelineFeatureId":"1R76K83I/BOYLAT/17401","provenance":{"cellId":"1R76K83I","checksum":"6017d727d00f509d6b6c381af5564bb81f246d4ac7032233c3477a65edfe6f96","readerVersion":"GDAL 3.2.2","processedAt":"2026-08-11T13:43:44.753Z"}}},{"type":"Feature","geometry":{"type":"Point","coordinates":[3.9395633,51.4444517]},"properties":{"dolphinKind":"buoy-lateral","rawObjectClass":"BOYLAT","sourceProperties":{"RCID":17402,"PRIM":1,"GRUP":2,"OBJL":17,"RVER":1,"AGEN":7979,"FIDN":1106834683,"FIDS":463,"LNAM":"1F2B41F8F4FB01CF","LNAM_REFS":["1F2B04523A510001"],"FFPT_RIND":[2],"BOYSHP":1,"CATLAM":2,"COLOUR":["4"],"CONRAD":3,"OBJNAM":"MG 13","SCAMIN":200000,"SORDAT":"20260626","SORIND":"Nl,1R,reprt,MD 306-26","sourceCellId":"1R76K83I","sourceChecksum":"6017d727d00f509d6b6c381af5564bb81f246d4ac7032233c3477a65edfe6f96","rawObjectClass":"BOYLAT","sourceStableId":"1F2B41F8F4FB01CF"},"sourceKind":"official","official":true,"sourceCellId":"1R76K83I","sourceStableId":"1F2B41F8F4FB01CF","pipelineFeatureId":"1R76K83I/BOYLAT/17402","provenance":{"cellId":"1R76K83I","checksum":"6017d727d00f509d6b6c381af5564bb81f246d4ac7032233c3477a65edfe6f96","readerVersion":"GDAL 3.2.2","processedAt":"2026-08-11T13:43:44.753Z"}}},{"type":"Feature","geometry":{"type":"Point","coordinates":[3.9349883,51.4413583]},"properties":{"dolphinKind":"buoy-lateral","rawObjectClass":"BOYLAT","sourceProperties":{"RCID":17404,"PRIM":1,"GRUP":2,"OBJL":17,"RVER":1,"AGEN":7979,"FIDN":1106834683,"FIDS":465,"LNAM":"1F2B41F8F4FB01D1","LNAM_REFS":["1F2B41F8F4FB01D2","1F2B487A14E10001"],"FFPT_RIND":[2,2],"BOYSHP":1,"CATLAM":2,"COLOUR":["4"],"CONRAD":3,"OBJNAM":"MG 11","SCAMIN":200000,"SORDAT":"20260626","SORIND":"Nl,1R,reprt,MD 306-26","sourceCellId":"1R76K83I","sourceChecksum":"6017d727d00f509d6b6c381af5564bb81f246d4ac7032233c3477a65edfe6f96","rawObjectClass":"BOYLAT","sourceStableId":"1F2B41F8F4FB01D1"},"sourceKind":"official","official":true,"sourceCellId":"1R76K83I","sourceStableId":"1F2B41F8F4FB01D1","pipelineFeatureId":"1R76K83I/BOYLAT/17404","provenance":{"cellId":"1R76K83I","checksum":"6017d727d00f509d6b6c381af5564bb81f246d4ac7032233c3477a65edfe6f96","readerVersion":"GDAL 3.2.2","processedAt":"2026-08-11T13:43:44.753Z"}}},{"type":"Feature","geometry":{"type":"Point","coordinates":[3.986645,51.4340633]},"properties":{"dolphinKind":"buoy-lateral","rawObjectClass":"BOYLAT","sourceProperties":{"RCID":28491616,"PRIM":1,"GRUP":2,"OBJL":17,"RVER":1,"AGEN":7979,"FIDN":28491616,"FIDS":1,"LNAM":"1F2B01B2BF600001","LNAM_REFS":["1F2B01B2BF610001"],"FFPT_RIND":[2],"BOYSHP":1,"CATLAM":2,"COLOUR":["4"],"CONRAD":3,"OBJNAM":"45A","SCAMIN":200000,"SORDAT":"20190327","SORIND":"NL,1R,reprt,MD113-19","sourceCellId":"1R76K83I","sourceChecksum":"6017d727d00f509d6b6c381af5564bb81f246d4ac7032233c3477a65edfe6f96","rawObjectClass":"BOYLAT","sourceStableId":"1F2B01B2BF600001"},"sourceKind":"official","official":true,"sourceCellId":"1R76K83I","sourceStableId":"1F2B01B2BF600001","pipelineFeatureId":"1R76K83I/BOYLAT/28491616","provenance":{"cellId":"1R76K83I","checksum":"6017d727d00f509d6b6c381af5564bb81f246d4ac7032233c3477a65edfe6f96","readerVersion":"GDAL 3.2.2","processedAt":"2026-08-11T13:43:44.753Z"}}},{"type":"Feature","geometry":{"type":"Point","coordinates":[3.97172,51.4454083]},"properties":{"dolphinKind":"buoy-lateral","rawObjectClass":"BOYLAT","sourceProperties":{"RCID":245545683,"PRIM":1,"GRUP":2,"OBJL":17,"RVER":1,"AGEN":7979,"FIDN":245545683,"FIDS":1,"LNAM":"1F2B0EA2BAD30001","LNAM_REFS":["1F2B0EA2BAD20001","1F2B487A14E00001"],"FFPT_RIND":[2,2],"BOYSHP":1,"CATLAM":2,"COLOUR":["4"],"CONRAD":3,"OBJNAM":"MG 19","SCAMIN":200000,"SORDAT":"20180125","SORIND":"NL,1R,reprt,MD026-18","sourceCellId":"1R76K83I","sourceChecksum":"6017d727d00f509d6b6c381af5564bb81f246d4ac7032233c3477a65edfe6f96","rawObjectClass":"BOYLAT","sourceStableId":"1F2B0EA2BAD30001"},"sourceKind":"official","official":true,"sourceCellId":"1R76K83I","sourceStableId":"1F2B0EA2BAD30001","pipelineFeatureId":"1R76K83I/BOYLAT/245545683","provenance":{"cellId":"1R76K83I","checksum":"6017d727d00f509d6b6c381af5564bb81f246d4ac7032233c3477a65edfe6f96","readerVersion":"GDAL 3.2.2","processedAt":"2026-08-11T13:43:44.753Z"}}},{"type":"Feature","geometry":{"type":"Point","coordinates":[4.00008,51.4348783]},"properties":{"dolphinKind":"buoy-lateral","rawObjectClass":"BOYLAT","sourceProperties":{"RCID":300241718,"PRIM":1,"GRUP":2,"OBJL":17,"RVER":1,"AGEN":7979,"FIDN":300241718,"FIDS":1,"LNAM":"1F2B11E553360001","LNAM_REFS":["1F2B11E553350001"],"FFPT_RIND":[2],"BOYSHP":1,"CATLAM":2,"COLOUR":["4"],"CONRAD":3,"OBJNAM":"47A","SCAMIN":200000,"SORDAT":"20221019","SORIND":"NL,1R,reprt,MD501-22","sourceCellId":"1R76K83I","sourceChecksum":"6017d727d00f509d6b6c381af5564bb81f246d4ac7032233c3477a65edfe6f96","rawObjectClass":"BOYLAT","sourceStableId":"1F2B11E553360001"},"sourceKind":"official","official":true,"sourceCellId":"1R76K83I","sourceStableId":"1F2B11E553360001","pipelineFeatureId":"1R76K83I/BOYLAT/300241718","provenance":{"cellId":"1R76K83I","checksum":"6017d727d00f509d6b6c381af5564bb81f246d4ac7032233c3477a65edfe6f96","readerVersion":"GDAL 3.2.2","processedAt":"2026-08-11T13:43:44.753Z"}}},{"type":"Feature","geometry":{"type":"Point","coordinates":[4.0269333,51.4349]},"properties":{"dolphinKind":"buoy-special","rawObjectClass":"BOYSPP","sourceProperties":{"RCID":16942,"PRIM":1,"GRUP":2,"OBJL":19,"RVER":1,"AGEN":7979,"FIDN":1106834682,"FIDS":258,"LNAM":"1F2B41F8F4FA0102","BOYSHP":5,"CATSPM":["40"],"COLOUR":["6"],"CONRAD":3,"OBJNAM":"HW 6","SCAMIN":200000,"SORDAT":"20160303","SORIND":"NL,1R,reprt,BASS 018-2016","sourceCellId":"1R76K83I","sourceChecksum":"6017d727d00f509d6b6c381af5564bb81f246d4ac7032233c3477a65edfe6f96","rawObjectClass":"BOYSPP","sourceStableId":"1F2B41F8F4FA0102"},"sourceKind":"official","official":true,"sourceCellId":"1R76K83I","sourceStableId":"1F2B41F8F4FA0102","pipelineFeatureId":"1R76K83I/BOYSPP/16942","provenance":{"cellId":"1R76K83I","checksum":"6017d727d00f509d6b6c381af5564bb81f246d4ac7032233c3477a65edfe6f96","readerVersion":"GDAL 3.2.2","processedAt":"2026-08-11T13:43:44.753Z"}}},{"type":"Feature","geometry":{"type":"Point","coordinates":[4.022495,51.4365483]},"properties":{"dolphinKind":"buoy-special","rawObjectClass":"BOYSPP","sourceProperties":{"RCID":16985,"PRIM":1,"GRUP":2,"OBJL":19,"RVER":1,"AGEN":7979,"FIDN":1106834682,"FIDS":301,"LNAM":"1F2B41F8F4FA012D","BOYSHP":5,"CATSPM":["40"],"COLOUR":["6"],"CONRAD":3,"OBJNAM":"HW 4","SCAMIN":200000,"SORDAT":"20230721","SORIND":"NL,1R,reprt,MD 380-23","sourceCellId":"1R76K83I","sourceChecksum":"6017d727d00f509d6b6c381af5564bb81f246d4ac7032233c3477a65edfe6f96","rawObjectClass":"BOYSPP","sourceStableId":"1F2B41F8F4FA012D"},"sourceKind":"official","official":true,"sourceCellId":"1R76K83I","sourceStableId":"1F2B41F8F4FA012D","pipelineFeatureId":"1R76K83I/BOYSPP/16985","provenance":{"cellId":"1R76K83I","checksum":"6017d727d00f509d6b6c381af5564bb81f246d4ac7032233c3477a65edfe6f96","readerVersion":"GDAL 3.2.2","processedAt":"2026-08-11T13:43:44.753Z"}}},{"type":"Feature","geometry":{"type":"Point","coordinates":[4.0159717,51.4382117]},"properties":{"dolphinKind":"buoy-special","rawObjectClass":"BOYSPP","sourceProperties":{"RCID":17032,"PRIM":1,"GRUP":2,"OBJL":19,"RVER":1,"AGEN":7979,"FIDN":1106834682,"FIDS":348,"LNAM":"1F2B41F8F4FA015C","BOYSHP":5,"CATSPM":["40"],"COLOUR":["6"],"CONRAD":3,"OBJNAM":"HW 2","SCAMIN":200000,"SORDAT":"20230721","SORIND":"NL,1R,reprt,MD 380-23","sourceCellId":"1R76K83I","sourceChecksum":"6017d727d00f509d6b6c381af5564bb81f246d4ac7032233c3477a65edfe6f96","rawObjectClass":"BOYSPP","sourceStableId":"1F2B41F8F4FA015C"},"sourceKind":"official","official":true,"sourceCellId":"1R76K83I","sourceStableId":"1F2B41F8F4FA015C","pipelineFeatureId":"1R76K83I/BOYSPP/17032","provenance":{"cellId":"1R76K83I","checksum":"6017d727d00f509d6b6c381af5564bb81f246d4ac7032233c3477a65edfe6f96","readerVersion":"GDAL 3.2.2","processedAt":"2026-08-11T13:43:44.753Z"}}},{"type":"Feature","geometry":{"type":"Point","coordinates":[3.9987117,51.4341967]},"properties":{"dolphinKind":"buoy-special","rawObjectClass":"BOYSPP","sourceProperties":{"RCID":31198986,"PRIM":1,"GRUP":2,"OBJL":19,"RVER":1,"AGEN":7979,"FIDN":31198986,"FIDS":1,"LNAM":"1F2B01DC0F0A0001","BOYSHP":5,"CATSPM":["16","35","41"],"COLOUR":["6"],"CONRAD":3,"NATCON":["8"],"OBJNAM":"F 47A","SCAMIN":200000,"SORDAT":"20260709","SORIND":"NL,1R,Reprt,MD355-26","sourceCellId":"1R76K83I","sourceChecksum":"6017d727d00f509d6b6c381af5564bb81f246d4ac7032233c3477a65edfe6f96","rawObjectClass":"BOYSPP","sourceStableId":"1F2B01DC0F0A0001"},"sourceKind":"official","official":true,"sourceCellId":"1R76K83I","sourceStableId":"1F2B01DC0F0A0001","pipelineFeatureId":"1R76K83I/BOYSPP/31198986","provenance":{"cellId":"1R76K83I","checksum":"6017d727d00f509d6b6c381af5564bb81f246d4ac7032233c3477a65edfe6f96","readerVersion":"GDAL 3.2.2","processedAt":"2026-08-11T13:43:44.753Z"}}},{"type":"Feature","geometry":{"type":"Point","coordinates":[4.034475,51.4283533]},"properties":{"dolphinKind":"buoy-special","rawObjectClass":"BOYSPP","sourceProperties":{"RCID":187458901,"PRIM":1,"GRUP":2,"OBJL":19,"RVER":1,"AGEN":7979,"FIDN":187458901,"FIDS":1,"LNAM":"1F2B0B2C65550001","LNAM_REFS":["1F2B0B2C65540001"],"FFPT_RIND":[2],"BOYSHP":5,"CATSPM":["16","35","41"],"COLOUR":["6"],"CONRAD":3,"NATCON":["8"],"OBJNAM":"F 42","SCAMIN":200000,"SORDAT":"20160303","SORIND":"NL,1R,reprt,BASS 018-2016","sourceCellId":"1R76K83I","sourceChecksum":"6017d727d00f509d6b6c381af5564bb81f246d4ac7032233c3477a65edfe6f96","rawObjectClass":"BOYSPP","sourceStableId":"1F2B0B2C65550001"},"sourceKind":"official","official":true,"sourceCellId":"1R76K83I","sourceStableId":"1F2B0B2C65550001","pipelineFeatureId":"1R76K83I/BOYSPP/187458901","provenance":{"cellId":"1R76K83I","checksum":"6017d727d00f509d6b6c381af5564bb81f246d4ac7032233c3477a65edfe6f96","readerVersion":"GDAL 3.2.2","processedAt":"2026-08-11T13:43:44.753Z"}}},{"type":"Feature","geometry":{"type":"Point","coordinates":[4.0105756,51.4495852]},"properties":{"dolphinKind":"buoy-special","rawObjectClass":"BOYSPP","sourceProperties":{"RCID":191511823,"PRIM":1,"GRUP":2,"OBJL":19,"RVER":1,"AGEN":7979,"FIDN":191511823,"FIDS":1,"LNAM":"1F2B0B6A3D0F0001","BOYSHP":1,"CATSPM":["50"],"COLOUR":["6"],"CONRAD":3,"SCAMIN":200000,"SORDAT":"20150908","SORIND":"NL,1R,reprt,Topdesk M150904528","sourceCellId":"1R76K83I","sourceChecksum":"6017d727d00f509d6b6c381af5564bb81f246d4ac7032233c3477a65edfe6f96","rawObjectClass":"BOYSPP","sourceStableId":"1F2B0B6A3D0F0001"},"sourceKind":"official","official":true,"sourceCellId":"1R76K83I","sourceStableId":"1F2B0B6A3D0F0001","pipelineFeatureId":"1R76K83I/BOYSPP/191511823","provenance":{"cellId":"1R76K83I","checksum":"6017d727d00f509d6b6c381af5564bb81f246d4ac7032233c3477a65edfe6f96","readerVersion":"GDAL 3.2.2","processedAt":"2026-08-11T13:43:44.753Z"}}},{"type":"Feature","geometry":{"type":"Point","coordinates":[4.0106838,51.4496005]},"properties":{"dolphinKind":"buoy-special","rawObjectClass":"BOYSPP","sourceProperties":{"RCID":191511824,"PRIM":1,"GRUP":2,"OBJL":19,"RVER":1,"AGEN":7979,"FIDN":191511824,"FIDS":1,"LNAM":"1F2B0B6A3D100001","BOYSHP":1,"CATSPM":["50"],"COLOUR":["6"],"CONRAD":3,"SCAMIN":200000,"SORDAT":"20150908","SORIND":"NL,1R,reprt,Topdesk M150904528","sourceCellId":"1R76K83I","sourceChecksum":"6017d727d00f509d6b6c381af5564bb81f246d4ac7032233c3477a65edfe6f96","rawObjectClass":"BOYSPP","sourceStableId":"1F2B0B6A3D100001"},"sourceKind":"official","official":true,"sourceCellId":"1R76K83I","sourceStableId":"1F2B0B6A3D100001","pipelineFeatureId":"1R76K83I/BOYSPP/191511824","provenance":{"cellId":"1R76K83I","checksum":"6017d727d00f509d6b6c381af5564bb81f246d4ac7032233c3477a65edfe6f96","readerVersion":"GDAL 3.2.2","processedAt":"2026-08-11T13:43:44.753Z"}}},{"type":"Feature","geometry":{"type":"Point","coordinates":[4.010794,51.4496209]},"properties":{"dolphinKind":"buoy-special","rawObjectClass":"BOYSPP","sourceProperties":{"RCID":191511825,"PRIM":1,"GRUP":2,"OBJL":19,"RVER":1,"AGEN":7979,"FIDN":191511825,"FIDS":1,"LNAM":"1F2B0B6A3D110001","BOYSHP":1,"CATSPM":["50"],"COLOUR":["6"],"CONRAD":3,"SCAMIN":200000,"SORDAT":"20150908","SORIND":"NL,1R,reprt,Topdesk M150904528","sourceCellId":"1R76K83I","sourceChecksum":"6017d727d00f509d6b6c381af5564bb81f246d4ac7032233c3477a65edfe6f96","rawObjectClass":"BOYSPP","sourceStableId":"1F2B0B6A3D110001"},"sourceKind":"official","official":true,"sourceCellId":"1R76K83I","sourceStableId":"1F2B0B6A3D110001","pipelineFeatureId":"1R76K83I/BOYSPP/191511825","provenance":{"cellId":"1R76K83I","checksum":"6017d727d00f509d6b6c381af5564bb81f246d4ac7032233c3477a65edfe6f96","readerVersion":"GDAL 3.2.2","processedAt":"2026-08-11T13:43:44.753Z"}}},{"type":"Feature","geometry":{"type":"Point","coordinates":[4.0109002,51.4496412]},"properties":{"dolphinKind":"buoy-special","rawObjectClass":"BOYSPP","sourceProperties":{"RCID":191511826,"PRIM":1,"GRUP":2,"OBJL":19,"RVER":1,"AGEN":7979,"FIDN":191511826,"FIDS":1,"LNAM":"1F2B0B6A3D120001","BOYSHP":1,"CATSPM":["50"],"COLOUR":["6"],"CONRAD":3,"SCAMIN":200000,"SORDAT":"20150908","SORIND":"NL,1R,reprt,Topdesk M150904528","sourceCellId":"1R76K83I","sourceChecksum":"6017d727d00f509d6b6c381af5564bb81f246d4ac7032233c3477a65edfe6f96","rawObjectClass":"BOYSPP","sourceStableId":"1F2B0B6A3D120001"},"sourceKind":"official","official":true,"sourceCellId":"1R76K83I","sourceStableId":"1F2B0B6A3D120001","pipelineFeatureId":"1R76K83I/BOYSPP/191511826","provenance":{"cellId":"1R76K83I","checksum":"6017d727d00f509d6b6c381af5564bb81f246d4ac7032233c3477a65edfe6f96","readerVersion":"GDAL 3.2.2","processedAt":"2026-08-11T13:43:44.753Z"}}},{"type":"Feature","geometry":{"type":"Point","coordinates":[4.0110124,51.4496641]},"properties":{"dolphinKind":"buoy-special","rawObjectClass":"BOYSPP","sourceProperties":{"RCID":191511827,"PRIM":1,"GRUP":2,"OBJL":19,"RVER":1,"AGEN":7979,"FIDN":191511827,"FIDS":1,"LNAM":"1F2B0B6A3D130001","BOYSHP":1,"CATSPM":["50"],"COLOUR":["6"],"CONRAD":3,"SCAMIN":200000,"SORDAT":"20150908","SORIND":"NL,1R,reprt,Topdesk M150904528","sourceCellId":"1R76K83I","sourceChecksum":"6017d727d00f509d6b6c381af5564bb81f246d4ac7032233c3477a65edfe6f96","rawObjectClass":"BOYSPP","sourceStableId":"1F2B0B6A3D130001"},"sourceKind":"official","official":true,"sourceCellId":"1R76K83I","sourceStableId":"1F2B0B6A3D130001","pipelineFeatureId":"1R76K83I/BOYSPP/191511827","provenance":{"cellId":"1R76K83I","checksum":"6017d727d00f509d6b6c381af5564bb81f246d4ac7032233c3477a65edfe6f96","readerVersion":"GDAL 3.2.2","processedAt":"2026-08-11T13:43:44.753Z"}}},{"type":"Feature","geometry":{"type":"Point","coordinates":[3.9847383,51.4288067]},"properties":{"dolphinKind":"buoy-special","rawObjectClass":"BOYSPP","sourceProperties":{"RCID":300241728,"PRIM":1,"GRUP":2,"OBJL":19,"RVER":1,"AGEN":7979,"FIDN":300241728,"FIDS":1,"LNAM":"1F2B11E553400001","BOYSHP":5,"CATSPM":["16"],"COLOUR":["6"],"OBJNAM":"F 45","SCAMIN":200000,"SORDAT":"20190327","SORIND":"NL,1R,reprt,MD113-19","sourceCellId":"1R76K83I","sourceChecksum":"6017d727d00f509d6b6c381af5564bb81f246d4ac7032233c3477a65edfe6f96","rawObjectClass":"BOYSPP","sourceStableId":"1F2B11E553400001"},"sourceKind":"official","official":true,"sourceCellId":"1R76K83I","sourceStableId":"1F2B11E553400001","pipelineFeatureId":"1R76K83I/BOYSPP/300241728","provenance":{"cellId":"1R76K83I","checksum":"6017d727d00f509d6b6c381af5564bb81f246d4ac7032233c3477a65edfe6f96","readerVersion":"GDAL 3.2.2","processedAt":"2026-08-11T13:43:44.753Z"}}},{"type":"Feature","geometry":{"type":"Point","coordinates":[3.9812306,51.4403194]},"properties":{"dolphinKind":"buoy-special","rawObjectClass":"BOYSPP","sourceProperties":{"RCID":300241731,"PRIM":1,"GRUP":2,"OBJL":19,"RVER":1,"AGEN":7979,"FIDN":300241731,"FIDS":1,"LNAM":"1F2B11E553430001","BOYSHP":5,"CATSPM":["2"],"COLOUR":["6"],"OBJNAM":"WAAK","SCAMIN":200000,"SORDAT":"20190327","SORIND":"NL,1R,report,MD113-19","sourceCellId":"1R76K83I","sourceChecksum":"6017d727d00f509d6b6c381af5564bb81f246d4ac7032233c3477a65edfe6f96","rawObjectClass":"BOYSPP","sourceStableId":"1F2B11E553430001"},"sourceKind":"official","official":true,"sourceCellId":"1R76K83I","sourceStableId":"1F2B11E553430001","pipelineFeatureId":"1R76K83I/BOYSPP/300241731","provenance":{"cellId":"1R76K83I","checksum":"6017d727d00f509d6b6c381af5564bb81f246d4ac7032233c3477a65edfe6f96","readerVersion":"GDAL 3.2.2","processedAt":"2026-08-11T13:43:44.753Z"}}},{"type":"Feature","geometry":{"type":"Point","coordinates":[3.9575883,51.4271633]},"properties":{"dolphinKind":"buoy-special","rawObjectClass":"BOYSPP","sourceProperties":{"RCID":512799745,"PRIM":1,"GRUP":2,"OBJL":19,"RVER":1,"AGEN":7979,"FIDN":512799745,"FIDS":1,"LNAM":"1F2B1E90B4010001","BOYSHP":5,"CATSPM":["16","35","41"],"COLOUR":["6"],"CONRAD":3,"NATCON":["8"],"OBJNAM":"F 40","SCAMIN":200000,"SORDAT":"20230425","SORIND":"NL,1R,reprt,MD 234-23","sourceCellId":"1R76K83I","sourceChecksum":"6017d727d00f509d6b6c381af5564bb81f246d4ac7032233c3477a65edfe6f96","rawObjectClass":"BOYSPP","sourceStableId":"1F2B1E90B4010001"},"sourceKind":"official","official":true,"sourceCellId":"1R76K83I","sourceStableId":"1F2B1E90B4010001","pipelineFeatureId":"1R76K83I/BOYSPP/512799745","provenance":{"cellId":"1R76K83I","checksum":"6017d727d00f509d6b6c381af5564bb81f246d4ac7032233c3477a65edfe6f96","readerVersion":"GDAL 3.2.2","processedAt":"2026-08-11T13:43:44.753Z"}}},{"type":"Feature","geometry":{"type":"Point","coordinates":[3.96846,51.4376683]},"properties":{"dolphinKind":"buoy-special","rawObjectClass":"BOYSPP","sourceProperties":{"RCID":512799747,"PRIM":1,"GRUP":2,"OBJL":19,"RVER":1,"AGEN":7979,"FIDN":512799747,"FIDS":1,"LNAM":"1F2B1E90B4030001","LNAM_REFS":["1F2B1E90B4020001"],"FFPT_RIND":[2],"BOYSHP":5,"CATSPM":["16","35","41"],"COLOUR":["6"],"CONRAD":3,"NATCON":["8"],"OBJNAM":"F 40A","SCAMIN":200000,"SORDAT":"20230425","SORIND":"NL,1R,reprt,MD234-23","sourceCellId":"1R76K83I","sourceChecksum":"6017d727d00f509d6b6c381af5564bb81f246d4ac7032233c3477a65edfe6f96","rawObjectClass":"BOYSPP","sourceStableId":"1F2B1E90B4030001"},"sourceKind":"official","official":true,"sourceCellId":"1R76K83I","sourceStableId":"1F2B1E90B4030001","pipelineFeatureId":"1R76K83I/BOYSPP/512799747","provenance":{"cellId":"1R76K83I","checksum":"6017d727d00f509d6b6c381af5564bb81f246d4ac7032233c3477a65edfe6f96","readerVersion":"GDAL 3.2.2","processedAt":"2026-08-11T13:43:44.753Z"}}},{"type":"Feature","geometry":{"type":"Point","coordinates":[4.0124517,51.429625]},"properties":{"dolphinKind":"buoy-special","rawObjectClass":"BOYSPP","sourceProperties":{"RCID":1238577007,"PRIM":1,"GRUP":2,"OBJL":19,"RVER":1,"AGEN":7979,"FIDN":1238577007,"FIDS":1,"LNAM":"1F2B49D32F6F0001","BOYSHP":5,"CATSPM":["16","35","41"],"COLOUR":["6"],"CONRAD":3,"NATCON":["8"],"OBJNAM":"F 49","SCAMIN":200000,"SORDAT":"20250717","SORIND":"NL,1R,reprt,MD 391-2025","sourceCellId":"1R76K83I","sourceChecksum":"6017d727d00f509d6b6c381af5564bb81f246d4ac7032233c3477a65edfe6f96","rawObjectClass":"BOYSPP","sourceStableId":"1F2B49D32F6F0001"},"sourceKind":"official","official":true,"sourceCellId":"1R76K83I","sourceStableId":"1F2B49D32F6F0001","pipelineFeatureId":"1R76K83I/BOYSPP/1238577007","provenance":{"cellId":"1R76K83I","checksum":"6017d727d00f509d6b6c381af5564bb81f246d4ac7032233c3477a65edfe6f96","readerVersion":"GDAL 3.2.2","processedAt":"2026-08-11T13:43:44.753Z"}}},{"type":"Feature","geometry":{"type":"Point","coordinates":[3.9934283,51.4342967]},"properties":{"dolphinKind":"buoy-special","rawObjectClass":"BOYSPP","sourceProperties":{"RCID":1238681377,"PRIM":1,"GRUP":2,"OBJL":19,"RVER":1,"AGEN":7979,"FIDN":1238681377,"FIDS":1,"LNAM":"1F2B49D4C7210001","BOYSHP":5,"CATSPM":["16"],"COLOUR":["6"],"OBJNAM":"F 47","SCAMIN":200000,"SORDAT":"20260709","SORIND":"NL,1R,Reprt,MD355-26","sourceCellId":"1R76K83I","sourceChecksum":"6017d727d00f509d6b6c381af5564bb81f246d4ac7032233c3477a65edfe6f96","rawObjectClass":"BOYSPP","sourceStableId":"1F2B49D4C7210001"},"sourceKind":"official","official":true,"sourceCellId":"1R76K83I","sourceStableId":"1F2B49D4C7210001","pipelineFeatureId":"1R76K83I/BOYSPP/1238681377","provenance":{"cellId":"1R76K83I","checksum":"6017d727d00f509d6b6c381af5564bb81f246d4ac7032233c3477a65edfe6f96","readerVersion":"GDAL 3.2.2","processedAt":"2026-08-11T13:43:44.753Z"}}},{"type":"Feature","geometry":{"type":"Point","coordinates":[3.9885998,51.4327589]},"properties":{"dolphinKind":"buoy-special","rawObjectClass":"BOYSPP","sourceProperties":{"RCID":1238681378,"PRIM":1,"GRUP":2,"OBJL":19,"RVER":1,"AGEN":7979,"FIDN":1238681378,"FIDS":1,"LNAM":"1F2B49D4C7220001","BOYSHP":5,"CATSPM":["16"],"COLOUR":["6"],"OBJNAM":"F 45A","SCAMIN":200000,"SORDAT":"20240228","SORIND":"NL,1R,reprt,MD 105-24","sourceCellId":"1R76K83I","sourceChecksum":"6017d727d00f509d6b6c381af5564bb81f246d4ac7032233c3477a65edfe6f96","rawObjectClass":"BOYSPP","sourceStableId":"1F2B49D4C7220001"},"sourceKind":"official","official":true,"sourceCellId":"1R76K83I","sourceStableId":"1F2B49D4C7220001","pipelineFeatureId":"1R76K83I/BOYSPP/1238681378","provenance":{"cellId":"1R76K83I","checksum":"6017d727d00f509d6b6c381af5564bb81f246d4ac7032233c3477a65edfe6f96","readerVersion":"GDAL 3.2.2","processedAt":"2026-08-11T13:43:44.753Z"}}},{"type":"Feature","geometry":{"type":"Point","coordinates":[4.0131833,51.4393667]},"properties":{"dolphinKind":"light","rawObjectClass":"LIGHTS","sourceProperties":{"RCID":16373,"PRIM":1,"GRUP":2,"OBJL":75,"RVER":1,"AGEN":7979,"FIDN":1106834596,"FIDS":259,"LNAM":"1F2B41F8F4A40103","COLOUR":["4"],"EXCLIT":4,"LITCHR":1,"SCAMIN":200000,"SORDAT":"20030923","sourceCellId":"1R76K83I","sourceChecksum":"6017d727d00f509d6b6c381af5564bb81f246d4ac7032233c3477a65edfe6f96","rawObjectClass":"LIGHTS","sourceStableId":"1F2B41F8F4A40103"},"sourceKind":"official","official":true,"sourceCellId":"1R76K83I","sourceStableId":"1F2B41F8F4A40103","pipelineFeatureId":"1R76K83I/LIGHTS/16373","provenance":{"cellId":"1R76K83I","checksum":"6017d727d00f509d6b6c381af5564bb81f246d4ac7032233c3477a65edfe6f96","readerVersion":"GDAL 3.2.2","processedAt":"2026-08-11T13:43:44.753Z"}}},{"type":"Feature","geometry":{"type":"Point","coordinates":[3.99331,51.4577133]},"properties":{"dolphinKind":"light","rawObjectClass":"LIGHTS","sourceProperties":{"RCID":16662,"PRIM":1,"GRUP":2,"OBJL":75,"RVER":1,"AGEN":7979,"FIDN":1106834597,"FIDS":293,"LNAM":"1F2B41F8F4A50125","CATLIT":["4","15"],"COLOUR":["1"],"HEIGHT":20,"LITCHR":8,"OBJNAM":"Lichtenlijn Schore 21.5 GR Hoog (0178)","SIGGRP":"(1)","SIGPER":4,"SCAMIN":200000,"SORDAT":"20240424","SORIND":"NL,1R,reprt, MD231-24","sourceCellId":"1R76K83I","sourceChecksum":"6017d727d00f509d6b6c381af5564bb81f246d4ac7032233c3477a65edfe6f96","rawObjectClass":"LIGHTS","sourceStableId":"1F2B41F8F4A50125"},"sourceKind":"official","official":true,"sourceCellId":"1R76K83I","sourceStableId":"1F2B41F8F4A50125","pipelineFeatureId":"1R76K83I/LIGHTS/16662","provenance":{"cellId":"1R76K83I","checksum":"6017d727d00f509d6b6c381af5564bb81f246d4ac7032233c3477a65edfe6f96","readerVersion":"GDAL 3.2.2","processedAt":"2026-08-11T13:43:44.753Z"}}},{"type":"Feature","geometry":{"type":"Point","coordinates":[3.99744,51.44567]},"properties":{"dolphinKind":"light","rawObjectClass":"LIGHTS","sourceProperties":{"RCID":16806,"PRIM":1,"GRUP":2,"OBJL":75,"RVER":1,"AGEN":7979,"FIDN":1106834597,"FIDS":437,"LNAM":"1F2B41F8F4A501B5","COLOUR":["6"],"LITCHR":2,"SIGGRP":"(5)","SIGPER":20,"SCAMIN":200000,"sourceCellId":"1R76K83I","sourceChecksum":"6017d727d00f509d6b6c381af5564bb81f246d4ac7032233c3477a65edfe6f96","rawObjectClass":"LIGHTS","sourceStableId":"1F2B41F8F4A501B5"},"sourceKind":"official","official":true,"sourceCellId":"1R76K83I","sourceStableId":"1F2B41F8F4A501B5","pipelineFeatureId":"1R76K83I/LIGHTS/16806","provenance":{"cellId":"1R76K83I","checksum":"6017d727d00f509d6b6c381af5564bb81f246d4ac7032233c3477a65edfe6f96","readerVersion":"GDAL 3.2.2","processedAt":"2026-08-11T13:43:44.753Z"}}},{"type":"Feature","geometry":{"type":"Point","coordinates":[4.0089,51.4402666]},"properties":{"dolphinKind":"light","rawObjectClass":"LIGHTS","sourceProperties":{"RCID":16808,"PRIM":1,"GRUP":2,"OBJL":75,"RVER":1,"AGEN":7979,"FIDN":1106834597,"FIDS":439,"LNAM":"1F2B41F8F4A501B7","COLOUR":["3"],"HEIGHT":11,"LITCHR":8,"SECTR1":288,"SECTR2":302.5,"SIGGRP":"(1)","SIGPER":10,"SCAMIN":200000,"SORDAT":"20201218","SORIND":"NL,1R,Reprt,MD 587-20","sourceCellId":"1R76K83I","sourceChecksum":"6017d727d00f509d6b6c381af5564bb81f246d4ac7032233c3477a65edfe6f96","rawObjectClass":"LIGHTS","sourceStableId":"1F2B41F8F4A501B7"},"sourceKind":"official","official":true,"sourceCellId":"1R76K83I","sourceStableId":"1F2B41F8F4A501B7","pipelineFeatureId":"1R76K83I/LIGHTS/16808","provenance":{"cellId":"1R76K83I","checksum":"6017d727d00f509d6b6c381af5564bb81f246d4ac7032233c3477a65edfe6f96","readerVersion":"GDAL 3.2.2","processedAt":"2026-08-11T13:43:44.753Z"}}},{"type":"Feature","geometry":{"type":"Point","coordinates":[4.0089,51.4402666]},"properties":{"dolphinKind":"light","rawObjectClass":"LIGHTS","sourceProperties":{"RCID":16809,"PRIM":1,"GRUP":2,"OBJL":75,"RVER":1,"AGEN":7979,"FIDN":1106834597,"FIDS":440,"LNAM":"1F2B41F8F4A501B8","COLOUR":["4"],"HEIGHT":11,"LITCHR":8,"SECTR1":302.5,"SECTR2":316,"SIGGRP":"(1)","SIGPER":10,"SCAMIN":200000,"SORDAT":"20201218","SORIND":"NL,1R,Reprt,MD 587-20","sourceCellId":"1R76K83I","sourceChecksum":"6017d727d00f509d6b6c381af5564bb81f246d4ac7032233c3477a65edfe6f96","rawObjectClass":"LIGHTS","sourceStableId":"1F2B41F8F4A501B8"},"sourceKind":"official","official":true,"sourceCellId":"1R76K83I","sourceStableId":"1F2B41F8F4A501B8","pipelineFeatureId":"1R76K83I/LIGHTS/16809","provenance":{"cellId":"1R76K83I","checksum":"6017d727d00f509d6b6c381af5564bb81f246d4ac7032233c3477a65edfe6f96","readerVersion":"GDAL 3.2.2","processedAt":"2026-08-11T13:43:44.753Z"}}},{"type":"Feature","geometry":{"type":"Point","coordinates":[4.0089,51.4402666]},"properties":{"dolphinKind":"light","rawObjectClass":"LIGHTS","sourceProperties":{"RCID":16810,"PRIM":1,"GRUP":2,"OBJL":75,"RVER":1,"AGEN":7979,"FIDN":1106834597,"FIDS":441,"LNAM":"1F2B41F8F4A501B9","COLOUR":["1"],"HEIGHT":11,"LITCHR":8,"SECTR1":316,"SECTR2":331.5,"SIGGRP":"(1)","SIGPER":10,"SCAMIN":200000,"SORDAT":"20201218","SORIND":"NL,1R,Reprt,MD 587-20","sourceCellId":"1R76K83I","sourceChecksum":"6017d727d00f509d6b6c381af5564bb81f246d4ac7032233c3477a65edfe6f96","rawObjectClass":"LIGHTS","sourceStableId":"1F2B41F8F4A501B9"},"sourceKind":"official","official":true,"sourceCellId":"1R76K83I","sourceStableId":"1F2B41F8F4A501B9","pipelineFeatureId":"1R76K83I/LIGHTS/16810","provenance":{"cellId":"1R76K83I","checksum":"6017d727d00f509d6b6c381af5564bb81f246d4ac7032233c3477a65edfe6f96","readerVersion":"GDAL 3.2.2","processedAt":"2026-08-11T13:43:44.753Z"}}},{"type":"Feature","geometry":{"type":"Point","coordinates":[4.0089,51.4402666]},"properties":{"dolphinKind":"light","rawObjectClass":"LIGHTS","sourceProperties":{"RCID":16811,"PRIM":1,"GRUP":2,"OBJL":75,"RVER":1,"AGEN":7979,"FIDN":1106834597,"FIDS":442,"LNAM":"1F2B41F8F4A501BA","COLOUR":["4"],"HEIGHT":11,"LITCHR":8,"SECTR1":331.5,"SECTR2":346,"SIGGRP":"(1)","SIGPER":10,"SCAMIN":200000,"SORDAT":"20201218","SORIND":"NL,1R,Reprt,MD 587-20","sourceCellId":"1R76K83I","sourceChecksum":"6017d727d00f509d6b6c381af5564bb81f246d4ac7032233c3477a65edfe6f96","rawObjectClass":"LIGHTS","sourceStableId":"1F2B41F8F4A501BA"},"sourceKind":"official","official":true,"sourceCellId":"1R76K83I","sourceStableId":"1F2B41F8F4A501BA","pipelineFeatureId":"1R76K83I/LIGHTS/16811","provenance":{"cellId":"1R76K83I","checksum":"6017d727d00f509d6b6c381af5564bb81f246d4ac7032233c3477a65edfe6f96","readerVersion":"GDAL 3.2.2","processedAt":"2026-08-11T13:43:44.753Z"}}},{"type":"Feature","geometry":{"type":"Point","coordinates":[4.0089,51.4402666]},"properties":{"dolphinKind":"light","rawObjectClass":"LIGHTS","sourceProperties":{"RCID":16812,"PRIM":1,"GRUP":2,"OBJL":75,"RVER":1,"AGEN":7979,"FIDN":1106834597,"FIDS":443,"LNAM":"1F2B41F8F4A501BB","COLOUR":["1"],"HEIGHT":11,"LITCHR":8,"SECTR1":346,"SECTR2":43,"SIGGRP":"(1)","SIGPER":10,"SCAMIN":200000,"SORDAT":"20201218","SORIND":"NL,1R,Reprt,MD 587-20","sourceCellId":"1R76K83I","sourceChecksum":"6017d727d00f509d6b6c381af5564bb81f246d4ac7032233c3477a65edfe6f96","rawObjectClass":"LIGHTS","sourceStableId":"1F2B41F8F4A501BB"},"sourceKind":"official","official":true,"sourceCellId":"1R76K83I","sourceStableId":"1F2B41F8F4A501BB","pipelineFeatureId":"1R76K83I/LIGHTS/16812","provenance":{"cellId":"1R76K83I","checksum":"6017d727d00f509d6b6c381af5564bb81f246d4ac7032233c3477a65edfe6f96","readerVersion":"GDAL 3.2.2","processedAt":"2026-08-11T13:43:44.753Z"}}},{"type":"Feature","geometry":{"type":"Point","coordinates":[4.0089,51.4402666]},"properties":{"dolphinKind":"light","rawObjectClass":"LIGHTS","sourceProperties":{"RCID":16813,"PRIM":1,"GRUP":2,"OBJL":75,"RVER":1,"AGEN":7979,"FIDN":1106834597,"FIDS":444,"LNAM":"1F2B41F8F4A501BC","COLOUR":["3"],"HEIGHT":11,"LITCHR":8,"SECTR1":43,"SECTR2":66,"SIGGRP":"(1)","SIGPER":10,"SCAMIN":200000,"SORDAT":"20201218","SORIND":"NL,1R,Reprt,MD 587-20","sourceCellId":"1R76K83I","sourceChecksum":"6017d727d00f509d6b6c381af5564bb81f246d4ac7032233c3477a65edfe6f96","rawObjectClass":"LIGHTS","sourceStableId":"1F2B41F8F4A501BC"},"sourceKind":"official","official":true,"sourceCellId":"1R76K83I","sourceStableId":"1F2B41F8F4A501BC","pipelineFeatureId":"1R76K83I/LIGHTS/16813","provenance":{"cellId":"1R76K83I","checksum":"6017d727d00f509d6b6c381af5564bb81f246d4ac7032233c3477a65edfe6f96","readerVersion":"GDAL 3.2.2","processedAt":"2026-08-11T13:43:44.753Z"}}},{"type":"Feature","geometry":{"type":"Point","coordinates":[4.0089,51.4402666]},"properties":{"dolphinKind":"light","rawObjectClass":"LIGHTS","sourceProperties":{"RCID":16814,"PRIM":1,"GRUP":2,"OBJL":75,"RVER":1,"AGEN":7979,"FIDN":1106834597,"FIDS":445,"LNAM":"1F2B41F8F4A501BD","COLOUR":["1"],"HEIGHT":11,"LITCHR":8,"SECTR1":66,"SECTR2":80.5,"SIGGRP":"(1)","SIGPER":10,"SCAMIN":200000,"SORDAT":"20201218","SORIND":"NL,1R,Reprt,MD 587-20","sourceCellId":"1R76K83I","sourceChecksum":"6017d727d00f509d6b6c381af5564bb81f246d4ac7032233c3477a65edfe6f96","rawObjectClass":"LIGHTS","sourceStableId":"1F2B41F8F4A501BD"},"sourceKind":"official","official":true,"sourceCellId":"1R76K83I","sourceStableId":"1F2B41F8F4A501BD","pipelineFeatureId":"1R76K83I/LIGHTS/16814","provenance":{"cellId":"1R76K83I","checksum":"6017d727d00f509d6b6c381af5564bb81f246d4ac7032233c3477a65edfe6f96","readerVersion":"GDAL 3.2.2","processedAt":"2026-08-11T13:43:44.753Z"}}},{"type":"Feature","geometry":{"type":"Point","coordinates":[4.0089,51.4402666]},"properties":{"dolphinKind":"light","rawObjectClass":"LIGHTS","sourceProperties":{"RCID":16815,"PRIM":1,"GRUP":2,"OBJL":75,"RVER":1,"AGEN":7979,"FIDN":1106834597,"FIDS":446,"LNAM":"1F2B41F8F4A501BE","COLOUR":["4"],"HEIGHT":11,"LITCHR":8,"SECTR1":80.5,"SECTR2":102.5,"SIGGRP":"(1)","SIGPER":10,"SCAMIN":200000,"SORDAT":"20201218","SORIND":"NL,1R,Reprt,MD 587-20","sourceCellId":"1R76K83I","sourceChecksum":"6017d727d00f509d6b6c381af5564bb81f246d4ac7032233c3477a65edfe6f96","rawObjectClass":"LIGHTS","sourceStableId":"1F2B41F8F4A501BE"},"sourceKind":"official","official":true,"sourceCellId":"1R76K83I","sourceStableId":"1F2B41F8F4A501BE","pipelineFeatureId":"1R76K83I/LIGHTS/16815","provenance":{"cellId":"1R76K83I","checksum":"6017d727d00f509d6b6c381af5564bb81f246d4ac7032233c3477a65edfe6f96","readerVersion":"GDAL 3.2.2","processedAt":"2026-08-11T13:43:44.753Z"}}},{"type":"Feature","geometry":{"type":"Point","coordinates":[4.0089,51.4402666]},"properties":{"dolphinKind":"light","rawObjectClass":"LIGHTS","sourceProperties":{"RCID":16816,"PRIM":1,"GRUP":2,"OBJL":75,"RVER":1,"AGEN":7979,"FIDN":1106834597,"FIDS":447,"LNAM":"1F2B41F8F4A501BF","COLOUR":["1"],"HEIGHT":11,"LITCHR":8,"SECTR1":102.5,"SECTR2":113,"SIGGRP":"(1)","SIGPER":10,"SCAMIN":200000,"SORDAT":"20201218","SORIND":"NL,1R,Reprt,MD 587-20","sourceCellId":"1R76K83I","sourceChecksum":"6017d727d00f509d6b6c381af5564bb81f246d4ac7032233c3477a65edfe6f96","rawObjectClass":"LIGHTS","sourceStableId":"1F2B41F8F4A501BF"},"sourceKind":"official","official":true,"sourceCellId":"1R76K83I","sourceStableId":"1F2B41F8F4A501BF","pipelineFeatureId":"1R76K83I/LIGHTS/16816","provenance":{"cellId":"1R76K83I","checksum":"6017d727d00f509d6b6c381af5564bb81f246d4ac7032233c3477a65edfe6f96","readerVersion":"GDAL 3.2.2","processedAt":"2026-08-11T13:43:44.753Z"}}},{"type":"Feature","geometry":{"type":"Point","coordinates":[4.0089,51.4402666]},"properties":{"dolphinKind":"light","rawObjectClass":"LIGHTS","sourceProperties":{"RCID":16817,"PRIM":1,"GRUP":2,"OBJL":75,"RVER":1,"AGEN":7979,"FIDN":1106834597,"FIDS":448,"LNAM":"1F2B41F8F4A501C0","COLOUR":["3"],"HEIGHT":11,"LITCHR":8,"SECTR1":113,"SECTR2":127.5,"SIGGRP":"(1)","SIGPER":10,"SCAMIN":200000,"SORDAT":"20201218","SORIND":"NL,1R,Reprt,MD 587-20","sourceCellId":"1R76K83I","sourceChecksum":"6017d727d00f509d6b6c381af5564bb81f246d4ac7032233c3477a65edfe6f96","rawObjectClass":"LIGHTS","sourceStableId":"1F2B41F8F4A501C0"},"sourceKind":"official","official":true,"sourceCellId":"1R76K83I","sourceStableId":"1F2B41F8F4A501C0","pipelineFeatureId":"1R76K83I/LIGHTS/16817","provenance":{"cellId":"1R76K83I","checksum":"6017d727d00f509d6b6c381af5564bb81f246d4ac7032233c3477a65edfe6f96","readerVersion":"GDAL 3.2.2","processedAt":"2026-08-11T13:43:44.753Z"}}},{"type":"Feature","geometry":{"type":"Point","coordinates":[3.979585,51.4303133]},"properties":{"dolphinKind":"light","rawObjectClass":"LIGHTS","sourceProperties":{"RCID":17250,"PRIM":1,"GRUP":2,"OBJL":75,"RVER":1,"AGEN":7979,"FIDN":1106834683,"FIDS":311,"LNAM":"1F2B41F8F4FB0137","COLOUR":["4"],"LITCHR":5,"SIGGRP":"(1)","SIGPER":0.5,"SCAMIN":200000,"SORDAT":"20030930","sourceCellId":"1R76K83I","sourceChecksum":"6017d727d00f509d6b6c381af5564bb81f246d4ac7032233c3477a65edfe6f96","rawObjectClass":"LIGHTS","sourceStableId":"1F2B41F8F4FB0137"},"sourceKind":"official","official":true,"sourceCellId":"1R76K83I","sourceStableId":"1F2B41F8F4FB0137","pipelineFeatureId":"1R76K83I/LIGHTS/17250","provenance":{"cellId":"1R76K83I","checksum":"6017d727d00f509d6b6c381af5564bb81f246d4ac7032233c3477a65edfe6f96","readerVersion":"GDAL 3.2.2","processedAt":"2026-08-11T13:43:44.753Z"}}},{"type":"Feature","geometry":{"type":"Point","coordinates":[3.9923283,51.4350517]},"properties":{"dolphinKind":"light","rawObjectClass":"LIGHTS","sourceProperties":{"RCID":17252,"PRIM":1,"GRUP":2,"OBJL":75,"RVER":1,"AGEN":7979,"FIDN":1106834683,"FIDS":313,"LNAM":"1F2B41F8F4FB0139","COLOUR":["4"],"LITCHR":4,"SIGGRP":"(1)","SIGPER":1,"SCAMIN":200000,"SORDAT":"20030930","sourceCellId":"1R76K83I","sourceChecksum":"6017d727d00f509d6b6c381af5564bb81f246d4ac7032233c3477a65edfe6f96","rawObjectClass":"LIGHTS","sourceStableId":"1F2B41F8F4FB0139"},"sourceKind":"official","official":true,"sourceCellId":"1R76K83I","sourceStableId":"1F2B41F8F4FB0139","pipelineFeatureId":"1R76K83I/LIGHTS/17252","provenance":{"cellId":"1R76K83I","checksum":"6017d727d00f509d6b6c381af5564bb81f246d4ac7032233c3477a65edfe6f96","readerVersion":"GDAL 3.2.2","processedAt":"2026-08-11T13:43:44.753Z"}}},{"type":"Feature","geometry":{"type":"Point","coordinates":[4.01333,51.43021]},"properties":{"dolphinKind":"light","rawObjectClass":"LIGHTS","sourceProperties":{"RCID":17254,"PRIM":1,"GRUP":2,"OBJL":75,"RVER":1,"AGEN":7979,"FIDN":1106834683,"FIDS":315,"LNAM":"1F2B41F8F4FB013B","COLOUR":["4"],"LITCHR":7,"SIGGRP":"(1)","SIGPER":8,"SCAMIN":200000,"SORDAT":"20040202","sourceCellId":"1R76K83I","sourceChecksum":"6017d727d00f509d6b6c381af5564bb81f246d4ac7032233c3477a65edfe6f96","rawObjectClass":"LIGHTS","sourceStableId":"1F2B41F8F4FB013B"},"sourceKind":"official","official":true,"sourceCellId":"1R76K83I","sourceStableId":"1F2B41F8F4FB013B","pipelineFeatureId":"1R76K83I/LIGHTS/17254","provenance":{"cellId":"1R76K83I","checksum":"6017d727d00f509d6b6c381af5564bb81f246d4ac7032233c3477a65edfe6f96","readerVersion":"GDAL 3.2.2","processedAt":"2026-08-11T13:43:44.753Z"}}},{"type":"Feature","geometry":{"type":"Point","coordinates":[3.9614567,51.4260933]},"properties":{"dolphinKind":"light","rawObjectClass":"LIGHTS","sourceProperties":{"RCID":17333,"PRIM":1,"GRUP":2,"OBJL":75,"RVER":1,"AGEN":7979,"FIDN":1106834683,"FIDS":394,"LNAM":"1F2B41F8F4FB018A","COLOUR":["3"],"LITCHR":7,"SIGGRP":"(1)","SIGPER":4,"SCAMIN":200000,"SORDAT":"20030930","sourceCellId":"1R76K83I","sourceChecksum":"6017d727d00f509d6b6c381af5564bb81f246d4ac7032233c3477a65edfe6f96","rawObjectClass":"LIGHTS","sourceStableId":"1F2B41F8F4FB018A"},"sourceKind":"official","official":true,"sourceCellId":"1R76K83I","sourceStableId":"1F2B41F8F4FB018A","pipelineFeatureId":"1R76K83I/LIGHTS/17333","provenance":{"cellId":"1R76K83I","checksum":"6017d727d00f509d6b6c381af5564bb81f246d4ac7032233c3477a65edfe6f96","readerVersion":"GDAL 3.2.2","processedAt":"2026-08-11T13:43:44.753Z"}}},{"type":"Feature","geometry":{"type":"Point","coordinates":[3.9704617,51.4363417]},"properties":{"dolphinKind":"light","rawObjectClass":"LIGHTS","sourceProperties":{"RCID":17335,"PRIM":1,"GRUP":2,"OBJL":75,"RVER":1,"AGEN":7979,"FIDN":1106834683,"FIDS":396,"LNAM":"1F2B41F8F4FB018C","COLOUR":["3"],"LITCHR":7,"SIGGRP":"(1)","SIGPER":8,"SCAMIN":200000,"SORDAT":"20030930","sourceCellId":"1R76K83I","sourceChecksum":"6017d727d00f509d6b6c381af5564bb81f246d4ac7032233c3477a65edfe6f96","rawObjectClass":"LIGHTS","sourceStableId":"1F2B41F8F4FB018C"},"sourceKind":"official","official":true,"sourceCellId":"1R76K83I","sourceStableId":"1F2B41F8F4FB018C","pipelineFeatureId":"1R76K83I/LIGHTS/17335","provenance":{"cellId":"1R76K83I","checksum":"6017d727d00f509d6b6c381af5564bb81f246d4ac7032233c3477a65edfe6f96","readerVersion":"GDAL 3.2.2","processedAt":"2026-08-11T13:43:44.753Z"}}},{"type":"Feature","geometry":{"type":"Point","coordinates":[3.9997683,51.44083]},"properties":{"dolphinKind":"light","rawObjectClass":"LIGHTS","sourceProperties":{"RCID":17337,"PRIM":1,"GRUP":2,"OBJL":75,"RVER":1,"AGEN":7979,"FIDN":1106834683,"FIDS":398,"LNAM":"1F2B41F8F4FB018E","COLOUR":["3"],"LITCHR":7,"SIGGRP":"(1)","SIGPER":4,"SCAMIN":200000,"SORDAT":"20220518","SORIND":"NL,1R,reprt,mail Cijsouw","sourceCellId":"1R76K83I","sourceChecksum":"6017d727d00f509d6b6c381af5564bb81f246d4ac7032233c3477a65edfe6f96","rawObjectClass":"LIGHTS","sourceStableId":"1F2B41F8F4FB018E"},"sourceKind":"official","official":true,"sourceCellId":"1R76K83I","sourceStableId":"1F2B41F8F4FB018E","pipelineFeatureId":"1R76K83I/LIGHTS/17337","provenance":{"cellId":"1R76K83I","checksum":"6017d727d00f509d6b6c381af5564bb81f246d4ac7032233c3477a65edfe6f96","readerVersion":"GDAL 3.2.2","processedAt":"2026-08-11T13:43:44.753Z"}}},{"type":"Feature","geometry":{"type":"Point","coordinates":[4.0222467,51.4349867]},"properties":{"dolphinKind":"light","rawObjectClass":"LIGHTS","sourceProperties":{"RCID":17341,"PRIM":1,"GRUP":2,"OBJL":75,"RVER":1,"AGEN":7979,"FIDN":1106834683,"FIDS":402,"LNAM":"1F2B41F8F4FB0192","COLOUR":["3"],"LITCHR":7,"SIGGRP":"(1)","SIGPER":8,"SCAMIN":200000,"SORDAT":"20030930","sourceCellId":"1R76K83I","sourceChecksum":"6017d727d00f509d6b6c381af5564bb81f246d4ac7032233c3477a65edfe6f96","rawObjectClass":"LIGHTS","sourceStableId":"1F2B41F8F4FB0192"},"sourceKind":"official","official":true,"sourceCellId":"1R76K83I","sourceStableId":"1F2B41F8F4FB0192","pipelineFeatureId":"1R76K83I/LIGHTS/17341","provenance":{"cellId":"1R76K83I","checksum":"6017d727d00f509d6b6c381af5564bb81f246d4ac7032233c3477a65edfe6f96","readerVersion":"GDAL 3.2.2","processedAt":"2026-08-11T13:43:44.753Z"}}},{"type":"Feature","geometry":{"type":"Point","coordinates":[3.9372433,51.4478133]},"properties":{"dolphinKind":"light","rawObjectClass":"LIGHTS","sourceProperties":{"RCID":17391,"PRIM":1,"GRUP":2,"OBJL":75,"RVER":1,"AGEN":7979,"FIDN":1106834683,"FIDS":452,"LNAM":"1F2B41F8F4FB01C4","COLOUR":["3"],"LITCHR":4,"SIGGRP":"(1)","SCAMIN":200000,"SORDAT":"20250210","SORIND":"NL,1R,reprt,MD070-2025","sourceCellId":"1R76K83I","sourceChecksum":"6017d727d00f509d6b6c381af5564bb81f246d4ac7032233c3477a65edfe6f96","rawObjectClass":"LIGHTS","sourceStableId":"1F2B41F8F4FB01C4"},"sourceKind":"official","official":true,"sourceCellId":"1R76K83I","sourceStableId":"1F2B41F8F4FB01C4","pipelineFeatureId":"1R76K83I/LIGHTS/17391","provenance":{"cellId":"1R76K83I","checksum":"6017d727d00f509d6b6c381af5564bb81f246d4ac7032233c3477a65edfe6f96","readerVersion":"GDAL 3.2.2","processedAt":"2026-08-11T13:43:44.753Z"}}},{"type":"Feature","geometry":{"type":"Point","coordinates":[3.9349883,51.4413583]},"properties":{"dolphinKind":"light","rawObjectClass":"LIGHTS","sourceProperties":{"RCID":17405,"PRIM":1,"GRUP":2,"OBJL":75,"RVER":1,"AGEN":7979,"FIDN":1106834683,"FIDS":466,"LNAM":"1F2B41F8F4FB01D2","COLOUR":["4"],"LITCHR":5,"SIGGRP":"(1)","SIGPER":0.5,"SCAMIN":200000,"SORDAT":"20110609","SORIND":"NL,1R,Reprt,Bass049/11","sourceCellId":"1R76K83I","sourceChecksum":"6017d727d00f509d6b6c381af5564bb81f246d4ac7032233c3477a65edfe6f96","rawObjectClass":"LIGHTS","sourceStableId":"1F2B41F8F4FB01D2"},"sourceKind":"official","official":true,"sourceCellId":"1R76K83I","sourceStableId":"1F2B41F8F4FB01D2","pipelineFeatureId":"1R76K83I/LIGHTS/17405","provenance":{"cellId":"1R76K83I","checksum":"6017d727d00f509d6b6c381af5564bb81f246d4ac7032233c3477a65edfe6f96","readerVersion":"GDAL 3.2.2","processedAt":"2026-08-11T13:43:44.753Z"}}},{"type":"Feature","geometry":{"type":"Point","coordinates":[4.0056867,51.4666333]},"properties":{"dolphinKind":"light","rawObjectClass":"LIGHTS","sourceProperties":{"RCID":20305,"PRIM":1,"GRUP":2,"OBJL":75,"RVER":1,"AGEN":7979,"FIDN":1106834755,"FIDS":496,"LNAM":"1F2B41F8F54301F0","COLOUR":["4"],"HEIGHT":8,"LITCHR":7,"SIGPER":4,"VALNMR":3,"SCAMIN":200000,"sourceCellId":"1R76K83I","sourceChecksum":"6017d727d00f509d6b6c381af5564bb81f246d4ac7032233c3477a65edfe6f96","rawObjectClass":"LIGHTS","sourceStableId":"1F2B41F8F54301F0"},"sourceKind":"official","official":true,"sourceCellId":"1R76K83I","sourceStableId":"1F2B41F8F54301F0","pipelineFeatureId":"1R76K83I/LIGHTS/20305","provenance":{"cellId":"1R76K83I","checksum":"6017d727d00f509d6b6c381af5564bb81f246d4ac7032233c3477a65edfe6f96","readerVersion":"GDAL 3.2.2","processedAt":"2026-08-11T13:43:44.753Z"}}},{"type":"Feature","geometry":{"type":"Point","coordinates":[4.0056267,51.467295]},"properties":{"dolphinKind":"light","rawObjectClass":"LIGHTS","sourceProperties":{"RCID":20306,"PRIM":1,"GRUP":2,"OBJL":75,"RVER":1,"AGEN":7979,"FIDN":1106834755,"FIDS":497,"LNAM":"1F2B41F8F54301F1","COLOUR":["4"],"HEIGHT":8,"LITCHR":7,"SIGPER":4,"VALNMR":3,"SCAMIN":200000,"sourceCellId":"1R76K83I","sourceChecksum":"6017d727d00f509d6b6c381af5564bb81f246d4ac7032233c3477a65edfe6f96","rawObjectClass":"LIGHTS","sourceStableId":"1F2B41F8F54301F1"},"sourceKind":"official","official":true,"sourceCellId":"1R76K83I","sourceStableId":"1F2B41F8F54301F1","pipelineFeatureId":"1R76K83I/LIGHTS/20306","provenance":{"cellId":"1R76K83I","checksum":"6017d727d00f509d6b6c381af5564bb81f246d4ac7032233c3477a65edfe6f96","readerVersion":"GDAL 3.2.2","processedAt":"2026-08-11T13:43:44.753Z"}}},{"type":"Feature","geometry":{"type":"Point","coordinates":[4.007475,51.4666833]},"properties":{"dolphinKind":"light","rawObjectClass":"LIGHTS","sourceProperties":{"RCID":20307,"PRIM":1,"GRUP":2,"OBJL":75,"RVER":1,"AGEN":7979,"FIDN":1106834755,"FIDS":498,"LNAM":"1F2B41F8F54301F2","COLOUR":["3"],"HEIGHT":8,"LITCHR":7,"SIGPER":4,"VALNMR":3,"SCAMIN":200000,"sourceCellId":"1R76K83I","sourceChecksum":"6017d727d00f509d6b6c381af5564bb81f246d4ac7032233c3477a65edfe6f96","rawObjectClass":"LIGHTS","sourceStableId":"1F2B41F8F54301F2"},"sourceKind":"official","official":true,"sourceCellId":"1R76K83I","sourceStableId":"1F2B41F8F54301F2","pipelineFeatureId":"1R76K83I/LIGHTS/20307","provenance":{"cellId":"1R76K83I","checksum":"6017d727d00f509d6b6c381af5564bb81f246d4ac7032233c3477a65edfe6f96","readerVersion":"GDAL 3.2.2","processedAt":"2026-08-11T13:43:44.753Z"}}},{"type":"Feature","geometry":{"type":"Point","coordinates":[4.007445,51.4673233]},"properties":{"dolphinKind":"light","rawObjectClass":"LIGHTS","sourceProperties":{"RCID":20308,"PRIM":1,"GRUP":2,"OBJL":75,"RVER":1,"AGEN":7979,"FIDN":1106834755,"FIDS":499,"LNAM":"1F2B41F8F54301F3","COLOUR":["3"],"HEIGHT":8,"LITCHR":7,"SIGPER":4,"VALNMR":3,"SCAMIN":200000,"sourceCellId":"1R76K83I","sourceChecksum":"6017d727d00f509d6b6c381af5564bb81f246d4ac7032233c3477a65edfe6f96","rawObjectClass":"LIGHTS","sourceStableId":"1F2B41F8F54301F3"},"sourceKind":"official","official":true,"sourceCellId":"1R76K83I","sourceStableId":"1F2B41F8F54301F3","pipelineFeatureId":"1R76K83I/LIGHTS/20308","provenance":{"cellId":"1R76K83I","checksum":"6017d727d00f509d6b6c381af5564bb81f246d4ac7032233c3477a65edfe6f96","readerVersion":"GDAL 3.2.2","processedAt":"2026-08-11T13:43:44.753Z"}}},{"type":"Feature","geometry":{"type":"Point","coordinates":[3.986645,51.4340633]},"properties":{"dolphinKind":"light","rawObjectClass":"LIGHTS","sourceProperties":{"RCID":28491617,"PRIM":1,"GRUP":2,"OBJL":75,"RVER":1,"AGEN":7979,"FIDN":28491617,"FIDS":1,"LNAM":"1F2B01B2BF610001","COLOUR":["4"],"LITCHR":7,"SIGGRP":"(1)","SIGPER":4,"SCAMIN":200000,"SORDAT":"20090423","SORIND":"NL,1R,reprt,Bass036-09","sourceCellId":"1R76K83I","sourceChecksum":"6017d727d00f509d6b6c381af5564bb81f246d4ac7032233c3477a65edfe6f96","rawObjectClass":"LIGHTS","sourceStableId":"1F2B01B2BF610001"},"sourceKind":"official","official":true,"sourceCellId":"1R76K83I","sourceStableId":"1F2B01B2BF610001","pipelineFeatureId":"1R76K83I/LIGHTS/28491617","provenance":{"cellId":"1R76K83I","checksum":"6017d727d00f509d6b6c381af5564bb81f246d4ac7032233c3477a65edfe6f96","readerVersion":"GDAL 3.2.2","processedAt":"2026-08-11T13:43:44.753Z"}}},{"type":"Feature","geometry":{"type":"Point","coordinates":[3.9395633,51.4444517]},"properties":{"dolphinKind":"light","rawObjectClass":"LIGHTS","sourceProperties":{"RCID":72497745,"PRIM":1,"GRUP":2,"OBJL":75,"RVER":1,"AGEN":7979,"FIDN":72497745,"FIDS":1,"LNAM":"1F2B04523A510001","COLOUR":["4"],"LITCHR":7,"SIGGRP":"(1)","SIGPER":4,"SCAMIN":200000,"SORDAT":"20110609","SORIND":"NL,1R,Reprt,Bass049/11","sourceCellId":"1R76K83I","sourceChecksum":"6017d727d00f509d6b6c381af5564bb81f246d4ac7032233c3477a65edfe6f96","rawObjectClass":"LIGHTS","sourceStableId":"1F2B04523A510001"},"sourceKind":"official","official":true,"sourceCellId":"1R76K83I","sourceStableId":"1F2B04523A510001","pipelineFeatureId":"1R76K83I/LIGHTS/72497745","provenance":{"cellId":"1R76K83I","checksum":"6017d727d00f509d6b6c381af5564bb81f246d4ac7032233c3477a65edfe6f96","readerVersion":"GDAL 3.2.2","processedAt":"2026-08-11T13:43:44.753Z"}}},{"type":"Feature","geometry":{"type":"Point","coordinates":[4.0060282,51.4749233]},"properties":{"dolphinKind":"light","rawObjectClass":"LIGHTS","sourceProperties":{"RCID":189406954,"PRIM":1,"GRUP":2,"OBJL":75,"RVER":1,"AGEN":7979,"FIDN":189406954,"FIDS":1,"LNAM":"1F2B0B4A1EEA0001","COLOUR":["1"],"LITCHR":1,"SCAMIN":200000,"SORDAT":"20150817","SORIND":"NL,1R,rprt,Topdesk M-150806077","sourceCellId":"1R76K83I","sourceChecksum":"6017d727d00f509d6b6c381af5564bb81f246d4ac7032233c3477a65edfe6f96","rawObjectClass":"LIGHTS","sourceStableId":"1F2B0B4A1EEA0001"},"sourceKind":"official","official":true,"sourceCellId":"1R76K83I","sourceStableId":"1F2B0B4A1EEA0001","pipelineFeatureId":"1R76K83I/LIGHTS/189406954","provenance":{"cellId":"1R76K83I","checksum":"6017d727d00f509d6b6c381af5564bb81f246d4ac7032233c3477a65edfe6f96","readerVersion":"GDAL 3.2.2","processedAt":"2026-08-11T13:43:44.753Z"}}},{"type":"Feature","geometry":{"type":"Point","coordinates":[4.0060579,51.4742109]},"properties":{"dolphinKind":"light","rawObjectClass":"LIGHTS","sourceProperties":{"RCID":189406955,"PRIM":1,"GRUP":2,"OBJL":75,"RVER":1,"AGEN":7979,"FIDN":189406955,"FIDS":1,"LNAM":"1F2B0B4A1EEB0001","COLOUR":["1"],"LITCHR":1,"SCAMIN":200000,"SORDAT":"20150817","SORIND":"NL,1R,rprt,Topdesk M-150806077","sourceCellId":"1R76K83I","sourceChecksum":"6017d727d00f509d6b6c381af5564bb81f246d4ac7032233c3477a65edfe6f96","rawObjectClass":"LIGHTS","sourceStableId":"1F2B0B4A1EEB0001"},"sourceKind":"official","official":true,"sourceCellId":"1R76K83I","sourceStableId":"1F2B0B4A1EEB0001","pipelineFeatureId":"1R76K83I/LIGHTS/189406955","provenance":{"cellId":"1R76K83I","checksum":"6017d727d00f509d6b6c381af5564bb81f246d4ac7032233c3477a65edfe6f96","readerVersion":"GDAL 3.2.2","processedAt":"2026-08-11T13:43:44.753Z"}}},{"type":"Feature","geometry":{"type":"Point","coordinates":[4.0089,51.4402666]},"properties":{"dolphinKind":"light","rawObjectClass":"LIGHTS","sourceProperties":{"RCID":191511828,"PRIM":1,"GRUP":2,"OBJL":75,"RVER":1,"AGEN":7979,"FIDN":191511828,"FIDS":1,"LNAM":"1F2B0B6A3D140001","COLOUR":["3"],"EXCLIT":4,"LITCHR":1,"SCAMIN":200000,"SORDAT":"20201218","SORIND":"NL,1R,Reprt,MD 587-20","sourceCellId":"1R76K83I","sourceChecksum":"6017d727d00f509d6b6c381af5564bb81f246d4ac7032233c3477a65edfe6f96","rawObjectClass":"LIGHTS","sourceStableId":"1F2B0B6A3D140001"},"sourceKind":"official","official":true,"sourceCellId":"1R76K83I","sourceStableId":"1F2B0B6A3D140001","pipelineFeatureId":"1R76K83I/LIGHTS/191511828","provenance":{"cellId":"1R76K83I","checksum":"6017d727d00f509d6b6c381af5564bb81f246d4ac7032233c3477a65edfe6f96","readerVersion":"GDAL 3.2.2","processedAt":"2026-08-11T13:43:44.753Z"}}},{"type":"Feature","geometry":{"type":"Point","coordinates":[3.946965,51.445735]},"properties":{"dolphinKind":"light","rawObjectClass":"LIGHTS","sourceProperties":{"RCID":245545678,"PRIM":1,"GRUP":2,"OBJL":75,"RVER":1,"AGEN":7979,"FIDN":245545678,"FIDS":1,"LNAM":"1F2B0EA2BACE0001","COLOUR":["4"],"LITCHR":7,"SIGGRP":"(1)","SIGPER":8,"SCAMIN":200000,"SORDAT":"20180124","SORIND":"NL,1R,reprt,MD026-18","sourceCellId":"1R76K83I","sourceChecksum":"6017d727d00f509d6b6c381af5564bb81f246d4ac7032233c3477a65edfe6f96","rawObjectClass":"LIGHTS","sourceStableId":"1F2B0EA2BACE0001"},"sourceKind":"official","official":true,"sourceCellId":"1R76K83I","sourceStableId":"1F2B0EA2BACE0001","pipelineFeatureId":"1R76K83I/LIGHTS/245545678","provenance":{"cellId":"1R76K83I","checksum":"6017d727d00f509d6b6c381af5564bb81f246d4ac7032233c3477a65edfe6f96","readerVersion":"GDAL 3.2.2","processedAt":"2026-08-11T13:43:44.753Z"}}},{"type":"Feature","geometry":{"type":"Point","coordinates":[3.97172,51.4454083]},"properties":{"dolphinKind":"light","rawObjectClass":"LIGHTS","sourceProperties":{"RCID":245545682,"PRIM":1,"GRUP":2,"OBJL":75,"RVER":1,"AGEN":7979,"FIDN":245545682,"FIDS":1,"LNAM":"1F2B0EA2BAD20001","CATLIT":["19"],"COLOUR":["4"],"LITCHR":8,"SIGGRP":"(2)","SIGPER":10,"SCAMIN":200000,"SORDAT":"20180124","SORIND":"NL,1R,reprt,MD026-18","sourceCellId":"1R76K83I","sourceChecksum":"6017d727d00f509d6b6c381af5564bb81f246d4ac7032233c3477a65edfe6f96","rawObjectClass":"LIGHTS","sourceStableId":"1F2B0EA2BAD20001"},"sourceKind":"official","official":true,"sourceCellId":"1R76K83I","sourceStableId":"1F2B0EA2BAD20001","pipelineFeatureId":"1R76K83I/LIGHTS/245545682","provenance":{"cellId":"1R76K83I","checksum":"6017d727d00f509d6b6c381af5564bb81f246d4ac7032233c3477a65edfe6f96","readerVersion":"GDAL 3.2.2","processedAt":"2026-08-11T13:43:44.753Z"}}},{"type":"Feature","geometry":{"type":"Point","coordinates":[3.9802767,51.4478483]},"properties":{"dolphinKind":"light","rawObjectClass":"LIGHTS","sourceProperties":{"RCID":245545684,"PRIM":1,"GRUP":2,"OBJL":75,"RVER":1,"AGEN":7979,"FIDN":245545684,"FIDS":1,"LNAM":"1F2B0EA2BAD40001","LNAM_REFS":["1F2B487A14FD0001"],"FFPT_RIND":[2],"COLOUR":["3"],"LITCHR":8,"SIGGRP":"(2)","SIGPER":10,"SCAMIN":200000,"SORDAT":"20180125","SORIND":"NL,1R,reprt,MD026-18","sourceCellId":"1R76K83I","sourceChecksum":"6017d727d00f509d6b6c381af5564bb81f246d4ac7032233c3477a65edfe6f96","rawObjectClass":"LIGHTS","sourceStableId":"1F2B0EA2BAD40001"},"sourceKind":"official","official":true,"sourceCellId":"1R76K83I","sourceStableId":"1F2B0EA2BAD40001","pipelineFeatureId":"1R76K83I/LIGHTS/245545684","provenance":{"cellId":"1R76K83I","checksum":"6017d727d00f509d6b6c381af5564bb81f246d4ac7032233c3477a65edfe6f96","readerVersion":"GDAL 3.2.2","processedAt":"2026-08-11T13:43:44.753Z"}}},{"type":"Feature","geometry":{"type":"Point","coordinates":[3.9586867,51.4480333]},"properties":{"dolphinKind":"light","rawObjectClass":"LIGHTS","sourceProperties":{"RCID":259660771,"PRIM":1,"GRUP":2,"OBJL":75,"RVER":1,"AGEN":7979,"FIDN":259660771,"FIDS":1,"LNAM":"1F2B0F7A1BE30001","COLOUR":["3"],"LITCHR":7,"SIGGRP":"(1)","SIGPER":8,"SCAMIN":200000,"SORDAT":"20180522","SORIND":"NL,reprt,MD 229-18","sourceCellId":"1R76K83I","sourceChecksum":"6017d727d00f509d6b6c381af5564bb81f246d4ac7032233c3477a65edfe6f96","rawObjectClass":"LIGHTS","sourceStableId":"1F2B0F7A1BE30001"},"sourceKind":"official","official":true,"sourceCellId":"1R76K83I","sourceStableId":"1F2B0F7A1BE30001","pipelineFeatureId":"1R76K83I/LIGHTS/259660771","provenance":{"cellId":"1R76K83I","checksum":"6017d727d00f509d6b6c381af5564bb81f246d4ac7032233c3477a65edfe6f96","readerVersion":"GDAL 3.2.2","processedAt":"2026-08-11T13:43:44.753Z"}}},{"type":"Feature","geometry":{"type":"Point","coordinates":[4.00008,51.4348783]},"properties":{"dolphinKind":"light","rawObjectClass":"LIGHTS","sourceProperties":{"RCID":300241717,"PRIM":1,"GRUP":2,"OBJL":75,"RVER":1,"AGEN":7979,"FIDN":300241717,"FIDS":1,"LNAM":"1F2B11E553350001","COLOUR":["4"],"LITCHR":7,"SIGGRP":"(1)","SIGPER":4,"SCAMIN":200000,"SORDAT":"20090423","SORIND":"NL,1R,reprt,Bass036-09","sourceCellId":"1R76K83I","sourceChecksum":"6017d727d00f509d6b6c381af5564bb81f246d4ac7032233c3477a65edfe6f96","rawObjectClass":"LIGHTS","sourceStableId":"1F2B11E553350001"},"sourceKind":"official","official":true,"sourceCellId":"1R76K83I","sourceStableId":"1F2B11E553350001","pipelineFeatureId":"1R76K83I/LIGHTS/300241717","provenance":{"cellId":"1R76K83I","checksum":"6017d727d00f509d6b6c381af5564bb81f246d4ac7032233c3477a65edfe6f96","readerVersion":"GDAL 3.2.2","processedAt":"2026-08-11T13:43:44.753Z"}}},{"type":"Feature","geometry":{"type":"Point","coordinates":[3.9820983,51.4399333]},"properties":{"dolphinKind":"light","rawObjectClass":"LIGHTS","sourceProperties":{"RCID":300241723,"PRIM":1,"GRUP":2,"OBJL":75,"RVER":1,"AGEN":7979,"FIDN":300241723,"FIDS":1,"LNAM":"1F2B11E5533B0001","COLOUR":["1"],"LITCHR":26,"SIGGRP":"(6)(1)","SIGPER":10,"SCAMIN":500000,"SORDAT":"20230703","SORIND":"NL,1R,Reprt,NDB-verbetering","sourceCellId":"1R76K83I","sourceChecksum":"6017d727d00f509d6b6c381af5564bb81f246d4ac7032233c3477a65edfe6f96","rawObjectClass":"LIGHTS","sourceStableId":"1F2B11E5533B0001"},"sourceKind":"official","official":true,"sourceCellId":"1R76K83I","sourceStableId":"1F2B11E5533B0001","pipelineFeatureId":"1R76K83I/LIGHTS/300241723","provenance":{"cellId":"1R76K83I","checksum":"6017d727d00f509d6b6c381af5564bb81f246d4ac7032233c3477a65edfe6f96","readerVersion":"GDAL 3.2.2","processedAt":"2026-08-11T13:43:44.753Z"}}},{"type":"Feature","geometry":{"type":"Point","coordinates":[3.9903517,51.4530383]},"properties":{"dolphinKind":"light","rawObjectClass":"LIGHTS","sourceProperties":{"RCID":494041844,"PRIM":1,"GRUP":2,"OBJL":75,"RVER":1,"AGEN":7979,"FIDN":494041844,"FIDS":1,"LNAM":"1F2B1D727AF40001","CATLIT":["14","4"],"COLOUR":["1"],"HEIGHT":5,"LITCHR":8,"OBJNAM":"Lichtenlijn Schore  21.5 GR Laag (0176)","SIGGRP":"(1)","SIGPER":4,"SCAMIN":200000,"SORDAT":"20240424","SORIND":"NL,1R,reprt,MD231-24","sourceCellId":"1R76K83I","sourceChecksum":"6017d727d00f509d6b6c381af5564bb81f246d4ac7032233c3477a65edfe6f96","rawObjectClass":"LIGHTS","sourceStableId":"1F2B1D727AF40001"},"sourceKind":"official","official":true,"sourceCellId":"1R76K83I","sourceStableId":"1F2B1D727AF40001","pipelineFeatureId":"1R76K83I/LIGHTS/494041844","provenance":{"cellId":"1R76K83I","checksum":"6017d727d00f509d6b6c381af5564bb81f246d4ac7032233c3477a65edfe6f96","readerVersion":"GDAL 3.2.2","processedAt":"2026-08-11T13:43:44.753Z"}}},{"type":"Feature","geometry":{"type":"Point","coordinates":[4.0044074,51.4646668]},"properties":{"dolphinKind":"topmark","rawObjectClass":"TOPMAR","sourceProperties":{"RCID":9355,"PRIM":1,"GRUP":2,"OBJL":144,"RVER":1,"AGEN":7979,"FIDN":1106210626,"FIDS":430,"LNAM":"1F2B41EF6F4201AE","COLOUR":["6"],"TOPSHP":20,"SCAMIN":200000,"sourceCellId":"1R76K83I","sourceChecksum":"6017d727d00f509d6b6c381af5564bb81f246d4ac7032233c3477a65edfe6f96","rawObjectClass":"TOPMAR","sourceStableId":"1F2B41EF6F4201AE"},"sourceKind":"official","official":true,"sourceCellId":"1R76K83I","sourceStableId":"1F2B41EF6F4201AE","pipelineFeatureId":"1R76K83I/TOPMAR/9355","provenance":{"cellId":"1R76K83I","checksum":"6017d727d00f509d6b6c381af5564bb81f246d4ac7032233c3477a65edfe6f96","readerVersion":"GDAL 3.2.2","processedAt":"2026-08-11T13:43:44.753Z"},"associationRefsVerifiedInGdalOutput":false}},{"type":"Feature","geometry":{"type":"Point","coordinates":[4.0088008,51.4647936]},"properties":{"dolphinKind":"topmark","rawObjectClass":"TOPMAR","sourceProperties":{"RCID":9356,"PRIM":1,"GRUP":2,"OBJL":144,"RVER":1,"AGEN":7979,"FIDN":1106210626,"FIDS":431,"LNAM":"1F2B41EF6F4201AF","COLOUR":["6"],"TOPSHP":20,"SCAMIN":200000,"sourceCellId":"1R76K83I","sourceChecksum":"6017d727d00f509d6b6c381af5564bb81f246d4ac7032233c3477a65edfe6f96","rawObjectClass":"TOPMAR","sourceStableId":"1F2B41EF6F4201AF"},"sourceKind":"official","official":true,"sourceCellId":"1R76K83I","sourceStableId":"1F2B41EF6F4201AF","pipelineFeatureId":"1R76K83I/TOPMAR/9356","provenance":{"cellId":"1R76K83I","checksum":"6017d727d00f509d6b6c381af5564bb81f246d4ac7032233c3477a65edfe6f96","readerVersion":"GDAL 3.2.2","processedAt":"2026-08-11T13:43:44.753Z"},"associationRefsVerifiedInGdalOutput":false}},{"type":"Feature","geometry":{"type":"Point","coordinates":[4.0098037,51.4621164]},"properties":{"dolphinKind":"topmark","rawObjectClass":"TOPMAR","sourceProperties":{"RCID":9357,"PRIM":1,"GRUP":2,"OBJL":144,"RVER":1,"AGEN":7979,"FIDN":1106210626,"FIDS":432,"LNAM":"1F2B41EF6F4201B0","COLOUR":["6"],"TOPSHP":20,"SCAMIN":200000,"sourceCellId":"1R76K83I","sourceChecksum":"6017d727d00f509d6b6c381af5564bb81f246d4ac7032233c3477a65edfe6f96","rawObjectClass":"TOPMAR","sourceStableId":"1F2B41EF6F4201B0"},"sourceKind":"official","official":true,"sourceCellId":"1R76K83I","sourceStableId":"1F2B41EF6F4201B0","pipelineFeatureId":"1R76K83I/TOPMAR/9357","provenance":{"cellId":"1R76K83I","checksum":"6017d727d00f509d6b6c381af5564bb81f246d4ac7032233c3477a65edfe6f96","readerVersion":"GDAL 3.2.2","processedAt":"2026-08-11T13:43:44.753Z"},"associationRefsVerifiedInGdalOutput":false}},{"type":"Feature","geometry":{"type":"Point","coordinates":[4.0049089,51.4615048]},"properties":{"dolphinKind":"topmark","rawObjectClass":"TOPMAR","sourceProperties":{"RCID":9358,"PRIM":1,"GRUP":2,"OBJL":144,"RVER":1,"AGEN":7979,"FIDN":1106210626,"FIDS":433,"LNAM":"1F2B41EF6F4201B1","COLOUR":["6"],"TOPSHP":20,"SCAMIN":200000,"sourceCellId":"1R76K83I","sourceChecksum":"6017d727d00f509d6b6c381af5564bb81f246d4ac7032233c3477a65edfe6f96","rawObjectClass":"TOPMAR","sourceStableId":"1F2B41EF6F4201B1"},"sourceKind":"official","official":true,"sourceCellId":"1R76K83I","sourceStableId":"1F2B41EF6F4201B1","pipelineFeatureId":"1R76K83I/TOPMAR/9358","provenance":{"cellId":"1R76K83I","checksum":"6017d727d00f509d6b6c381af5564bb81f246d4ac7032233c3477a65edfe6f96","readerVersion":"GDAL 3.2.2","processedAt":"2026-08-11T13:43:44.753Z"},"associationRefsVerifiedInGdalOutput":false}},{"type":"Feature","geometry":{"type":"Point","coordinates":[3.9820983,51.4399333]},"properties":{"dolphinKind":"topmark","rawObjectClass":"TOPMAR","sourceProperties":{"RCID":17200,"PRIM":1,"GRUP":2,"OBJL":144,"RVER":1,"AGEN":7979,"FIDN":1106834683,"FIDS":261,"LNAM":"1F2B41F8F4FB0105","COLOUR":["2"],"TOPSHP":14,"SCAMIN":500000,"SORDAT":"20030930","sourceCellId":"1R76K83I","sourceChecksum":"6017d727d00f509d6b6c381af5564bb81f246d4ac7032233c3477a65edfe6f96","rawObjectClass":"TOPMAR","sourceStableId":"1F2B41F8F4FB0105"},"sourceKind":"official","official":true,"sourceCellId":"1R76K83I","sourceStableId":"1F2B41F8F4FB0105","pipelineFeatureId":"1R76K83I/TOPMAR/17200","provenance":{"cellId":"1R76K83I","checksum":"6017d727d00f509d6b6c381af5564bb81f246d4ac7032233c3477a65edfe6f96","readerVersion":"GDAL 3.2.2","processedAt":"2026-08-11T13:43:44.753Z"},"associationRefsVerifiedInGdalOutput":false}},{"type":"Feature","geometry":{"type":"Point","coordinates":[4.0089088,51.4639394]},"properties":{"dolphinKind":"topmark","rawObjectClass":"TOPMAR","sourceProperties":{"RCID":20439,"PRIM":1,"GRUP":2,"OBJL":144,"RVER":1,"AGEN":7979,"FIDN":1106834756,"FIDS":375,"LNAM":"1F2B41F8F5440177","COLOUR":["2","1","2"],"COLPAT":["1"],"TOPSHP":21,"SCAMIN":200000,"sourceCellId":"1R76K83I","sourceChecksum":"6017d727d00f509d6b6c381af5564bb81f246d4ac7032233c3477a65edfe6f96","rawObjectClass":"TOPMAR","sourceStableId":"1F2B41F8F5440177"},"sourceKind":"official","official":true,"sourceCellId":"1R76K83I","sourceStableId":"1F2B41F8F5440177","pipelineFeatureId":"1R76K83I/TOPMAR/20439","provenance":{"cellId":"1R76K83I","checksum":"6017d727d00f509d6b6c381af5564bb81f246d4ac7032233c3477a65edfe6f96","readerVersion":"GDAL 3.2.2","processedAt":"2026-08-11T13:43:44.753Z"},"associationRefsVerifiedInGdalOutput":false}},{"type":"Feature","geometry":{"type":"Point","coordinates":[4.034475,51.4283533]},"properties":{"dolphinKind":"topmark","rawObjectClass":"TOPMAR","sourceProperties":{"RCID":187458900,"PRIM":1,"GRUP":2,"OBJL":144,"RVER":1,"AGEN":7979,"FIDN":187458900,"FIDS":1,"LNAM":"1F2B0B2C65540001","COLOUR":["6"],"TOPSHP":7,"SCAMIN":200000,"SORDAT":"20160303","SORIND":"NL,1R,reprt,BASS 018-2016","sourceCellId":"1R76K83I","sourceChecksum":"6017d727d00f509d6b6c381af5564bb81f246d4ac7032233c3477a65edfe6f96","rawObjectClass":"TOPMAR","sourceStableId":"1F2B0B2C65540001"},"sourceKind":"official","official":true,"sourceCellId":"1R76K83I","sourceStableId":"1F2B0B2C65540001","pipelineFeatureId":"1R76K83I/TOPMAR/187458900","provenance":{"cellId":"1R76K83I","checksum":"6017d727d00f509d6b6c381af5564bb81f246d4ac7032233c3477a65edfe6f96","readerVersion":"GDAL 3.2.2","processedAt":"2026-08-11T13:43:44.753Z"},"associationRefsVerifiedInGdalOutput":false}},{"type":"Feature","geometry":{"type":"Point","coordinates":[3.96846,51.4376683]},"properties":{"dolphinKind":"topmark","rawObjectClass":"TOPMAR","sourceProperties":{"RCID":512799746,"PRIM":1,"GRUP":2,"OBJL":144,"RVER":1,"AGEN":7979,"FIDN":512799746,"FIDS":1,"LNAM":"1F2B1E90B4020001","COLOUR":["6"],"TOPSHP":7,"SCAMIN":200000,"SORDAT":"20141007","SORIND":"NL,1R,Reprt,Bass116-2014","sourceCellId":"1R76K83I","sourceChecksum":"6017d727d00f509d6b6c381af5564bb81f246d4ac7032233c3477a65edfe6f96","rawObjectClass":"TOPMAR","sourceStableId":"1F2B1E90B4020001"},"sourceKind":"official","official":true,"sourceCellId":"1R76K83I","sourceStableId":"1F2B1E90B4020001","pipelineFeatureId":"1R76K83I/TOPMAR/512799746","provenance":{"cellId":"1R76K83I","checksum":"6017d727d00f509d6b6c381af5564bb81f246d4ac7032233c3477a65edfe6f96","readerVersion":"GDAL 3.2.2","processedAt":"2026-08-11T13:43:44.753Z"},"associationRefsVerifiedInGdalOutput":false}},{"type":"Feature","geometry":{"type":"Point","coordinates":[4.01333,51.43021]},"properties":{"dolphinKind":"topmark","rawObjectClass":"TOPMAR","sourceProperties":{"RCID":1215606979,"PRIM":1,"GRUP":2,"OBJL":144,"RVER":1,"AGEN":7979,"FIDN":1215606979,"FIDS":1,"LNAM":"1F2B4874B0C30001","COLOUR":["4"],"TOPSHP":1,"SCAMIN":200000,"SORDAT":"20250114","SORIND":"NL,1R,Reprt,MD 026-25","sourceCellId":"1R76K83I","sourceChecksum":"6017d727d00f509d6b6c381af5564bb81f246d4ac7032233c3477a65edfe6f96","rawObjectClass":"TOPMAR","sourceStableId":"1F2B4874B0C30001"},"sourceKind":"official","official":true,"sourceCellId":"1R76K83I","sourceStableId":"1F2B4874B0C30001","pipelineFeatureId":"1R76K83I/TOPMAR/1215606979","provenance":{"cellId":"1R76K83I","checksum":"6017d727d00f509d6b6c381af5564bb81f246d4ac7032233c3477a65edfe6f96","readerVersion":"GDAL 3.2.2","processedAt":"2026-08-11T13:43:44.753Z"},"associationRefsVerifiedInGdalOutput":false}},{"type":"Feature","geometry":{"type":"Point","coordinates":[3.979585,51.4303133]},"properties":{"dolphinKind":"topmark","rawObjectClass":"TOPMAR","sourceProperties":{"RCID":1215606980,"PRIM":1,"GRUP":2,"OBJL":144,"RVER":1,"AGEN":7979,"FIDN":1215606980,"FIDS":1,"LNAM":"1F2B4874B0C40001","COLOUR":["4"],"TOPSHP":1,"SCAMIN":200000,"SORDAT":"20250114","SORIND":"NL,1R,Reprt,MD 026-25","sourceCellId":"1R76K83I","sourceChecksum":"6017d727d00f509d6b6c381af5564bb81f246d4ac7032233c3477a65edfe6f96","rawObjectClass":"TOPMAR","sourceStableId":"1F2B4874B0C40001"},"sourceKind":"official","official":true,"sourceCellId":"1R76K83I","sourceStableId":"1F2B4874B0C40001","pipelineFeatureId":"1R76K83I/TOPMAR/1215606980","provenance":{"cellId":"1R76K83I","checksum":"6017d727d00f509d6b6c381af5564bb81f246d4ac7032233c3477a65edfe6f96","readerVersion":"GDAL 3.2.2","processedAt":"2026-08-11T13:43:44.753Z"},"associationRefsVerifiedInGdalOutput":false}},{"type":"Feature","geometry":{"type":"Point","coordinates":[3.9923283,51.4350517]},"properties":{"dolphinKind":"topmark","rawObjectClass":"TOPMAR","sourceProperties":{"RCID":1215606985,"PRIM":1,"GRUP":2,"OBJL":144,"RVER":1,"AGEN":7979,"FIDN":1215606985,"FIDS":1,"LNAM":"1F2B4874B0C90001","COLOUR":["4"],"TOPSHP":1,"SCAMIN":200000,"SORDAT":"20250114","SORIND":"NL,1R,Reprt,MD 026-25","sourceCellId":"1R76K83I","sourceChecksum":"6017d727d00f509d6b6c381af5564bb81f246d4ac7032233c3477a65edfe6f96","rawObjectClass":"TOPMAR","sourceStableId":"1F2B4874B0C90001"},"sourceKind":"official","official":true,"sourceCellId":"1R76K83I","sourceStableId":"1F2B4874B0C90001","pipelineFeatureId":"1R76K83I/TOPMAR/1215606985","provenance":{"cellId":"1R76K83I","checksum":"6017d727d00f509d6b6c381af5564bb81f246d4ac7032233c3477a65edfe6f96","readerVersion":"GDAL 3.2.2","processedAt":"2026-08-11T13:43:44.753Z"},"associationRefsVerifiedInGdalOutput":false}},{"type":"Feature","geometry":{"type":"Point","coordinates":[3.9372433,51.4478133]},"properties":{"dolphinKind":"topmark","rawObjectClass":"TOPMAR","sourceProperties":{"RCID":1215953186,"PRIM":1,"GRUP":2,"OBJL":144,"RVER":1,"AGEN":7979,"FIDN":1215953186,"FIDS":1,"LNAM":"1F2B4879F9220001","COLOUR":["3"],"TOPSHP":5,"SCAMIN":200000,"SORDAT":"20250114","SORIND":"NL,1R,Reprt,MD 026-2025","sourceCellId":"1R76K83I","sourceChecksum":"6017d727d00f509d6b6c381af5564bb81f246d4ac7032233c3477a65edfe6f96","rawObjectClass":"TOPMAR","sourceStableId":"1F2B4879F9220001"},"sourceKind":"official","official":true,"sourceCellId":"1R76K83I","sourceStableId":"1F2B4879F9220001","pipelineFeatureId":"1R76K83I/TOPMAR/1215953186","provenance":{"cellId":"1R76K83I","checksum":"6017d727d00f509d6b6c381af5564bb81f246d4ac7032233c3477a65edfe6f96","readerVersion":"GDAL 3.2.2","processedAt":"2026-08-11T13:43:44.753Z"},"associationRefsVerifiedInGdalOutput":false}},{"type":"Feature","geometry":{"type":"Point","coordinates":[3.97172,51.4454083]},"properties":{"dolphinKind":"topmark","rawObjectClass":"TOPMAR","sourceProperties":{"RCID":1215960288,"PRIM":1,"GRUP":2,"OBJL":144,"RVER":1,"AGEN":7979,"FIDN":1215960288,"FIDS":1,"LNAM":"1F2B487A14E00001","COLOUR":["4"],"TOPSHP":1,"SCAMIN":200000,"SORDAT":"20250114","SORIND":"NL,1R,Reprt,MD 026-2025","sourceCellId":"1R76K83I","sourceChecksum":"6017d727d00f509d6b6c381af5564bb81f246d4ac7032233c3477a65edfe6f96","rawObjectClass":"TOPMAR","sourceStableId":"1F2B487A14E00001"},"sourceKind":"official","official":true,"sourceCellId":"1R76K83I","sourceStableId":"1F2B487A14E00001","pipelineFeatureId":"1R76K83I/TOPMAR/1215960288","provenance":{"cellId":"1R76K83I","checksum":"6017d727d00f509d6b6c381af5564bb81f246d4ac7032233c3477a65edfe6f96","readerVersion":"GDAL 3.2.2","processedAt":"2026-08-11T13:43:44.753Z"},"associationRefsVerifiedInGdalOutput":false}},{"type":"Feature","geometry":{"type":"Point","coordinates":[3.9349883,51.4413583]},"properties":{"dolphinKind":"topmark","rawObjectClass":"TOPMAR","sourceProperties":{"RCID":1215960289,"PRIM":1,"GRUP":2,"OBJL":144,"RVER":1,"AGEN":7979,"FIDN":1215960289,"FIDS":1,"LNAM":"1F2B487A14E10001","COLOUR":["4"],"TOPSHP":1,"SCAMIN":200000,"SORDAT":"20250114","SORIND":"NL,1R,Reprt,MD 026-2025","sourceCellId":"1R76K83I","sourceChecksum":"6017d727d00f509d6b6c381af5564bb81f246d4ac7032233c3477a65edfe6f96","rawObjectClass":"TOPMAR","sourceStableId":"1F2B487A14E10001"},"sourceKind":"official","official":true,"sourceCellId":"1R76K83I","sourceStableId":"1F2B487A14E10001","pipelineFeatureId":"1R76K83I/TOPMAR/1215960289","provenance":{"cellId":"1R76K83I","checksum":"6017d727d00f509d6b6c381af5564bb81f246d4ac7032233c3477a65edfe6f96","readerVersion":"GDAL 3.2.2","processedAt":"2026-08-11T13:43:44.753Z"},"associationRefsVerifiedInGdalOutput":false}},{"type":"Feature","geometry":{"type":"Point","coordinates":[3.946965,51.445735]},"properties":{"dolphinKind":"topmark","rawObjectClass":"TOPMAR","sourceProperties":{"RCID":1215960290,"PRIM":1,"GRUP":2,"OBJL":144,"RVER":1,"AGEN":7979,"FIDN":1215960290,"FIDS":1,"LNAM":"1F2B487A14E20001","COLOUR":["4"],"TOPSHP":1,"SCAMIN":200000,"SORDAT":"20250114","SORIND":"NL,1R,Reprt,MD 026-2025","sourceCellId":"1R76K83I","sourceChecksum":"6017d727d00f509d6b6c381af5564bb81f246d4ac7032233c3477a65edfe6f96","rawObjectClass":"TOPMAR","sourceStableId":"1F2B487A14E20001"},"sourceKind":"official","official":true,"sourceCellId":"1R76K83I","sourceStableId":"1F2B487A14E20001","pipelineFeatureId":"1R76K83I/TOPMAR/1215960290","provenance":{"cellId":"1R76K83I","checksum":"6017d727d00f509d6b6c381af5564bb81f246d4ac7032233c3477a65edfe6f96","readerVersion":"GDAL 3.2.2","processedAt":"2026-08-11T13:43:44.753Z"},"associationRefsVerifiedInGdalOutput":false}},{"type":"Feature","geometry":{"type":"Point","coordinates":[4.0222467,51.4349867]},"properties":{"dolphinKind":"topmark","rawObjectClass":"TOPMAR","sourceProperties":{"RCID":1215960316,"PRIM":1,"GRUP":2,"OBJL":144,"RVER":1,"AGEN":7979,"FIDN":1215960316,"FIDS":1,"LNAM":"1F2B487A14FC0001","COLOUR":["3"],"TOPSHP":5,"SCAMIN":200000,"SORDAT":"20250114","SORIND":"NL,1R,Reprt,MD 026-2025","sourceCellId":"1R76K83I","sourceChecksum":"6017d727d00f509d6b6c381af5564bb81f246d4ac7032233c3477a65edfe6f96","rawObjectClass":"TOPMAR","sourceStableId":"1F2B487A14FC0001"},"sourceKind":"official","official":true,"sourceCellId":"1R76K83I","sourceStableId":"1F2B487A14FC0001","pipelineFeatureId":"1R76K83I/TOPMAR/1215960316","provenance":{"cellId":"1R76K83I","checksum":"6017d727d00f509d6b6c381af5564bb81f246d4ac7032233c3477a65edfe6f96","readerVersion":"GDAL 3.2.2","processedAt":"2026-08-11T13:43:44.753Z"},"associationRefsVerifiedInGdalOutput":false}},{"type":"Feature","geometry":{"type":"Point","coordinates":[3.9802767,51.4478483]},"properties":{"dolphinKind":"topmark","rawObjectClass":"TOPMAR","sourceProperties":{"RCID":1215960317,"PRIM":1,"GRUP":2,"OBJL":144,"RVER":1,"AGEN":7979,"FIDN":1215960317,"FIDS":1,"LNAM":"1F2B487A14FD0001","COLOUR":["3"],"TOPSHP":5,"SCAMIN":200000,"SORDAT":"20250114","SORIND":"NL,1R,Reprt,MD 026-2025","sourceCellId":"1R76K83I","sourceChecksum":"6017d727d00f509d6b6c381af5564bb81f246d4ac7032233c3477a65edfe6f96","rawObjectClass":"TOPMAR","sourceStableId":"1F2B487A14FD0001"},"sourceKind":"official","official":true,"sourceCellId":"1R76K83I","sourceStableId":"1F2B487A14FD0001","pipelineFeatureId":"1R76K83I/TOPMAR/1215960317","provenance":{"cellId":"1R76K83I","checksum":"6017d727d00f509d6b6c381af5564bb81f246d4ac7032233c3477a65edfe6f96","readerVersion":"GDAL 3.2.2","processedAt":"2026-08-11T13:43:44.753Z"},"associationRefsVerifiedInGdalOutput":false}},{"type":"Feature","geometry":{"type":"Point","coordinates":[3.9997683,51.44083]},"properties":{"dolphinKind":"topmark","rawObjectClass":"TOPMAR","sourceProperties":{"RCID":1215960318,"PRIM":1,"GRUP":2,"OBJL":144,"RVER":1,"AGEN":7979,"FIDN":1215960318,"FIDS":1,"LNAM":"1F2B487A14FE0001","COLOUR":["3"],"TOPSHP":5,"SCAMIN":200000,"SORDAT":"20250114","SORIND":"NL,1R,Reprt,MD 026-2025","sourceCellId":"1R76K83I","sourceChecksum":"6017d727d00f509d6b6c381af5564bb81f246d4ac7032233c3477a65edfe6f96","rawObjectClass":"TOPMAR","sourceStableId":"1F2B487A14FE0001"},"sourceKind":"official","official":true,"sourceCellId":"1R76K83I","sourceStableId":"1F2B487A14FE0001","pipelineFeatureId":"1R76K83I/TOPMAR/1215960318","provenance":{"cellId":"1R76K83I","checksum":"6017d727d00f509d6b6c381af5564bb81f246d4ac7032233c3477a65edfe6f96","readerVersion":"GDAL 3.2.2","processedAt":"2026-08-11T13:43:44.753Z"},"associationRefsVerifiedInGdalOutput":false}}]}