{"type":"FeatureCollection","features":[{"type":"Feature","geometry":{"type":"Point","coordinates":[3.2093333,51.651]},"properties":{"dolphinKind":"buoy-lateral","rawObjectClass":"BOYLAT","sourceProperties":{"RCID":225319754,"PRIM":1,"GRUP":2,"OBJL":17,"RVER":1,"AGEN":7979,"FIDN":225319754,"FIDS":1,"LNAM":"1F2B0D6E1B4A0001","LNAM_REFS":["1F2B0D6E1B4B0001"],"FFPT_RIND":[2],"BOYSHP":1,"CATLAM":2,"COLOUR":["4"],"OBJNAM":"WP 5","SCAMIN":200000,"SORDAT":"20170529","SORIND":"NL,1R,Reprt,Bass037-2017","sourceCellId":"1R7588RI","sourceChecksum":"56284c8d5633b4424ccabd2245c77803d94648b8c0f986f5573f5a963422cb50","rawObjectClass":"BOYLAT","sourceStableId":"1F2B0D6E1B4A0001"},"sourceKind":"official","official":true,"sourceCellId":"1R7588RI","sourceStableId":"1F2B0D6E1B4A0001","pipelineFeatureId":"1R7588RI/BOYLAT/225319754","provenance":{"cellId":"1R7588RI","checksum":"56284c8d5633b4424ccabd2245c77803d94648b8c0f986f5573f5a963422cb50","readerVersion":"GDAL 3.2.2","processedAt":"2026-08-11T13:43:44.753Z"}}},{"type":"Feature","geometry":{"type":"Point","coordinates":[3.1665,51.6376667]},"properties":{"dolphinKind":"buoy-lateral","rawObjectClass":"BOYLAT","sourceProperties":{"RCID":225319809,"PRIM":1,"GRUP":2,"OBJL":17,"RVER":1,"AGEN":7979,"FIDN":225319809,"FIDS":1,"LNAM":"1F2B0D6E1B810001","LNAM_REFS":["1F2B0D6E1B800001"],"FFPT_RIND":[2],"BOYSHP":2,"CATLAM":1,"COLOUR":["3"],"OBJNAM":"WP 6","SCAMIN":200000,"SORDAT":"20170529","SORIND":"NL,1R,Reprt,Bass037-2017","sourceCellId":"1R7588RI","sourceChecksum":"56284c8d5633b4424ccabd2245c77803d94648b8c0f986f5573f5a963422cb50","rawObjectClass":"BOYLAT","sourceStableId":"1F2B0D6E1B810001"},"sourceKind":"official","official":true,"sourceCellId":"1R7588RI","sourceStableId":"1F2B0D6E1B810001","pipelineFeatureId":"1R7588RI/BOYLAT/225319809","provenance":{"cellId":"1R7588RI","checksum":"56284c8d5633b4424ccabd2245c77803d94648b8c0f986f5573f5a963422cb50","readerVersion":"GDAL 3.2.2","processedAt":"2026-08-11T13:43:44.753Z"}}},{"type":"Feature","geometry":{"type":"Point","coordinates":[3.1441667,51.6733333]},"properties":{"dolphinKind":"buoy-lateral","rawObjectClass":"BOYLAT","sourceProperties":{"RCID":446712430,"PRIM":1,"GRUP":2,"OBJL":17,"RVER":1,"AGEN":7979,"FIDN":446712430,"FIDS":1,"LNAM":"1F2B1AA04A6E0001","LNAM_REFS":["1F2B1AA04A6F0001"],"FFPT_RIND":[2],"BOYSHP":1,"CATLAM":2,"COLOUR":["4"],"CONRAD":3,"OBJNAM":"WFB 3","SCAMIN":200000,"SORDAT":"20220204","SORIND":"NL,1R,Reprt,NMA","sourceCellId":"1R7588RI","sourceChecksum":"56284c8d5633b4424ccabd2245c77803d94648b8c0f986f5573f5a963422cb50","rawObjectClass":"BOYLAT","sourceStableId":"1F2B1AA04A6E0001"},"sourceKind":"official","official":true,"sourceCellId":"1R7588RI","sourceStableId":"1F2B1AA04A6E0001","pipelineFeatureId":"1R7588RI/BOYLAT/446712430","provenance":{"cellId":"1R7588RI","checksum":"56284c8d5633b4424ccabd2245c77803d94648b8c0f986f5573f5a963422cb50","readerVersion":"GDAL 3.2.2","processedAt":"2026-08-11T13:43:44.753Z"}}},{"type":"Feature","geometry":{"type":"Point","coordinates":[3.2121833,51.6509833]},"properties":{"dolphinKind":"buoy-special","rawObjectClass":"BOYSPP","sourceProperties":{"RCID":434474747,"PRIM":1,"GRUP":2,"OBJL":19,"RVER":1,"AGEN":7979,"FIDN":434474747,"FIDS":1,"LNAM":"1F2B19E58EFB0001","LNAM_REFS":["1F2B19E58EFC0001","1F2B19E58EFD0001"],"FFPT_RIND":[2,2],"BOYSHP":5,"CATSPM":["27"],"COLOUR":["6"],"MARSYS":1,"OBJNAM":"MT 5","SCAMIN":200000,"SORDAT":"20211007","SORIND":"NL,1R,Reprt,MD 562-21","sourceCellId":"1R7588RI","sourceChecksum":"56284c8d5633b4424ccabd2245c77803d94648b8c0f986f5573f5a963422cb50","rawObjectClass":"BOYSPP","sourceStableId":"1F2B19E58EFB0001"},"sourceKind":"official","official":true,"sourceCellId":"1R7588RI","sourceStableId":"1F2B19E58EFB0001","pipelineFeatureId":"1R7588RI/BOYSPP/434474747","provenance":{"cellId":"1R7588RI","checksum":"56284c8d5633b4424ccabd2245c77803d94648b8c0f986f5573f5a963422cb50","readerVersion":"GDAL 3.2.2","processedAt":"2026-08-11T13:43:44.753Z"}}},{"type":"Feature","geometry":{"type":"Point","coordinates":[3.2093333,51.651]},"properties":{"dolphinKind":"light","rawObjectClass":"LIGHTS","sourceProperties":{"RCID":225319755,"PRIM":1,"GRUP":2,"OBJL":75,"RVER":1,"AGEN":7979,"FIDN":225319755,"FIDS":1,"LNAM":"1F2B0D6E1B4B0001","COLOUR":["4"],"LITCHR":7,"SIGGRP":"(1)","SIGPER":4,"SCAMIN":200000,"SORDAT":"20170529","SORIND":"NL,1R,Reprt,Bass037-2017","sourceCellId":"1R7588RI","sourceChecksum":"56284c8d5633b4424ccabd2245c77803d94648b8c0f986f5573f5a963422cb50","rawObjectClass":"LIGHTS","sourceStableId":"1F2B0D6E1B4B0001"},"sourceKind":"official","official":true,"sourceCellId":"1R7588RI","sourceStableId":"1F2B0D6E1B4B0001","pipelineFeatureId":"1R7588RI/LIGHTS/225319755","provenance":{"cellId":"1R7588RI","checksum":"56284c8d5633b4424ccabd2245c77803d94648b8c0f986f5573f5a963422cb50","readerVersion":"GDAL 3.2.2","processedAt":"2026-08-11T13:43:44.753Z"}}},{"type":"Feature","geometry":{"type":"Point","coordinates":[3.1665,51.6376667]},"properties":{"dolphinKind":"light","rawObjectClass":"LIGHTS","sourceProperties":{"RCID":225319808,"PRIM":1,"GRUP":2,"OBJL":75,"RVER":1,"AGEN":7979,"FIDN":225319808,"FIDS":1,"LNAM":"1F2B0D6E1B800001","COLOUR":["3"],"LITCHR":7,"SIGGRP":"(1)","SIGPER":4,"SCAMIN":200000,"SORDAT":"20170529","SORIND":"NL,1R,Reprt,Bass037-2017","sourceCellId":"1R7588RI","sourceChecksum":"56284c8d5633b4424ccabd2245c77803d94648b8c0f986f5573f5a963422cb50","rawObjectClass":"LIGHTS","sourceStableId":"1F2B0D6E1B800001"},"sourceKind":"official","official":true,"sourceCellId":"1R7588RI","sourceStableId":"1F2B0D6E1B800001","pipelineFeatureId":"1R7588RI/LIGHTS/225319808","provenance":{"cellId":"1R7588RI","checksum":"56284c8d5633b4424ccabd2245c77803d94648b8c0f986f5573f5a963422cb50","readerVersion":"GDAL 3.2.2","processedAt":"2026-08-11T13:43:44.753Z"}}},{"type":"Feature","geometry":{"type":"Point","coordinates":[3.2121833,51.6509833]},"properties":{"dolphinKind":"light","rawObjectClass":"LIGHTS","sourceProperties":{"RCID":434474748,"PRIM":1,"GRUP":2,"OBJL":75,"RVER":1,"AGEN":7979,"FIDN":434474748,"FIDS":1,"LNAM":"1F2B19E58EFC0001","COLOUR":["6"],"LITCHR":2,"SIGGRP":"(5)","SIGPER":20,"SCAMIN":200000,"SORDAT":"20211007","SORIND":"NL,1R,Reprt,MD 562-21","sourceCellId":"1R7588RI","sourceChecksum":"56284c8d5633b4424ccabd2245c77803d94648b8c0f986f5573f5a963422cb50","rawObjectClass":"LIGHTS","sourceStableId":"1F2B19E58EFC0001"},"sourceKind":"official","official":true,"sourceCellId":"1R7588RI","sourceStableId":"1F2B19E58EFC0001","pipelineFeatureId":"1R7588RI/LIGHTS/434474748","provenance":{"cellId":"1R7588RI","checksum":"56284c8d5633b4424ccabd2245c77803d94648b8c0f986f5573f5a963422cb50","readerVersion":"GDAL 3.2.2","processedAt":"2026-08-11T13:43:44.753Z"}}},{"type":"Feature","geometry":{"type":"Point","coordinates":[3.1441667,51.6733333]},"properties":{"dolphinKind":"light","rawObjectClass":"LIGHTS","sourceProperties":{"RCID":446712431,"PRIM":1,"GRUP":2,"OBJL":75,"RVER":1,"AGEN":7979,"FIDN":446712431,"FIDS":1,"LNAM":"1F2B1AA04A6F0001","COLOUR":["4"],"LITCHR":7,"SIGGRP":"(1)","SIGPER":4,"SCAMIN":200000,"SORDAT":"20220513","SORIND":"NL,1R,Reprt, melding Kaartfout","sourceCellId":"1R7588RI","sourceChecksum":"56284c8d5633b4424ccabd2245c77803d94648b8c0f986f5573f5a963422cb50","rawObjectClass":"LIGHTS","sourceStableId":"1F2B1AA04A6F0001"},"sourceKind":"official","official":true,"sourceCellId":"1R7588RI","sourceStableId":"1F2B1AA04A6F0001","pipelineFeatureId":"1R7588RI/LIGHTS/446712431","provenance":{"cellId":"1R7588RI","checksum":"56284c8d5633b4424ccabd2245c77803d94648b8c0f986f5573f5a963422cb50","readerVersion":"GDAL 3.2.2","processedAt":"2026-08-11T13:43:44.753Z"}}},{"type":"Feature","geometry":{"type":"Point","coordinates":[3.2121833,51.6509833]},"properties":{"dolphinKind":"topmark","rawObjectClass":"TOPMAR","sourceProperties":{"RCID":434474749,"PRIM":1,"GRUP":2,"OBJL":144,"RVER":1,"AGEN":7979,"FIDN":434474749,"FIDS":1,"LNAM":"1F2B19E58EFD0001","COLOUR":["6"],"TOPSHP":7,"SCAMIN":200000,"SORDAT":"20211007","SORIND":"NL,1R,Reprt,MD 562-21","sourceCellId":"1R7588RI","sourceChecksum":"56284c8d5633b4424ccabd2245c77803d94648b8c0f986f5573f5a963422cb50","rawObjectClass":"TOPMAR","sourceStableId":"1F2B19E58EFD0001"},"sourceKind":"official","official":true,"sourceCellId":"1R7588RI","sourceStableId":"1F2B19E58EFD0001","pipelineFeatureId":"1R7588RI/TOPMAR/434474749","provenance":{"cellId":"1R7588RI","checksum":"56284c8d5633b4424ccabd2245c77803d94648b8c0f986f5573f5a963422cb50","readerVersion":"GDAL 3.2.2","processedAt":"2026-08-11T13:43:44.753Z"},"associationRefsVerifiedInGdalOutput":false}}]}